 2017  317 1007 14.1 L  72.231 125.978  6.5  SLT  7 0.2 0.6LSLT 0.9CSLT        1
 GAP=117        0.59       1.3     3.8  3.5  0.1446E+01 -0.3645E+00 -0.1345E+01E
 ACTION:ARG 20-12-21 03:09 OP:mn   STATUS:               ID:20170317100556     I
 2017-03-17-1005-56M.a_____039                                                 6
 STAT SP IPHASW D HRMM SECON CODA AMPLIT PERI AZIMU VELO AIN AR TRES W  DIS CAZ7
 625  0Z IP   0 C 10 7 15.52   28                        127   -0.2010 7.71 145 
 625  0E ES   0   10 7 17.05                             127    0.1310 7.71 145 
 625  0Z  IAML    10 7 17.31        20.4 0.18                          7.71 145 
 623  0Z IP   1 D 10 7 16.27   23                        112   -0.38 7 12.9 325 
 623  0E ES   0   10 7 18.51                             112   -0.0110 12.9 325 
 623  0Z  IAML    10 7 19.03        21.6 0.25                          12.9 325 
 624  0Z IP   0 C 10 7 19.09   37                         96   -0.1610 29.1  20 
 624  0E ES   0   10 7 23.21                              96    0.1910 29.1  20 
 624  0Z  IAML    10 7 23.77         9.2 0.17                          29.1  20 
 622  0Z IP   0 D 10 7 19.65   28                         95   -0.1610 32.6 317 
 622  0E ES   1   10 7 24.34                              95    0.35 7 32.6 317 
 622  0Z  IAML    10 7 28.80         4.3 0.60                          32.6 317 
 621  0Z IP   0 C 10 7 20.43   28                         94   -0.1110 37.5 263 
 621  0N ES   1   10 7 25.73                              94    0.47 7 37.5 263 
 621  0Z  IAML    10 7 27.08         9.0 0.28                          37.5 263 
 628  0Z IP   1 D 10 7 21.20   28                         93   -0.27 7 43.9  64 
 628  0N ES   1   10 7 27.17                              93    0.30 7 43.9  64 
 628  0Z  IAML    10 7 28.42         8.2 0.15                          43.9  64 
 629  0Z IP   0 D 10 7 23.73   40                         92   -0.1410 56.9 126 
 629  0E ES   1   10 7 31.37                              92    0.34 7 56.9 126 
 629  0Z  IAML    10 7 32.24         3.3 0.27                          56.9 126 
                                                                                
 2017  320 1900 34.4 L  72.421 126.110 17.7  SLT  7 0.0 0.6LSLT 0.6CSLT        1
 GAP=127        0.24       0.7     1.6  1.2 -0.1825E+00 -0.1808E-01  0.3555E+00E
 ACTION:ARG 20-12-21 03:09 OP:mn   STATUS:               ID:20170320190000     I
 2017-03-20-1900-00M.a_____039                                                 6
 STAT SP IPHASW D HRMM SECON CODA AMPLIT PERI AZIMU VELO AIN AR TRES W  DIS CAZ7
 624  0Z IP   0 D 19 0 37.68   22                        153    0.0110 8.23  42 
 624  0E ES   0   19 0 40.10                             153    0.0510 8.23  42 
 624  0Z  IAML    19 0 40.49        27.4 0.14                          8.23  42 
 623  0Z IP   0 C 19 0 38.40   17                        135   -0.0410 15.9 228 
 623  0N ES   0   19 0 41.37                             135   -0.0110 15.9 228 
 623  0Z  IAML    19 0 41.66        25.9 0.19                          15.9 228 
 622  0Z IP   0 C 19 0 39.71   25                        118   -0.0710 27.0 275 
 622  0N ES   0   19 0 43.71                             118    0.0210 27.0 275 
 622  0Z  IAML    19 0 44.04         5.4 0.12                          27.0 275 
 625  0Z IP   0 D 19 0 39.68   20                        118   -0.1010 27.6 180 
 625  0N ES   0   19 0 43.66                             118   -0.0310 27.6 180 
 625  0Z  IAML    19 0 44.10         2.9 0.17                          27.6 180 
 628  0Z IP   0 D 19 0 40.69   25                        111   -0.0210 35.1  93 
 628  0N ES   0   19 0 45.33                             111    0.0210 35.1  93 
 628  0Z  IAML    19 0 46.85         8.3 0.26                          35.1  93 
 621  0Z IP   0 D 19 0 43.02   27                        102    0.0210 49.2 238 
 621  0N ES   0   19 0 49.31                             102    0.0510 49.2 238 
 621  0Z  IAML    19 0 49.89         2.7 0.30                          49.2 238 
 626  0Z IP   0 C 19 0 44.66   24                         98    0.0710 59.6 182 
 626  0N ES   0   19 0 52.05                              98    0.0410 59.6 182 
 626  0Z  IAML    19 0 52.41         4.2 0.32                          59.6 182 
                                                                                
 2017  326 0836 34.1 L  71.990 127.690 16.6  SLT  7 0.1 1.7LSLT 0.9CSLT        1
 GAP=126        0.42       1.2     2.4  2.2  0.6581E+00  0.4063E+00  0.7479E+00E
 ACTION:ARG 20-12-21 03:09 OP:mn   STATUS:               ID:20170326083527     I
 2017-03-26-0835-27M.a_____039                                                 6
 STAT SP IPHASW D HRMM SECON CODA AMPLIT PERI AZIMU VELO AIN AR TRES W  DIS CAZ7
 629  0Z IP   0 C  836 37.77   15                        135   -0.0210 14.7 243 
 629  0N ES   0    836 40.52                             135    0.0310 14.7 243 
 629  0Z  IAML     836 40.82       360.6 0.20                          14.7 243 
 630  0Z IP   0 D  836 38.91   22                        120    0.0310 23.8  66 
 630  0E ES   0    836 42.54                             120    0.1610 23.8  66 
 630  0Z  IAML     836 43.12       190.9 0.17                          23.8  66 
 627  0Z IP   0 C  836 39.40   35                        115   -0.1410 28.2 301 
 627  0N ES   0    836 43.30                             115   -0.2110 28.2 301 
 627  0Z  IAML     836 43.48        88.3 0.34                          28.2 301 
 625  0Z IP   0 D  836 44.17   34                         96    0.1210 58.1 291 
 625  0E ES   0    836 51.55                              96    0.2410 58.1 291 
 625  0Z  IAML     836 51.71        10.9 0.18                          58.1 291 
 626  0Z IP   0 D  836 43.96   29                         96   -0.0910 58.4 260 
 626  0N ES   0    836 51.25                              96   -0.0710 58.4 260 
 626  0Z  IAML     836 51.63        35.8 0.21                          58.4 260 
 632  0Z IP   0 D  836 45.56   41                         94   -0.18 9 66.9 133 
 632  0E ES   0    836 54.09                              94   -0.15 9 66.9 133 
 632  0Z  IAML     836 55.46        17.7 0.12                          66.9 133 
 631  0Z IP   0 D  836 45.76   37                         94    0.13 9 67.7 193 
 631  0E ES   1    836 54.35                              94    0.30 7 67.7 193 
 631  0Z  IAML     836 54.70        21.7 0.11                          67.7 193 
                                                                                
 2017  4 2 0422  1.0 L  72.742 125.680 20.2  SLT 10 0.2 1.3LSLT 1.6CSLT        1
 GAP=229        0.32       1.3     2.4  1.3  0.8218E+00 -0.3564E+00  0.1121E-01E
 ACTION:UP  20-12-20 22:46 OP:elen STATUS:               ID:20170402042039     I
 OLDACT:UP  20-12-20 00:44 OP:elen STATUS:               ID:20170402042039     3
 OLDACT:UP  20-12-16 20:09 OP:elen STATUS:               ID:20170402042039     3
 OLDACT:UP  20-12-16 14:06 OP:elen STATUS:               ID:20170402042039     3
 OLDACT:REG 20-12-12 10:59 OP:elen STATUS:               ID:20170402042039     3
 2017-04-02-0420-39M.NSN___039                                                 6
 STAT SP IPHASW D HRMM SECON CODA AMPLIT PERI AZIMU VELO AIN AR TRES W  DIS CAZ7
 622  0Z IP   0    422  7.79   47                        114    0.0110 35.7 200 
 624  0Z IP   0    422  7.79   50                        114   -0.0210 35.7 146 
 624  0N ES   0    422 12.83                             114    0.0810 35.7 146 
 624  0N  IAML     422 13.96        16.4 0.13                          35.7 146 
 622  0N ES   0    422 12.79                             114    0.0910 35.7 200 
 622  0N  IAML     422 13.69        13.8 0.15                          35.7 200 
 620  0Z IP   0    422  9.30   52                        108    0.0210 45.4 258 
 620  0N ES   0    422 15.36                             108    0.0710 45.4 258 
 620  0N  IAML     422 15.71        31.6 0.15                          45.4 258 
 623  0Z IP   0    422  9.41   48                        107   -0.0510 46.5 177 
 623  0N ES   0    422 15.58                             107   -0.0210 46.5 177 
 623  0E  IAML     422 17.17         7.4 0.15                          46.5 177 
 628  0Z IP   0    422 11.53   56                        101   -0.0210 62.2 127 
 628  0N ES   0    422 19.37                             101    0.1410 62.2 127 
 628  0N  IAML     422 19.92        27.0 0.25                          62.2 127 
 621  0Z IP   0    422 12.50   48                         75   -0.06 9 67.7 204 
 621  0N ES   0    422 20.98                              75    0.01 9 67.7 204 
 621  0E  IAML     422 21.82         5.2 0.18                          67.7 204 
 626  0Z IP   0    422 16.65   47                         75   -0.21 8 96.1 173 
 626  0N ES   1    422 28.16                              75   -0.25 6 96.1 173 
 626  0E  IAML     422 28.49         3.2 0.21                          96.1 173 
 630  0Z IP   1    422 19.71   62                         68   -0.25 6  116 129 
 630  0N ES   1    422 33.47                              68   -0.30 6  116 129 
 630  0E  IAML     422 34.42         8.4 0.10                           116 129 
 631  0Z IP   0    422 26.15   76                         59    0.06 6  159 159 
 631  0N ES   1    422 44.66                              59    0.29 4  159 159 
 631  0E  IAML     422 45.70         6.6 0.23                           159 159 
 632  0Z IP   1    422 28.64   56                         59    0.27 4  174 137 
 632  0N ES   2    422 49.00                              59    0.67 3  174 137 
 632  0E  IAML     422 50.12         7.9 0.31                           174 137 
                                                                                
 2017  4 5 0307 36.1 L  71.679 128.976 12.7  SLT 11 0.2 1.1LSLT 1.6CSLT        1
 GAP=191        0.43       1.2     5.6  2.4  0.3443E-01  0.7464E+01 -0.1409E+01E
 ACTION:UP  20-12-21 00:10 OP:elen STATUS:               ID:20170405030618     I
 OLDACT:UP  20-12-20 01:44 OP:elen STATUS:               ID:20170405030618     3
 OLDACT:UP  20-12-16 21:32 OP:elen STATUS:               ID:20170405030618     3
 OLDACT:REG 20-12-13 13:11 OP:elen STATUS:               ID:20170405030618     3
 2017-04-05-0306-18M.NSN___039                                                 6
 STAT SP IPHASW D HRMM SECON CODA AMPLIT PERI AZIMU VELO AIN AR TRES W  DIS CAZ7
 632  0Z IP   0    3 7 39.22   48                        134   -0.0510 12.2 164 
 632  0N ES   1    3 7 42.07                             134    0.47 7 12.2 164 
 632  0N  IAML     3 7 42.69        27.1 0.05                          12.2 164 
 630  0Z IP   0    3 7 44.47   65                         97   -0.1810 49.6 333 
 630  0N ES   0    3 7 50.96                              97    0.0510 49.6 333 
 630  0E  IAML     3 7 51.40         6.5 0.12                          49.6 333 
 629  0Z IP   0    3 7 46.88   48                         95   -0.21 9 64.3 296 
 629  0N ES   0    3 7 55.19                              95    0.06 9 64.3 296 
 629  0E  IAML     3 7 56.96         2.5 0.13                          64.3 296 
 631  0Z IP   1    3 7 47.53   58                         94   -0.25 7 68.6 244 
 631  0N ES   0    3 7 56.26                              94   -0.05 9 68.6 244 
 631  0N  IAML     3 7 56.72         6.8 0.14                          68.6 244 
 627  0Z IP   0    3 7 50.25   43                         76   -0.12 9 84.7 306 
 627  0N ES   0    3 8  1.00                              76    0.20 9 84.7 306 
 627  0E  IAML     3 8  1.36         3.5 0.22                          84.7 306 
 628  0Z IP   1    3 7 52.64   55                         76   -0.28 6  102 323 
 628  0N ES   0    3 8  5.23                              76    0.02 8  102 323 
 628  0E  IAML     3 8  7.84         6.4 0.21                           102 323 
 626  0Z IP   0    3 7 53.31   55                         76   -0.20 8  105 284 
 626  0N ES   0    3 8  6.21                              76   -0.03 8  105 284 
 626  0E  IAML     3 8  9.71         7.5 0.24                           105 284 
 624  0Z IP   0    3 7 57.38   55                         70    0.06 7  129 315 
 624  0N ES   1    3 8 13.29                              70    0.46 5  129 315 
 624  0N  IAML     3 8 15.76         6.6 0.19                           129 315 
 623  0Z IP   0    3 7 57.86   54                         64   -0.08 7  132 305 
 623  0N ES   0    3 8 14.04                              64    0.14 7  132 305 
 623  0E  IAML     3 8 17.30         2.9 0.24                           132 305 
 621  0Z IP   0    3 8  0.75   54                         59    0.12 6  152 294 
 621  0N ES   2    3 8 19.13                              59    0.57 3  152 294 
 621  0E  IAML     3 8 21.93         2.3 0.14                           152 294 
 622  0Z IP   0    3 8  0.73   57                         59    0.05 6  152 306 
 622  0N ES   1    3 8 19.09                              59    0.45 4  152 306 
 622  0N  IAML     3 8 21.09         5.1 0.20                           152 306 
                                                                                
 2017  4 5 0307 36.1 L  71.677 128.977 12.9  SLT 10 0.3 1.2LSLT 1.8CSLT        1
 GAP=201        0.46       2.0     6.2  3.3  0.1577E+00  0.8823E+01 -0.4723E+01E
 ACTION:UP  20-12-21 00:33 OP:elen STATUS:               ID:20170405030650     I
 OLDACT:UP  20-12-20 02:02 OP:elen STATUS:               ID:20170405030650     3
 OLDACT:UP  20-12-16 23:26 OP:elen STATUS:               ID:20170405030650     3
 OLDACT:REG 20-12-13 13:16 OP:elen STATUS:               ID:20170405030650     3
 2017-04-05-0306-50M.NSN___039                                                 6
 STAT SP IPHASW D HRMM SECON CODA AMPLIT PERI AZIMU VELO AIN AR TRES W  DIS CAZ7
 632  0Z IP   0    3 7 39.21   74                        135   -0.0810 12.0 164 
 632  0N ES   1    3 7 42.08                             135    0.47 7 12.0 164 
 632  0N  IAML     3 7 42.69        26.9 0.04                          12.0 164 
 629  0Z IP   1    3 7 46.83   63                         95   -0.30 7 64.5 297 
 629  0N ES   0    3 7 55.19                              95    0.01 9 64.5 297 
 629  0E  IAML     3 7 56.96         2.5 0.14                          64.5 297 
 631  0Z IP   1    3 7 47.53   78                         94   -0.26 7 68.6 244 
 631  0N ES   0    3 7 56.25                              94   -0.07 9 68.6 244 
 631  0N  IAML     3 7 56.72         6.9 0.15                          68.6 244 
 627  0Z IP   0    3 7 50.24   59                         76   -0.16 9 84.8 306 
 627  0N ES   0    3 8  1.01                              76    0.17 9 84.8 306 
 627  0E  IAML     3 8  1.36         3.5 0.22                          84.8 306 
 628  0Z IP   1    3 7 52.64   64                         76   -0.32 6  102 323 
 628  0N ES   0    3 8  5.21                              76   -0.05 8  102 323 
 628  0E  IAML     3 8  7.84         6.3 0.23                           102 323 
 626  0Z IP   1    3 7 53.30   55                         76   -0.24 6  105 284 
 626  0N ES   0    3 8  6.38                              76    0.11 8  105 284 
 626  0E  IAML     3 8  9.71         7.4 0.23                           105 284 
 624  0Z IP   0    3 7 57.28   56                         70   -0.08 7  129 315 
 624  0N ES   1    3 8 13.30                              70    0.43 5  129 315 
 624  0N  IAML     3 8 15.76         6.6 0.21                           129 315 
 623  0Z IP   0    3 7 58.00   61                         64    0.03 7  132 305 
 623  0N ES   2    3 8 14.60                              64    0.67 3  132 305 
 623  0E  IAML     3 8 17.30         3.0 0.25                           132 305 
 622  0Z IP   0    3 8  0.73   76                         59    0.02 6  152 306 
 622  0N ES   2    3 8 19.30                              59    0.63 3  152 306 
 622  0N  IAML     3 8 21.09         5.1 0.19                           152 306 
 621  0Z IP   0    3 8  0.61   76                         59   -0.05 6  152 294 
 621  0N ES   1    3 8 19.05                              59    0.47 4  152 294 
 621  0E  IAML     3 8 21.93         2.4 0.14                           152 294 
                                                                                
 2017  4 6 1728  1.1 L  72.740 125.678 19.8  SLT 10 0.2 1.1LSLT 1.7CSLT        1
 GAP=229        0.31       1.2     2.4  1.4  0.8315E+00 -0.1054E+01 -0.2207E+00E
 ACTION:UP  20-12-21 12:27 OP:elen STATUS:               ID:20170406172639     I
 OLDACT:UP  20-12-20 10:56 OP:elen STATUS:               ID:20170406172639     3
 OLDACT:UP  20-12-17 22:23 OP:elen STATUS:               ID:20170406172639     3
 OLDACT:REG 20-12-15 19:37 OP:elen STATUS:               ID:20170406172639     3
 2017-04-06-1726-39M.NSN___039                                                 6
 STAT SP IPHASW D HRMM SECON CODA AMPLIT PERI AZIMU VELO AIN AR TRES W  DIS CAZ7
 622  0Z IP   0   1728  7.84   49                        114    0.0610 35.5 200 
 622  0N ES   0   1728 12.73                             114    0.0510 35.5 200 
 622  0E  IAML    1728 14.00        10.3 0.41                          35.5 200 
 624  0Z IP   0   1728  7.81   52                        114   -0.0110 35.6 146 
 624  0N ES   0   1728 12.77                             114    0.0210 35.6 146 
 624  0N  IAML    1728 13.91         6.5 0.11                          35.6 146 
 620  0Z IP   0   1728  9.28   53                        108   -0.0110 45.2 258 
 620  0N ES   0   1728 15.28                             108   -0.0210 45.2 258 
 620  0E  IAML    1728 15.49        25.5 0.18                          45.2 258 
 623  0Z IP   0   1728  9.42   62                        107   -0.0410 46.3 177 
 623  0N ES   0   1728 15.48                             107   -0.1010 46.3 177 
 623  0E  IAML    1728 17.38         3.3 0.15                          46.3 177 
 628  0Z IP   0   1728 11.58   47                        101    0.0110 62.1 127 
 628  0N ES   0   1728 19.31                             101    0.0710 62.1 127 
 628  0N  IAML    1728 19.87        12.7 0.25                          62.1 127 
 621  0Z IP   0   1728 12.54   57                         99   -0.02 9 67.5 204 
 621  0N ES   0   1728 21.02                              99    0.08 9 67.5 204 
 621  0E  IAML    1728 21.75         2.5 0.16                          67.5 204 
 626  0Z IP   0   1728 16.77   51                         75   -0.10 8 95.9 173 
 626  0E ES   0   1728 28.24                              75   -0.16 8 95.9 173 
 626  0N  IAML    1728 29.14         1.6 0.15                          95.9 173 
 630  0Z IP   1   1728 19.73   74                         68   -0.25 6  116 128 
 630  0N ES   1   1728 33.53                              68   -0.26 6  116 128 
 630  0E  IAML    1728 34.32         3.9 0.15                           116 128 
 631  0Z IP   0   1728 26.31   93                         59    0.21 6  159 159 
 631  0N ES   1   1728 44.89                              59    0.52 4  159 159 
 631  0E  IAML    1728 46.34         3.2 0.16                           159 159 
 632  0Z IP   0   1728 28.58   90                         59    0.19 5  174 137 
 632  0N ES   2   1728 48.98                              59    0.64 3  174 137 
 632  0E  IAML    1728 50.06         4.5 0.31                           174 137 
                                                                                
