 2016  822 1318 49.4 L  72.373 127.085 18.7  SLT  8 0.1 0.7LSLT 1.2CSLT        1
 GAP=101        0.38       1.2     2.8  1.8  0.1512E+01  0.1831E+01  0.1027E+01E
 ACTION:UP  21-01-08 22:12 OP:elen STATUS:               ID:20160822131743     I
 OLDACT:REG 21-01-08 15:24 OP:elen STATUS:               ID:20160822131743     3
 2016-08-22-1317-43M.arct__039                                                 6
 STAT SP IPHASW D HRMM SECON CODA AMPLIT PERI AZIMU VELO AIN AR TRES W  DIS CAZ7
 628  0Z IP   0   1318 52.33   40                        168    0.0510 3.70  34 
 628  0N ES   0   1318 54.47                             168    0.0610 3.70  34 
 628  0N  IAML    1318 54.58        79.2 0.14                          3.70  34 
 627  0Z IP   0   1318 54.86   31                        118   -0.1710 28.7 187 
 627  0E ES   1   1318 58.85                             118   -0.31 7 28.7 187 
 627  0E  IAML    1318 59.21        13.9 0.14                          28.7 187 
 624  0Z IP   0   1318 55.20   43                        117    0.0010 29.7 293 
 624  0N ES   0   1318 59.45                             117   -0.0010 29.7 293 
 624  0N  IAML    1319  0.17         9.4 0.19                          29.7 293 
 625  0Z IP   0   1318 56.77   43                        109    0.1910 40.0 237 
 625  0N ES   1   1319  2.17                             109    0.32 7 40.0 237 
 625  0E  IAML    1319  5.64         3.4 0.36                          40.0 237 
 623  0Z IP   0   1318 57.42   36                        106   -0.1110 45.2 264 
 623  0E ES   0   1319  3.30                             106   -0.1810 45.2 264 
 623  0E  IAML    1319  3.64         2.5 0.18                          45.2 264 
 630  0Z IP   0   1318 58.72   48                        102    0.0110 53.7 128 
 630  0E ES   0   1319  5.54                             102    0.0110 53.7 128 
 630  0E  IAML    1319  6.59         4.5 0.17                          53.7 128 
 622  0Z IP   0   1318 59.79   39                        100   -0.0010 60.3 278 
 622  0N ES   0   1319  7.38                             100   -0.0210 60.3 278 
 622  0N  IAML    1319  8.26         2.5 0.11                          60.3 278 
 626  0Z IP   0   1319  0.46   48                         98    0.07 9 64.9 214 
 626  0N ES   0   1319  8.56                              98    0.12 9 64.9 214 
 626  0N  IAML    1319 10.91         1.7 0.06                          64.9 214 
                                                                                
 2016 10 5 1619 46.7 L  72.899 124.981 16.7  SLT  9 0.2 1.2LSLT 0.5CSLT        1
 GAP=269        0.40       2.3     4.8  3.1  0.1169E+01 -0.9498E+01 -0.1562E+01E
 ACTION:ARG 20-04-11 14:12 OP:mn   STATUS:               ID:20161005161823     I
 2016-10-05-1618-23M.SIOLA_039                                                 6
 STAT SP IPHASW D HRMM SECON CODA AMPLIT PERI AZIMU VELO AIN AR TRES W  DIS CAZ7
 620  0Z IP   0 C 1619 53.22   14                        109    0.0910 34.4 218 
 620  0E ES   0   1619 57.77                             109   -0.0710 34.4 218 
 620  0Z  IAML    1619 58.27        10.0 0.26                          34.4 218 
 622  0Z IP   0 C 1619 55.67   24                         98   -0.1210 52.1 168 
 622  0N ES   1   1620  2.15                              98   -0.28 7 52.1 168 
 622  0Z  IAML    1620  2.41        12.4 0.26                          52.1 168 
 624  0Z IP   0 C 1619 57.78   12                         95    0.14 9 63.8 137 
 624  0E ES   0   1620  5.66                              95    0.02 9 63.8 137 
 624  0Z  IAML    1620  6.07        13.9 0.20                          63.8 137 
 623  0Z IP   0 D 1619 58.49   14                         94   -0.02 9 69.0 157 
 623  0E ES   0   1620  7.08                              94   -0.06 9 69.0 157 
 623  0Z  IAML    1620  8.02         7.1 0.21                          69.0 157 
 621  0Z IP   0 D 1620  0.03   18                         93   -0.02 9 79.8 182 
 621  0N ES   1   1620 10.27                              93    0.46 7 79.8 182 
 621  0Z  IAML    1620 10.74         9.1 0.26                          79.8 182 
 628  0Z IP   0 D 1620  1.57   24                         92   -0.12 8 91.1 127 
 628  0E ES   0   1620 12.86                              92    0.21 8 91.1 127 
 628  0Z  IAML    1620 13.38         4.9 0.14                          91.1 127 
 627  0Z IP   0 D 1620  4.99   37                         75    0.12 8  110 141 
 627  0E ES   1   1620 17.78                              75   -0.37 6  110 141 
 627  0Z  IAML    1620 18.01         3.3 0.70                           110 141 
 629  0Z IP   0 D 1620  8.38   25                         68   -0.04 7  134 143 
 629  0E ES   0   1620 24.46                              68    0.18 7  134 143 
 629  0Z  IAML    1620 25.99         5.6 0.17                           134 143 
 630  0Z IP   1 D 1620  9.67   29                         62   -0.28 5  145 128 
 630  0E ES   0   1620 26.89                              62   -0.04 6  145 128 
 630  0Z  IAML    1620 27.89         4.1 0.22                           145 128 
                                                                                
 2016 10 9 0036 44.7 L  72.884 124.958 15.8  SLT  8 0.2 1.5LSLT 1.3CSLT        1
 GAP=267        0.37       2.2     5.4  3.7  0.1411E+01 -0.1380E+02 -0.2354E+01E
 ACTION:ARG 20-04-11 14:12 OP:mn   STATUS:               ID:20161009003553     I
 2016-10-09-0035-53M.SIOLA_039                                                 6
 STAT SP IPHASW D HRMM SECON CODA AMPLIT PERI AZIMU VELO AIN AR TRES W  DIS CAZ7
 620  0Z IP   0 C  036 50.84   52                        108    0.0510 32.7 218 
 620  0N ES   0    036 55.36                             108    0.0910 32.7 218 
 620  0Z  IAML     036 56.58        17.0 0.10                          32.7 218 
 622  0Z IP   0 D  036 53.46   45                         96   -0.0610 50.7 166 
 622  0N ES   1    036 59.76                              96   -0.23 7 50.7 166 
 622  0Z  IAML     037  0.06        25.9 0.26                          50.7 166 
 623  0Z IP   0 C  036 56.30   31                         92    0.02 9 67.8 156 
 623  0N ES   0    037  4.89                              92    0.13 9 67.8 156 
 623  0Z  IAML     037  5.81         6.2 0.16                          67.8 156 
 621  0Z IP   0 C  036 57.58   30                         92   -0.17 9 78.1 182 
 621  0N ES   0    037  7.24                              92   -0.08 9 78.1 182 
 621  0Z  IAML     037  8.38        14.7 0.25                          78.1 182 
 628  0Z IP   0 C  036 59.56   41                         91   -0.04 8 90.7 125 
 628  0E ES   0    037 10.72                              91    0.20 8 90.7 125 
 628  0Z  IAML     037 11.62        12.3 0.18                          90.7 125 
 629  0Z IP   0 C  037  6.49   34                         68    0.17 7  133 142 
 629  0N ES   3    037 23.04                              68    0.91 2  133 142 
 629  0Z  IAML     037 23.64         7.5 0.18                           133 142 
 630  0Z IP   2 C  037  7.39   41                         62   -0.54 3  145 127 
 630  0E ES   1    037 24.67                              62   -0.25 5  145 127 
 630  0Z  IAML     037 26.44         5.9 0.13                           145 127 
 632  0Z IP   0 C  037 15.92   58                         56   -0.14 4  203 134 
 632  0E ES   2    037 39.74                              56    0.76 2  203 134 
 632  0Z  IAML     037 40.61         5.6 0.22                           203 134 
                                                                                
 2017  3 2 1359 59.2 L  72.684 124.913  6.1  SLT  7 0.2 0.6LSLT 0.6CSLT        1
 GAP=212        0.41       1.7     3.0  3.9  0.9271E+00 -0.3656E+01  0.2195E+01E
 ACTION:ARG 20-12-21 03:09 OP:mn   STATUS:               ID:20170302140000     I
 2017-03-02-1400-00M.a_____039                                                 6
 STAT SP IPHASW D HRMM SECON CODA AMPLIT PERI AZIMU VELO AIN AR TRES W  DIS CAZ7
 620  0Z IP   0 C 14 0  2.62   12                        100   -0.1310 19.1 260 
 620  0N ES   0   14 0  5.48                             100    0.1410 19.1 260 
 620  0Z  IAML    14 0  6.17        11.7 0.22                          19.1 260 
 623  0Z IP   0 C 14 0  7.90   23                         92    0.1510 49.0 144 
 623  0E ES   0   14 0 13.91                              92   -0.0810 49.0 144 
 623  0Z  IAML    14 0 16.05         2.6 0.31                          49.0 144 
 624  0Z IP   0 C 14 0  7.90   21                         92   -0.1510 51.1 116 
 624  0N ES   0   14 0 14.45                              92   -0.0610 51.1 116 
 624  0Z  IAML    14 0 14.90         4.1 0.20                          51.1 116 
 621  0Z IP   0 D 14 0  8.53   18                         92   -0.1910 55.8 181 
 621  0E ES   0   14 0 15.65                              92   -0.0310 55.8 181 
 621  0Z  IAML    14 0 15.67         1.7 0.16                          55.8 181 
 628  0Z IP   0 C 14 0 12.90   19                         91    0.04 9 81.2 112 
 628  0Z  IAML    14 0 22.84         2.9 0.36                          81.2 112 
 628  0N ES   1   14 0 23.10                              91    0.28 7 81.2 112 
 626  0Z IP   0 D 14 0 15.66   34                         76    0.19 8 96.6 156 
 626  0N ES   0   14 0 27.55                              76    0.20 8 96.6 156 
 626  0Z  IAML    14 0 28.04         1.5 0.25                          96.6 156 
 631  0Z IP   0 C 14 0 26.12   35                         56    0.03 5  164 150 
 631  0N ES   1   14 0 45.20                              56   -0.52 4  164 150 
 631  0Z  IAML    14 0 47.10         2.3 0.16                           164 150 
                                                                                
 2017  3 4 2135  3.0 L  72.695 124.959  9.9  SLT  7 0.2 1.4LSLT 0.9CSLT        1
 GAP=216        0.42       2.4     5.7  3.2  0.6046E+01 -0.1396E+02 -0.7618E+00E
 ACTION:ARG 20-12-21 03:09 OP:mn   STATUS:               ID:20170304213342     I
 2017-03-04-2133-42M.a_____039                                                 6
 STAT SP IPHASW D HRMM SECON CODA AMPLIT PERI AZIMU VELO AIN AR TRES W  DIS CAZ7
 620  0Z IP   0 C 2135  6.89   22                        112   -0.0810 20.8 258 
 620  0N ES   0   2135  9.93                             112    0.0310 20.8 258 
 620  0Z  IAML    2135 10.05        86.0 0.13                          20.8 258 
 622  0Z IP   0 C 2135  8.63   25                        104    0.1710 30.6 157 
 622  0E ES   1   2135 12.74                             104    0.26 7 30.6 157 
 622  0Z  IAML    2135 12.96        43.3 0.27                          30.6 157 
 623  0Z IP   0 D 2135 11.57   25                         76    0.0210 49.2 146 
 623  0E ES   0   2135 17.74                              76   -0.0810 49.2 146 
 623  0Z  IAML    2135 18.46        11.2 0.28                          49.2 146 
 625  0Z IP   1 C 2135 14.52   28                         76   -0.23 7 69.8 146 
 625  0N ES   1   2135 23.03                              76   -0.33 7 69.8 146 
 625  0Z  IAML    2135 24.79         5.7 0.30                          69.8 146 
 628  0Z IP   0 D 2135 16.21   34                         76   -0.11 9 80.3 113 
 628  0E ES   0   2135 26.07                              76    0.00 9 80.3 113 
 628  0Z  IAML    2135 27.53        11.0 0.31                          80.3 113 
 630  0Z IP   1 C 2135 25.48   35                         70    0.52 5  133 120 
 630  0E ES   3   2135 41.91                              70    0.89 2  133 120 
 630  0Z  IAML    2135 43.85        28.1 0.25                           133 120 
 631  0Z IP   0 C 2135 29.65   45                         56    0.10 5  165 150 
 631  0N ES   0   2135 48.84                              56   -0.12 5  165 150 
 631  0Z  IAML    2135 50.49         7.9 0.16                           165 150 
                                                                                
 2017  3 7 0447 21.0 L  72.704 124.934 12.0  SLT 10 0.2 1.9LSLT 1.3CSLT        1
 GAP=219        0.44       2.3     5.0  2.8  0.5750E+01 -0.8082E+01 -0.1396E+01E
 ACTION:ARG 20-12-21 03:09 OP:mn   STATUS:               ID:20170307044601     I
 2017-03-07-0446-01M.a_____039                                                 6
 STAT SP IPHASW D HRMM SECON CODA AMPLIT PERI AZIMU VELO AIN AR TRES W  DIS CAZ7
 620  0Z IP   0 C  447 25.10   28                        116    0.0810 20.3 254 
 620  0N ES   1    447 28.18                             116    0.19 7 20.3 254 
 620  0Z  IAML     447 28.45       381.6 0.12                          20.3 254 
 622  0Z IP   0 D  447 26.62   34                        104   -0.1110 31.9 156 
 622  0E ES   0    447 30.86                             104   -0.0810 31.9 156 
 622  0Z  IAML     447 31.27        70.8 0.22                          31.9 156 
 623  0Z IP   0 D  447 29.64   30                         96   -0.1510 50.5 146 
 623  0E ES   1    447 36.57                              96    0.34 7 50.5 146 
 623  0Z  IAML     447 37.13        23.8 0.25                          50.5 146 
 624  0Z IP   0 D  447 29.73   35                         95   -0.1810 51.5 119 
 624  0E ES   1    447 36.78                              95    0.35 7 51.5 119 
 624  0Z  IAML     447 37.43        56.6 0.20                          51.5 119 
 625  0Z IP   0 C  447 32.96   49                         93   -0.02 9 71.2 146 
 625  0N ES   1    447 41.46                              93   -0.29 7 71.2 146 
 625  0Z  IAML     447 42.87        11.5 0.26                          71.2 146 
 628  0Z IP   1 D  447 34.30   39                         92   -0.22 7 81.5 114 
 628  0E ES   1    447 44.74                              92    0.33 7 81.5 114 
 628  0Z  IAML     447 45.61        24.7 0.35                          81.5 114 
 627  0Z IP   1 D  447 36.70   44                         76   -0.24 6 95.2 133 
 627  0N ES   0    447 48.67                              76    0.06 8 95.2 133 
 627  0Z  IAML     447 48.90        10.6 0.36                          95.2 133 
 630  0Z IP   0 C  447 43.03   38                         64   -0.01 7  134 120 
 630  0N ES   3    448  0.14                              64    0.99 2  134 120 
 630  0Z  IAML     448  1.93        78.9 0.21                           134 120 
 631  0Z IP   0 D  447 47.59   48                         59    0.03 5  166 150 
 631  0E ES   0    448  7.03                              59    0.05 5  166 150 
 631  0Z  IAML     448  9.42        22.3 0.20                           166 150 
 632  0Z IP   0 D  447 51.04   71                         56    0.03 4  190 130 
 632  0N ES   2    448 13.95                              56    1.00 2  190 130 
 632  0Z  IAML     448 14.76        14.6 0.48                           190 130 
                                                                                
 2017  313 0553 59.2 L  72.705 124.929 12.2  SLT  9 0.2 1.1LSLT 1.3CSLT        1
 GAP=220        0.45       2.0     4.0  2.7  0.2244E+01 -0.6271E+01 -0.2862E+00E
 ACTION:ARG 20-12-21 03:09 OP:mn   STATUS:               ID:20170313055233     I
 2017-03-13-0552-33M.a_____039                                                 6
 STAT SP IPHASW D HRMM SECON CODA AMPLIT PERI AZIMU VELO AIN AR TRES W  DIS CAZ7
 620  0Z IP   0 C  554  3.31   33                        117    0.0310 20.2 254 
 620  0N ES   0    554  6.41                             117    0.1710 20.2 254 
 620  0Z  IAML     554  6.63        51.0 0.11                          20.2 254 
 622  0Z IP   0 D  554  4.88   42                        104   -0.1310 32.0 156 
 622  0E ES   0    554  9.34                             104    0.1010 32.0 156 
 622  0Z  IAML     554  9.50        13.0 0.16                          32.0 156 
 623  0Z IP   0 D  554  8.18   38                         96    0.1110 50.6 146 
 623  0E ES   1    554 14.89                              96    0.36 7 50.6 146 
 623  0Z  IAML     554 16.90         6.3 0.22                          50.6 146 
 624  0Z IP   0 D  554  8.08   38                         96   -0.1110 51.7 119 
 624  0N ES   0    554 14.63                              96   -0.1110 51.7 119 
 624  0Z  IAML     554 16.07        11.1 0.14                          51.7 119 
 621  0Z IP   0 C  554  8.88   33                         95   -0.2410 58.1 181 
 621  0E ES   1    554 16.03                              95   -0.32 7 58.1 181 
 621  0Z  IAML     554 16.67         4.6 0.19                          58.1 181 
 628  0Z IP   1 D  554 12.56   44                         93   -0.24 7 81.7 114 
 628  0N ES   0    554 22.87                              93    0.16 9 81.7 114 
 628  0Z  IAML     554 24.27         6.2 0.16                          81.7 114 
 627  0Z IP   0 D  554 15.02   50                         76   -0.19 8 95.4 132 
 627  0N ES   0    554 26.90                              76    0.01 8 95.4 132 
 627  0Z  IAML     554 31.39         2.7 0.14                          95.4 132 
 630  0Z IP   0 D  554 21.36   40                         64    0.06 7  135 120 
 630  0N ES   1    554 37.94                              64    0.53 5  135 120 
 630  0Z  IAML     554 40.24        17.6 0.22                           135 120 
 631  0Z IP   0 D  554 25.86   55                         59    0.05 5  166 150 
 631  0E ES   0    554 45.43                              59    0.20 5  166 150 
 631  0Z  IAML     554 47.39         5.4 0.37                           166 150 
                                                                                
 2017  313 0809  5.7 L  72.455 125.081 13.8  SLT  7 0.1 1.3LSLT 1.1CSLT        1
 GAP=134        0.42       1.0     2.9  4.3  0.7878E+00 -0.3260E+01 -0.2918E+00E
 ACTION:ARG 20-12-21 03:09 OP:mn   STATUS:               ID:20170313080741     I
 2017-03-13-0807-41M.a_____039                                                 6
 STAT SP IPHASW D HRMM SECON CODA AMPLIT PERI AZIMU VELO AIN AR TRES W  DIS CAZ7
 623  0Z IP   1 D  8 9 10.61   38                        113   -0.29 7 27.1 122 
 623  0E ES   0    8 9 14.56                             113   -0.1210 27.1 122 
 623  0Z  IAML     8 9 15.47        41.9 0.23                          27.1 122 
 621  0Z IP   0 D  8 9 11.20   33                        109   -0.1310 30.9 192 
 621  0E ES   0    8 9 15.58                             109    0.1510 30.9 192 
 621  0Z  IAML     8 9 17.34        23.5 0.15                          30.9 192 
 620  0Z IP   0 D  8 9 11.72   34                        108   -0.1010 33.1 312 
 620  0N ES   0    8 9 16.45                             108    0.1710 33.1 312 
 620  0Z  IAML     8 9 17.87        44.7 0.14                          33.1 312 
 624  0Z IP   0 D  8 9 12.75   25                        103   -0.1410 40.2  86 
 624  0N ES   0    8 9 18.26                             103    0.1410 40.2  86 
 624  0Z  IAML     8 9 18.61        42.4 0.14                          40.2  86 
 625  0Z IP   0 C  8 9 13.68   53                        100   -0.1510 46.8 132 
 625  0N ES   0    8 9 19.84                             100    0.0910 46.8 132 
 625  0Z  IAML     8 9 21.34        10.0 0.26                          46.8 132 
 628  0Z IP   0 D  8 9 17.39   42                         95   -0.02 9 69.9  94 
 628  0N ES   0    8 9 26.13                              95    0.19 9 69.9  94 
 628  0Z  IAML     8 9 27.51        18.6 0.24                          69.9  94 
 626  0Z IP   0 D  8 9 17.71   45                         95   -0.02 9 71.2 152 
 626  0E ES   0    8 9 26.64                              95    0.15 9 71.2 152 
 626  0Z  IAML     8 9 26.87         6.5 0.21                          71.2 152 
                                                                                
