 2017  4 8 1004 44.9 L  72.620 124.944 13.4  SLT 12 0.3 1.6LSLT 2.2CSLT        1
 GAP=186        0.59       2.3     5.5  2.2  0.7130E+01 -0.5742E+01 -0.3927E+00E
 ACTION:UP  20-12-21 14:32 OP:elen STATUS:               ID:20170408100319     I
 OLDACT:UP  20-12-20 16:21 OP:elen STATUS:               ID:20170408100319     3
 OLDACT:UP  20-12-19 02:06 OP:elen STATUS:               ID:20170408100319     3
 OLDACT:REG 20-12-15 20:09 OP:elen STATUS:               ID:20170408100319     3
 2017-04-08-1003-19M.NSN___039                                                 6
 STAT SP IPHASW D HRMM SECON CODA AMPLIT PERI AZIMU VELO AIN AR TRES W  DIS CAZ7
 620  0Z IP   0   10 4 49.10   78                        120    0.0310 20.3 281 
 620  0N ES   1   10 4 52.40                             120    0.2910 20.3 281 
 620  0E  IAML    10 4 52.80       171.2 0.15                          20.3 281 
 622  0Z IP   0   10 4 49.30   86                        116   -0.1510 23.4 148 
 622  0N ES   0   10 4 52.82                             116    0.0510 23.4 148 
 622  0E  IAML    10 4 53.10        74.9 0.37                          23.4 148 
 623  0Z IP   1   10 4 52.26   80                        101   -0.2610 42.7 140 
 623  0N ES   0   10 4 58.11                             101    0.0410 42.7 140 
 623  0N  IAML    10 4 59.03        75.1 0.25                          42.7 140 
 624  0Z IP   0   10 4 53.11   93                        100   -0.1010 47.4 109 
 624  0N ES   0   10 4 59.48                             100    0.2110 47.4 109 
 624  0N  IAML    10 5  1.03        27.4 0.11                          47.4 109 
 625  0Z IP   1   10 4 55.37  106                         96   -0.31 9 63.4 141 
 625  0N ES   0   10 5  3.50                              96   -0.04 9 63.4 141 
 625  0N  IAML    10 5  3.88         8.5 0.32                          63.4 141 
 628  0Z IP   1   10 4 57.62  104                         76   -0.26 9 77.9 107 
 628  0N ES   0   10 5  7.40                              76    0.05 9 77.9 107 
 628  0E  IAML    10 5  8.95        21.9 0.21                          77.9 107 
 627  0Z IP   0   10 4 59.88  107                         76    0.06 8 88.9 128 
 627  0N ES   1   10 5 11.19                              76    0.48 8 88.9 128 
 627  0N  IAML    10 5 12.24         8.1 0.25                          88.9 128 
 626  0Z IP   1   10 4 59.53   99                         76   -0.33 8 89.7 155 
 626  0E ES   0   10 5 10.66                              76   -0.11 8 89.7 155 
 626  0E  IAML    10 5 11.00         8.5 0.17                          89.7 155 
 629  0Z IP   0   10 5  3.50   89                         76    0.09 8  111 133 
 629  0N ES   2   10 5 17.47                              76    0.55 8  111 133 
 629  0E  IAML    10 5 18.54         6.7 0.21                           111 133 
 630  0Z IP   1   10 5  5.80   97                         64   -0.38 7  130 116 
 630  0N ES   1   10 5 21.43                              64   -0.28 7  130 116 
 630  0E  IAML    10 5 25.71        18.6 0.18                           130 116 
 631  0Z IP   0   10 5 10.15  104                         59   -0.07 6  158 149 
 631  0E ES   0   10 5 28.84                              59    0.14 6  158 149 
 631  0N  IAML    10 5 30.82        14.2 0.13                           158 149 
 632  0Z IP   1   10 5 14.26  104                         56    0.27 5  184 127 
 632  0N ES   2   10 5 35.96                              56    0.73 5  184 127 
 632  0E  IAML    10 5 36.82        10.4 0.35                           184 127 
                                                                                
 2017  4 8 1004 44.9 L  72.614 124.938 13.2  SLT 13 0.2 1.6LSLT 2.4CSLT        1
 GAP=184        0.55       1.6     4.3  2.1  0.2655E+01 -0.4483E+01 -0.1232E+00E
 ACTION:UP  20-12-21 15:15 OP:elen STATUS:               ID:20170408100354     I
 OLDACT:UP  20-12-20 16:45 OP:elen STATUS:               ID:20170408100354     3
 OLDACT:UP  20-12-19 13:04 OP:elen STATUS:               ID:20170408100354     3
 OLDACT:REG 20-12-19 09:34 OP:elen STATUS:               ID:20170408100354     3
 2017-04-08-1003-54M.NSN___039                                                 6
 STAT SP IPHASW D HRMM SECON CODA AMPLIT PERI AZIMU VELO AIN AR TRES W  DIS CAZ7
 620  0Z IP   0   10 4 49.12   92                        120    0.0510 20.2 283 
 620  0N ES   1   10 4 52.40                             120    0.3010 20.2 283 
 620  0E  IAML    10 4 52.80       170.6 0.15                          20.2 283 
 622  0Z IP   0   10 4 49.31  112                        116   -0.0910 22.9 147 
 622  0N ES   0   10 4 52.78                             116    0.1210 22.9 147 
 622  0E  IAML    10 4 53.18        75.7 0.20                          22.9 147 
 623  0Z IP   0   10 4 52.27  100                        101   -0.2110 42.4 139 
 623  0N ES   0   10 4 58.13                             101    0.1410 42.4 139 
 623  0N  IAML    10 4 59.15        73.9 0.30                          42.4 139 
 624  0Z IP   0   10 4 53.13  119                         99   -0.1010 47.3 108 
 624  0N ES   0   10 4 59.48                              99    0.2010 47.3 108 
 624  0N  IAML    10 5  1.02        33.6 0.15                          47.3 108 
 621  0Z IP   1   10 4 52.92   98                         99   -0.3010 48.0 182 
 621  0N ES   0   10 4 59.20                              99   -0.0710 48.0 182 
 621  0E  IAML    10 5  1.72        20.3 0.22                          48.0 182 
 625  0Z IP   1   10 4 55.33  121                         96   -0.31 9 63.0 141 
 625  0N ES   0   10 5  3.31                              96   -0.15 9 63.0 141 
 625  0N  IAML    10 5  3.88         8.4 0.32                          63.0 141 
 628  0Z IP   1   10 4 57.63  111                         76   -0.28 9 77.9 107 
 628  0N ES   0   10 5  7.38                              76   -0.01 9 77.9 107 
 628  0E  IAML    10 5  8.94        21.7 0.19                          77.9 107 
 627  0Z IP   0   10 4 59.89  107                         76    0.07 8 88.6 128 
 627  0N ES   1   10 5 11.08                              76    0.39 8 88.6 128 
 627  0N  IAML    10 5 12.24         8.1 0.25                          88.6 128 
 626  0Z IP   0   10 4 59.78  122                         76   -0.03 8 89.2 155 
 626  0N ES   0   10 5 10.85                              76    0.18 8 89.2 155 
 626  0E  IAML    10 5 11.00         8.5 0.18                          89.2 155 
 629  0Z IP   0   10 5  3.42  112                         76    0.02 8  111 132 
 629  0N ES   1   10 5 17.26                              76    0.38 8  111 132 
 629  0E  IAML    10 5 18.54         6.7 0.20                           111 132 
 630  0Z IP   1   10 5  5.81  123                         64   -0.40 7  129 116 
 630  0N ES   1   10 5 21.44                              64   -0.29 7  129 116 
 630  0E  IAML    10 5 25.71        18.5 0.18                           129 116 
 631  0Z IP   0   10 5 10.17  120                         59   -0.03 6  157 148 
 631  0N ES   0   10 5 28.83                              59    0.18 6  157 148 
 631  0N  IAML    10 5 30.82        14.2 0.13                           157 148 
 632  0Z IP   1   10 5 14.26  118                         56    0.25 5  183 127 
 632  0N ES   3   10 5 35.99                              56    0.76 5  183 127 
 632  0E  IAML    10 5 37.29         8.6 0.16                           183 127 
                                                                                
 2017  414 0459 18.9 L  72.269 127.396 20.8  SLT  7 0.1 0.6LSLT 0.5CSLT        1
 GAP=154        0.34       0.9     2.8  1.7  0.8362E+00  0.1058E+01  0.5031E+00E
 ACTION:UP  20-12-23 23:35 OP:elen STATUS:               ID:20170414045811     I
 OLDACT:REG 20-12-21 23:05 OP:elen STATUS:               ID:20170414045811     3
 2017-04-14-0458-11M.NSN___039                                                 6
 STAT SP IPHASW D HRMM SECON CODA AMPLIT PERI AZIMU VELO AIN AR TRES W  DIS CAZ7
 628  0Z IP   0    459 23.05   21                        137   -0.0610 16.9 330 
 628  0N ES   0    459 26.28                             137    0.1210 16.9 330 
 628  0N  IAML     459 26.45        23.3 0.08                          16.9 330 
 627  0Z IP   0    459 23.80   19                        128   -0.1010 22.1 220 
 627  0N ES   0    459 27.53                             128    0.0010 22.1 220 
 627  0N  IAML     459 28.15         7.8 0.21                          22.1 220 
 629  0Z IP   0    459 25.93   20                        110   -0.1310 38.0 184 
 629  0N ES   0    459 31.21                             110   -0.0610 38.0 184 
 629  0N  IAML     459 31.83         2.1 0.37                          38.0 184 
 630  0Z IP   0    459 26.00   20                        109   -0.0610 38.4 124 
 630  0N ES   0    459 31.33                             109    0.0710 38.4 124 
 630  0E  IAML     459 31.56         2.7 0.16                          38.4 124 
 626  0Z IP   0    459 29.62   24                         93   -0.09 9 63.2 228 
 626  0E ES   0    459 37.59                              93    0.01 9 63.2 228 
 626  0N  IAML     459 37.71         1.9 0.21                          63.2 228 
 622  0Z IP   0    459 31.28   26                         92   -0.07 9 73.1 286 
 622  0E ES   0    459 40.52                              92    0.10 9 73.1 286 
 622  0E  IAML     459 41.08         1.3 0.14                          73.1 286 
 631  0Z IP   0    459 35.11                              91    0.09 8 97.2 183 
 631  0N ES   1    459 47.07                              91    0.30 8 97.2 183 
 631  0E  IAML     459 47.29         3.2 0.19                          97.2 183 
                                                                                
 2017  416 0523 42.0 L  71.952 127.100 19.1  SLT 13 0.1 1.7LSLT 2.1CSLT        1
 GAP= 84        0.35       0.6     1.9  0.9  0.4134E+00  0.4073E+00  0.4282E-01E
 ACTION:UP  20-12-26 19:23 OP:elen STATUS:               ID:20170416052232     I
 OLDACT:REG 20-12-24 20:31 OP:elen STATUS:               ID:20170416052232     3
 2017-04-16-0522-32M.NSN___039                                                 6
 STAT SP IPHASW D HRMM SECON CODA AMPLIT PERI AZIMU VELO AIN AR TRES W  DIS CAZ7
 629  0Z IP   0    523 45.45   82                        157    0.0110 7.81 109 
 629  0N ES   0    523 48.09                             157    0.1610 7.81 109 
 629  0N  IAML     523 48.18       179.5 0.06                          7.81 109 
 627  0Z IP   0    523 46.35   83                        132   -0.1010 18.8 348 
 627  0N ES   0    523 49.70                             132    0.0310 18.8 348 
 627  0E  IAML     523 49.90       231.5 0.18                          18.8 348 
 626  0Z IP   0    523 48.77   80                        112   -0.1110 37.5 260 
 626  0N ES   0    523 53.87                             112   -0.0110 37.5 260 
 626  0N  IAML     523 53.97        63.4 0.13                          37.5 260 
 625  0Z IP   0    523 49.48   82                        108   -0.1210 42.2 306 
 625  0N ES   0    523 55.09                             108   -0.0310 42.2 306 
 625  0N  IAML     523 55.32        56.1 0.21                          42.2 306 
 630  0Z IP   0    523 49.98   86                        107    0.0210 44.4  71 
 630  0N ES   0    523 55.91                             107    0.1610 44.4  71 
 630  0E  IAML     523 56.36        36.3 0.12                          44.4  71 
 628  0Z IP   0    523 50.46   78                        104   -0.1810 50.0   2 
 628  0N ES   0    523 56.76                             104   -0.1710 50.0   2 
 628  0E  IAML     523 57.87        59.4 0.22                          50.0   2 
 631  0Z IP   0    523 52.69   91                        100   -0.0110 61.9 175 
 631  0N ES   0    524  0.61                             100    0.1110 61.9 175 
 631  0E  IAML     524  0.91       108.1 0.18                          61.9 175 
 623  0Z IP   0    523 52.70   88                        100   -0.1010 62.0 313 
 623  0N ES   0    524  0.64                             100   -0.0210 62.0 313 
 623  0E  IAML     524  0.98        12.3 0.17                          62.0 313 
 624  0Z IP   0    523 53.19   87                         99   -0.01 9 64.9 335 
 624  0N ES   0    524  1.53                              99    0.18 9 64.9 335 
 624  0E  IAML     524  3.80        21.0 0.28                          64.9 335 
 621  0Z IP   0    523 55.38   86                         75   -0.11 9 80.3 290 
 621  0N ES   0    524  5.30                              75   -0.02 9 80.3 290 
 621  0N  IAML     524 10.84        11.6 0.16                          80.3 290 
 632  0Z IP   0    523 55.75   95                         75   -0.13 9 80.8 121 
 632  0N ES   0    524  5.91                              75   -0.08 9 80.8 121 
 632  0E  IAML     524  8.88        12.0 0.12                          80.8 121 
 622  0Z IP   0    523 55.88   87                         75    0.05 9 81.9 313 
 622  0E ES   0    524  6.15                              75    0.24 9 81.9 313 
 622  0E  IAML     524 12.01        20.7 0.15                          81.9 313 
 620  0Z IP   0    524  2.06  120                         68    0.11 7  122 311 
 620  0N ES   1    524 16.86                              68    0.37 7  122 311 
 620  0E  IAML     524 20.08        17.2 0.19                           122 311 
                                                                                
 2017  416 1821  5.2 L  72.897 124.979 16.1  SLT 13 0.2 1.5LSLT 2.1CSLT        1
 GAP=269        0.36       1.6     3.9  2.1  0.3741E+00 -0.4818E+01 -0.5157E+00E
 ACTION:UP  20-12-27 00:47 OP:elen STATUS:               ID:20170416181941     I
 OLDACT:REG 20-12-24 20:59 OP:elen STATUS:               ID:20170416181941     3
 2017-04-16-1819-41M.NSN___039                                                 6
 STAT SP IPHASW D HRMM SECON CODA AMPLIT PERI AZIMU VELO AIN AR TRES W  DIS CAZ7
 620  0Z IP   0   1821 11.60   79                        107    0.0410 34.2 218 
 620  0E ES   0   1821 16.27                             107    0.0510 34.2 218 
 620  0E  IAML    1821 18.35        20.2 0.16                          34.2 218 
 622  0Z IP   0   1821 14.23   83                         96   -0.0110 51.9 168 
 622  0E ES   0   1821 20.81                              96   -0.0410 51.9 168 
 622  0N  IAML    1821 20.82        23.1 0.27                          51.9 168 
 624  0Z IP   0   1821 16.12   90                         93    0.01 9 63.7 137 
 624  0N ES   0   1821 24.11                              93    0.02 9 63.7 137 
 624  0N  IAML    1821 24.84        18.5 0.25                          63.7 137 
 623  0Z IP   0   1821 17.07   85                         93    0.11 9 68.8 157 
 623  0E ES   0   1821 25.73                              93    0.16 9 68.8 157 
 623  0E  IAML    1821 26.39        16.1 0.19                          68.8 157 
 621  0Z IP   0   1821 18.44   78                         92   -0.07 9 79.6 182 
 621  0N ES   0   1821 28.05                              92   -0.18 9 79.6 182 
 621  0E  IAML    1821 29.12        15.1 0.21                          79.6 182 
 625  0Z IP   0   1821 19.96   85                         91   -0.04 8 89.0 154 
 625  0N ES   0   1821 30.82                              91   -0.00 8 89.0 154 
 625  0N  IAML    1821 32.15         4.3 0.38                          89.0 154 
 628  0Z IP   0   1821 20.12   85                         91   -0.05 8 91.0 126 
 628  0N ES   0   1821 31.05                              91   -0.06 8 91.0 126 
 628  0N  IAML    1821 32.39        16.4 0.29                          91.0 126 
 627  0Z IP   0   1821 23.51   88                         75    0.14 8  110 141 
 627  0E ES   0   1821 36.89                              75    0.24 8  110 141 
 627  0E  IAML    1821 38.22         4.4 0.21                           110 141 
 626  0Z IP   0   1821 24.38   87                         75   -0.13 7  118 162 
 626  0N ES   1   1821 38.38                              75   -0.25 7  118 162 
 626  0E  IAML    1821 38.73        21.4 0.23                           118 162 
 629  0Z IP   0   1821 26.93   76                         68    0.00 7  134 143 
 629  0E ES   0   1821 42.83                              68    0.03 7  134 143 
 629  0E  IAML    1821 47.02         3.3 0.46                           134 143 
 630  0Z IP   1   1821 28.17   78                         62   -0.31 6  145 128 
 630  0E ES   1   1821 45.06                              62   -0.42 6  145 128 
 630  0E  IAML    1821 46.35        10.8 0.24                           145 128 
 631  0Z IP   0   1821 34.15   89                         59    0.24 5  184 154 
 631  0N ES   2   1821 55.38                              59    0.51 5  184 154 
 631  0E  IAML    1821 56.98         8.3 0.23                           184 154 
 632  0Z IP   0   1821 36.81   87                         56    0.19 4  203 135 
 632  0N ES   1   1822  0.00                              56    0.42 4  203 135 
 632  0E  IAML    1822  3.02         4.0 0.37                           203 135 
                                                                                
