 2017  418 1500 12.8 L  72.759 124.467 21.5  SLT 12 0.2 1.4LSLT 1.8CSLT        1
 GAP=274        0.48       2.3     6.5  1.9  0.1049E+01 -0.7337E+01  0.4639E-01E
 ACTION:UP  20-12-29 20:35 OP:elen STATUS:               ID:20170418150000     I
 OLDACT:REG 20-12-27 21:06 OP:elen STATUS:               ID:20170418150000     3
 2017-04-18-1500-00M.NSN___039                                                 6
 STAT SP IPHASW D HRMM SECON CODA AMPLIT PERI AZIMU VELO AIN AR TRES W  DIS CAZ7
 620  0Z IP   0   15 0 17.01   45                        148    0.0610 12.3 199 
 620  0N ES   0   15 0 20.21                             148    0.2410 12.3 199 
 620  0E  IAML    15 0 20.40        46.0 0.06                          12.3 199 
 622  0Z IP   0   15 0 20.82   62                        106   -0.2110 45.2 141 
 622  0E ES   0   15 0 26.88                             106   -0.1410 45.2 141 
 622  0E  IAML    15 0 27.41        11.0 0.25                          45.2 141 
 623  0Z IP   0   15 0 23.95   64                         96   -0.10 9 64.8 137 
 623  0N ES   0   15 0 32.25                              96    0.00 9 64.8 137 
 623  0N  IAML    15 0 32.59        15.2 0.23                          64.8 137 
 621  0Z IP   0   15 0 23.90   61                         95   -0.11 9 65.7 167 
 621  0N ES   0   15 0 32.11                              95   -0.08 9 65.7 167 
 621  0N  IAML    15 0 32.91         5.1 0.16                          65.7 167 
 624  0Z IP   0   15 0 24.31   72                         95   -0.17 9 68.0 117 
 624  0N ES   0   15 0 32.87                              95   -0.14 9 68.0 117 
 624  0E  IAML    15 0 33.70        15.7 0.13                          68.0 117 
 625  0Z IP   0   15 0 27.09   68                         92    0.07 9 85.4 139 
 625  0E ES   1   15 0 37.66                              92    0.26 9 85.4 139 
 625  0E  IAML    15 0 42.86         5.3 0.15                          85.4 139 
 628  0Z IP   0   15 0 28.73   62                         92   -0.09 8 98.1 113 
 628  0N ES   0   15 0 40.56                              92    0.05 8 98.1 113 
 628  0N  IAML    15 0 42.58         9.3 0.32                          98.1 113 
 626  0N ES   0   15 0 43.79                              73   -0.12 8  111 151 
 627  0Z IP   0   15 0 30.88   70                         73   -0.03 8  111 129 
 626  0Z IP   0   15 0 30.64   66                         73   -0.15 8  111 151 
 626  0E  IAML    15 0 46.76        15.3 0.29                           111 151 
 627  0N ES   0   15 0 44.21                              73    0.08 8  111 129 
 627  0E  IAML    15 0 46.27         8.7 0.18                           111 129 
 629  0Z IP   1   15 0 34.49   63                         66    0.31 7  134 132 
 629  0N ES   2   15 0 50.51                              66    0.72 7  134 132 
 629  0E  IAML    15 0 51.67        10.5 0.26                           134 132 
 630  0Z IP   0   15 0 36.66   69                         66    0.14 6  151 119 
 630  0E ES   1   15 0 54.25                              66    0.41 6  151 119 
 630  0E  IAML    15 0 55.69        10.5 0.13                           151 119 
 631  0Z IP   1   15 0 40.10   68                         62   -0.33 5  179 146 
 631  0N ES   1   15 1  0.17                              62   -0.42 5  179 146 
 631  0E  IAML    15 1  2.92         5.5 0.22                           179 146 
                                                                                
 2017  420 1302 35.5 L  72.659 129.207 23.9  SLT 11 0.3 1.1LSLT 1.6CSLT        1
 GAP=304        0.59       2.9    10.5  3.4  0.6478E+01  0.1058E+02 -0.1421E+01E
 ACTION:UP  20-12-30 20:06 OP:elen STATUS:               ID:20170420130148     I
 OLDACT:REG 20-12-27 21:23 OP:elen STATUS:               ID:20170420130148     3
 2017-04-20-1301-48M.NSN___039                                                 6
 STAT SP IPHASW D HRMM SECON CODA AMPLIT PERI AZIMU VELO AIN AR TRES W  DIS CAZ7
 630  0Z IP   0   13 2 47.72   48                         99    0.0410 71.7 205 
 630  0E ES   0   13 2 56.70                              99    0.1210 71.7 205 
 630  0E  IAML    13 2 57.62         4.2 0.12                          71.7 205 
 628  0Z IP   0   13 2 48.04   43                         98    0.0510 74.9 248 
 628  0N ES   0   13 2 57.25                              98    0.1310 74.9 248 
 628  0N  IAML    13 2 59.12         8.4 0.12                          74.9 248 
 627  0Z IP   0   13 2 51.30   41                         73   -0.08 9 96.5 232 
 627  0N ES   0   13 3  2.84                              73   -0.13 9 96.5 232 
 627  0N  IAML    13 3  3.72         3.6 0.20                          96.5 232 
 624  0Z IP   0   13 2 51.72   56                         73   -0.24 9  100 260 
 624  0N ES   1   13 3  3.60                              73   -0.38 9  100 260 
 624  0E  IAML    13 3  6.29        11.1 0.17                           100 260 
 629  0Z IP   1   13 2 52.13   45                         73   -0.34 9  104 219 
 629  0N ES   2   13 3  4.30                              73   -0.56 9  104 219 
 629  0N  IAML    13 3  7.12         1.6 0.12                           104 219 
 625  0Z IP   0   13 2 54.58   56                         66    0.17 8  118 244 
 625  0N ES   1   13 3  8.54                              66    0.32 8  118 244 
 625  0N  IAML    13 3 12.64         2.7 0.28                           118 244 
 623  0Z IP   0   13 2 54.92   53                         66   -0.19 8  122 254 
 623  0N ES   1   13 3  9.14                              66   -0.29 8  122 254 
 623  0N  IAML    13 3 13.97         1.9 0.31                           122 254 
 622  0Z IP   0   13 2 56.57   62                         66   -0.00 7  133 261 
 622  0E ES   0   13 3 11.98                              66    0.02 7  133 261 
 622  0N  IAML    13 3 16.58         2.0 0.17                           133 261 
 626  0Z IP   1   13 2 57.46   55                         66    0.26 7  138 233 
 626  0N ES   1   13 3 13.50                              66    0.46 7  138 233 
 626  0N  IAML    13 3 15.11         3.2 0.16                           138 233 
 621  0Z IP   1   13 3  0.04   50                         62    0.46 6  155 252 
 621  0N ES   3   13 3 17.92                              62    0.76 6  155 252 
 621  0N  IAML    13 3 19.43         3.5 0.20                           155 252 
 631  0Z IP   0   13 2 59.88   53                         62    0.08 6  156 207 
 631  0N ES   0   13 3 17.65                              62    0.11 6  156 207 
 631  0E  IAML    13 3 18.76         4.9 0.32                           156 207 
                                                                                
 2017  423 1455 43.9 L  72.861 124.473 13.3  SLT  8 0.1 0.7LSLT 1.3CSLT        1
 GAP=288        0.25       1.3     3.8  1.8  0.2023E+00 -0.4152E+01 -0.8498E+00E
 ACTION:UP  20-12-31 12:43 OP:elen STATUS:               ID:20170423145418     I
 OLDACT:REG 20-12-30 23:54 OP:elen STATUS:               ID:20170423145418     3
 2017-04-23-1454-18M.NSN___036                                                 6
 STAT SP IPHASW D HRMM SECON CODA AMPLIT PERI AZIMU VELO AIN AR TRES W  DIS CAZ7
 620  0Z IP   0   1455 48.50   35                        115    0.0010 23.4 190 
 620  0N ES   0   1455 51.91                             115    0.0410 23.4 190 
 620  0N  IAML    1455 52.17         7.5 0.26                          23.4 190 
 622  0Z IP   0   1455 53.26   37                         97   -0.0410 54.5 149 
 622  0N ES   0   1456  0.15                              97   -0.0210 54.5 149 
 622  0N  IAML    1456  0.80         2.6 0.14                          54.5 149 
 623  0Z IP   0   1455 56.38   39                         94   -0.08 9 73.5 144 
 623  0N ES   0   1456  5.47                              94   -0.17 9 73.5 144 
 623  0N  IAML    1456  7.34         2.3 0.20                          73.5 144 
 624  0Z IP   0   1455 56.49   45                         94    0.05 9 73.7 125 
 624  0N ES   0   1456  5.67                              94    0.07 9 73.7 125 
 624  0N  IAML    1456  7.60         2.5 0.13                          73.7 125 
 621  0Z IP   0   1455 56.84   32                         94    0.01 9 76.8 169 
 621  0E  IAML    1456  6.32         1.9 0.18                          76.8 169 
 621  0N ES   0   1456  6.34                              94    0.07 9 76.8 169 
 628  0Z IP   0   1456  0.83   54                         76    0.02 8  103 119 
 628  0N ES   0   1456 13.28                              76    0.12 8  103 119 
 628  0E  IAML    1456 14.87         2.2 0.23                           103 119 
 626  0Z IP   0   1456  3.70   45                         76   -0.04 7  121 153 
 626  0N ES   0   1456 18.27                              76    0.04 7  121 153 
 626  0E  IAML    1456 18.75         1.2 0.25                           121 153 
 630  0Z IP   0   1456  8.91   56                         59   -0.07 6  156 122 
 630  0N ES   0   1456 27.27                              59   -0.04 6  156 122 
 630  0E  IAML    1456 28.26         3.0 0.26                           156 122 
                                                                                
 2017  423 2313 41.9 L  72.608 124.845 21.2  SLT 12 0.2 1.5LSLT 2.1CSLT        1
 GAP=178        0.59       1.9     5.3  2.3  0.2817E+01 -0.5845E+01  0.5890E+00E
 ACTION:UP  21-01-01 14:08 OP:elen STATUS:               ID:20170423231216     I
 OLDACT:REG 20-12-30 23:59 OP:elen STATUS:               ID:20170423231216     3
 2017-04-23-2312-16M.NSN___036                                                 6
 STAT SP IPHASW D HRMM SECON CODA AMPLIT PERI AZIMU VELO AIN AR TRES W  DIS CAZ7
 620  0Z IP   0   2313 46.48   80                        137    0.0010 17.4 288 
 620  0N ES   1   2313 50.18                             137    0.3610 17.4 288 
 620  0E  IAML    2313 50.37        79.3 0.10                          17.4 288 
 622  0Z IP   0   2313 47.05   83                        126   -0.1410 24.2 139 
 622  0N ES   0   2313 51.23                             126    0.1710 24.2 139 
 622  0N  IAML    2313 52.56        48.0 0.16                          24.2 139 
 623  0Z IP   1   2313 49.73   80                        106   -0.2610 44.0 135 
 623  0N ES   0   2313 55.88                             106   -0.0110 44.0 135 
 623  0E  IAML    2313 56.62        82.7 0.25                          44.0 135 
 621  0Z IP   0   2313 50.11   78                        104   -0.2110 47.3 178 
 621  0N ES   0   2313 56.52                             104    0.0510 47.3 178 
 621  0E  IAML    2313 56.54        16.1 0.14                          47.3 178 
 624  0Z IP   0   2313 50.63   84                        102   -0.2210 50.1 106 
 624  0N ES   0   2313 57.40                             102    0.0210 50.1 106 
 624  0E  IAML    2313 58.06        49.5 0.19                          50.1 106 
 625  0Z IP   0   2313 52.86   87                         95   -0.06 9 64.5 138 
 625  0E ES   1   2314  1.25                              95    0.29 9 64.5 138 
 625  0N  IAML    2314  3.61         7.8 0.27                          64.5 138 
 628  0Z IP   1   2313 54.98   89                         92   -0.26 9 80.6 106 
 628  0N ES   0   2314  4.93                              92   -0.06 9 80.6 106 
 628  0N  IAML    2314  6.54        12.5 0.19                          80.6 106 
 626  0Z IP   1   2313 56.45   85                         92   -0.32 8 89.9 153 
 626  0N ES   0   2314  7.49                              92   -0.14 8 89.9 153 
 626  0E  IAML    2314  8.44        13.9 0.16                          89.9 153 
 627  0Z IP   0   2313 56.83   83                         92   -0.15 8 90.7 126 
 627  0E ES   0   2314  8.15                              92    0.15 8 90.7 126 
 627  0E  IAML    2314  9.54         4.7 0.16                          90.7 126 
 629  0Z IP   0   2314  0.22   88                         73   -0.12 7  113 131 
 629  0N ES   0   2314 14.02                              73    0.21 7  113 131 
 629  0E  IAML    2314 16.94         4.7 0.22                           113 131 
 630  0Z IP   1   2314  3.25   84                         66    0.25 7  132 115 
 630  0N ES   3   2314 19.30                              66    0.89 7  132 115 
 630  0E  IAML    2314 20.72         6.7 0.13                           132 115 
 631  0Z IP   0   2314  6.59   87                         62   -0.12 6  158 147 
 631  0N ES   0   2314 25.05                              62    0.23 6  158 147 
 631  0E  IAML    2314 26.89        13.4 0.18                           158 147 
                                                                                
 2017  425 0652 23.3 L  71.956 128.036  0.0  SLT  9 0.4 1.3LSLT 1.8CSLT        1
 GAP=168        1.07       2.2     7.5  8.1 -0.3740E+01  0.2355E+02 -0.2114E+01E
 ACTION:UP  21-01-02 01:38 OP:elen STATUS:               ID:20170425065114     I
 OLDACT:REG 20-12-31 19:06 OP:elen STATUS:               ID:20170425065114     3
 2017-04-25-0651-14M.NSN___027                                                 6
 STAT SP IPHASW D HRMM SECON CODA AMPLIT PERI AZIMU VELO AIN AR TRES W  DIS CAZ7
 630  0Z IP   0    652 26.18   85                         64   -0.0010 16.6  37 
 630  0E ES   2    652 28.80                              64    0.5310 16.6  37 
 630  0E  IAML     652 29.11       220.3 0.20                          16.6  37 
 629  0Z IP   0    652 27.55   63                         64   -0.2110 25.2 264 
 629  0N ES   0    652 31.16                              64    0.1610 25.2 264 
 629  0E  IAML     652 31.82        95.0 0.25                          25.2 264 
 627  0Z IP   1    652 30.04   64                         64   -0.4110 40.5 297 
 627  0N ES   0    652 35.52                              64   -0.1310 40.5 297 
 627  0E  IAML     652 38.27        30.9 0.53                          40.5 297 
 628  0Z IP   2    652 32.83   74                         64   -0.5210 58.2 329 
 628  0N ES   1    652 40.31                              64   -0.3710 58.2 329 
 628  0N  IAML     652 47.06        11.6 0.14                          58.2 329 
 631  0Z IP   0    652 35.05   90                         59   -0.20 9 68.0 204 
 631  0N ES   0    652 44.17                              59    0.21 9 68.0 204 
 631  0N  IAML     652 44.52        10.0 0.33                          68.0 204 
 625  0Z IP   1    652 35.26   67                         59   -0.36 9 70.7 291 
 625  0N ES   0    652 44.57                              59   -0.03 9 70.7 291 
 625  0N  IAML     652 48.33         6.8 0.40                          70.7 291 
 624  0Z IP   1    652 37.49   63                         59   -0.40 9 83.5 315 
 624  0N ES   0    652 48.42                              59   -0.11 9 83.5 315 
 624  0N  IAML     652 50.56        18.4 0.21                          83.5 315 
 623  0Z IP   1    652 39.13   64                         59    0.40 8 88.2 299 
 623  0E ES   4    652 51.26                              59    1.29 8 88.2 299 
 623  0N  IAML     652 57.27         5.5 0.26                          88.2 299 
 621  0Z IP   0    652 42.42   59                         56    0.04 8  111 285 
 621  0N ES   2    652 56.94                              56    0.65 8  111 285 
 621  0E  IAML     653  0.65         5.5 0.17                           111 285 
                                                                                
 2017  426 1840 44.2 L  72.273 126.360 18.4  SLT  8 0.1 1.4LSLT 2.0CSLT        1
 GAP= 93        0.34       0.8     2.1  1.5  0.9567E-01 -0.4519E+00  0.4064E+00E
 ACTION:UP  21-01-02 22:25 OP:elen STATUS:               ID:20170426183923     I
 OLDACT:REG 21-01-02 11:44 OP:elen STATUS:               ID:20170426183923     3
 2017-04-26-1839-23M.NSN___024                                                 6
 STAT SP IPHASW D HRMM SECON CODA AMPLIT PERI AZIMU VELO AIN AR TRES W  DIS CAZ7
 625  0Z IP   0   1840 47.88   74                        140   -0.0810 14.0 218 
 625  0N ES   0   1840 50.73                             140    0.0410 14.0 218 
 625  0E  IAML    1840 51.37       213.3 0.52                          14.0 218 
 624  0Z IP   0   1840 48.98   77                        125   -0.1110 22.8 353 
 624  0N ES   0   1840 52.65                             125   -0.0110 22.8 353 
 624  0N  IAML    1840 52.83       190.5 0.14                          22.8 353 
 627  0Z IP   0   1840 49.51   82                        119   -0.1710 27.5 129 
 627  0N ES   0   1840 53.59                             119   -0.0810 27.5 129 
 627  0N  IAML    1840 53.89        27.0 0.10                          27.5 129 
 628  0Z IP   0   1840 49.87   85                        116    0.0210 30.2  62 
 628  0N ES   0   1840 54.20                             116    0.2410 30.2  62 
 628  0N  IAML    1840 54.73        51.7 0.14                          30.2  62 
 629  0Z IP   0   1840 53.07   83                        103   -0.0310 50.4 139 
 629  0E ES   0   1840 59.71                             103    0.1210 50.4 139 
 629  0E  IAML    1841  0.14        14.2 0.26                          50.4 139 
 621  0Z IP   0   1840 53.08   83                        102   -0.0310 51.1 259 
 621  0N ES   0   1840 59.75                             102    0.1410 51.1 259 
 621  0N  IAML    1841  0.04        20.1 0.21                          51.1 259 
 630  0Z IP   0   1840 56.07   88                         97   -0.13 9 70.7 107 
 630  0E ES   0   1841  4.95                              97   -0.00 9 70.7 107 
 630  0N  IAML    1841  8.11         4.4 0.16                          70.7 107 
 631  0Z IP   0   1841  1.10   83                         75   -0.06 8  102 162 
 631  0N ES   0   1841 13.69                              75    0.17 8  102 162 
 631  0E  IAML    1841 13.87        16.2 0.28                           102 162 
                                                                                
