 2017  427 0912 28.9 L  72.057 127.809  7.3  SLT  8 0.2 1.0LSLT 1.6CSLT        1
 GAP=113        0.48       1.0     2.9  3.3  0.5644E+00  0.3688E+01  0.8274E+00E
 ACTION:UP  21-01-03 00:37 OP:elen STATUS:               ID:20170427091104     I
 OLDACT:REG 21-01-02 12:22 OP:elen STATUS:               ID:20170427091104     3
 2017-04-27-0911-04M.NSN___024                                                 6
 STAT SP IPHASW D HRMM SECON CODA AMPLIT PERI AZIMU VELO AIN AR TRES W  DIS CAZ7
 630  0Z IP   0    912 32.08   60                        108   -0.0710 17.8  83 
 630  0N ES   1    912 34.82                             108    0.2810 17.8  83 
 630  0E  IAML     912 35.23        75.2 0.16                          17.8  83 
 629  0Z IP   0    912 32.72   51                        103   -0.2110 22.3 230 
 629  0N ES   0    912 35.92                             103    0.0410 22.3 230 
 629  0N  IAML     912 36.29        59.7 0.32                          22.3 230 
 627  0Z IP   0    912 33.91   56                         99   -0.1410 29.2 284 
 627  0N ES   0    912 37.96                              99    0.1510 29.2 284 
 627  0N  IAML     912 38.62        15.6 0.11                          29.2 284 
 628  0Z IP   1    912 36.13   59                         94   -0.2510 44.4 330 
 628  0E ES   0    912 41.83                              94   -0.0210 44.4 330 
 628  0N  IAML     912 43.71        13.3 0.10                          44.4 330 
 625  0Z IP   0    912 38.95   47                         93   -0.1410 59.8 283 
 625  0N ES   0    912 46.75                              93    0.2010 59.8 283 
 625  0E  IAML     912 48.75         5.0 0.38                          59.8 283 
 624  0Z IP   0    912 40.79   55                         92   -0.13 9 70.1 313 
 624  0N ES   0    912 49.90                              92    0.19 9 70.1 313 
 624  0E  IAML     912 52.51         7.8 0.24                          70.1 313 
 631  0Z IP   0    912 41.71   65                         76   -0.15 9 76.0 195 
 631  0E ES   0    912 51.50                              76    0.16 9 76.0 195 
 631  0N  IAML     912 56.09         4.4 0.17                          76.0 195 
 621  0Z IP   0    912 45.77   63                         76   -0.09 8  101 279 
 621  0N ES   1    912 58.51                              76    0.25 8  101 279 
 621  0E  IAML     913  4.61         3.4 0.11                           101 279 
                                                                                
 2017  427 0912 28.9 L  72.058 127.809  7.3  SLT  8 0.2 1.0LSLT 1.8CSLT        1
 GAP=114        0.43       0.9     2.6  3.0  0.4676E+00  0.3029E+01  0.6764E+00E
 ACTION:UP  21-01-03 02:00 OP:elen STATUS:               ID:20170427091134     I
 OLDACT:REG 21-01-02 12:26 OP:elen STATUS:               ID:20170427091134     3
 2017-04-27-0911-34M.NSN___024                                                 6
 STAT SP IPHASW D HRMM SECON CODA AMPLIT PERI AZIMU VELO AIN AR TRES W  DIS CAZ7
 630  0Z IP   0    912 32.09   73                        108   -0.0510 17.8  84 
 630  0N ES   1    912 34.77                             108    0.2510 17.8  84 
 630  0E  IAML     912 35.23        73.7 0.16                          17.8  84 
 629  0Z IP   0    912 32.76   63                        103   -0.1710 22.4 230 
 629  0N ES   0    912 35.91                             103    0.0110 22.4 230 
 629  0N  IAML     912 36.50        46.4 0.25                          22.4 230 
 627  0Z IP   0    912 33.89   69                         98   -0.1410 29.1 283 
 627  0N ES   0    912 37.90                              98    0.1010 29.1 283 
 627  0N  IAML     912 38.62        15.3 0.11                          29.1 283 
 628  0Z IP   0    912 36.13   71                         94   -0.2210 44.3 330 
 628  0E ES   0    912 41.77                              94   -0.0410 44.3 330 
 628  0N  IAML     912 43.71        13.4 0.10                          44.3 330 
 625  0Z IP   0    912 39.00   64                         93   -0.0810 59.8 283 
 625  0N ES   0    912 46.73                              93    0.2010 59.8 283 
 625  0E  IAML     912 48.75         5.0 0.37                          59.8 283 
 624  0Z IP   0    912 40.79   61                         92   -0.11 9 70.0 313 
 624  0E ES   0    912 49.82                              92    0.14 9 70.0 313 
 624  0N  IAML     912 53.81        11.0 0.23                          70.0 313 
 631  0Z IP   0    912 41.74   76                         76   -0.14 9 76.1 195 
 631  0E ES   0    912 51.50                              76    0.13 9 76.1 195 
 631  0N  IAML     912 56.09         4.4 0.17                          76.1 195 
 621  0Z IP   0    912 45.78   68                         76   -0.07 8  101 279 
 621  0N ES   1    912 58.52                              76    0.28 8  101 279 
 621  0E  IAML     913  4.61         3.4 0.10                           101 279 
                                                                                
