 2016  822 1318 49.4 L  72.372 127.088 18.6  SLT  8 0.1 0.7LSLT 1.2CSLT        1
 GAP= 99        0.43       1.2     3.0  1.9  0.1445E+01  0.1855E+01  0.9110E+00E
 ACTION:UP  21-01-08 22:12 OP:elen STATUS:               ID:20160822131743     I
 OLDACT:REG 21-01-08 15:24 OP:elen STATUS:               ID:20160822131743     3
 2016-08-22-1317-43M.arct__039                                                 6
 STAT SP IPHASW D HRMM SECON CODA AMPLIT PERI AZIMU VELO AIN AR TRES W  DIS CAZ7
 628  0Z IP   0   1318 52.33   40                        168    0.0510 3.72  33 
 628  0N ES   0   1318 54.47                             168    0.0810 3.72  33 
 628  0N  IAML    1318 54.58        79.2 0.14                          3.72  33 
 627  0Z IP   0   1318 54.86   31                        118   -0.1610 28.7 187 
 627  0E ES   1   1318 58.85                             118   -0.2910 28.7 187 
 627  0E  IAML    1318 59.21        13.9 0.14                          28.7 187 
 624  0Z IP   0   1318 55.20   43                        117   -0.0110 29.7 293 
 624  0N ES   0   1318 59.45                             117   -0.0210 29.7 293 
 624  0N  IAML    1319  0.17         9.4 0.19                          29.7 293 
 625  0Z IP   0   1318 56.77   43                        109    0.1810 40.0 237 
 625  0N ES   1   1319  2.17                             109    0.3210 40.0 237 
 625  0E  IAML    1319  5.64         3.4 0.36                          40.0 237 
 623  0Z IP   0   1318 57.42   36                        106   -0.1210 45.2 264 
 623  0E ES   0   1319  3.30                             106   -0.2010 45.2 264 
 623  0E  IAML    1319  3.64         2.5 0.18                          45.2 264 
 630  0Z IP   0   1318 58.72   48                        102    0.0210 53.6 128 
 630  0E ES   0   1319  5.54                             102    0.0310 53.6 128 
 630  0E  IAML    1319  6.59         4.5 0.17                          53.6 128 
 622  0Z IP   0   1318 59.79   39                         99   -0.0210 60.4 278 
 622  0N ES   0   1319  7.38                              99   -0.0510 60.4 278 
 622  0N  IAML    1319  8.26         2.5 0.11                          60.4 278 
 626  0Z IP   0   1319  0.46   48                         98    0.07 9 64.9 214 
 626  0N ES   0   1319  8.56                              98    0.12 9 64.9 214 
 626  0N  IAML    1319 10.91         1.7 0.06                          64.9 214 
                                                                                
 2016 10 5 1619 46.7 L  72.899 124.983 16.8  SLT  9 0.2 1.2LSLT 0.5CSLT        1
 GAP=269        0.47       2.4     5.6  3.5  0.1237E+01 -0.1227E+02 -0.1923E+01E
 ACTION:ARG 20-04-11 14:12 OP:mn   STATUS:               ID:20161005161823     I
 2016-10-05-1618-23M.SIOLA_039                                                 6
 STAT SP IPHASW D HRMM SECON CODA AMPLIT PERI AZIMU VELO AIN AR TRES W  DIS CAZ7
 620  0Z IP   0 C 1619 53.22   14                        109    0.0810 34.5 218 
 620  0E ES   0   1619 57.77                             109   -0.0910 34.5 218 
 620  0Z  IAML    1619 58.27        10.0 0.26                          34.5 218 
 622  0Z IP   0 C 1619 55.67   24                         98   -0.1110 52.2 168 
 622  0N ES   1   1620  2.15                              98   -0.2810 52.2 168 
 622  0Z  IAML    1620  2.41        12.4 0.26                          52.2 168 
 624  0Z IP   0 C 1619 57.78   12                         95    0.15 9 63.8 137 
 624  0E ES   0   1620  5.66                              95    0.03 9 63.8 137 
 624  0Z  IAML    1620  6.07        13.9 0.20                          63.8 137 
 623  0Z IP   0 D 1619 58.49   14                         94   -0.01 9 69.0 158 
 623  0E ES   0   1620  7.08                              94   -0.05 9 69.0 158 
 623  0Z  IAML    1620  8.02         7.1 0.21                          69.0 158 
 621  0Z IP   0 D 1620  0.03   18                         93   -0.02 9 79.9 182 
 621  0N ES   1   1620 10.27                              93    0.46 9 79.9 182 
 621  0Z  IAML    1620 10.74         9.1 0.26                          79.9 182 
 628  0Z IP   0 D 1620  1.57   24                         92   -0.11 8 91.1 127 
 628  0E ES   0   1620 12.86                              92    0.23 8 91.1 127 
 628  0Z  IAML    1620 13.38         4.9 0.14                          91.1 127 
 627  0Z IP   0 D 1620  4.99   37                         75    0.14 8  110 141 
 627  0E ES   1   1620 17.78                              75   -0.34 8  110 141 
 627  0Z  IAML    1620 18.01         3.3 0.70                           110 141 
 629  0Z IP   0 D 1620  8.38   25                         68   -0.02 7  134 143 
 629  0E ES   0   1620 24.46                              68    0.20 7  134 143 
 629  0Z  IAML    1620 25.99         5.6 0.17                           134 143 
 630  0Z IP   1 D 1620  9.67   29                         62   -0.25 6  145 128 
 630  0E ES   0   1620 26.89                              62   -0.01 6  145 128 
 630  0Z  IAML    1620 27.89         4.1 0.22                           145 128 
                                                                                
 2016 10 9 0036 44.5 L  72.891 124.950 15.0  SLT  8 0.3 1.5LSLT 1.3CSLT        1
 GAP=268        0.59       3.3    12.9  6.3 -0.1734E+02 -0.7152E+02  0.8166E+01E
 ACTION:ARG 20-04-11 14:12 OP:mn   STATUS:               ID:20161009003553     I
 2016-10-09-0035-53M.SIOLA_039                                                 6
 STAT SP IPHASW D HRMM SECON CODA AMPLIT PERI AZIMU VELO AIN AR TRES W  DIS CAZ7
 620  0Z IP   0 C  036 50.84   52                        105    0.1510 33.1 217 
 620  0N ES   0    036 55.36                             105    0.1610 33.1 217 
 620  0Z  IAML     036 56.58        17.0 0.10                          33.1 217 
 622  0Z IP   0 D  036 53.46   45                         91   -0.0510 51.5 166 
 622  0N ES   1    036 59.76                              91   -0.3010 51.5 166 
 622  0Z  IAML     037  0.06        25.9 0.26                          51.5 166 
 623  0Z IP   0 C  036 56.30   31                         90    0.03 9 68.6 156 
 623  0N ES   0    037  4.89                              90    0.05 9 68.6 156 
 623  0Z  IAML     037  5.81         6.2 0.16                          68.6 156 
 621  0Z IP   0 C  036 57.58   30                         90   -0.16 9 78.9 182 
 621  0N ES   0    037  7.24                              90   -0.15 9 78.9 182 
 621  0Z  IAML     037  8.38        14.7 0.25                          78.9 182 
 628  0Z IP   0 C  036 59.56   41                         90   -0.01 8 91.4 126 
 628  0E ES   0    037 10.72                              90    0.16 8 91.4 126 
 628  0Z  IAML     037 11.62        12.3 0.18                          91.4 126 
 629  0Z IP   0 C  037  6.49   34                         68    0.14 7  134 142 
 629  0N ES   3    037 23.04                              68    0.76 7  134 142 
 629  0Z  IAML     037 23.64         7.5 0.18                           134 142 
 630  0Z IP   2 C  037  7.39   41                         62   -0.56 6  145 127 
 630  0E ES   1    037 24.67                              62   -0.38 6  145 127 
 630  0Z  IAML     037 26.44         5.9 0.13                           145 127 
 632  0Z IP   0 C  037 15.92   58                         56   -0.17 4  203 134 
 632  0E ES   2    037 39.74                              56    0.61 4  203 134 
 632  0Z  IAML     037 40.61         5.6 0.22                           203 134 
                                                                                
 2017  3 2 1359 59.2 L  72.683 124.909  6.6  SLT  7 0.2 0.6LSLT 0.6CSLT        1
 GAP=211        0.45       1.8     3.5  3.4  0.1106E+01 -0.6070E+01  0.8478E+00E
 ACTION:ARG 20-12-21 03:09 OP:mn   STATUS:               ID:20170302140000     I
 2017-03-02-1400-00M.a_____039                                                 6
 STAT SP IPHASW D HRMM SECON CODA AMPLIT PERI AZIMU VELO AIN AR TRES W  DIS CAZ7
 620  0Z IP   0 C 14 0  2.62   12                        103   -0.1410 19.0 261 
 620  0N ES   0   14 0  5.48                             103    0.1410 19.0 261 
 620  0Z  IAML    14 0  6.17        11.7 0.22                          19.0 261 
 623  0Z IP   0 C 14 0  7.90   23                         93    0.1410 49.0 144 
 623  0E ES   0   14 0 13.91                              93   -0.0910 49.0 144 
 623  0Z  IAML    14 0 16.05         2.6 0.31                          49.0 144 
 624  0Z IP   0 C 14 0  7.90   21                         93   -0.1810 51.2 116 
 624  0N ES   0   14 0 14.45                              93   -0.0910 51.2 116 
 624  0Z  IAML    14 0 14.90         4.1 0.20                          51.2 116 
 621  0Z IP   0 D 14 0  8.53   18                         92   -0.1910 55.6 181 
 621  0E ES   0   14 0 15.65                              92   -0.0110 55.6 181 
 621  0Z  IAML    14 0 15.67         1.7 0.16                          55.6 181 
 628  0Z IP   0 C 14 0 12.90   19                         76    0.03 9 81.3 112 
 628  0Z  IAML    14 0 22.84         2.9 0.36                          81.3 112 
 628  0N ES   1   14 0 23.10                              76    0.27 9 81.3 112 
 626  0Z IP   0 D 14 0 15.66   34                         76    0.20 8 96.6 156 
 626  0N ES   0   14 0 27.55                              76    0.24 8 96.6 156 
 626  0Z  IAML    14 0 28.04         1.5 0.25                          96.6 156 
 631  0Z IP   0 C 14 0 26.12   35                         56    0.07 5  164 150 
 631  0N ES   1   14 0 45.20                              56   -0.44 5  164 150 
 631  0Z  IAML    14 0 47.10         2.3 0.16                           164 150 
                                                                                
 2017  3 4 2135  3.0 L  72.690 124.945  9.9  SLT  7 0.3 1.4LSLT 0.9CSLT        1
 GAP=214        0.62       3.2     8.2  4.2  0.1397E+02 -0.2631E+02 -0.3303E+01E
 ACTION:ARG 20-12-21 03:09 OP:mn   STATUS:               ID:20170304213342     I
 2017-03-04-2133-42M.a_____039                                                 6
 STAT SP IPHASW D HRMM SECON CODA AMPLIT PERI AZIMU VELO AIN AR TRES W  DIS CAZ7
 620  0Z IP   0 C 2135  6.89   22                        114   -0.1010 20.3 259 
 620  0N ES   0   2135  9.93                             114    0.0710 20.3 259 
 620  0Z  IAML    2135 10.05        86.0 0.13                          20.3 259 
 622  0Z IP   0 C 2135  8.63   25                        105    0.1310 30.3 156 
 622  0E ES   1   2135 12.74                             105    0.2610 30.3 156 
 622  0Z  IAML    2135 12.96        43.3 0.27                          30.3 156 
 623  0Z IP   0 D 2135 11.57   25                         76   -0.0210 48.9 146 
 623  0E ES   0   2135 17.74                              76   -0.0910 48.9 146 
 623  0Z  IAML    2135 18.46        11.2 0.28                          48.9 146 
 625  0Z IP   1 C 2135 14.52   28                         76   -0.27 9 69.6 145 
 625  0N ES   1   2135 23.03                              76   -0.34 9 69.6 145 
 625  0Z  IAML    2135 24.79         5.7 0.30                          69.6 145 
 628  0Z IP   0 D 2135 16.21   34                         76   -0.22 9 80.5 113 
 628  0E ES   0   2135 26.07                              76   -0.12 9 80.5 113 
 628  0Z  IAML    2135 27.53        11.0 0.31                          80.5 113 
 630  0Z IP   1 C 2135 25.48   35                         70    0.42 7  133 119 
 630  0E ES   3   2135 41.91                              70    0.79 7  133 119 
 630  0Z  IAML    2135 43.85        28.1 0.25                           133 119 
 631  0Z IP   0 C 2135 29.65   45                         56    0.07 5  164 150 
 631  0N ES   0   2135 48.84                              56   -0.11 5  164 150 
 631  0Z  IAML    2135 50.49         7.9 0.16                           164 150 
                                                                                
 2017  3 7 0447 21.1 L  72.704 124.937 10.4  SLT 10 0.3 1.9LSLT 1.3CSLT        1
 GAP=219        0.65       3.0     5.9  4.7  0.7027E+01 -0.1627E+02 -0.1305E+01E
 ACTION:ARG 20-12-21 03:09 OP:mn   STATUS:               ID:20170307044601     I
 2017-03-07-0446-01M.a_____039                                                 6
 STAT SP IPHASW D HRMM SECON CODA AMPLIT PERI AZIMU VELO AIN AR TRES W  DIS CAZ7
 620  0Z IP   0 C  447 25.10   28                        110    0.0810 20.4 254 
 620  0N ES   1    447 28.18                             110    0.2610 20.4 254 
 620  0Z  IAML     447 28.45       381.6 0.12                          20.4 254 
 622  0Z IP   0 D  447 26.62   34                         97   -0.1310 31.8 157 
 622  0E ES   0    447 30.86                              97   -0.0610 31.8 157 
 622  0Z  IAML     447 31.27        70.8 0.22                          31.8 157 
 623  0Z IP   0 D  447 29.64   30                         91   -0.2010 50.4 146 
 623  0E ES   1    447 36.57                              91    0.3110 50.4 146 
 623  0Z  IAML     447 37.13        23.8 0.25                          50.4 146 
 624  0Z IP   0 D  447 29.73   35                         91   -0.2310 51.4 119 
 624  0E ES   1    447 36.78                              91    0.3210 51.4 119 
 624  0Z  IAML     447 37.43        56.6 0.20                          51.4 119 
 625  0Z IP   0 C  447 32.96   49                         91   -0.08 9 71.0 146 
 625  0N ES   1    447 41.46                              91   -0.33 9 71.0 146 
 625  0Z  IAML     447 42.87        11.5 0.26                          71.0 146 
 628  0Z IP   1 D  447 34.30   39                         91   -0.28 9 81.4 114 
 628  0E ES   1    447 44.74                              91    0.28 9 81.4 114 
 628  0Z  IAML     447 45.61        24.7 0.35                          81.4 114 
 627  0Z IP   1 D  447 36.70   44                         90   -0.32 8 95.1 133 
 627  0N ES   0    447 48.67                              90   -0.01 8 95.1 133 
 627  0Z  IAML     447 48.90        10.6 0.36                          95.1 133 
 630  0Z IP   0 C  447 43.03   38                         76   -0.18 7  134 120 
 630  0N ES   3    448  0.14                              76    0.75 7  134 120 
 630  0Z  IAML     448  1.93        78.9 0.21                           134 120 
 631  0Z IP   0 D  447 47.59   48                         59   -0.18 5  166 150 
 631  0E ES   0    448  7.03                              59   -0.24 5  166 150 
 631  0Z  IAML     448  9.42        22.3 0.20                           166 150 
 632  0Z IP   0 D  447 51.04   71                         56   -0.19 4  190 130 
 632  0N ES   2    448 13.95                              56    0.69 4  190 130 
 632  0Z  IAML     448 14.76        14.6 0.48                           190 130 
                                                                                
 2017  313 0553 59.2 L  72.705 124.926 12.1  SLT  9 0.2 1.1LSLT 1.3CSLT        1
 GAP=220        0.52       2.1     4.4  3.0  0.2011E+01 -0.7814E+01 -0.3191E+00E
 ACTION:ARG 20-12-21 03:09 OP:mn   STATUS:               ID:20170313055233     I
 2017-03-13-0552-33M.a_____039                                                 6
 STAT SP IPHASW D HRMM SECON CODA AMPLIT PERI AZIMU VELO AIN AR TRES W  DIS CAZ7
 620  0Z IP   0 C  554  3.31   33                        117    0.0610 20.1 254 
 620  0N ES   0    554  6.41                             117    0.2110 20.1 254 
 620  0Z  IAML     554  6.63        51.0 0.11                          20.1 254 
 622  0Z IP   0 D  554  4.88   42                        104   -0.1310 32.0 156 
 622  0E ES   0    554  9.34                             104    0.1010 32.0 156 
 622  0Z  IAML     554  9.50        13.0 0.16                          32.0 156 
 623  0Z IP   0 D  554  8.18   38                         96    0.1110 50.7 146 
 623  0E ES   1    554 14.89                              96    0.3610 50.7 146 
 623  0Z  IAML     554 16.90         6.3 0.22                          50.7 146 
 624  0Z IP   0 D  554  8.08   38                         96   -0.1210 51.8 119 
 624  0N ES   0    554 14.63                              96   -0.1310 51.8 119 
 624  0Z  IAML     554 16.07        11.1 0.14                          51.8 119 
 621  0Z IP   0 C  554  8.88   33                         94   -0.2410 58.1 181 
 621  0E ES   1    554 16.03                              94   -0.3110 58.1 181 
 621  0Z  IAML     554 16.67         4.6 0.19                          58.1 181 
 628  0Z IP   1 D  554 12.56   44                         92   -0.25 9 81.7 114 
 628  0N ES   0    554 22.87                              92    0.13 9 81.7 114 
 628  0Z  IAML     554 24.27         6.2 0.16                          81.7 114 
 627  0Z IP   0 D  554 15.02   50                         76   -0.21 8 95.4 132 
 627  0N ES   0    554 26.90                              76   -0.01 8 95.4 132 
 627  0Z  IAML     554 31.39         2.7 0.14                          95.4 132 
 630  0Z IP   0 D  554 21.36   40                         64    0.04 7  135 120 
 630  0N ES   1    554 37.94                              64    0.49 7  135 120 
 630  0Z  IAML     554 40.24        17.6 0.22                           135 120 
 631  0Z IP   0 D  554 25.86   55                         59    0.03 5  166 150 
 631  0E ES   0    554 45.43                              59    0.18 5  166 150 
 631  0Z  IAML     554 47.39         5.4 0.37                           166 150 
                                                                                
 2017  313 0809  5.7 L  72.455 125.082 13.8  SLT  7 0.1 1.3LSLT 1.1CSLT        1
 GAP=134        0.44       1.0     3.0  4.5  0.8681E+00 -0.3515E+01 -0.3197E+00E
 ACTION:ARG 20-12-21 03:09 OP:mn   STATUS:               ID:20170313080741     I
 2017-03-13-0807-41M.a_____039                                                 6
 STAT SP IPHASW D HRMM SECON CODA AMPLIT PERI AZIMU VELO AIN AR TRES W  DIS CAZ7
 623  0Z IP   1 D  8 9 10.61   38                        113   -0.2810 27.1 122 
 623  0E ES   0    8 9 14.56                             113   -0.1110 27.1 122 
 623  0Z  IAML     8 9 15.47        41.9 0.23                          27.1 122 
 621  0Z IP   0 D  8 9 11.20   33                        109   -0.1210 31.0 192 
 621  0E ES   0    8 9 15.58                             109    0.1610 31.0 192 
 621  0Z  IAML     8 9 17.34        23.5 0.15                          31.0 192 
 620  0Z IP   0 D  8 9 11.72   34                        108   -0.1010 33.1 312 
 620  0N ES   0    8 9 16.45                             108    0.1710 33.1 312 
 620  0Z  IAML     8 9 17.87        44.7 0.14                          33.1 312 
 624  0Z IP   0 D  8 9 12.75   25                        103   -0.1210 40.2  86 
 624  0N ES   0    8 9 18.26                             103    0.1510 40.2  86 
 624  0Z  IAML     8 9 18.61        42.4 0.14                          40.2  86 
 625  0Z IP   0 C  8 9 13.68   53                        101   -0.1410 46.8 132 
 625  0N ES   0    8 9 19.84                             101    0.1010 46.8 132 
 625  0Z  IAML     8 9 21.34        10.0 0.26                          46.8 132 
 628  0Z IP   0 D  8 9 17.39   42                         95   -0.00 9 69.9  94 
 628  0N ES   0    8 9 26.13                              95    0.20 9 69.9  94 
 628  0Z  IAML     8 9 27.51        18.6 0.24                          69.9  94 
 626  0Z IP   0 D  8 9 17.71   45                         95   -0.01 9 71.2 152 
 626  0E ES   0    8 9 26.64                              95    0.16 9 71.2 152 
 626  0Z  IAML     8 9 26.87         6.5 0.21                          71.2 152 
                                                                                
