 2017  317 1007 14.2 L  72.244 125.981  3.8  BER  9 0.5                        1
 GAP= 83        1.40       2.2     7.8  4.2  0.3711E+01 -0.5894E+01 -0.5316E+00E
 ACTION:ARG 20-12-21 03:09 OP:mn   STATUS:               ID:20170317100556     I
 2017-03-17-1005-56M.a_____039                                                 6
 STAT SP IPHASW D HRMM SECON CODA AMPLIT PERI AZIMU VELO AIN AR TRES W  DIS CAZ7
 625  0Z IP       10 7 15.55                             114   -0.3510 8.87 151 
 625  0E ES       10 7 16.97                             114   -0.1910 8.87 151 
 623  0Z IP       10 7 16.27                             108   -0.1310 11.9 321 
 623  0E ES       10 7 18.62                             108    0.5910 11.9 321 
 624  0Z IP       10 7 19.15                              65    0.0210 27.8  21 
 624  0E ES       10 7 21.82                              65   -0.9310 27.8  21 
 622  0Z IP       10 7 19.87                              65    0.1210 31.6 315 
 621  0E IP       10 7 20.40                              65   -0.3610 37.8 260 
 621  0N ES       10 7 25.84                              65    0.2610 37.8 260 
 626  0Z IP       10 7 20.63                              65   -0.4410 39.7 177 
 626  0E ES       10 7 26.15                              65    0.0510 39.7 177 
 628  0Z IP       10 7 21.20                              65   -0.4210 43.2  66 
 628  0E ES       10 7 27.42                              65    0.3710 43.2  66 
 629  0Z IP       10 7 23.70                              65   -0.2410 57.7 127 
 629  0E ES       10 7 31.28                              65    0.2010 57.7 127 
 630  0Z IP       10 7 29.36                              65    1.4310 82.3 102 
                                                                                
 2017  320 1900 34.5 L  72.408 126.157 17.5  BER  9 0.2                        1
 GAP= 93        0.69       1.5     3.5  2.8  0.6082E+00 -0.1638E+00  0.8583E+00E
 ACTION:ARG 20-12-21 03:09 OP:mn   STATUS:               ID:20170320190000     I
 2017-03-20-1900-00M.a_____039                                                 6
 STAT SP IPHASW D HRMM SECON CODA AMPLIT PERI AZIMU VELO AIN AR TRES W  DIS CAZ7
 624  0Z IP       19 0 37.65                             153   -0.1010 8.55  28 
 624  0N ES       19 0 40.26                             153    0.1410 8.55  28 
 623  0Z IP       19 0 38.41                             136   -0.0610 16.2 236 
 623  0N ES       19 0 41.36                             136   -0.0110 16.2 236 
 625  0Z IP       19 0 39.69                             122   -0.0410 26.2 184 
 625  0N ES       19 0 43.86                             122    0.3110 26.2 184 
 622  0Z IP       19 0 39.70                             119   -0.3810 28.7 278 
 622  0N ES       19 0 43.81                             119   -0.3410 28.7 278 
 628  0Z IP       19 0 40.71                             115   -0.0510 33.4  91 
 628  0N ES       19 0 45.37                             115    0.0410 33.4  91 
 621  0Z IP       19 0 43.05                             107   -0.2010 49.8 240 
 621  0N ES       19 0 49.32                             107   -0.3110 49.8 240 
 626  0Z IP       19 0 44.86                             104    0.3110 58.2 184 
 626  0E ES       19 0 52.06                             104    0.1710 58.2 184 
 620  0Z IP       19 0 46.03                             102    0.1810 66.6 295 
 620  0N ES       19 0 54.73                             102    0.6010 66.6 295 
 630  0Z IP       19 0 48.34                             100   -0.0610 82.7 116 
 630  0N ES       19 0 58.33                             100   -0.2110 82.7 116 
                                                                                
 2017  326 0836 34.5 L  71.988 127.682 13.3  BER 13 0.3                        1
 GAP= 88        0.94       1.6     4.7  4.8  0.2393E+01  0.2341E+01 -0.5569E+00E
 ACTION:ARG 20-12-21 03:09 OP:mn   STATUS:               ID:20170326083527     I
 2017-03-26-0835-27M.a_____039                                                 6
 STAT SP IPHASW D HRMM SECON CODA AMPLIT PERI AZIMU VELO AIN AR TRES W  DIS CAZ7
 629  0Z IP        836 37.76                             131   -0.0110 14.4 243 
 629  0N ES        836 40.50                             131    0.3310 14.4 243 
 630  0Z IP        836 38.93                             116   -0.1810 24.2  66 
 630  0N ES        836 42.51                             116    0.0410 24.2  66 
 627  0Z IP        836 39.41                             112   -0.2710 28.0 301 
 627  0N ES        836 43.27                             112   -0.2010 28.0 301 
 628  0Z IP        836 42.34                             102   -0.6510 49.4 339 
 628  0E ES        836 48.96                             102   -0.2410 49.4 339 
 625  0Z IP        836 44.25                             100   -0.0910 57.9 292 
 625  0N ES        836 51.44                             100   -0.0810 57.9 292 
 626  0Z IP        836 43.96                             100   -0.4110 58.1 260 
 626  0N ES        836 51.36                             100   -0.2310 58.1 260 
 632  0Z IP        836 45.58                              98   -0.2110 67.0 133 
 632  0N ES        836 54.22                              98    0.1810 67.0 133 
 631  0Z IP        836 45.78                              98   -0.0810 67.5 193 
 631  0E ES        836 54.34                              98    0.1710 67.5 193 
 624  0Z IP        836 47.58                              98    0.9110 72.5 319 
 624  0N ES        836 55.89                              98    0.3310 72.5 319 
 623  0Z IP        836 47.90                              97    0.7210 75.8 301 
 622  0Z IP        836 50.40                              96    0.0810 95.3 303 
 622  0N ES        837  1.80                              96   -0.0710 95.3 303 
 621  0Z IP        836 50.66                              95   -0.1610 98.4 284 
 621  0N ES        837  2.37                              95   -0.3810 98.4 284 
 620  0Z IP        836 56.79                              94    0.0510  135 305 
 620  0N ES        837 13.42                              94    0.4410  135 305 
                                                                                
 2017  4 2 0422  1.3 L  72.729 125.719 16.9  BER 13 0.4                        1
 GAP=227        1.05       3.3     6.8  3.3  0.5888E+01 -0.7706E+01 -0.2030E+01E
 ACTION:UP  20-12-20 22:46 OP:elen STATUS:               ID:20170402042039     I
 OLDACT:UP  20-12-20 00:44 OP:elen STATUS:               ID:20170402042039     3
 OLDACT:UP  20-12-16 20:09 OP:elen STATUS:               ID:20170402042039     3
 OLDACT:UP  20-12-16 14:06 OP:elen STATUS:               ID:20170402042039     3
 OLDACT:REG 20-12-12 10:59 OP:elen STATUS:               ID:20170402042039     3
 2017-04-02-0420-39M.NSN___039                                                 6
 STAT SP IPHASW D HRMM SECON CODA AMPLIT PERI AZIMU VELO AIN AR TRES W  DIS CAZ7
 624  0Z IP        422  7.93                             114    0.3510 33.8 146 
 624  0N ES        422 12.72                             114    0.5610 33.8 146 
 622  0Z IP        422  7.87                             113    0.1510 34.8 203 
 622  0N ES        422 12.68                             113    0.2810 34.8 203 
 623  0Z IP        422  9.48                             108    0.2110 45.0 178 
 623  0E ES        422 15.32                             108    0.2510 45.0 178 
 620  0Z IP        422  9.31                             107   -0.1710 46.3 260 
 620  0E ES        422 15.33                             107   -0.1010 46.3 260 
 628  0Z IP        422 11.52                             103   -0.1210 60.2 127 
 628  0N ES        422 19.31                             103    0.1310 60.2 127 
 625  0Z IP        422 12.32                             102    0.2010 63.3 168 
 625  0E ES        422 20.08                             102    0.0810 63.3 168 
 621  0Z IP        422 13.07                             102    0.3610 66.9 205 
 621  0E ES        422 20.50                             102   -0.5310 66.9 205 
 627  0Z IP        422 15.23                             100    0.3910 80.5 147 
 627  0E ES        422 24.48                             100   -0.2410 80.5 147 
 626  0Z IP        422 16.68                              98   -0.4110 94.4 173 
 626  0Z ES        422 28.14                              98   -0.4610 94.4 173 
 629  0Z IP        422 18.83                              97    0.1810  104 148 
 630  0Z IP        422 19.72                              96   -0.5210  114 128 
 630  0N ES        422 33.07                              96   -0.9910  114 128 
 631  0Z IP        422 26.19                              58   -0.2610  157 160 
 631  0E ES        422 44.71                              58   -0.0910  157 160 
 632  0Z IP        422 28.57                              58    0.0510  173 137 
 632  0Z ES        422 49.10                              58    0.7210  173 137 
                                                                                
 2017  4 5 0307 36.1 L  71.674 129.015 13.1  BER 11 0.3                        1
 GAP=197        0.88       2.2     9.4  3.2  0.3211E+01  0.6262E+01 -0.9194E+00E
 ACTION:UP  20-12-21 00:10 OP:elen STATUS:               ID:20170405030618     I
 OLDACT:UP  20-12-20 01:44 OP:elen STATUS:               ID:20170405030618     3
 OLDACT:UP  20-12-16 21:32 OP:elen STATUS:               ID:20170405030618     3
 OLDACT:REG 20-12-13 13:11 OP:elen STATUS:               ID:20170405030618     3
 2017-04-05-0306-18M.NSN___039                                                 6
 STAT SP IPHASW D HRMM SECON CODA AMPLIT PERI AZIMU VELO AIN AR TRES W  DIS CAZ7
 632  0Z IP        3 7 39.22                             137    0.1910 11.4 170 
 630  0Z IP        3 7 44.60                             101   -0.2010 50.7 332 
 630  0E ES        3 7 50.81                             101   -0.3410 50.7 332 
 629  0N IP        3 7 47.79                              98    0.5910 65.8 296 
 629  0E ES        3 7 55.11                              98   -0.1810 65.8 296 
 631  0Z IP        3 7 47.79                              98   -0.0310 69.6 245 
 631  0N ES        3 7 56.19                              98   -0.1810 69.6 245 
 628  0Z IP        3 7 52.89                              95   -0.3410  103 322 
 628  0E ES        3 8  5.38                              95   -0.3510  103 322 
 626  0Z IP        3 7 53.32                              95   -0.4510  107 284 
 626  0N ES        3 8  6.48                              95   -0.1810  107 284 
 625  0Z IP        3 7 55.21                              94    0.1010  115 300 
 625  0N ES        3 8  8.99                              94    0.0110  115 300 
 624  0Z IP        3 7 57.43                              94   -0.0510  130 315 
 624  0E ES        3 8 13.52                              94    0.4310  130 315 
 623  0Z IP        3 7 58.66                              94    0.5510  134 304 
 623  0N ES        3 8 14.72                              94    0.5510  134 304 
 622  0Z IP        3 8  0.83                              58   -0.1710  153 306 
 622  0N ES        3 8 19.58                              58    0.4010  153 306 
 621  0Z IP        3 8  1.02                              58   -0.0610  154 294 
 621  0E ES        3 8 19.03                              58   -0.2810  154 294 
                                                                                
 2017  4 8 1004 45.1 L  72.586 124.860 14.2  BER 13 0.4                        1
 GAP=170        1.03       2.8     7.1  3.0  0.7444E+01 -0.4679E+01  0.1192E+01E
 ACTION:UP  20-12-21 14:32 OP:elen STATUS:               ID:20170408100319     I
 OLDACT:UP  20-12-20 16:21 OP:elen STATUS:               ID:20170408100319     3
 OLDACT:UP  20-12-19 02:06 OP:elen STATUS:               ID:20170408100319     3
 OLDACT:REG 20-12-15 20:09 OP:elen STATUS:               ID:20170408100319     3
 2017-04-08-1003-19M.NSN___039                                                 6
 STAT SP IPHASW D HRMM SECON CODA AMPLIT PERI AZIMU VELO AIN AR TRES W  DIS CAZ7
 620  0Z IP       10 4 49.10                             125    0.0610 18.7 294 
 620  0N ES       10 4 52.37                             125    0.4610 18.7 294 
 622  0Z IP       10 4 49.31                             120   -0.1810 22.1 136 
 622  0E ES       10 4 52.71                             120    0.0210 22.1 136 
 623  0Z IP       10 4 52.25                             106   -0.2110 41.9 133 
 623  0N ES       10 4 57.99                             106    0.1610 41.9 133 
 621  0Z IP       10 4 53.23                             105    0.2910 44.8 179 
 621  0N ES       10 4 58.56                             105   -0.0910 44.8 179 
 624  0Z IP       10 4 53.23                             103   -0.3410 49.0 104 
 624  0Z ES       10 5  0.44                             103    0.6910 49.0 104 
 625  0Z IP       10 4 55.44                             100   -0.2410 62.3 137 
 625  0N ES       10 5  3.16                             100   -0.2410 62.3 137 
 628  0Z IP       10 4 57.57                              98   -0.8610 79.5 104 
 628  0N ES       10 5  7.96                              98   -0.1910 79.5 104 
 626  0Z IP       10 4 59.90                              97    0.1810 87.5 152 
 626  0E ES       10 5 10.06                              97   -0.3310 87.5 152 
 627  0Z IP       10 4 59.81                              97   -0.1010 88.8 125 
 627  0E ES       10 5 10.80                              97    0.0810 88.8 125 
 629  0Z IP       10 5  3.42                              95   -0.0510  111 130 
 629  0N ES       10 5 17.36                              95    0.4810  111 130 
 630  0Z IP       10 5  5.84                              94   -0.7610  131 114 
 630  0E ES       10 5 23.00                              94    0.7110  131 114 
 631  0Z IP       10 5 10.20                              58   -0.0710  156 147 
 631  0E ES       10 5 28.65                              58    0.0110  156 147 
 632  0Z IP       10 5 14.07                              58    0.0310  183 126 
 632  0E ES       10 5 35.68                              58    0.5210  183 126 
                                                                                
 2017  416 0523 42.2 L  71.953 127.085 17.8  BER 12 0.2                        1
 GAP= 85        0.70       1.2     3.7  2.7  0.1849E+01  0.1911E+01  0.1646E+00E
 ACTION:UP  20-12-26 19:23 OP:elen STATUS:               ID:20170416052232     I
 OLDACT:REG 20-12-24 20:31 OP:elen STATUS:               ID:20170416052232     3
 2017-04-16-0522-32M.NSN___039                                                 6
 STAT SP IPHASW D HRMM SECON CODA AMPLIT PERI AZIMU VELO AIN AR TRES W  DIS CAZ7
 629  0Z IP        523 45.44                             154    0.0310 8.34 109 
 629  0E ES        523 48.02                             154    0.2210 8.34 109 
 627  0Z IP        523 46.36                             132   -0.0710 18.6 349 
 627  0E ES        523 49.61                             132    0.0610 18.6 349 
 626  0Z IP        523 48.76                             114   -0.2210 37.1 259 
 626  0N ES        523 53.71                             114   -0.2510 37.1 259 
 625  0Z IP        523 49.72                             111    0.0710 41.7 307 
 625  0N ES        523 54.90                             111   -0.2210 41.7 307 
 630  0Z IP        523 49.92                             109   -0.2110 44.9  72 
 630  0N ES        523 55.85                             109   -0.1110 44.9  72 
 628  0Z IP        523 50.39                             107   -0.5210 49.9   2 
 628  0E ES        523 56.86                             107   -0.4410 49.9   2 
 623  0Z IP        523 52.77                             104    0.0510 61.6 313 
 623  0N ES        524  0.55                             104    0.1210 61.6 313 
 631  0Z IP        523 52.66                             104   -0.1510 62.1 175 
 631  0E ES        524  0.63                             104    0.0410 62.1 175 
 624  0Z IP        523 53.61                             103    0.4210 64.5 335 
 624  0N ES        524  1.79                             103    0.5410 64.5 335 
 632  0Z IP        523 55.84                             100   -0.0010 81.3 120 
 632  0E ES        524  6.13                             100    0.3010 81.3 120 
 622  0Z IP        523 56.19                             100    0.3310 81.4 313 
 622  0N ES        524  5.76                             100   -0.1010 81.4 313 
 620  0Z IP        524  2.20                              97   -0.0410  121 311 
 620  0N ES        524 17.06                              97    0.1510  121 311 
                                                                                
 2017  416 1821  5.1 L  72.902 124.989 14.2  BER 13 0.4                        1
 GAP=269        1.03       3.8     8.9  3.5  0.3738E+01 -0.1265E+02 -0.4572E+01E
 ACTION:UP  20-12-27 00:47 OP:elen STATUS:               ID:20170416181941     I
 OLDACT:REG 20-12-24 20:59 OP:elen STATUS:               ID:20170416181941     3
 2017-04-16-1819-41M.NSN___039                                                 6
 STAT SP IPHASW D HRMM SECON CODA AMPLIT PERI AZIMU VELO AIN AR TRES W  DIS CAZ7
 620  0Z IP       1821 11.57                             109    0.2010 34.9 218 
 620  0E ES       1821 16.25                             109    0.3110 34.9 218 
 622  0Z IP       1821 14.36                             102    0.2510 52.4 168 
 622  0N ES       1821 20.28                             102   -0.4010 52.4 168 
 624  0Z IP       1821 16.17                             100    0.2410 63.9 137 
 624  0E ES       1821 24.11                             100    0.2810 63.9 137 
 623  0Z IP       1821 17.02                              99    0.2510 69.2 158 
 623  0E ES       1821 25.60                              99    0.3110 69.2 158 
 621  0Z IP       1821 18.44                              97   -0.1010 80.2 182 
 621  0N ES       1821 27.98                              97   -0.3710 80.2 182 
 625  0Z IP       1821 19.95                              97   -0.0510 89.4 155 
 625  0E ES       1821 30.59                              97   -0.2910 89.4 155 
 628  0Z IP       1821 20.01                              96   -0.2610 91.1 127 
 628  0N ES       1821 31.26                              96   -0.0810 91.1 127 
 627  0Z IP       1821 23.55                              95    0.2210  110 142 
 627  0N ES       1821 36.98                              95    0.3410  110 142 
 626  0Z IP       1821 24.46                              95   -0.2310  119 162 
 626  0E ES       1821 38.21                              95   -0.7810  119 162 
 629  0Z IP       1821 27.00                              94   -0.1410  134 143 
 629  0N ES       1821 43.66                              94    0.4310  134 143 
 630  0Z IP       1821 28.15                              58   -0.6410  145 128 
 630  0N ES       1821 45.43                              58   -0.6410  145 128 
 631  0Z IP       1821 34.17                              58   -0.0310  185 154 
 631  0E ES       1821 55.93                              58    0.4910  185 154 
 632  0Z IP       1821 36.64                              58   -0.1010  203 135 
 632  0N ES       1822  0.61                              58    0.7810  203 135 
                                                                                
