 2017  418 1500 13.2 L  72.751 124.549 18.6  BER 10 0.4                        1
 GAP=261        1.08       4.9    11.1  2.8  0.1213E+02 -0.1278E+02 -0.1754E+01E
 ACTION:UP  20-12-29 20:35 OP:elen STATUS:               ID:20170418150000     I
 OLDACT:REG 20-12-27 21:06 OP:elen STATUS:               ID:20170418150000     3
 2017-04-18-1500-00M.NSN___039                                                 6
 STAT SP IPHASW D HRMM SECON CODA AMPLIT PERI AZIMU VELO AIN AR TRES W  DIS CAZ7
 620  0Z IP       15 0 17.03                             145    0.0410 12.7 212 
 620  0E ES       15 0 20.16                             145    0.4410 12.7 212 
 622  0Z IP       15 0 20.78                             111   -0.1910 42.9 143 
 622  0E ES       15 0 26.67                             111    0.0610 42.9 143 
 623  0Z IP       15 0 23.88                             104   -0.0910 62.4 139 
 623  0N ES       15 0 32.00                             104    0.1910 62.4 139 
 624  0Z IP       15 0 24.31                             104   -0.1110 65.2 117 
 624  0N ES       15 0 33.06                             104    0.4810 65.2 117 
 628  0Z IP       15 0 28.79                              99   -0.3810 95.3 113 
 628  0N ES       15 0 40.61                              99   -0.1910 95.3 113 
 627  0Z IP       15 0 32.05                              98    0.8110  108 130 
 627  0N ES       15 0 44.24                              98   -0.1510  108 130 
 626  0Z IP       15 0 30.69                              98   -0.6410  109 152 
 626  0E ES       15 0 43.85                              98   -0.6810  109 152 
 629  0Z IP       15 0 34.77                              58    0.1610  131 133 
 629  0N ES       15 0 50.10                              58   -0.1010  131 133 
 630  0Z IP       15 0 36.65                              58   -0.2810  148 119 
 630  0N ES       15 0 54.59                              58    0.3610  148 119 
 631  0Z IP       15 0 40.50                              58   -0.4210  177 147 
 631  0E ES       15 1  1.79                              58    0.6710  177 147 
                                                                                
 2017  423 2313 42.0 L  72.589 124.835 20.8  BER 12 0.3                        1
 GAP=170        0.95       2.7     7.3  2.1  0.6552E+01 -0.4614E+01  0.4656E+00E
 ACTION:UP  21-01-01 14:08 OP:elen STATUS:               ID:20170423231216     I
 OLDACT:REG 20-12-30 23:59 OP:elen STATUS:               ID:20170423231216     3
 2017-04-23-2312-16M.NSN___036                                                 6
 STAT SP IPHASW D HRMM SECON CODA AMPLIT PERI AZIMU VELO AIN AR TRES W  DIS CAZ7
 620  0Z IP       2313 46.51                             138   -0.0110 17.8 294 
 620  0E ES       2313 50.11                             138    0.2910 17.8 294 
 622  0Z IP       2313 47.03                             131   -0.0810 22.9 135 
 622  0E ES       2313 51.34                             131    0.5010 22.9 135 
 623  0Z IP       2313 49.75                             114   -0.0910 42.8 133 
 623  0E ES       2313 55.83                             114    0.2610 42.8 133 
 621  0Z IP       2313 50.25                             113    0.0310 45.2 178 
 621  0E ES       2313 56.13                             113   -0.1010 45.2 178 
 624  0Z IP       2313 50.78                             111   -0.1210 49.9 104 
 624  0E ES       2313 57.64                             111    0.2310 49.9 104 
 625  0Z IP       2313 53.24                             106    0.3110 63.2 137 
 625  0N ES       2314  0.98                             106    0.0610 63.2 137 
 628  0Z IP       2313 55.01                             103   -0.6310 80.5 104 
 628  0N ES       2314  5.37                             103   -0.2310 80.5 104 
 626  0Z IP       2313 56.46                             101   -0.4210 88.3 152 
 626  0E ES       2314  7.25                             101   -0.5110 88.3 152 
 627  0Z IP       2313 57.00                             101   -0.1010 89.7 125 
 627  0E ES       2314  8.15                             101    0.0110 89.7 125 
 629  0Z IP       2314  0.29                              58   -0.2610  112 130 
 629  0E ES       2314 13.64                              58   -0.4610  112 130 
 630  0Z IP       2314  3.31                              58    0.0910  131 114 
 630  0N ES       2314 19.32                              58    0.6010  131 114 
 631  0Z IP       2314  6.52                              58   -0.1710  157 147 
 631  0E ES       2314 25.55                              58    0.8210  157 147 
                                                                                
 2017  425 0652 23.3 L  71.956 128.069  0.0  BER  9 0.6 1.2LBER 2.1CBER        1
 GAP=172        1.73       3.4    11.8  7.9 -0.7648E+01  0.2933E+02 -0.6971E-01E
 ACTION:REE 25-08-04 22:18 OP:mn   STATUS:               ID:20170425065114     I
 OLDACT:REG 20-12-31 19:06 OP:elen STATUS:               ID:20170425065114     3
 2017-04-25-0651-14M.NSN___027                                                 6
 STAT SP IPHASW D HRMM SECON CODA AMPLIT PERI AZIMU VELO AIN AR TRES W  DIS CAZ7
 630  0Z IP        652 26.18   85                         90   -0.0110 15.9  34 
 630  0E ES        652 28.80                              90    0.5410 15.9  34 
 630  0E  IAML     652 29.11       220.3 0.20                          15.9  34 
 629  0Z IP        652 27.55   63                         90   -0.5010 26.3 264 
 629  0N ES        652 31.16                              90   -0.3210 26.3 264 
 629  0E  IAML     652 31.82        95.0 0.25                          26.3 264 
 627  0Z IP        652 30.04   64                         90   -0.7210 41.5 296 
 627  0N ES        652 35.52                              90   -0.6510 41.5 296 
 627  0E  IAML     652 38.27        30.9 0.53                          41.5 296 
 628  0Z IP        652 32.83   74                         65   -0.7510 58.7 328 
 628  0N ES        652 40.31                              65   -0.7410 58.7 328 
 628  0N  IAML     652 47.06        11.6 0.14                          58.7 328 
 631  0Z IP        652 35.05   90                         65   -0.1310 68.6 205 
 631  0N ES        652 44.17                              65    0.3510 68.6 205 
 631  0N  IAML     652 44.52        10.0 0.33                          68.6 205 
 625  0Z IP        652 35.26   67                         65   -0.4210 71.7 291 
 625  0N ES        652 44.57                              65   -0.1110 71.7 291 
 625  0N  IAML     652 48.33         6.8 0.40                          71.7 291 
 624  0Z IP        652 37.49   63                         65   -0.2210 84.3 314 
 624  0N ES        652 48.42                              65    0.2210 84.3 314 
 624  0N  IAML     652 50.56        18.4 0.21                          84.3 314 
 623  0Z IP        652 39.13   64                         65    0.6310 89.2 299 
 623  0E ES        652 51.26                              65    1.7010 89.2 299 
 623  0N  IAML     652 57.27         5.5 0.26                          89.2 299 
 621  0Z IP        652 42.42   59                         65    0.1910  112 285 
 621  0N ES        652 56.94                              65    0.9210  112 285 
 621  0E  IAML     653  0.65         5.5 0.17                           112 285 
                                                                                
 2017  426 1425 21.2 L  72.075 127.262 21.8  BER  6 0.0 0.1LBER 0.6CBER        1
 GAP=112        0.22       0.7     1.8  1.2  0.4623E+00 -0.3027E+00 -0.3536E+00E
 ACTION:REE 25-08-04 22:19 OP:mn   STATUS:               ID:20170426142409     I
 OLDACT:REG 21-01-02 11:34 OP:elen STATUS:               ID:20170426142409     3
 2017-04-26-1424-09M.NSN___024                                                 6
 STAT SP IPHASW D HRMM SECON CODA AMPLIT PERI AZIMU VELO AIN AR TRES W  DIS CAZ7
 627  0Z IP       1425 25.19   24                        153   -0.0310 10.7 296 
 627  0N ES       1425 28.15                             153   -0.0010 10.7 296 
 627  0N  IAML    1425 28.30         9.4 0.08                          10.7 296 
 629  0Z IP       1425 25.70   24                        142   -0.0110 16.4 174 
 629  0N ES       1425 29.01                             142    0.0010 16.4 174 
 629  0E  IAML    1425 29.36         1.7 0.10                          16.4 174 
 628  0Z IP       1425 28.19   21                        119   -0.0210 36.4 354 
 628  0N ES       1425 33.32                             119   -0.0110 36.4 354 
 628  0N  IAML    1425 33.55         1.7 0.10                          36.4 354 
 630  0Z IP       1425 28.22   24                        119   -0.0010 36.5  90 
 630  0N ES       1425 33.37                             119    0.0310 36.5  90 
 630  0N  IAML    1425 33.67         4.8 0.16                          36.5  90 
 625  0Z IP       1425 28.87   22                        116    0.0010 41.1 286 
 625  0N ES       1425 34.49                             116    0.0310 41.1 286 
 625  0N  IAML    1425 35.27         1.7 0.23                          41.1 286 
 624  0Z IP       1425 31.08   24                        109    0.0010 55.9 324 
 624  0N ES       1425 38.30                             109    0.0110 55.9 324 
 624  0E  IAML    1425 38.99         1.1 0.28                          55.9 324 
                                                                                
 2017  426 1840 44.1 L  72.275 126.360 18.5  BER  8 0.1 1.4LBER 2.4CBER        1
 GAP= 93        0.31       0.7     1.9  1.6  0.8938E-01 -0.4783E+00  0.3089E+00E
 ACTION:REE 25-08-04 22:19 OP:mn   STATUS:               ID:20170426183923     I
 OLDACT:REG 21-01-02 11:44 OP:elen STATUS:               ID:20170426183923     3
 2017-04-26-1839-23M.NSN___024                                                 6
 STAT SP IPHASW D HRMM SECON CODA AMPLIT PERI AZIMU VELO AIN AR TRES W  DIS CAZ7
 625  0Z IP       1840 47.88   74                        141   -0.0910 14.2 218 
 625  0N ES       1840 50.73                             141   -0.0710 14.2 218 
 625  0E  IAML    1840 51.37       213.3 0.52                          14.2 218 
 624  0Z IP       1840 48.98   77                        128    0.0210 22.6 353 
 624  0N ES       1840 52.65                             128    0.1410 22.6 353 
 624  0N  IAML    1840 52.83       190.5 0.14                          22.6 353 
 627  0Z IP       1840 49.51   82                        122   -0.1010 27.6 129 
 627  0N ES       1840 53.59                             122   -0.0410 27.6 129 
 627  0N  IAML    1840 53.89        27.0 0.10                          27.6 129 
 628  0Z IP       1840 49.87   85                        120   -0.0910 30.1  62 
 628  0N ES       1840 54.20                             120   -0.0410 30.1  62 
 628  0N  IAML    1840 54.73        51.7 0.14                          30.1  62 
 629  0Z IP       1840 53.07   83                        108    0.0810 50.5 139 
 629  0E ES       1840 59.71                             108    0.2310 50.5 139 
 629  0E  IAML    1841  0.14        14.2 0.26                          50.5 139 
 621  0Z IP       1840 53.08   83                        108   -0.0310 51.1 259 
 621  0N ES       1840 59.75                             108    0.0710 51.1 259 
 621  0N  IAML    1841  0.04        20.1 0.21                          51.1 259 
 630  0Z IP       1840 56.07   88                        102   -0.0710 70.7 107 
 630  0E ES       1841  4.95                             102    0.0210 70.7 107 
 630  0N  IAML    1841  8.11         4.4 0.16                          70.7 107 
 631  0Z IP       1841  1.10   83                         98   -0.0810  102 162 
 631  0N ES       1841 13.69                              98    0.0410  102 162 
 631  0E  IAML    1841 13.87        16.2 0.28                           102 162 
                                                                                
 2017  427 0912 29.0 L  72.061 127.828  6.1  BER  8 0.3 0.9LBER 1.8CBER        1
 GAP=116        0.84       1.6     6.3 51.7  0.7398E+00  0.2192E+03 -0.3224E+01E
 ACTION:REE 25-08-04 22:19 OP:mn   STATUS:               ID:20170427091104     I
 OLDACT:REG 21-01-02 12:22 OP:elen STATUS:               ID:20170427091104     3
 2017-04-27-0911-04M.NSN___024                                                 6
 STAT SP IPHASW D HRMM SECON CODA AMPLIT PERI AZIMU VELO AIN AR TRES W  DIS CAZ7
 630  0Z IP        912 32.08   60                         99   -0.1010 17.1  85 
 630  0N ES        912 34.82                              99    0.3210 17.1  85 
 630  0E  IAML     912 35.23        75.2 0.16                          17.1  85 
 629  0Z IP        912 32.72   51                         95   -0.4210 23.1 231 
 629  0N ES        912 35.92                              95   -0.2310 23.1 231 
 629  0N  IAML     912 36.29        59.7 0.32                          23.1 231 
 627  0Z IP        912 33.91   56                         93   -0.2910 29.7 283 
 627  0N ES        912 37.96                              93   -0.0310 29.7 283 
 627  0N  IAML     912 38.62        15.6 0.11                          29.7 283 
 628  0Z IP        912 36.13   59                         92   -0.4410 44.4 329 
 628  0E ES        912 41.83                              92   -0.2510 44.4 329 
 628  0N  IAML     912 43.71        13.3 0.10                          44.4 329 
 625  0Z IP        912 38.95   47                         91   -0.1910 60.3 283 
 625  0N ES        912 46.75                              91    0.2210 60.3 283 
 625  0E  IAML     912 48.75         5.0 0.38                          60.3 283 
 624  0Z IP        912 40.79   55                         91    0.0510 70.2 312 
 624  0N ES        912 49.90                              91    0.6110 70.2 312 
 624  0E  IAML     912 52.51         7.8 0.24                          70.2 312 
 631  0Z IP        912 41.71   65                         91   -0.0610 76.6 196 
 631  0E ES        912 51.50                              91    0.4210 76.6 196 
 631  0N  IAML     912 56.09         4.4 0.17                          76.6 196 
 621  0Z IP        912 45.77   63                         91   -0.0510  102 279 
 621  0N ES        912 58.51                              91    0.4210  102 279 
 621  0E  IAML     913  4.61         3.4 0.11                           102 279 
                                                                                
