 2016 1117 0337  1.2 L  72.778 124.907 11.7  BER 13 0.3 1.9LBER 2.1CBER        1
 GAP=245        0.86       3.2     6.1  3.2  0.1801E+01 -0.6530E+01 -0.7825E+00E
 ACTION:REE 25-08-04 21:57 OP:mn   STATUS:               ID:20161117033653     I
 2016-11-17-0336-53M.arct__039                                                 6
 STAT SP IPHASW D HRMM SECON CODA AMPLIT PERI AZIMU VELO AIN AR TRES W  DIS CAZ7
 620  0Z IP        337  5.70                             113    0.1910 23.2 234 
 620  0N ES        337  8.90                             113    0.2110 23.2 234 
 622  0Z IP        337  7.74                             102   -0.3510 39.8 160 
 624  0Z IP        337 10.92   66                         98    0.1610 56.7 126 
 624  0E ES        337 18.10                              98    0.3210 56.7 126 
 624  0Z  IAML     337 18.92        55.9 0.17                          56.7 126 
 623  0Z IP        337 10.76                              98   -0.2010 57.9 150 
 623  0E ES        337 18.44                              98    0.3210 57.9 150 
 621  0Z IP        337 12.08   68                         97   -0.2310 66.3 181 
 621  0N ES        337 20.43                              97   -0.0310 66.3 181 
 621  0Z  IAML     337 22.58        42.2 0.97                          66.3 181 
 625  0Z IP        337 14.18                              96   -0.0810 78.5 149 
 625  0E ES        337 23.73                              96   -0.1010 78.5 149 
 628  0Z IP        337 15.26   67                         95   -0.1810 85.9 118 
 628  0N ES        337 26.02                              95    0.1510 85.9 118 
 628  0Z  IAML     337 26.36        44.0 0.48                          85.9 118 
 627  0Z IP        337 18.53                              94    0.5710  102 136 
 627  0N ES        337 30.05                              94   -0.1910  102 136 
 626  0Z IP        337 18.79   68                         94    0.0310  106 158 
 626  0N ES        337 31.97                              94    0.3610  106 158 
 626  0Z  IAML     337 31.98        32.2 0.35                           106 158 
 629  0Z IP        337 21.53                              93   -0.1910  125 138 
 629  0N ES        337 35.85                              93   -0.8810  125 138 
 630  0Z IP        337 23.74   66                         93   -0.3010  139 123 
 630  0N ES        337 41.06                              93    0.3010  139 123 
 630  0Z  IAML     337 42.82        77.8 0.39                           139 123 
 631  0Z IP        337 28.67                              58   -0.2810  174 151 
 631  0N ES        337 49.09                              58   -0.1410  174 151 
 632  0Z IP        337 31.99                              58    0.0210  196 131 
 632  0N ES        337 54.99                              58    0.5210  196 131 
                                                                                
 2016 1124 2250 46.2 L  72.752 124.937 10.8  BER 13 0.3                        1
 GAP=236        0.82       2.8     5.6  3.0  0.2242E+01 -0.5596E+01 -0.8766E+00E
 ACTION:REG 18-11-20 00:07 OP:art  STATUS:               ID:20161124224841     I
 2016-11-24-2248-41M.arct__039                                                 6
 STAT SP IPHASW D HRMM SECON CODA AMPLIT PERI AZIMU VELO AIN AR TRES W  DIS CAZ7
 620  0Z IP       2250 50.52                             112    0.1210 22.4 241 
 620  0N ES       2250 53.88                             112    0.4210 22.4 241 
 622  0Z IP       2250 52.65                             102    0.0310 36.8 160 
 622  0N ES       2250 57.01                             102   -0.3010 36.8 160 
 624  0Z IP       2250 55.66                              98    0.2610 54.2 124 
 624  0N ES       2251  2.67                              98    0.5610 54.2 124 
 623  0Z IP       2250 55.22                              97   -0.2910 55.0 150 
 623  0N ES       2251  2.63                              97    0.3210 55.0 150 
 621  0Z IP       2250 56.85                              96   -0.0310 63.4 181 
 621  0E ES       2251  4.33                              96   -0.3510 63.4 181 
 625  0Z IP       2250 58.49                              95   -0.3210 75.6 148 
 625  0N ES       2251  8.14                              95    0.1110 75.6 148 
 628  0Z IP       2250 59.80                              95   -0.3210 83.7 117 
 628  0N ES       2251 10.06                              95   -0.2310 83.7 117 
 627  0Z IP       2251  2.50                              94   -0.0610 98.8 135 
 627  0N ES       2251 14.39                              94   -0.1110 98.8 135 
 626  0Z IP       2251  3.33                              94    0.0310  103 158 
 626  0Z ES       2251 16.02                              94    0.2310  103 158 
 629  0Z IP       2251  6.20                              93   -0.1010  122 138 
 629  0N ES       2251 20.52                              93   -0.4610  122 138 
 630  0Z IP       2251  8.39                              93   -0.3110  137 122 
 630  0Z ES       2251 25.77                              93    0.6410  137 122 
 631  0Z IP       2251 13.33                              58   -0.3210  171 151 
 631  0N ES       2251 33.82                              58    0.1310  171 151 
 632  0Z IP       2251 16.75                              58    0.0310  193 131 
 632  0N ES       2251 39.33                              58    0.3210  193 131 
                                                                                
 2016 1124 2302 57.8 L  72.759 124.928 12.0  BER 13 0.4 2.0LBER 2.1CBER        1
 GAP=238        1.00       3.5     7.0  3.6  0.2818E+01 -0.8770E+01 -0.1191E+01E
 ACTION:REE 25-08-04 21:59 OP:mn   STATUS:               ID:20161124230145     I
 2016-11-24-2301-45M.arct__039                                                 6
 STAT SP IPHASW D HRMM SECON CODA AMPLIT PERI AZIMU VELO AIN AR TRES W  DIS CAZ7
 620  0Z IP       23 3  2.24                             115    0.1110 22.6 239 
 620  0N ES       23 3  5.52                             115    0.2510 22.6 239 
 622  0Z IP       23 3  4.25                             104   -0.1810 37.6 160 
 622  0E ES       23 3  8.88                             104   -0.3710 37.6 160 
 624  0Z IP       23 3  7.34   65                         99    0.1710 54.9 124 
 624  0E ES       23 3 14.42                              99    0.4310 54.9 124 
 624  0Z  IAML    23 3 14.65        66.2 0.44                          54.9 124 
 623  0Z IP       23 3  7.23                              99   -0.0810 55.8 150 
 623  0N ES       23 3 14.72                              99    0.5010 55.8 150 
 621  0Z IP       23 3  8.68   60                         97    0.0110 64.2 181 
 621  0E ES       23 3 16.23                              97   -0.3410 64.2 181 
 621  0Z  IAML    23 3 19.33        53.8 0.60                          64.2 181 
 625  0Z IP       23 3 10.60                              96   -0.0010 76.4 148 
 628  0Z IP       23 3 11.59                              95   -0.2910 84.3 117 
 628  0N ES       23 3 21.64                              95   -0.4810 84.3 117 
 627  0Z IP       23 3 14.21                              95   -0.1210 99.6 135 
 627  0N ES       23 3 26.24                              95   -0.1410 99.6 135 
 626  0Z IP       23 3 15.22   86                         94    0.1310  104 158 
 626  0E ES       23 3 28.20                              94    0.5210  104 158 
 626  0Z  IAML    23 3 28.45        34.5 0.47                           104 158 
 629  0Z IP       23 3 17.92                              94   -0.1610  123 138 
 629  0N ES       23 3 32.05                              94   -0.8010  123 138 
 630  0Z IP       23 3 20.19   73                         93   -0.2710  138 122 
 630  0E ES       23 3 37.94                              93    0.9710  138 122 
 630  0Z  IAML    23 3 39.21        83.6 0.32                           138 122 
 631  0Z IP       23 3 25.15                              58   -0.1510  171 151 
 631  0N ES       23 3 45.23                              58   -0.1110  171 151 
 632  0Z IP       23 3 28.44                              58    0.0810  194 131 
 632  0N ES       23 3 50.95                              58    0.3110  194 131 
                                                                                
 2016 1124 2316 14.5 L  72.735 124.943 10.3  BER 12 0.3 1.8LBER 2.2CBER        1
 GAP=230        0.80       2.7     5.3  3.0  0.2111E+01 -0.5288E+01 -0.4135E+00E
 ACTION:REE 25-08-04 21:59 OP:mn   STATUS:               ID:20161124231448     I
 2016-11-24-2314-48M.arct__039                                                 6
 STAT SP IPHASW D HRMM SECON CODA AMPLIT PERI AZIMU VELO AIN AR TRES W  DIS CAZ7
 620  0Z IP       2316 18.56                             111   -0.0010 21.8 246 
 620  0N ES       2316 21.82                             111    0.2910 21.8 246 
 622  0Z IP       2316 20.47                             102   -0.1410 35.0 159 
 622  0N ES       2316 24.79                             102   -0.2810 35.0 159 
 624  0Z IP       2316 23.59   67                         97    0.1010 53.0 122 
 624  0E ES       2316 30.60                              97    0.5510 53.0 122 
 624  0Z  IAML    2316 30.90        59.3 0.25                          53.0 122 
 621  0Z IP       2316 24.77   89                         96   -0.1010 61.5 182 
 621  0N ES       2316 32.50                              96    0.0610 61.5 182 
 621  0Z  IAML    2316 35.59        32.5 0.61                          61.5 182 
 625  0Z IP       2316 27.00                              95    0.1710 73.9 147 
 625  0E ES       2316 35.74                              95   -0.0910 73.9 147 
 628  0Z IP       2316 27.87                              94   -0.3710 82.7 116 
 628  0N ES       2316 38.01                              94   -0.2710 82.7 116 
 627  0Z IP       2316 31.03                              94    0.4210 97.4 134 
 627  0E ES       2316 42.37                              94   -0.0110 97.4 134 
 626  0Z IP       2316 31.28   70                         93   -0.0210  102 158 
 626  0E ES       2316 43.70                              93    0.1310  102 158 
 626  0Z  IAML    2316 44.70        17.6 0.47                           102 158 
 629  0Z IP       2316 34.21                              93   -0.1310  121 137 
 629  0N ES       2316 48.44                              93   -0.4010  121 137 
 630  0Z IP       2316 36.36   66                         92   -0.4410  136 121 
 630  0N ES       2316 53.62                              92    0.5310  136 121 
 630  0Z  IAML    2316 55.52        52.5 0.35                           136 121 
 631  0Z IP       2316 41.48                              58   -0.2610  169 151 
 631  0N ES       2317  1.49                              58   -0.1510  169 151 
 632  0Z IP       2316 44.76                              58   -0.1110  192 131 
 632  0N ES       2317  7.56                              58    0.5110  192 131 
                                                                                
 2016 1125 0156 34.0 L  72.773 124.916 11.5  BER  9 0.6                        1
 GAP=243        1.56       6.3    11.4  7.5  0.4526E+00 -0.2815E+02  0.3399E+01E
 ACTION:REG 18-11-20 15:40 OP:art  STATUS:               ID:20161125015508     I
 2016-11-25-0155-08M.arct__039                                                 6
 STAT SP IPHASW D HRMM SECON CODA AMPLIT PERI AZIMU VELO AIN AR TRES W  DIS CAZ7
 620  0Z IP        156 38.27                             113   -0.0710 23.1 235 
 620  0N ES        156 41.96                             113    0.4610 23.1 235 
 624  0Z IP        156 43.50                              98   -0.0210 56.2 126 
 624  0E ES        156 50.11                              98   -0.3610 56.2 126 
 623  0Z IP        156 43.61                              98   -0.1010 57.4 150 
 623  0N ES        156 51.35                              98    0.5510 57.4 150 
 621  0Z IP        156 44.59                              97   -0.4810 65.8 181 
 621  0E ES        156 52.31                              97   -0.8510 65.8 181 
 628  0Z IP        156 47.68                              95   -0.5310 85.4 118 
 628  0N ES        156 58.01                              95   -0.5710 85.4 118 
 626  0Z IP        156 51.76                              94    0.2510  106 158 
 626  0E ES        157  3.75                              94   -0.5410  106 158 
 629  0Z IP        156 54.73                              93    0.2610  124 138 
 629  0N ES        157 11.17                              93    1.7610  124 138 
 630  0Z IP        156 57.14                              93    0.3410  139 123 
 630  0N ES        157 13.21                              93   -0.2410  139 123 
 631  0Z IP        157  1.82                              58    0.1010  173 151 
 631  0N ES        157 21.99                              58    0.0310  173 151 
                                                                                
 2016 1125 0619  0.7 L  72.756 124.958 11.9  BER 13 0.3 2.6LBER 2.1CBER        1
 GAP=236        0.81       2.7     5.6  2.9  0.2370E+01 -0.5570E+01 -0.9432E+00E
 ACTION:REE 25-08-04 22:00 OP:mn   STATUS:               ID:20161125061718     I
 2016-11-25-0617-18M.arct__039                                                 6
 STAT SP IPHASW D HRMM SECON CODA AMPLIT PERI AZIMU VELO AIN AR TRES W  DIS CAZ7
 620  0Z IP        619  5.16   64                        114    0.0810 23.3 241 
 620  0N ES        619  8.47                             114    0.1810 23.3 241 
 620  0Z  IAML     619  9.38      1098.9 0.59                          23.3 241 
 622  0Z IP        619  6.92                             104   -0.2610 37.0 161 
 622  0N ES        619 11.74                             104   -0.1810 37.0 161 
 624  0Z IP        619 10.20   71                         99    0.3310 53.9 125 
 624  0E ES        619 17.31                              99    0.7510 53.9 125 
 624  0Z  IAML     619 17.37       482.5 0.57                          53.9 125 
 623  0Z IP        619  9.91                              99   -0.1310 55.0 150 
 623  0N ES        619 17.29                              99    0.4410 55.0 150 
 621  0Z IP        619 11.63   67                         97    0.1610 63.9 182 
 621  0N ES        619 19.55                              97    0.2110 63.9 182 
 621  0Z  IAML     619 22.77       387.8 1.17                          63.9 182 
 625  0Z IP        619 13.16                              96   -0.1710 75.6 149 
 625  0E ES        619 22.51                              96   -0.0410 75.6 149 
 628  0Z IP        619 14.43                              95   -0.1310 83.2 117 
 628  0N ES        619 24.35                              95   -0.3410 83.2 117 
 627  0Z IP        619 17.11                              94    0.0710 98.6 135 
 627  0N ES        619 28.99                              94    0.0210 98.6 135 
 626  0Z IP        619 17.82   66                         94   -0.0110  104 159 
 626  0E ES        619 29.99                              94   -0.3610  104 159 
 626  0Z  IAML     619 31.33       173.9 0.37                           104 159 
 629  0Z IP        619 20.53                              94   -0.2510  122 138 
 629  0N ES        619 34.93                              94   -0.5210  122 138 
 630  0Z IP        619 22.97                              93   -0.1810  137 122 
 630  0N ES        619 39.75                              93    0.2110  137 122 
 631  0Z IP        619 27.80                              58   -0.2610  171 151 
 631  0N ES        619 47.92                              58   -0.1210  171 151 
 632  0Z IP        619 31.00                              58   -0.1010  193 131 
 632  0N ES        619 53.88                              58    0.5910  193 131 
                                                                                
 2016 1125 1638 37.7 L  72.751 124.924 11.2  BER  9 0.3 1.1LBER 2.7CBER        1
 GAP=236        0.95       3.7     6.8  3.5  0.1263E+01 -0.9004E+01 -0.4442E+00E
 ACTION:REE 25-08-04 22:00 OP:mn   STATUS:               ID:20161125163711     I
 2016-11-25-1637-11M.arct__039                                                 6
 STAT SP IPHASW D HRMM SECON CODA AMPLIT PERI AZIMU VELO AIN AR TRES W  DIS CAZ7
 620  0Z IP       1638 41.87   99                        113   -0.0210 22.0 241 
 620  0N ES       1638 45.25                             113    0.3310 22.0 241 
 620  0Z  IAML    1638 46.64        24.4 0.21                          22.0 241 
 622  0Z IP       1638 43.96                             103   -0.2110 36.8 159 
 622  0N ES       1638 48.26                             103   -0.6110 36.8 159 
 624  0Z IP       1638 47.16  114                         98    0.1810 54.5 124 
 624  0E ES       1638 54.03                              98    0.2910 54.5 124 
 624  0Z  IAML    1638 54.30        25.4 0.17                          54.5 124 
 623  0Z IP       1638 47.26                              98    0.1910 55.1 149 
 623  0N ES       1638 54.54                              98    0.6610 55.1 149 
 621  0Z IP       1638 48.39  102                         97   -0.0110 63.3 181 
 621  0E ES       1638 55.93                              97   -0.2610 63.3 181 
 621  0Z  IAML    1638 56.04         9.0 0.26                          63.3 181 
 628  0Z IP       1638 51.20                              95   -0.5110 84.0 117 
 628  0N ES       1639  1.36                              95   -0.5610 84.0 117 
 630  0Z IP       1639  0.34                              93    0.0610  137 122 
 630  0N ES       1639 17.25                              93    0.5010  137 122 
 631  0Z IP       1639  5.04                              58   -0.1310  171 151 
 631  0N ES       1639 25.12                              58   -0.0810  171 151 
 632  0Z IP       1639  8.13                              58   -0.1310  193 131 
 632  0N ES       1639 30.86                              58    0.3110  193 131 
                                                                                
