 2016 1126 1456 12.0 L  72.734 124.943 12.3  BER 11 0.5 1.1LBER 2.1CBER        1
 GAP=230        1.30       4.8     8.9  4.6  0.7037E+01 -0.1463E+02 -0.8942E+00E
 ACTION:REE 25-08-04 22:01 OP:mn   STATUS:               ID:20161126145445     I
 2016-11-26-1454-45M.arct__039                                                 6
 STAT SP IPHASW D HRMM SECON CODA AMPLIT PERI AZIMU VELO AIN AR TRES W  DIS CAZ7
 620  0Z IP       1456 15.80   67                        116   -0.4010 21.7 246 
 620  0E ES       1456 19.72                             116    0.4710 21.7 246 
 620  0Z  IAML    1456 20.57        36.0 0.22                          21.7 246 
 622  0Z IP       1456 17.79   73                        106   -0.3910 34.8 159 
 622  0E ES       1456 22.90                             106    0.2210 34.8 159 
 622  0Z  IAML    1456 26.55        13.2 0.28                          34.8 159 
 624  0Z IP       1456 20.80   67                        100   -0.2410 52.9 122 
 624  0E ES       1456 28.06                             100    0.4310 52.9 122 
 624  0Z  IAML    1456 28.27        26.9 0.17                          52.9 122 
 621  0Z IP       1456 22.26                              98   -0.1410 61.4 182 
 621  0E ES       1456 29.67                              98   -0.3110 61.4 182 
 625  0N IP       1456 25.66                              97    1.3010 73.7 147 
 625  0E ES       1456 32.98                              97   -0.3910 73.7 147 
 628  0Z IP       1456 25.12                              96   -0.6610 82.6 116 
 628  0N ES       1456 35.32                              96   -0.5110 82.6 116 
 627  0Z IP       1456 28.55                              95    0.4110 97.3 134 
 627  0N ES       1456 39.97                              95    0.0610 97.3 134 
 629  0Z IP       1456 32.09                              94    0.2310  120 137 
 629  0N ES       1456 45.73                              94   -0.6310  120 137 
 630  0Z IP       1456 34.08                              93   -0.2510  136 121 
 630  0N ES       1456 51.40                              93    0.7810  136 121 
 631  0Z IP       1456 38.91                              58   -0.1710  169 151 
 631  0N ES       1456 58.80                              58   -0.0410  169 151 
 632  0Z IP       1456 42.04                              58   -0.1710  192 131 
 632  0N ES       1457  4.64                              58    0.3910  192 131 
                                                                                
 2016 1228 2250 24.5 L  71.589 127.550  0.0  BER 10 0.5 1.5LBER 2.3CBER        1
 GAP=116        1.37       2.6     8.2  7.6  0.3092E+01 -0.1076E+02 -0.8302E+01E
 ACTION:REE 25-08-04 22:04 OP:mn   STATUS:               ID:20161228224921     I
 2016-12-28-2249-21M.arct__039                                                 6
 STAT SP IPHASW D HRMM SECON CODA AMPLIT PERI AZIMU VELO AIN AR TRES W  DIS CAZ7
 631  0Z IP       2250 28.59   77                         90   -0.1810 23.8 207 
 631  0N ES       2250 32.09                              90    0.2210 23.8 207 
 631  0Z  IAML    2250 33.05       162.0 0.45                          23.8 207 
 629  0Z IP       2250 30.78                              90   -0.6710 38.8 348 
 629  0N ES       2250 36.02                              90   -0.5010 38.8 348 
 632  0Z IP       2250 33.78   84                         65   -0.1810 53.7  91 
 632  0N ES       2250 40.97                              65    0.1210 53.7  91 
 632  0Z  IAML    2250 42.34        30.3 0.26                          53.7  91 
 630  0Z IP       2250 35.00   83                         65   -0.0610 60.6  26 
 630  0N ES       2250 43.00                              65    0.2510 60.6  26 
 630  0Z  IAML    2250 43.81        19.2 0.62                          60.6  26 
 627  0Z IP       2250 35.35                              65    0.0410 62.1 342 
 626  0Z IP       2250 34.81                              65   -0.5910 62.6 303 
 626  0N ES       2250 42.41                              65   -0.9310 62.6 303 
 628  0Z IP       2250 39.83                              65   -0.2310 91.5 351 
 623  0Z IP       2250 42.52                              65    0.6310  103 324 
 622  0Z IP       2250 45.89                              65    0.8510  122 322 
 622  0E ES       2251  0.71                              65    0.6810  122 322 
 620  0Z IP       2250 51.19                              65   -0.1910  162 319 
 620  0Z ES       2251 11.71                              65    0.7310  162 319 
                                                                                
 2016 1230 1909 41.6 L  72.323 129.845 16.5  BER 13 0.3 1.6LBER 2.1CBER        1
 GAP=274        0.77       2.4     9.1  2.2  0.8827E+01  0.2325E-01 -0.7777E+00E
 ACTION:REE 25-08-04 22:04 OP:mn   STATUS:               ID:20161230190840     I
 2016-12-30-1908-40M.arct__039                                                 6
 STAT SP IPHASW D HRMM SECON CODA AMPLIT PERI AZIMU VELO AIN AR TRES W  DIS CAZ7
 630  0Z  IAML    19 9 58.64        21.9 0.21                          58.8 243 
 632  0Z IP       19 9 56.07   62                         98   -0.2310 87.8 198 
 632  0E ES       1910  6.80                              98   -0.2210 87.8 198 
 632  0Z  IAML    1910  8.71        35.4 0.59                          87.8 198 
 628  0Z IP       19 9 57.07                              98    0.1410 91.7 277 
 628  0N ES       1910  7.97                              98   -0.1310 91.7 277 
 629  0Z IP       19 9 57.98                              98    0.1610 97.3 244 
 629  0N ES       1910  9.91                              98    0.2710 97.3 244 
 627  0Z IP       19 9 58.10   68                         97   -0.2010  100 258 
 627  0N ES       1910 10.16                              97   -0.3210  100 258 
 627  0Z  IAML    1910 11.42        18.2 0.20                           100 258 
 624  0Z IP       1910  1.63                              96   -0.1110  122 280 
 624  0N ES       1910 16.11                              96   -0.3110  122 280 
 625  0Z IP       1910  3.05                              58    0.2510  128 264 
 625  0N ES       1910 19.01                              58    0.7610  128 264 
 631  0Z IP       1910  4.41   78                         58    0.4110  137 222 
 631  0E ES       1910 20.21                              58   -0.1310  137 222 
 631  0Z  IAML    1910 21.23        17.9 0.61                           137 222 
 623  0Z IP       1910  4.28                              58    0.0910  138 272 
 623  0N ES       1910 20.97                              58    0.3110  138 272 
 626  0Z IP       1910  4.60                              58    0.2610  139 251 
 626  0N ES       1910 20.74                              58   -0.1810  139 251 
 622  0Z IP       1910  6.04                              58   -0.2310  154 277 
 622  0N ES       1910 23.93                              58   -0.3310  154 277 
 621  0Z IP       1910  8.59                              58    0.1510  169 267 
 621  0N ES       1910 27.82                              58   -0.2010  169 267 
 620  0Z IP       1910 10.81                              58   -0.2010  188 284 
                                                                                
 2017  110 0630 47.1 L  72.305 129.979 15.5  BER 11 0.4 2.9LBER 2.6CBER        1
 GAP=277        1.19       3.8    14.7  3.6  0.2256E+02 -0.2158E+01 -0.3269E+01E
 ACTION:REE 25-08-04 22:06 OP:mn   STATUS:               ID:20170110062948     I
 2017-01-10-0629-48M.a_____039                                                 6
 STAT SP IPHASW D HRMM SECON CODA AMPLIT PERI AZIMU VELO AIN AR TRES W  DIS CAZ7
 630  0Z IP        630 57.75                             101    0.1010 62.0 246 
 632  0Z IP        631  1.33                              98   -0.3510 87.3 201 
 632  0N ES        631 12.24                              98   -0.0910 87.3 201 
 629  0Z IP        631  4.09                              97    0.3010  101 247 
 629  0N ES        631 16.44                              97    0.4610  101 247 
 627  0Z IP     D  631  4.01                              96   -0.3910  104 260 
 627  0N ES        631 16.31                              96   -0.7310  104 260 
 627  0Z  IAML     631 57.64       196.6 1.02                           104 260 
 624  0Z IP        631  8.03                              95    0.0610  127 280 
 624  0N ES        631 22.80                              95   -0.4110  127 280 
 625  0Z IP        631  9.55                              95    0.6110  133 266 
 625  0N ES        631 25.79                              95    0.8910  133 266 
 631  0Z IP        631  9.24                              58   -0.5410  139 225 
 631  0N ES        631 26.07                              58   -0.2710  139 225 
 626  0Z IP        631 11.08                              58    0.6810  143 253 
 626  0N ES        631 27.69                              58    0.2810  143 253 
 622  0Z IP     D  631 12.51   88                         58    0.0310  158 278 
 622  0N ES        631 30.66                              58   -0.3510  158 278 
 622  0Z  IAML     632  1.26       157.4 0.93                           158 278 
 621  0Z IP     D  631 14.81   89                         58    0.2010  174 268 
 621  0N ES        631 34.85                              58    0.1610  174 268 
 621  0Z  IAML     632  3.32       228.3 1.39                           174 268 
 620  0Z IP     D  631 17.20  112                         58   -0.0410  193 284 
 620  0N ES        631 38.63                              58   -0.6210  193 284 
 620  0Z  IAML     632 24.41       174.3 1.64                           193 284 
                                                                                
 2017  3 4 2135  3.3 L  72.671 124.911 12.4  BER 11 0.3                        1
 GAP=207        0.79       2.5     5.4  3.3  0.3436E+01 -0.5819E+01  0.7944E+00E
 ACTION:ARG 20-12-21 03:09 OP:mn   STATUS:               ID:20170304213342     I
 2017-03-04-2133-42M.a_____039                                                 6
 STAT SP IPHASW D HRMM SECON CODA AMPLIT PERI AZIMU VELO AIN AR TRES W  DIS CAZ7
 620  0Z IP       2135  6.89                             120   -0.2410 18.9 264 
 620  0N ES       2135  9.97                             120    0.0710 18.9 264 
 622  0Z IP       2135  8.40                             110   -0.2110 28.9 152 
 622  0Z ES       2135 12.52                             110    0.0710 28.9 152 
 623  0Z IP       2135 11.59                             101    0.0110 47.9 143 
 623  0E ES       2135 17.76                             101    0.1710 47.9 143 
 624  0Z IP       2135 11.59                             100   -0.4010 50.5 115 
 624  0N ES       2135 18.14                             100   -0.1710 50.5 115 
 621  0Z IP       2135 12.49                             100   -0.1310 54.4 181 
 621  0E ES       2135 19.36                             100   -0.0310 54.4 181 
 625  0Z IP       2135 15.37                              97    0.5010 68.6 143 
 625  0N ES       2135 23.10                              97   -0.1810 68.6 143 
 628  0Z IP       2135 16.91                              96    0.0810 80.8 111 
 628  0N ES       2135 26.46                              96   -0.2110 80.8 111 
 626  0Z IP       2135 19.31                              95    0.1310 95.4 156 
 626  0E ES       2135 30.76                              95    0.0110 95.4 156 
 629  0Z IP       2135 23.36                              94    0.8510  116 134 
 629  0E ES       2135 36.05                              94   -0.4610  116 134 
 630  0Z IP       2135 25.40                              93    0.1510  133 118 
 630  0N ES       2135 41.51                              93    0.2710  133 118 
 631  0Z IP       2135 29.38                              58   -0.2610  163 149 
 631  0N ES       2135 48.84                              58   -0.0010  163 149 
                                                                                
 2017  3 7 0447 21.1 L  72.699 124.941 11.0  BER 12 0.4                        1
 GAP=217        0.99       3.2     6.6  3.5  0.4645E+01 -0.7927E+01 -0.3762E+00E
 ACTION:ARG 20-12-21 03:09 OP:mn   STATUS:               ID:20170307044601     I
 2017-03-07-0446-01M.a_____039                                                 6
 STAT SP IPHASW D HRMM SECON CODA AMPLIT PERI AZIMU VELO AIN AR TRES W  DIS CAZ7
 620  0Z IP        447 25.09                             115    0.0910 20.4 256 
 620  0N ES        447 28.21                             115    0.3610 20.4 256 
 622  0Z IP        447 26.58                             105   -0.0810 31.2 156 
 622  0N ES        447 30.76                             105    0.0410 31.2 156 
 623  0Z IP        447 29.77                              99    0.1710 49.9 146 
 623  0E ES        447 36.14                              99    0.3310 49.9 146 
 624  0Z IP        447 29.62                              98   -0.1810 51.0 119 
 624  0E ES        447 36.27                              98    0.1310 51.0 119 
 621  0Z IP        447 30.66                              97   -0.1810 57.5 182 
 621  0E ES        447 37.40                              97   -0.5410 57.5 182 
 625  0Z IP        447 33.65                              96    0.7410 70.5 146 
 625  0N ES        447 41.29                              96   -0.2410 70.5 146 
 628  0Z IP        447 34.27                              95   -0.3310 81.0 113 
 628  0N ES        447 44.02                              95   -0.4410 81.0 113 
 627  0Z IP        447 36.61                              94   -0.1810 94.7 132 
 627  0N ES        447 48.59                              94    0.3510 94.7 132 
 626  0Z IP        447 37.35                              94    0.0410 97.8 157 
 626  0E ES        447 49.14                              94   -0.0110 97.8 157 
 630  0Z IP        447 42.58                              93   -0.5210  134 120 
 630  0N ES        447 59.57                              93    0.4110  134 120 
 631  0Z IP        447 47.46                              58   -0.3610  165 150 
 631  0N ES        448  7.08                              58   -0.2510  165 150 
 632  0Z IP        447 50.90                              58   -0.1810  189 130 
 632  0N ES        448 13.79                              58    0.8310  189 130 
                                                                                
 2017  313 0553 59.5 L  72.692 124.896 11.8  BER 12 0.4                        1
 GAP=215        1.18       3.8     8.0  4.0  0.7014E+01 -0.1162E+02 -0.2317E+00E
 ACTION:ARG 20-12-21 03:09 OP:mn   STATUS:               ID:20170313055233     I
 2017-03-13-0552-33M.a_____039                                                 6
 STAT SP IPHASW D HRMM SECON CODA AMPLIT PERI AZIMU VELO AIN AR TRES W  DIS CAZ7
 620  0Z IP        554  3.30                             119    0.0310 18.7 257 
 620  0N ES        554  6.35                             119    0.3610 18.7 257 
 622  0Z IP        554  4.92                             107   -0.2110 31.2 153 
 622  0E ES        554  9.27                             107    0.0610 31.2 153 
 623  0Z IP        554  8.38                             100    0.2810 50.1 144 
 623  0E ES        554 14.44                             100    0.0910 50.1 144 
 624  0Z IP        554  8.01                              99   -0.4010 52.0 117 
 624  0N ES        554 15.14                              99    0.2610 52.0 117 
 621  0Z IP        554  8.87                              98   -0.3010 56.7 180 
 621  0E ES        554 15.88                              98   -0.3210 56.7 180 
 625  0Z IP        554 12.43                              96    1.0310 70.8 144 
 625  0E ES        554 19.90                              96   -0.1610 70.8 144 
 628  0Z IP        554 12.54                              95   -0.6910 82.1 112 
 628  0N ES        554 22.67                              95   -0.5510 82.1 112 
 627  0Z IP        554 15.10                              95   -0.2410 95.3 131 
 627  0N ES        554 26.94                              95    0.0710 95.3 131 
 626  0Z IP        554 16.01                              95    0.2610 97.7 156 
 626  0E ES        554 27.31                              95   -0.2710 97.7 156 
 630  0Z IP        554 21.29                              93   -0.4010  135 119 
 630  0E ES        554 38.85                              93    0.9810  135 119 
 631  0Z IP        554 25.93                              58   -0.2710  165 150 
 631  0N ES        554 45.42                              58   -0.2410  165 150 
 632  0Z IP        554 29.51                              58   -0.0210  190 129 
 632  0N ES        554 52.08                              58    0.6510  190 129 
                                                                                
 2017  313 0809  6.1 L  72.454 125.041  2.4  BER 13 0.6                        1
 GAP=132        1.69       3.2    10.0  5.5  0.6268E+01 -0.2171E+02  0.2887E+01E
 ACTION:ARG 20-12-21 03:09 OP:mn   STATUS:               ID:20170313080741     I
 2017-03-13-0807-41M.a_____039                                                 6
 STAT SP IPHASW D HRMM SECON CODA AMPLIT PERI AZIMU VELO AIN AR TRES W  DIS CAZ7
 622  0Z IP        8 9  7.76                             105   -0.0710 9.25  98 
 622  0N ES        8 9  9.32                             105    0.2510 9.25  98 
 623  0Z IP        8 9 10.65                              95   -0.5110 28.1 120 
 623  0N ES        8 9 14.89                              95    0.0410 28.1 120 
 621  0Z IP        8 9 11.42                              95   -0.1710 30.5 190 
 621  0N ES        8 9 15.96                              95    0.3810 30.5 190 
 620  0Z IP        8 9 11.73                              94   -0.1610 32.2 314 
 620  0E ES        8 9 16.77                              94    0.6610 32.2 314 
 624  0Z IP        8 9 12.86                              65   -0.5510 41.6  86 
 624  0E ES        8 9 18.19                              65   -0.5410 41.6  86 
 625  0Z IP        8 9 13.81                              65   -0.5910 47.7 130 
 625  0E ES        8 9 20.38                              65   -0.0710 47.7 130 
 628  0Z IP        8 9 17.50                              65   -0.6910 71.2  94 
 628  0N ES        8 9 26.57                              65   -0.4410 71.2  94 
 626  0Z IP        8 9 17.81                              65   -0.4710 71.7 151 
 626  0E ES        8 9 26.75                              65   -0.4110 71.7 151 
 627  0Z IP        8 9 18.62                              65   -0.3210 75.9 119 
 627  0E ES        8 9 28.34                              65    0.0410 75.9 119 
 629  0Z IP        8 9 23.22                              65    0.8510 97.2 126 
 629  0E ES        8 9 35.02                              65    0.7810 97.2 126 
 630  0Z IP        8 9 25.92                              65   -0.0410  119 109 
 630  0N ES        8 9 42.64                              65    2.2010  119 109 
 631  0Z IP        8 9 29.68                              65    0.3510  140 146 
 631  0E ES        8 9 45.58                              65   -0.7010  140 146 
 632  0Z IP        8 9 34.08                              65   -0.0610  170 123 
 632  0N ES        8 9 54.84                              65    0.2410  170 123 
                                                                                
