 2016 11 5 0642 24.8 L  72.326 129.837 15.5  BER 13 0.4 1.4LBER 2.0CBER        1
 GAP=274        0.98       2.9    11.1  2.7  0.1436E+02 -0.1358E+01 -0.1590E+01E
 ACTION:REE 25-08-04 21:52 OP:mn   STATUS:               ID:20161105064125     I
 2016-11-05-0641-25M.arct__039                                                 6
 STAT SP IPHASW D HRMM SECON CODA AMPLIT PERI AZIMU VELO AIN AR TRES W  DIS CAZ7
 630  0Z IP        642 34.23                             102   -0.6510 58.7 242 
 632  0Z IP        642 39.22   92                         98   -0.3210 88.0 198 
 632  0E ES        642 50.38                              98    0.1110 88.0 198 
 632  0Z  IAML     642 51.93        22.1 0.57                          88.0 198 
 628  0Z IP        642 40.41   64                         97    0.3410 91.4 276 
 628  0E ES        642 51.87                              97    0.6810 91.4 276 
 628  0Z  IAML     642 52.85        17.4 0.13                          91.4 276 
 629  0Z IP        642 41.15                              97    0.1510 97.2 244 
 629  0N ES        642 52.71                              97   -0.0910 97.2 244 
 627  0Z IP        642 41.31                              97   -0.1610  100 258 
 627  0N ES        642 53.41                              97   -0.2010  100 258 
 624  0Z IP        642 44.86                              95   -0.0210  121 280 
 624  0N ES        642 59.24                              95   -0.2810  121 280 
 625  0Z IP        642 46.24                              95    0.2810  128 264 
 625  0N ES        643  1.28                              95   -0.0910  128 264 
 631  0Z IP        642 47.72                              58    0.4010  137 222 
 631  0N ES        643  3.31                              58   -0.4210  137 222 
 623  0Z IP        642 47.57                              58    0.1210  138 272 
 623  0N ES        643  3.99                              58    0.0310  138 272 
 626  0Z IP        642 48.00   55                         58    0.3810  139 251 
 626  0E ES        643  5.00                              58    0.7510  139 251 
 626  0Z  IAML     643  5.05         7.7 0.37                           139 251 
 622  0Z IP        642 49.23                              58   -0.3010  153 277 
 622  0N ES        643  7.53                              58   -0.0310  153 277 
 621  0Z IP        642 51.98                              58    0.2710  169 267 
 621  0N ES        643 11.25                              58   -0.0810  169 267 
 620  0Z IP        642 54.08   57                         58   -0.1910  188 284 
 620  0E ES        643 15.04                              58   -0.7110  188 284 
 620  0Z  IAML     643 22.25         2.5 0.46                           188 284 
                                                                                
 2016 11 5 0653 53.4 L  72.325 129.851 16.3  BER 13 0.4 1.6LBER 2.0CBER        1
 GAP=274        1.09       3.1    11.9  2.9  0.1474E+02 -0.3795E+01 -0.2479E+01E
 ACTION:REE 25-08-04 21:52 OP:mn   STATUS:               ID:20161105065254     I
 2016-11-05-0652-54M.arct__039                                                 6
 STAT SP IPHASW D HRMM SECON CODA AMPLIT PERI AZIMU VELO AIN AR TRES W  DIS CAZ7
 630  0Z IP        654  2.86                             103   -0.7010 59.1 243 
 630  0N ES        654 11.95                             103    1.0010 59.1 243 
 632  0Z IP        654  7.71                              98   -0.4510 88.0 198 
 632  0N ES        654 18.63                              98   -0.2710 88.0 198 
 628  0Z IP        654  8.91   70                         98    0.1510 91.8 276 
 628  0E ES        654 19.86                              98   -0.0910 91.8 276 
 628  0Z  IAML     654 21.51        31.5 0.14                          91.8 276 
 629  0Z IP        654  9.80                              97    0.1310 97.6 244 
 629  0N ES        654 21.65                              97    0.1210 97.6 244 
 627  0Z IP        654  9.96                              97   -0.1910  101 258 
 627  0N ES        654 21.89                              97   -0.4610  101 258 
 624  0Z IP        654 13.67                              96    0.1010  122 280 
 624  0N ES        654 27.63                              96   -0.6410  122 280 
 625  0Z IP        654 14.89                              95    0.2510  129 264 
 625  0N ES        654 30.61                              95    0.4910  129 264 
 631  0Z IP        654 16.48   66                         58    0.6110  137 222 
 631  0N ES        654 32.11                              58   -0.1410  137 222 
 631  0Z  IAML     654 33.81        16.1 0.40                           137 222 
 623  0Z IP        654 16.63                              58    0.5910  139 272 
 623  0N ES        654 32.63                              58    0.0910  139 272 
 626  0Z IP        654 16.42                              58    0.2210  140 251 
 626  0N ES        654 32.39                              58   -0.4210  140 251 
 622  0Z IP        654 17.91                              58   -0.2110  154 277 
 622  0N ES        654 35.81                              58   -0.3310  154 277 
 621  0Z IP        654 20.56   62                         58    0.2710  170 267 
 621  0E ES        654 39.89                              58   -0.0110  170 267 
 621  0Z  IAML     654 41.99         5.9 0.31                           170 267 
 620  0Z IP        654 22.64   53                         58   -0.2110  188 284 
 620  0E ES        654 44.42                              58    0.0910  188 284 
 620  0Z  IAML     654 50.90         3.2 0.39                           188 284 
                                                                                
 2016 11 5 0747 50.5 L  72.312 129.766 15.0  BER 11 0.4 1.1LBER 1.7CBER        1
 GAP=272        1.03       3.2    12.7  3.5  0.1693E+02 -0.9258E+00 -0.4302E+01E
 ACTION:REE 25-08-04 21:53 OP:mn   STATUS:               ID:20161105074707     I
 2016-11-05-0747-07M.arct__039                                                 6
 STAT SP IPHASW D HRMM SECON CODA AMPLIT PERI AZIMU VELO AIN AR TRES W  DIS CAZ7
 630  0Z IP        747 59.45                             102   -0.6210 55.8 242 
 632  0Z IP        748  5.49                              98    0.6610 85.8 197 
 632  0N ES        748 14.75                              98   -0.5410 85.8 197 
 628  0Z IP        748  5.65                              97    0.2710 89.2 278 
 628  0N ES        748 16.33                              97    0.1010 89.2 278 
 629  0Z IP        748  6.43                              97    0.2310 94.3 244 
 629  0N ES        748 17.72                              97    0.0710 94.3 244 
 627  0Z IP        748  6.65                              97   -0.0410 97.4 258 
 627  0N ES        748 18.26                              97   -0.2510 97.4 258 
 624  0Z IP        748 10.12   50                         95   -0.0910  119 280 
 624  0E ES        748 24.96                              95    0.3710  119 280 
 624  0Z  IAML     748 25.55         6.2 0.39                           119 280 
 631  0Z IP        748 12.98                              95    0.3510  134 222 
 631  0N ES        748 28.54                              95   -0.2410  134 222 
 626  0Z IP        748 13.47   50                         58    0.5310  136 251 
 626  0N ES        748 29.88                              58    0.5610  136 251 
 626  0Z  IAML     748 30.10         4.0 0.51                           136 251 
 622  0Z IP        748 14.32                              58   -0.6110  151 278 
 622  0N ES        748 32.38                              58   -0.3910  151 278 
 621  0Z IP        748 17.14   50                         58    0.0710  167 267 
 621  0N ES        748 36.58                              58    0.1110  167 267 
 621  0Z  IAML     748 38.55         2.3 0.34                           167 267 
 620  0Z IP        748 19.29   52                         58   -0.4110  186 284 
 620  0E ES        748 40.89                              58   -0.1310  186 284 
 620  0Z  IAML     748 47.43         1.3 0.38                           186 284 
                                                                                
 2016 1116 1036  4.3 L  72.746 124.949 10.9  BER  7 0.3 0.6LBER 1.5CBER        1
 GAP=234        0.74       3.1     7.4 11.3  0.1425E+01 -0.5701E+02 -0.2427E+00E
 ACTION:REE 25-08-04 21:55 OP:mn   STATUS:               ID:20161116103351     I
 2016-11-16-1033-51M.arct__039                                                 6
 STAT SP IPHASW D HRMM SECON CODA AMPLIT PERI AZIMU VELO AIN AR TRES W  DIS CAZ7
 620  0Z IP       1036  8.25   49                        112   -0.2710 22.5 243 
 620  0N ES       1036 11.86                             112    0.2610 22.5 243 
 620  0Z  IAML    1036 12.46        10.1 0.34                          22.5 243 
 622  0Z IP       1036 10.46                             102   -0.1710 36.1 160 
 622  0N ES       1036 15.02                             102   -0.2110 36.1 160 
 624  0Z IP       1036 13.48   41                         98    0.0710 53.6 124 
 624  0E ES       1036 20.36                              98    0.3110 53.6 124 
 624  0Z  IAML    1036 20.79         8.1 0.18                          53.6 124 
 623  0Z IP       1036 13.76                              98    0.2510 54.2 150 
 621  0Z IP       1036 14.87   44                         96   -0.0310 62.8 182 
 621  0E ES       1036 22.33                              96   -0.3010 62.8 182 
 621  0Z  IAML    1036 22.48         3.3 0.21                          62.8 182 
 628  0Z IP       1036 17.72                              95   -0.4210 83.0 117 
 628  0N ES       1036 28.08                              95   -0.1510 83.0 117 
 626  0Z IP       1036 21.80   39                         94    0.5010  103 158 
 626  0E ES       1036 33.86                              94    0.1610  103 158 
 626  0Z  IAML    1036 34.58         1.8 0.45                           103 158 
                                                                                
 2016 1116 2215 50.0 L  72.758 124.939 11.6  BER 12 0.3 2.2LBER 2.1CBER        1
 GAP=238        0.94       3.2     6.6  3.4  0.2709E+01 -0.7991E+01 -0.1211E+01E
 ACTION:REE 25-08-04 21:56 OP:mn   STATUS:               ID:20161116221424     I
 2016-11-16-2214-24M.arct__039                                                 6
 STAT SP IPHASW D HRMM SECON CODA AMPLIT PERI AZIMU VELO AIN AR TRES W  DIS CAZ7
 620  0Z IP       2215 54.33                             113    0.0210 22.8 240 
 620  0N ES       2215 57.69                             113    0.2410 22.8 240 
 622  0Z IP       2215 56.36                             103   -0.1910 37.4 160 
 622  0N ES       2216  0.83                             103   -0.5010 37.4 160 
 624  0Z IP       2215 59.56   78                         98    0.2810 54.5 125 
 624  0E ES       2216  6.74                              98    0.7010 54.5 125 
 624  0Z  IAML    2216  6.79        99.1 0.14                          54.5 125 
 623  0Z IP       2215 59.54                              98    0.1210 55.5 150 
 623  0N ES       2216  6.30                              98    0.0110 55.5 150 
 621  0Z IP       2216  0.83   76                         97    0.0210 64.0 182 
 621  0N ES       2216  8.33                              97   -0.3710 64.0 182 
 621  0Z  IAML    2216 11.21        82.2 0.84                          64.0 182 
 625  0Z IP       2216  2.90                              96    0.1810 76.1 148 
 625  0N ES       2216 12.23                              96    0.2310 76.1 148 
 628  0Z IP       2216  3.65                              95   -0.3310 83.9 117 
 628  0N ES       2216 13.71                              95   -0.4710 83.9 117 
 626  0Z IP       2216  7.19   65                         94   -0.0310  104 159 
 626  0E ES       2216 20.50                              94    0.7310  104 159 
 626  0Z  IAML    2216 20.65        68.6 0.40                           104 159 
 629  0Z IP       2216 10.10                              93   -0.0910  123 138 
 629  0N ES       2216 24.27                              93   -0.6510  123 138 
 630  0Z IP       2216 12.27   49                         93   -0.3010  137 122 
 630  0E ES       2216 29.41                              93    0.3810  137 122 
 630  0Z  IAML    2216 31.39       177.1 0.37                           137 122 
 631  0Z IP       2216 17.26                              58   -0.2110  171 151 
 631  0N ES       2216 37.47                              58   -0.0510  171 151 
 632  0Z IP       2216 20.60                              58    0.0810  193 131 
 632  0N ES       2216 43.01                              58    0.2110  193 131 
                                                                                
 2016 1116 2253  6.3 L  72.733 124.943  8.2  BER  8 0.4 1.2LBER 1.2CBER        1
 GAP=229        1.18       5.0     8.3  6.8  0.1437E+01 -0.2405E+02 -0.2978E+00E
 ACTION:REE 25-08-04 21:56 OP:mn   STATUS:               ID:20161116225147     I
 2016-11-16-2251-47M.arct__039                                                 6
 STAT SP IPHASW D HRMM SECON CODA AMPLIT PERI AZIMU VELO AIN AR TRES W  DIS CAZ7
 620  0Z IP       2253  9.98                             104   -0.2310 21.6 246 
 620  0N ES       2253 13.47                             104    0.3810 21.6 246 
 622  0Z IP       2253 11.95                              98   -0.3310 34.7 159 
 624  0Z IP       2253 15.13   39                         94   -0.0710 52.9 122 
 624  0N ES       2253 22.46                              94    0.7310 52.9 122 
 624  0Z  IAML    2253 22.46        23.5 0.22                          52.9 122 
 621  0Z IP       2253 16.89   31                         94    0.3310 61.2 182 
 621  0E ES       2253 24.07                              94   -0.0110 61.2 182 
 621  0Z  IAML    2253 24.15         7.7 0.26                          61.2 182 
 628  0Z IP       2253 19.41                              93   -0.5710 82.5 116 
 628  0N ES       2253 29.65                              93   -0.3410 82.5 116 
 626  0Z IP       2253 23.43   42                         92    0.4210  101 158 
 626  0E ES       2253 34.43                              92   -0.8010  101 158 
 626  0Z  IAML    2253 36.43         3.4 0.28                           101 158 
 630  0Z IP       2253 28.22   31                         91   -0.3210  136 121 
 630  0N ES       2253 45.49                              91    0.6910  136 121 
 630  0Z  IAML    2253 46.99        11.5 0.29                           136 121 
 632  0Z IP       2253 36.73                              58   -0.0610  191 130 
 632  0N ES       2253 59.25                              58    0.1710  191 130 
                                                                                
 2016 1116 2316 11.5 L  72.750 124.926 11.0  BER 10 0.4 1.8LBER 1.6CBER        1
 GAP=235        1.17       4.6     8.7  6.0  0.4549E+01 -0.2452E+02 -0.3079E+01E
 ACTION:REE 25-08-04 21:56 OP:mn   STATUS:               ID:20161116231520     I
 2016-11-16-2315-20M.arct__039                                                 6
 STAT SP IPHASW D HRMM SECON CODA AMPLIT PERI AZIMU VELO AIN AR TRES W  DIS CAZ7
 620  0Z IP       2316 15.63                             112   -0.0110 22.0 241 
 620  0N ES       2316 18.99                             112    0.3310 22.0 241 
 622  0Z IP       2316 17.62                             102   -0.2910 36.7 159 
 624  0Z IP       2316 20.75   44                         98    0.0210 54.4 124 
 624  0Z  IAML    2316 28.11        69.9 0.25                          54.4 124 
 624  0N ES       2316 28.40                              98    0.9410 54.4 124 
 623  0Z IP       2316 21.04                              98    0.2310 54.9 149 
 623  0N ES       2316 27.96                              98    0.3610 54.9 149 
 621  0Z IP       2316 22.07   54                         96   -0.0710 63.1 181 
 621  0N ES       2316 29.73                              96   -0.1810 63.1 181 
 621  0Z  IAML    2316 29.80        31.3 0.24                          63.1 181 
 628  0Z IP       2316 25.01                              95   -0.4510 83.9 117 
 628  0N ES       2316 35.25                              95   -0.4010 83.9 117 
 626  0Z IP       2316 28.62   54                         94    0.0310  103 158 
 626  0E ES       2316 40.86                              94   -0.2010  103 158 
 626  0Z  IAML    2316 41.89        18.4 0.48                           103 158 
 629  0Z IP       2316 31.87                              93    0.2610  122 137 
 629  0Z ES       2316 45.34                              93   -0.9610  122 137 
 630  0Z IP       2316 33.52   36                         93   -0.5110  137 122 
 630  0N ES       2316 51.10                              93    0.6210  137 122 
 630  0Z  IAML    2316 52.63        44.8 0.27                           137 122 
 632  0Z IP       2316 41.91                              58   -0.1210  193 131 
 632  0Z ES       2317  4.70                              58    0.3810  193 131 
                                                                                
