 2016  819 0959 26.8 L  71.933 129.884 11.3  BER 13 0.3 4.0LBER                1
 GAP=275        0.96       2.5    11.2  3.4  0.9359E+01 -0.7381E+01 -0.3034E+01E
 ACTION:REG 25-04-10 18:57 OP:mn   STATUS:               ID:20160819095900     I
 2016_08_19T09-59-00.mseed                                                     6
 STAT SP IPHASW D HRMM SECON CODA AMPLIT PERI AZIMU VELO AIN AR TRES W  DIS CAZ7
 632  0Z IP        959 34.86                              99   -0.3010 49.1 216 
 632  0N ES        959 41.02                              99   -0.2710 49.1 216 
 632  0Z  IAML     959 42.18      3428.8 0.50                          49.1 216 
 630  0Z IP        959 35.80                              98   -0.4810 56.1 287 
 630  0N ES        959 43.04                              98   -0.1710 56.1 287 
 630  0Z  IAML     959 46.28      6337.0 0.50                          56.1 287 
 629  0Z IP        959 41.37                              95   -0.1910 89.0 271 
 629  0N ES        959 52.67                              95    0.3110 89.0 271 
 629  0Z  IAML     959 54.20      5388.4 0.68                          89.0 271 
 627  0Z IP        959 44.19                              94    0.5310  102 283 
 627  0N ES        959 56.45                              94    0.4610  102 283 
 627  0Z  IAML     959 57.52      6764.5 0.60                           102 283 
 628  0Z IP        959 44.86                              94    0.3810  107 300 
 628  0N ES        959 57.50                              94    0.1010  107 300 
 628  0Z  IAML     959 57.78     13245.6 0.30                           107 300 
 631  0Z IP        959 45.21                              94    0.2510  110 239 
 631  0N ES        959 58.31                              94    0.0810  110 239 
 631  0Z  IAML    10 0  1.28      2471.1 0.60                           110 239 
 625  0Z IP        959 48.49                              93   -0.1010  133 283 
 625  0Z  IAML    10 0 10.74      3132.8 1.06                           133 283 
 626  0Z IP        959 48.52                              93   -0.2110  133 270 
 626  0N ES       10 0  4.58                              93   -0.1810  133 270 
 626  0Z  IAML    10 0 10.30      1873.9 0.66                           133 270 
 625  0N ES       10 0  4.69                              93    0.1810  133 283 
 624  0Z IP        959 49.35                              93    0.0210  137 298 
 624  0N ES       10 0  5.15                              93   -0.6410  137 298 
 624  0Z  IAML    10 0  8.14      5852.5 0.52                           137 298 
 623  0Z IP        959 51.19                              93    0.1410  148 289 
 623  0N ES       10 0  8.74                              93   -0.0210  148 289 
 623  0Z  IAML    10 0 14.06      3312.3 0.94                           148 289 
 622  0Z IP        959 53.97                              58    0.4110  166 292 
 622  0N ES       10 0 12.65                              58   -0.4710  166 292 
 622  0Z  IAML    10 0 18.96      1931.4 0.68                           166 292 
 621  0Z IP        959 55.14                              58    0.4610  174 282 
 621  0N ES       10 0 15.63                              58    0.5810  174 282 
 621  0Z  IAML    10 0 16.65      3571.0 0.48                           174 282 
 620  0Z IP        959 58.52                              58   -0.3010  204 296 
 620  0N ES       10 0 21.63                              58   -0.5710  204 296 
 620  0Z  IAML    10 0 30.94      2333.6 0.54                           204 296 
                                                                                
 2016  820 1506 15.8 L  71.947 129.852  8.6  BER 13 0.4                        1
 GAP=274        1.14       2.9    13.2  4.3  0.1395E+02 -0.1127E+02 -0.4385E+01E
 ACTION:ARG 20-05-11 21:31 OP:mn   STATUS:               ID:20160820150518     I
 2016-08-20-1505-18M.arct__039                                                 6
 STAT SP IPHASW D HRMM SECON CODA AMPLIT PERI AZIMU VELO AIN AR TRES W  DIS CAZ7
 632  0Z IP       15 6 23.53                              95   -0.7010 49.8 214 
 632  0N ES       15 6 30.00                              95   -0.4010 49.8 214 
 630  0N ES       15 6 31.53                              95   -0.2010 54.6 286 
 629  0Z IP       15 6 30.49                              93    0.1210 87.9 270 
 629  0N ES       15 6 41.29                              93    0.2710 87.9 270 
 627  0Z IP       15 6 32.40                              92   -0.0310  101 282 
 627  0N ES       15 6 44.74                              92    0.1710  101 282 
 628  0Z IP       15 6 33.09                              92   -0.1010  105 300 
 628  0N ES       15 6 45.70                              92   -0.1810  105 300 
 631  0Z IP       15 6 35.44                              92    1.5010  110 237 
 631  0N ES       15 6 47.30                              92    0.1110  110 237 
 625  0Z IP       15 6 37.52                              92    0.1610  131 283 
 625  0N ES       15 6 53.22                              92    0.1210  131 283 
 626  0Z IP       15 6 37.36                              92   -0.2010  132 269 
 626  0N ES       15 6 53.10                              92   -0.3510  132 269 
 624  0Z IP       15 6 37.83                              92   -0.2210  136 297 
 624  0N ES       15 6 54.31                              92    0.0110  136 297 
 623  0Z IP       15 6 39.93                              92    0.1310  146 289 
 623  0N ES       15 6 57.20                              92   -0.1210  146 289 
 622  0Z IP       15 6 42.30                              58   -0.2910  164 292 
 622  0Z ES       15 7  2.57                              58    0.4110  164 292 
 621  0Z IP       15 6 43.40                              58   -0.3410  173 281 
 621  0N ES       15 7  4.06                              58   -0.0810  173 281 
 620  0Z IP       15 6 48.42                              58    0.5810  203 295 
 620  0N ES       15 7 10.83                              58   -0.4010  203 295 
                                                                                
 2016  822 1318 49.7 L  72.363 127.100 15.0  BER  8 0.2 0.9CBER                1
 GAP=106        0.46       1.5     3.1  3.7  0.1848E+01  0.3092E+01  0.2255E+01E
 ACTION:UP  21-01-08 22:12 OP:elen STATUS:               ID:20160822131743     I
 OLDACT:REG 21-01-08 15:24 OP:elen STATUS:               ID:20160822131743     3
 2016-08-22-1317-43M.arct__039                                                 6
 STAT SP IPHASW D HRMM SECON CODA AMPLIT PERI AZIMU VELO AIN AR TRES W  DIS CAZ7
 628  0Z IP    A  1318 52.27   29                        163   -0.1010 4.41  21 
 628  0N IS   3A  1318 54.48                             163    0.19 2 4.41  21 
 627  0Z IP    AD 1318 54.94                             116   -0.0710 27.7 188 
 627  0E IS   3A  1318 58.78                             116   -0.06 2 27.7 188 
 624  0Z IP       1318 55.19                             113   -0.2210 30.5 295 
 624  0E ES       1318 59.46                             113   -0.0910 30.5 295 
 625  0Z IP       1318 56.66                             108   -0.1510 39.8 238 
 625  0N ES       1319  2.22                             108    0.2510 39.8 238 
 630  0Z IP       1318 58.88                             103    0.0610 52.7 127 
 630  0E ES       1319  5.54                             103    0.0910 52.7 127 
 630  0E IS   3A  1319  5.56                             103    0.11 2 52.7 127 
 622  0Z IP       1319  0.53                             101    0.4110 60.9 279 
 622  0N ES       1319  7.83                             101    0.1410 60.9 279 
 626  0Z IP       1319  0.52                             100   -0.1610 64.3 215 
 626  0N ES       1319  8.58                             100   -0.0710 64.3 215 
 621  0Z IP       1319  2.86                              98    0.0510 77.8 256 
 621  0N ES       1319 12.21                              98   -0.1410 77.8 256 
                                                                                
 2016 10 5 1619 47.1 L  72.886 124.998 16.0  BER 11 0.4 1.1LBER                1
 GAP=266        1.13       4.4    10.4  3.7  0.4055E+01 -0.1697E+02 -0.4822E+01E
 ACTION:ARG 20-04-11 14:12 OP:mn   STATUS:               ID:20161005161823     I
 2016-10-05-1618-23M.SIOLA_039                                                 6
 STAT SP IPHASW D HRMM SECON CODA AMPLIT PERI AZIMU VELO AIN AR TRES W  DIS CAZ7
 620  0Z IP       1619 53.23                             113   -0.0210 33.7 220 
 620  0N ES       1619 57.63                             113   -0.1510 33.7 220 
 620  0Z  IAML    1619 58.01        11.3 0.26                          33.7 220 
 622  0Z IP       1619 55.77                             105   -0.0810 50.7 168 
 622  0Z  IAML    1620  2.11        13.0 0.30                          50.7 168 
 622  0N ES       1620  2.15                             105   -0.1210 50.7 168 
 624  0Z IP       1619 57.69                             102   -0.0110 62.4 137 
 624  0N ES       1620  5.56                             102    0.0910 62.4 137 
 624  0Z  IAML    1620  5.84        11.9 0.16                          62.4 137 
 623  0Z IP       1619 58.60                             101    0.1010 67.5 158 
 623  0N ES       1620  7.19                             101    0.3410 67.5 158 
 623  0Z  IAML    1620  7.57         8.4 0.68                          67.5 158 
 621  0Z IP       1620  0.07                              99   -0.1910 78.4 183 
 621  0N ES       1620 10.15                              99    0.2510 78.4 183 
 621  0Z  IAML    1620 10.56         9.7 0.26                          78.4 183 
 625  0Z IP       1620  3.32                              98    1.6010 87.7 154 
 625  0N ES       1620 12.17                              98   -0.2610 87.7 154 
 625  0Z  IAML    1620 12.36         4.3 0.80                          87.7 154 
 628  0Z IP       1620  1.66                              98   -0.4010 89.8 126 
 628  0N ES       1620 12.97                              98   -0.0310 89.8 126 
 628  0Z  IAML    1620 13.46         8.2 0.52                          89.8 126 
 626  0Z IP       1620  6.07                              96   -0.3210  117 162 
 626  0N ES       1620 19.87                              96   -0.6310  117 162 
 629  0Z IP       1620  8.81                              58   -0.0110  132 143 
 629  0N ES       1620 24.67                              58   -0.0410  132 143 
 629  0Z  IAML    1620 25.99         4.7 0.18                           132 143 
 630  0Z IP       1620 10.00                              58   -0.4010  144 127 
 630  0N ES       1620 27.46                              58    0.0210  144 127 
 630  0Z  IAML    1620 27.89         3.9 0.22                           144 127 
 631  0Z IP       1620 15.85                              58    0.0810  183 154 
 631  0N ES       1620 36.91                              58    0.1910  183 154 
 631  0Z  IAML    1620 37.91         6.1 0.21                           183 154 
                                                                                
 2016 10 6 0156 55.9 L  72.886 124.989 13.5  BER 11 0.5                        1
 GAP=266        1.29       5.0    11.8  4.6  0.4134E+01 -0.2423E+02 -0.7444E+01E
 ACTION:ARG 20-04-11 14:12 OP:mn   STATUS:               ID:20161006015532     I
 2016-10-06-0155-32M.SIOLA_039                                                 6
 STAT SP IPHASW D HRMM SECON CODA AMPLIT PERI AZIMU VELO AIN AR TRES W  DIS CAZ7
 620  0Z IP        157  1.81                             109   -0.0710 33.5 220 
 620  0N ES        157  6.52                             109    0.2410 33.5 220 
 622  0Z IP        157  4.39                             102   -0.1810 50.8 168 
 622  0N ES        157 10.63                             102   -0.3010 50.8 168 
 624  0Z IP        157  6.69                              99    0.2310 62.6 136 
 624  0N ES        157 14.36                              99    0.1610 62.6 136 
 623  0Z IP        157  7.49                              98    0.2410 67.6 157 
 623  0N ES        157 16.15                              98    0.5810 67.6 157 
 621  0Z IP        157  8.98                              97   -0.0210 78.5 182 
 621  0N ES        157 18.32                              97   -0.2710 78.5 182 
 625  0Z IP        157 11.58                              96    1.0910 87.9 154 
 625  0N ES        157 21.00                              96   -0.1810 87.9 154 
 628  0Z IP        157 10.67                              96   -0.1710 90.1 126 
 628  0N ES        157 21.64                              96   -0.1510 90.1 126 
 626  0Z IP        157 15.01                              95   -0.1510  117 162 
 626  0N ES        157 28.53                              95   -0.7310  117 162 
 630  0Z IP        157 18.68                              58   -0.7610  144 127 
 630  0N ES        157 36.02                              58   -0.6410  144 127 
 631  0Z IP        157 24.49                              58   -0.3010  183 154 
 631  0N ES        157 46.17                              58    0.2510  183 154 
 632  0Z IP        157 27.40                              58    0.0310  202 135 
 632  0Z ES        157 51.48                              58    1.1010  202 135 
                                                                                
 2016 10 9 0036 44.9 L  72.886 125.003 14.1  BER 11 0.5                        1
 GAP=266        1.27       5.2    11.8  4.4  0.1095E+02 -0.2262E+02 -0.7979E+01E
 ACTION:ARG 20-04-11 14:12 OP:mn   STATUS:               ID:20161009003553     I
 2016-10-09-0035-53M.SIOLA_039                                                 6
 STAT SP IPHASW D HRMM SECON CODA AMPLIT PERI AZIMU VELO AIN AR TRES W  DIS CAZ7
 620  0Z IP        036 50.80                             110   -0.2010 33.8 220 
 620  0N ES        036 55.35                             110   -0.1010 33.8 220 
 622  0Z IP        036 53.63                             102    0.0110 50.6 168 
 622  0N ES        036 59.62                             102   -0.3610 50.6 168 
 624  0Z IP        036 55.49                             100    0.0210 62.3 137 
 624  0N ES        037  3.09                             100   -0.0910 62.3 137 
 623  0Z IP        036 56.77                              99    0.4910 67.4 158 
 623  0N ES        037  4.84                              99    0.2510 67.4 158 
 625  0Z IP        037  0.75                              97    1.2410 87.7 154 
 625  0N ES        037 10.17                              97   -0.0110 87.7 154 
 628  0Z IP        036 59.69                              97   -0.1510 89.7 126 
 628  0N ES        037 10.49                              97   -0.2610 89.7 126 
 626  0Z IP        037  3.87                              95   -0.3210  117 162 
 626  0N ES        037 17.49                              95   -0.7910  117 162 
 629  0Z IP        037  6.51                              94   -0.1610  132 143 
 629  0N ES        037 23.23                              94    0.6710  132 143 
 630  0Z IP        037  8.10                              58   -0.2910  144 127 
 630  0N ES        037 24.59                              58   -0.9510  144 127 
 631  0Z IP        037 13.69                              58   -0.0710  183 154 
 631  0N ES        037 35.36                              58    0.5310  183 154 
 632  0Z IP        037 16.45                              58    0.1210  202 135 
 632  0N ES        037 39.68                              58    0.4210  202 135 
                                                                                
 2016 1012 0800 22.3 L  72.746 126.065 13.1  BER 12 0.3                        1
 GAP=233        0.82       2.6     5.3  2.9  0.4335E+01 -0.5760E+01 -0.1653E+01E
 ACTION:ARG 20-04-11 14:12 OP:mn   STATUS:               ID:20161012080000     I
 2016-10-12-0800-00M.SIOLA_039                                                 6
 STAT SP IPHASW D HRMM SECON CODA AMPLIT PERI AZIMU VELO AIN AR TRES W  DIS CAZ7
 624  0Z IP        8 0 27.96                             110    0.0110 30.9 167 
 624  0N ES        8 0 32.34                             110    0.2910 30.9 167 
 622  0Z IP        8 0 29.61                             104   -0.0810 42.2 217 
 622  0N ES        8 0 34.99                             104   -0.0610 42.2 217 
 623  0Z IP        8 0 30.71                             102    0.1210 47.9 192 
 623  0N ES        8 0 37.06                             102    0.4410 47.9 192 
 628  0Z IP        8 0 30.92                             101   -0.4610 52.9 136 
 628  0N ES        8 0 37.84                             101   -0.1410 52.9 136 
 620  0Z IP        8 0 31.96                             100   -0.2210 57.9 261 
 620  0N ES        8 0 39.36                             100   -0.0010 57.9 261 
 625  0Z IP        8 0 32.91                              99   -0.2010 63.8 179 
 625  0N ES        8 0 40.91                              99   -0.0710 63.8 179 
 621  0Z IP        8 0 34.69                              97   -0.0910 74.1 213 
 621  0N ES        8 0 43.73                              97   -0.1310 74.1 213 
 627  0Z IP        8 0 35.60                              97    0.4310 76.7 156 
 627  0E ES        8 0 44.48                              97   -0.0610 76.7 156 
 626  0Z IP        8 0 38.96                              95    0.7210 95.7 181 
 626  0N ES        8 0 49.33                              95   -0.5210 95.7 181 
 630  0Z IP        8 0 40.24                              95    0.2310  107 133 
 630  0N ES        8 0 52.64                              95   -0.2710  107 133 
 631  0Z IP        8 0 47.21                              58   -0.3410  156 164 
 631  0N ES        8 1  6.06                              58    0.1010  156 164 
 632  0Z IP        8 0 49.44                              58    0.4310  166 140 
 632  0N ES        8 1  8.39                              58   -0.0910  166 140 
                                                                                
