 2016 1015 1013 37.0 L  72.055 126.968  9.6  BER 13 0.4                        1
 GAP= 78        1.10       1.7     5.1  4.9  0.3833E+01  0.5950E+01  0.1473E+01E
 ACTION:ARG 20-04-11 14:12 OP:mn   STATUS:               ID:20161015101225     I
 2016-10-15-1012-25M.SIOLA_039                                                 6
 STAT SP IPHASW D HRMM SECON CODA AMPLIT PERI AZIMU VELO AIN AR TRES W  DIS CAZ7
 627  0Z IP       1013 38.86                             142   -0.1210 6.94   4 
 627  0N ES       1013 40.65                             142    0.1910 6.94   4 
 629  0Z IP       1013 40.18                             113   -0.3010 18.4 140 
 629  0Z ES       1013 43.13                             113    0.0710 18.4 140 
 625  0Z IP       1013 42.39                             101   -0.2510 32.4 295 
 625  0N ES       1013 46.82                             101    0.0410 32.4 295 
 626  0Z IP       1013 43.03                             100   -0.3910 37.2 240 
 626  0N ES       1013 47.98                             100   -0.1610 37.2 240 
 628  0Z IP       1013 43.01                              99   -0.6810 39.0   9 
 628  0N ES       1013 48.22                              99   -0.3910 39.0   9 
 630  0Z IP       1013 44.61                              97   -0.3110 46.7  87 
 630  0N ES       1013 50.64                              97   -0.1010 46.7  87 
 623  0Z IP       1013 45.75                              96    0.1210 51.1 307 
 623  0N ES       1013 52.58                              96    0.6110 51.1 307 
 624  0Z IP       1013 45.77                              96   -0.0910 52.5 334 
 624  0N ES       1013 52.66                              96    0.3010 52.5 334 
 622  0Z IP       1013 48.64                              94   -0.1810 71.0 308 
 622  0N ES       1013 57.74                              94    0.2710 71.0 308 
 621  0Z IP       1013 49.10                              94   -0.0110 72.7 282 
 621  0N ES       1013 57.96                              94   -0.0310 72.7 282 
 631  0Z IP       1013 49.10                              94   -0.1810 73.8 172 
 631  0N ES       1013 58.06                              94   -0.2210 73.8 172 
 632  0Z IP       1013 52.19                              93    0.1710 90.9 125 
 632  0N ES       1014  4.38                              93    1.3510 90.9 125 
 620  0Z IP       1013 54.93                              93   -0.3410  111 308 
 620  0N ES       1014  9.29                              93    0.6510  111 308 
                                                                                
 2016 1029 0831 55.9 L  72.041 127.694  2.7  BER 11 0.4 1.7LBER 2.0CBER        1
 GAP=113        1.10       1.9     6.1  4.1 -0.2936E-01  0.9978E+01 -0.2036E+01E
 ACTION:REE 25-08-04 21:46 OP:mn   STATUS:               ID:20161029083048     I
 OLDACT:UP  20-04-26 21:33 OP:alex STATUS:               ID:20161029083048     3
 OLDACT:ARG 20-04-26 14:49 OP:alex STATUS:               ID:20161029083048     3
 2016-10-29-0830-48M.SIOLA_039                                                 6
 STAT SP IPHASW D HRMM SECON CODA AMPLIT PERI AZIMU VELO AIN AR TRES W  DIS CAZ7
 629  0Z IP     D  831 59.17   58                         99    0.0110 18.2 227 
 629  0E IS        832  1.87                              99    0.3210 18.2 227 
 629  0Z  IAML     832  2.25       315.8 0.32                          18.2 227 
 630  0Z IP        831 59.66                              97   -0.1910 22.0  80 
 630  0N ES        832  2.95                              97    0.2110 22.0  80 
 627  0Z EP     C  832  0.41   37                         96   -0.1210 25.9 289 
 627  0E ES        832  3.48                              96   -0.4410 25.9 289 
 627  0Z ES        832  4.05                             100           25.9 289 
 628  0Z IP        832  2.86                              65   -0.7110 44.1 335 
 628  0N ES        832  8.64                              65   -0.5410 44.1 335 
 625  0Z EP     C  832  5.37   99                         65   -0.1710 56.4 286 
 625  0E ES        832 12.61                              65    0.0210 56.4 286 
 625  0Z  IAML     832 16.70        18.1 1.02                          56.4 286 
 626  0Z IP        832  5.72                              65   -0.3810 59.8 254 
 626  0N ES        832 13.09                              65   -0.4810 59.8 254 
 624  0Z IP        832  7.82                              65    0.3410 68.4 316 
 624  0N ES        832 16.34                              65    0.3910 68.4 316 
 631  0Z EP     C  832  8.24   77                         65   -0.0410 73.3 193 
 631  0E ES        832 17.24                              65   -0.0910 73.3 193 
 631  0Z  IAML     832 19.49        65.7 0.34                          73.3 193 
 623  0Z IP        832  9.37                              65    1.1110 73.3 297 
 623  0N ES        832 17.84                              65    0.5310 73.3 297 
 622  0Z IP        832 11.79                              65    0.4210 92.6 300 
 622  0N ES        832 22.69                              65    0.0110 92.6 300 
 620  0Z IP        832 17.65                              65   -0.1310  132 303 
 620  0N ES        832 33.70                              65   -0.0710  132 303 
                                                                                
 2016 1030 1322 37.7 L  72.559 126.559  0.7  BER 12 0.3 1.9LBER                1
 GAP=212        0.83       2.2     4.2  3.2  0.3723E+01 -0.1074E+01  0.6114E+00E
 ACTION:REE 25-08-04 21:47 OP:mn   STATUS:               ID:20161030132120     I
 OLDACT:ARG 20-04-26 14:49 OP:alex STATUS:               ID:20161030132120     3
 2016-10-30-1321-20M.SIOLA_039                                                 6
 STAT SP IPHASW D HRMM SECON CODA AMPLIT PERI AZIMU VELO AIN AR TRES W  DIS CAZ7
 624  0Z EP     C 1322 40.12                              93    0.0910 13.3 226 
 624  0E ES       1322 41.68                              93   -0.0810 13.3 226 
 624  0Z  IAML    1322 42.72       707.3 0.21                          13.3 226 
 628  0Z EP     C 1322 42.27                              92   -0.1310 26.5 132 
 628  0N ES       1322 46.16                              92    0.2910 26.5 132 
 628  0Z  IAML    1322 46.61       182.7 0.30                          26.5 132 
 623  0Z IP       1322 44.27                              91   -0.0710 37.4 226 
 623  0N ES       1322 49.46                              91    0.2510 37.4 226 
 622  0Z IP       1322 45.24                              65   -0.2010 43.8 253 
 622  0N ES       1322 51.03                              65   -0.0910 43.8 253 
 625  0Z IP       1322 45.46                              65   -0.2710 45.6 200 
 625  0N ES       1322 51.31                              65   -0.3110 45.6 200 
 627  0Z IP       1322 46.47                              65   -0.1910 51.3 164 
 627  0E ES       1322 53.05                              65   -0.1810 51.3 164 
 620  0Z IP       1322 50.31                              65   -0.1010 74.6 279 
 620  0N ES       1323  0.27                              65    0.5610 74.6 279 
 629  0Z IP       1322 50.21                              65   -0.2410 74.8 160 
 629  0E ES       1323  0.08                              65    0.3010 74.8 160 
 626  0Z EP     C 1322 50.70                              65   -0.1010 76.9 194 
 626  0N ES       1322 59.97                              65   -0.4310 76.9 194 
 626  0Z  IAML    1323  1.87        36.2 0.58                          76.9 194 
 630  0Z IP       1322 51.12                              65   -0.2710 80.6 131 
 630  0E ES       1323  1.13                              65   -0.2710 80.6 131 
 631  0Z EP     C 1322 59.88                              65    0.2710  132 169 
 631  0N ES       1323 16.50                              65    0.8710  132 169 
 631  0Z  IAML    1323 22.17        29.5 0.65                           132 169 
 632  0Z IP       1323  1.17                              65    0.2410  140 141 
 632  0E ES       1323 17.99                              65    0.0810  140 141 
                                                                                
 2016 11 5 0556 47.0 L  72.324 129.798 11.8  BER 13 0.5 2.0LBER 2.2CBER        1
 GAP=273        1.34       4.0    14.1  5.2  0.2156E+02 -0.1188E+02 -0.9886E+01E
 ACTION:REE 25-08-04 21:51 OP:mn   STATUS:               ID:20161105055546     I
 2016-11-05-0555-46M.arct__039                                                 6
 STAT SP IPHASW D HRMM SECON CODA AMPLIT PERI AZIMU VELO AIN AR TRES W  DIS CAZ7
 630  0Z IP        556 56.31                              98   -0.3810 57.4 242 
 630  0N ES        557  3.72                              98   -0.0810 57.4 242 
 632  0Z IP        557  1.07   70                         95   -0.4210 87.4 197 
 632  0Z  IAML     557 12.36       104.1 0.21                          87.4 197 
 632  0E ES        557 12.38                              95    0.2810 87.4 197 
 628  0Z IP        557  2.31                              95    0.3810 90.1 277 
 628  0N ES        557 12.89                              95    0.0410 90.1 277 
 629  0Z IP        557  3.20                              95    0.3410 95.9 244 
 629  0N ES        557 14.64                              95    0.1810 95.9 244 
 627  0Z IP        557  3.36                              94    0.0410 98.7 258 
 627  0N ES        557 15.29                              94    0.0310 98.7 258 
 624  0Z IP        557  6.88                              94    0.1210  120 280 
 624  0N ES        557 21.08                              94   -0.1310  120 280 
 625  0Z IP        557  8.18                              93    0.3610  127 264 
 625  0N ES        557 23.14                              93    0.0910  127 264 
 631  0Z IP        557  9.61                              93    0.2810  136 222 
 631  0N ES        557 25.40                              93   -0.2610  136 222 
 623  0Z IP        557  9.58                              93    0.1310  137 272 
 623  0N ES        557 25.54                              93   -0.3310  137 272 
 626  0Z IP        557  9.79                              93    0.1510  138 251 
 626  0E ES        557 25.78                              93   -0.4110  138 251 
 622  0Z IP        557 11.44   84                         58   -0.3510  152 277 
 622  0E ES        557 31.74                              58    1.8210  152 277 
 622  0Z  IAML     557 33.03        18.6 0.28                           152 277 
 621  0Z IP        557 13.87   63                         58   -0.1010  168 267 
 621  0E ES        557 33.44                              58   -0.2410  168 267 
 621  0Z  IAML     557 35.39        26.2 0.37                           168 267 
 620  0Z IP        557 16.11   68                         58   -0.4310  187 284 
 620  0E ES        557 37.04                              58   -1.0910  187 284 
 620  0Z  IAML     557 41.20        10.7 0.43                           187 284 
                                                                                
 2016 11 5 0610 51.4 L  72.316 129.830 16.3  BER 13 0.4 1.2LBER 1.6CBER        1
 GAP=274        0.98       2.8    10.7  2.6  0.1214E+02 -0.3108E+01 -0.1985E+01E
 ACTION:REE 25-08-04 21:51 OP:mn   STATUS:               ID:20161105061008     I
 2016-11-05-0610-08M.arct__039                                                 6
 STAT SP IPHASW D HRMM SECON CODA AMPLIT PERI AZIMU VELO AIN AR TRES W  DIS CAZ7
 630  0Z IP        611  0.74                             103   -0.6410 58.0 243 
 630  0N ES        611  9.46                             103    0.8210 58.0 243 
 632  0Z IP        611  5.41   62                         98   -0.5510 86.8 198 
 632  0E ES        611 16.45                              98   -0.1210 86.8 198 
 632  0Z  IAML     611 18.64        11.0 0.54                          86.8 198 
 628  0Z IP        611  6.96                              98    0.3010 91.2 277 
 628  0N ES        611 17.44                              98   -0.3410 91.2 277 
 629  0Z IP        611  7.58                              97    0.0910 96.5 245 
 629  0N ES        611 19.02                              97   -0.2010 96.5 245 
 627  0Z IP        611  7.98                              97   -0.0210 99.6 258 
 627  0N ES        611 19.90                              97   -0.1910 99.6 258 
 624  0Z IP        611 11.44   39                         96   -0.0410  121 280 
 624  0N ES        611 25.75                              96   -0.3710  121 280 
 624  0Z  IAML     611 27.76         8.5 0.79                           121 280 
 625  0Z IP        611 13.16                              96    0.6610  128 265 
 625  0N ES        611 28.15                              96    0.2610  128 265 
 631  0Z IP        611 14.16                              58    0.4710  136 222 
 631  0N ES        611 29.82                              58   -0.1310  136 222 
 623  0Z IP        611 14.42                              58    0.4810  138 272 
 623  0N ES        611 30.68                              58    0.3110  138 272 
 626  0Z IP        611 14.29                              58    0.2410  139 252 
 626  0N ES        611 30.28                              58   -0.2910  139 252 
 622  0Z IP        611 15.81                              58   -0.2210  153 277 
 622  0N ES        611 33.75                              58   -0.2410  153 277 
 621  0Z IP        611 18.29   47                         58    0.1110  169 267 
 621  0N ES        611 37.85                              58    0.1310  169 267 
 621  0Z  IAML     611 39.92         2.3 0.21                           169 267 
 620  0Z IP        611 20.51   47                         58   -0.2810  188 284 
 620  0E ES        611 41.99                              58   -0.2310  188 284 
 620  0Z  IAML     611 45.61         1.3 0.61                           188 284 
                                                                                
 2016 11 5 0626 29.1 L  72.315 129.793 15.8  BER 13 0.3 2.5LBER 2.4CBER        1
 GAP=273        0.79       2.3     8.9  2.1  0.9506E+01 -0.8693E+00 -0.1001E+01E
 ACTION:REE 25-08-04 21:51 OP:mn   STATUS:               ID:20161105062528     I
 2016-11-05-0625-28M.arct__039                                                 6
 STAT SP IPHASW D HRMM SECON CODA AMPLIT PERI AZIMU VELO AIN AR TRES W  DIS CAZ7
 630  0Z IP        626 38.35                             103   -0.5110 56.8 243 
 632  0Z IP        626 43.28   81                         98   -0.2710 86.3 197 
 632  0E ES        626 53.82                              98   -0.2710 86.3 197 
 632  0Z  IAML     626 56.13       266.0 0.58                          86.3 197 
 628  0Z IP        626 44.05  104                         98   -0.0910 90.0 277 
 628  0N ES        626 55.36                              98    0.2510 90.0 277 
 628  0Z  IAML     626 57.07       211.3 0.18                          90.0 277 
 629  0Z IP        626 45.26                              97    0.2810 95.3 244 
 629  0N ES        626 56.78                              97    0.2210 95.3 244 
 627  0Z IP        626 45.54                              97    0.0710 98.4 258 
 627  0N ES        626 57.37                              97   -0.0410 98.4 258 
 624  0Z IP        626 49.11                              96    0.1410  120 280 
 624  0N ES        627  2.97                              96   -0.4910  120 280 
 625  0Z IP        626 50.07                              95    0.0910  126 265 
 625  0N ES        627  5.57                              95    0.3610  126 265 
 631  0Z IP        626 51.81                              58    0.5210  135 222 
 631  0N ES        627  7.55                              58    0.0610  135 222 
 623  0Z IP        626 51.64                              58    0.1410  137 272 
 623  0N ES        627  7.68                              58   -0.1610  137 272 
 626  0Z IP        626 51.82                              58    0.2110  137 252 
 626  0N ES        627  7.66                              58   -0.3810  137 252 
 622  0Z IP        626 53.38                              58   -0.2210  152 277 
 622  0N ES        627 11.09                              58   -0.3810  152 277 
 621  0Z IP        626 56.09   82                         58    0.3510  168 267 
 621  0N ES        627 15.57                              58    0.3810  168 267 
 621  0Z  IAML     627 17.54        48.7 0.40                           168 267 
 620  0Z IP        626 58.20   67                         58   -0.1610  187 284 
 620  0N ES        627 19.60                              58   -0.1110  187 284 
 620  0Z  IAML     627 23.30        25.7 0.39                           187 284 
                                                                                
 2016 11 5 0629  6.7 L  72.296 129.822 14.9  BER 13 0.5 2.4LBER 2.3CBER        1
 GAP=273        1.49       4.4    16.2  4.5  0.2536E+02 -0.6814E+01 -0.8855E+01E
 ACTION:REE 25-08-04 21:52 OP:mn   STATUS:               ID:20161105062806     I
 2016-11-05-0628-06M.arct__039                                                 6
 STAT SP IPHASW D HRMM SECON CODA AMPLIT PERI AZIMU VELO AIN AR TRES W  DIS CAZ7
 630  0Z IP        629 15.99                             102   -0.4210 56.8 245 
 630  0N ES        629 22.93                             102   -0.5710 56.8 245 
 632  0Z IP        629 20.72   80                         98   -0.1310 84.6 198 
 632  0E ES        629 31.30                              98    0.1310 84.6 198 
 632  0Z  IAML     629 33.37       233.2 0.65                          84.6 198 
 628  0Z IP        629 22.14   75                         97    0.2210 91.3 279 
 628  0N ES        629 34.02                              97    1.0010 91.3 279 
 628  0Z  IAML     629 34.83       210.9 0.37                          91.3 279 
 629  0Z IP        629 22.93                              97    0.3810 95.3 246 
 629  0N ES        629 34.54                              97    0.4210 95.3 246 
 627  0Z IP        629 23.02                              96   -0.1210 98.9 260 
 627  0N ES        629 34.80                              96   -0.3310 98.9 260 
 624  0Z IP        629 26.62                              95   -0.1410  122 281 
 624  0N ES        629 40.85                              95   -0.5510  122 281 
 625  0Z IP        629 27.88                              95    0.2010  127 266 
 625  0N ES        629 42.67                              95   -0.3310  127 266 
 631  0Z IP        629 29.41                              95    0.5910  134 223 
 631  0N ES        629 45.07                              95    0.1010  134 223 
 623  0N ES        629 45.18                              58   -0.6410  138 273 
 626  0Z IP        629 29.37                              58    0.0510  138 253 
 626  0N ES        629 45.29                              58   -0.5410  138 253 
 623  0Z IP        629 29.35                              58    0.0410  138 273 
 622  0Z IP        629 30.90                              58   -0.5310  153 278 
 622  0N ES        629 48.68                              58   -0.8110  153 278 
 621  0Z IP        629 33.52   77                         58   -0.0110  168 268 
 621  0E ES        629 54.24                              58    1.1210  168 268 
 621  0Z  IAML     630  3.58        42.6 0.33                           168 268 
 620  0Z IP        629 35.78   84                         58   -0.4510  188 285 
 620  0E ES        629 59.11                              58    1.3310  188 285 
 620  0Z  IAML     630  4.05        23.6 0.49                           188 285 
                                                                                
