 2017  418 1500 13.1 L  72.731 124.592 17.8  SLT 12 0.3 1.4LSLT 1.8CSLT        1
 GAP=249        0.64       2.7     6.9  2.1  0.1936E+01 -0.8317E+01 -0.2308E-01E
 ACTION:UP  20-12-29 20:35 OP:elen STATUS:               ID:20170418150000     I
 OLDACT:REG 20-12-27 21:06 OP:elen STATUS:               ID:20170418150000     3
 2017-04-18-1500-00M.NSN___039                                                 6
 STAT SP IPHASW D HRMM SECON CODA AMPLIT PERI AZIMU VELO AIN AR TRES W  DIS CAZ7
 620  0Z IP   0   15 0 17.01   45                        142    0.0510 11.8 223 
 620  0N ES   1   15 0 20.21                             142    0.4510 11.8 223 
 620  0E  IAML    15 0 20.40        46.0 0.06                          11.8 223 
 622  0Z IP   0   15 0 20.82   62                         97   -0.2010 40.3 143 
 622  0E ES   0   15 0 26.88                              97    0.1010 40.3 143 
 622  0E  IAML    15 0 27.41        11.0 0.25                          40.3 143 
 623  0Z IP   0   15 0 23.95   64                         92   -0.1310 59.8 139 
 623  0N ES   0   15 0 32.25                              92    0.1710 59.8 139 
 623  0N  IAML    15 0 32.59        15.2 0.23                          59.8 139 
 621  0Z IP   1   15 0 23.90   61                         92   -0.2910 61.9 171 
 621  0N ES   0   15 0 32.11                              92   -0.1510 61.9 171 
 621  0N  IAML    15 0 32.91         5.1 0.16                          61.9 171 
 624  0Z IP   0   15 0 24.31   72                         92   -0.21 9 63.0 116 
 624  0N ES   0   15 0 32.87                              92    0.02 9 63.0 116 
 624  0E  IAML    15 0 33.70        15.7 0.13                          63.0 116 
 625  0Z IP   0   15 0 27.09   68                         91   -0.08 9 80.4 140 
 625  0E ES   0   15 0 37.66                              91    0.24 9 80.4 140 
 625  0E  IAML    15 0 42.86         5.3 0.15                          80.4 140 
 628  0Z IP   0   15 0 28.73   62                         91   -0.22 8 93.1 112 
 628  0N ES   0   15 0 40.56                              91    0.06 8 93.1 112 
 628  0N  IAML    15 0 42.58         9.3 0.32                          93.1 112 
 626  0N ES   1   15 0 43.79                              62   -0.32 8  106 152 
 627  0Z IP   1   15 0 30.88   70                         62   -0.28 8  106 129 
 626  0Z IP   1   15 0 30.64   66                         62   -0.40 8  106 152 
 626  0E  IAML    15 0 46.76        15.3 0.29                           106 152 
 627  0N ES   0   15 0 44.21                              62   -0.11 8  106 129 
 627  0E  IAML    15 0 46.27         8.7 0.18                           106 129 
 629  0Z IP   0   15 0 34.49   63                         56    0.18 7  129 133 
 629  0N ES   2   15 0 50.51                              56    0.73 7  129 133 
 629  0E  IAML    15 0 51.67        10.5 0.26                           129 133 
 630  0Z IP   0   15 0 36.66   69                         52    0.20 6  146 118 
 630  0E ES   3   15 0 54.25                              52    0.75 6  146 118 
 630  0E  IAML    15 0 55.69        10.5 0.13                           146 118 
 631  0Z IP   0   15 0 40.10   68                         49   -0.15 5  174 147 
 631  0N ES   0   15 1  0.17                              49    0.12 5  174 147 
 631  0E  IAML    15 1  2.92         5.5 0.22                           174 147 
                                                                                
 2017  420 1302 35.4 L  72.638 129.054 15.0  SLT 11 0.4 1.1LSLT 1.5CSLT        1
 GAP=300        0.94       4.2    16.0  6.8  0.2071E+02  0.4509E+02  0.4092E+01E
 ACTION:UP  20-12-30 20:06 OP:elen STATUS:               ID:20170420130148     I
 OLDACT:REG 20-12-27 21:23 OP:elen STATUS:               ID:20170420130148     3
 2017-04-20-1301-48M.NSN___039                                                 6
 STAT SP IPHASW D HRMM SECON CODA AMPLIT PERI AZIMU VELO AIN AR TRES W  DIS CAZ7
 630  0Z IP   0   13 2 47.72   48                         70    0.1610 67.5 202 
 630  0E ES   1   13 2 56.70                              70    0.2810 67.5 202 
 630  0E  IAML    13 2 57.62         4.2 0.12                          67.5 202 
 628  0Z IP   1   13 2 48.04   43                         70    0.4610 69.3 248 
 628  0N ES   3   13 2 57.25                              70    0.7810 69.3 248 
 628  0N  IAML    13 2 59.12         8.4 0.12                          69.3 248 
 627  0Z IP   0   13 2 51.30   41                         70    0.02 9 91.0 231 
 627  0N ES   0   13 3  2.84                              70   -0.02 9 91.0 231 
 627  0N  IAML    13 3  3.72         3.6 0.20                          91.0 231 
 624  0Z IP   0   13 2 51.72   56                         70   -0.24 9 94.7 260 
 624  0N ES   1   13 3  3.60                              70   -0.43 9 94.7 260 
 624  0E  IAML    13 3  6.29        11.1 0.17                          94.7 260 
 629  0Z IP   1   13 2 52.13   45                         70   -0.45 9 98.8 218 
 629  0N ES   3   13 3  4.30                              70   -0.81 9 98.8 218 
 629  0N  IAML    13 3  7.12         1.6 0.12                          98.8 218 
 625  0Z IP   0   13 2 54.58   56                         56    0.02 8  112 244 
 625  0N ES   0   13 3  8.54                              56   -0.00 8  112 244 
 625  0N  IAML    13 3 12.64         2.7 0.28                           112 244 
 623  0Z IP   1   13 2 54.92   53                         56   -0.36 8  116 254 
 623  0N ES   2   13 3  9.14                              56   -0.64 8  116 254 
 623  0N  IAML    13 3 13.97         1.9 0.31                           116 254 
 622  0Z IP   0   13 2 56.57   62                         52   -0.24 7  127 262 
 622  0E ES   1   13 3 11.98                              52   -0.45 7  127 262 
 622  0N  IAML    13 3 16.58         2.0 0.17                           127 262 
 626  0Z IP   1   13 2 57.46   55                         52    0.29 7  132 232 
 626  0N ES   1   13 3 13.50                              52    0.45 7  132 232 
 626  0N  IAML    13 3 15.11         3.2 0.16                           132 232 
 621  0Z IP   2   13 3  0.04   50                         48    0.60 6  149 252 
 621  0N ES   3   13 3 17.92                              48    0.94 6  149 252 
 621  0N  IAML    13 3 19.43         3.5 0.20                           149 252 
 631  0Z IP   0   13 2 59.88   53                         48   -0.18 6  152 205 
 631  0N ES   1   13 3 17.65                              48   -0.39 6  152 205 
 631  0E  IAML    13 3 18.76         4.9 0.32                           152 205 
                                                                                
 2017  423 1455 44.0 L  72.830 124.586 11.5  SLT  8 0.1 0.7LSLT 1.3CSLT        1
 GAP=276        0.36       1.7     4.5  2.2 -0.2029E+00 -0.5781E+01 -0.1248E+01E
 ACTION:UP  20-12-31 12:43 OP:elen STATUS:               ID:20170423145418     I
 OLDACT:REG 20-12-30 23:54 OP:elen STATUS:               ID:20170423145418     3
 2017-04-23-1454-18M.NSN___036                                                 6
 STAT SP IPHASW D HRMM SECON CODA AMPLIT PERI AZIMU VELO AIN AR TRES W  DIS CAZ7
 620  0Z IP   0   1455 48.50   35                        109    0.0210 21.2 202 
 620  0N ES   0   1455 51.91                             109    0.1910 21.2 202 
 620  0N  IAML    1455 52.17         7.5 0.26                          21.2 202 
 622  0Z IP   0   1455 53.26   37                         92   -0.0510 49.6 150 
 622  0N ES   0   1456  0.15                              92    0.0610 49.6 150 
 622  0N  IAML    1456  0.80         2.6 0.14                          49.6 150 
 623  0Z IP   0   1455 56.38   39                         91   -0.10 9 68.6 145 
 623  0N ES   0   1456  5.47                              91   -0.10 9 68.6 145 
 623  0N  IAML    1456  7.34         2.3 0.20                          68.6 145 
 624  0Z IP   0   1455 56.49   45                         91    0.04 9 68.7 124 
 624  0N ES   0   1456  5.67                              91    0.16 9 68.7 124 
 624  0N  IAML    1456  7.60         2.5 0.13                          68.7 124 
 621  0Z IP   0   1455 56.84   32                         91   -0.13 9 72.8 172 
 621  0E  IAML    1456  6.32         1.9 0.18                          72.8 172 
 621  0N ES   0   1456  6.34                              91   -0.08 9 72.8 172 
 628  0Z IP   0   1456  0.83   54                         70   -0.11 8 98.0 118 
 628  0N ES   0   1456 13.28                              70   -0.01 8 98.0 118 
 628  0E  IAML    1456 14.87         2.2 0.23                          98.0 118 
 626  0Z IP   0   1456  3.70   45                         70   -0.18 7  116 154 
 626  0N ES   0   1456 18.27                              70   -0.10 7  116 154 
 626  0E  IAML    1456 18.75         1.2 0.25                           116 154 
 630  0Z IP   0   1456  8.91   56                         48    0.13 6  151 122 
 630  0N ES   1   1456 27.27                              48    0.43 6  151 122 
 630  0E  IAML    1456 28.26         3.0 0.26                           151 122 
                                                                                
 2017  423 2313 41.7 L  72.594 124.898 18.7  SLT 12 0.3 1.5LSLT 2.1CSLT        1
 GAP=174        0.62       1.9     4.9  2.2  0.3107E+01 -0.4293E+01  0.3353E+00E
 ACTION:UP  21-01-01 14:08 OP:elen STATUS:               ID:20170423231216     I
 OLDACT:REG 20-12-30 23:59 OP:elen STATUS:               ID:20170423231216     3
 2017-04-23-2312-16M.NSN___036                                                 6
 STAT SP IPHASW D HRMM SECON CODA AMPLIT PERI AZIMU VELO AIN AR TRES W  DIS CAZ7
 620  0Z IP   0   2313 46.48   80                        127   -0.0710 19.6 290 
 620  0N ES   0   2313 50.18                             127    0.1210 19.6 290 
 620  0E  IAML    2313 50.37        79.3 0.10                          19.6 290 
 622  0Z IP   0   2313 47.05   83                        123    0.1010 21.9 140 
 622  0N ES   1   2313 51.23                             123    0.4710 21.9 140 
 622  0N  IAML    2313 52.56        48.0 0.16                          21.9 140 
 623  0Z IP   0   2313 49.73   80                        100   -0.1110 41.6 135 
 623  0N ES   0   2313 55.88                             100    0.1210 41.6 135 
 623  0E  IAML    2313 56.62        82.7 0.25                          41.6 135 
 621  0Z IP   0   2313 50.11   78                         98   -0.1510 45.7 180 
 621  0N ES   0   2313 56.52                              98    0.0410 45.7 180 
 621  0E  IAML    2313 56.54        16.1 0.14                          45.7 180 
 624  0Z IP   0   2313 50.63   84                         97   -0.1410 48.0 105 
 624  0N ES   0   2313 57.40                              97    0.0310 48.0 105 
 624  0E  IAML    2313 58.06        49.5 0.19                          48.0 105 
 625  0Z IP   0   2313 52.86   87                         94   -0.0410 62.1 138 
 625  0E ES   0   2314  1.25                              94    0.2110 62.1 138 
 625  0N  IAML    2314  3.61         7.8 0.27                          62.1 138 
 628  0Z IP   1   2313 54.98   89                         92   -0.28 9 78.5 105 
 628  0N ES   0   2314  4.93                              92   -0.20 9 78.5 105 
 628  0N  IAML    2314  6.54        12.5 0.19                          78.5 105 
 626  0Z IP   1   2313 56.45   85                         92   -0.36 8 87.7 153 
 626  0N ES   1   2314  7.49                              92   -0.32 8 87.7 153 
 626  0E  IAML    2314  8.44        13.9 0.16                          87.7 153 
 627  0Z IP   0   2313 56.83   83                         92   -0.23 8 88.3 126 
 627  0E ES   0   2314  8.15                              92   -0.09 8 88.3 126 
 627  0E  IAML    2314  9.54         4.7 0.16                          88.3 126 
 629  0Z IP   0   2314  0.22   88                         62   -0.24 8  111 131 
 629  0N ES   0   2314 14.02                              62   -0.10 8  111 131 
 629  0E  IAML    2314 16.94         4.7 0.22                           111 131 
 630  0Z IP   1   2314  3.25   84                         56    0.32 7  130 115 
 630  0N ES   3   2314 19.30                              56    0.89 7  130 115 
 630  0E  IAML    2314 20.72         6.7 0.13                           130 115 
 631  0Z IP   0   2314  6.59   87                         52    0.07 6  156 148 
 631  0N ES   1   2314 25.05                              52    0.43 6  156 148 
 631  0E  IAML    2314 26.89        13.4 0.18                           156 148 
                                                                                
 2017  425 0652 22.6 L  71.952 128.035  8.1  SLT  9 0.4 1.4LSLT 1.8CSLT        1
 GAP=168        0.93       1.9     6.6  2.8 -0.1725E+01  0.6656E+01  0.2664E+00E
 ACTION:UP  21-01-02 01:38 OP:elen STATUS:               ID:20170425065114     I
 OLDACT:REG 20-12-31 19:06 OP:elen STATUS:               ID:20170425065114     3
 2017-04-25-0651-14M.NSN___027                                                 6
 STAT SP IPHASW D HRMM SECON CODA AMPLIT PERI AZIMU VELO AIN AR TRES W  DIS CAZ7
 630  0Z IP   0    652 26.18   85                        116    0.1210 17.0  36 
 630  0E ES   0    652 28.80                             116    0.2210 17.0  36 
 630  0E  IAML     652 29.11       220.3 0.20                          17.0  36 
 629  0Z IP   0    652 27.55   63                        108    0.0210 25.1 264 
 629  0N ES   0    652 31.16                             108    0.0510 25.1 264 
 629  0E  IAML     652 31.82        95.0 0.25                          25.1 264 
 627  0Z IP   0    652 30.04   64                        101   -0.1810 40.6 297 
 627  0N ES   1    652 35.52                             101   -0.2510 40.6 297 
 627  0E  IAML     652 38.27        30.9 0.53                          40.6 297 
 628  0Z IP   1    652 32.83   74                         67   -0.2910 58.4 329 
 628  0N ES   1    652 40.31                              67   -0.4810 58.4 329 
 628  0N  IAML     652 47.06        11.6 0.14                          58.4 329 
 631  0Z IP   0    652 35.05   90                         67   -0.13 9 67.6 204 
 631  0N ES   0    652 44.17                              67   -0.19 9 67.6 204 
 631  0N  IAML     652 44.52        10.0 0.33                          67.6 204 
 625  0Z IP   0    652 35.26   67                         67   -0.16 9 70.7 291 
 625  0N ES   0    652 44.57                              67   -0.21 9 70.7 291 
 625  0N  IAML     652 48.33         6.8 0.40                          70.7 291 
 624  0Z IP   0    652 37.49   63                         67   -0.24 9 83.8 315 
 624  0N ES   1    652 48.42                              67   -0.34 9 83.8 315 
 624  0N  IAML     652 50.56        18.4 0.21                          83.8 315 
 623  0Z IP   2    652 39.13   64                         67    0.57 8 88.3 299 
 623  0E ES   4    652 51.26                              67    1.06 8 88.3 299 
 623  0N  IAML     652 57.27         5.5 0.26                          88.3 299 
 621  0Z IP   1    652 42.42   59                         60    0.35 8  111 285 
 621  0N ES   2    652 56.94                              60    0.68 8  111 285 
 621  0E  IAML     653  0.65         5.5 0.17                           111 285 
                                                                                
 2017  426 1840 43.5 L  72.268 126.362 20.0  SLT  8 0.2 1.5LSLT 2.0CSLT        1
 GAP= 93        0.45       1.0     2.7  1.7  0.1899E+00 -0.5321E+00  0.6024E+00E
 ACTION:UP  21-01-02 22:25 OP:elen STATUS:               ID:20170426183923     I
 OLDACT:REG 21-01-02 11:44 OP:elen STATUS:               ID:20170426183923     3
 2017-04-26-1839-23M.NSN___024                                                 6
 STAT SP IPHASW D HRMM SECON CODA AMPLIT PERI AZIMU VELO AIN AR TRES W  DIS CAZ7
 625  0Z IP   0   1840 47.88   74                        142    0.1410 13.6 220 
 625  0N ES   0   1840 50.73                             142   -0.0710 13.6 220 
 625  0E  IAML    1840 51.37       213.3 0.52                          13.6 220 
 624  0Z IP   0   1840 48.98   77                        124   -0.0110 23.4 353 
 624  0N ES   1   1840 52.65                             124   -0.3210 23.4 353 
 624  0N  IAML    1840 52.83       190.5 0.14                          23.4 353 
 627  0Z IP   0   1840 49.51   82                        119    0.1110 27.1 128 
 627  0N ES   0   1840 53.59                             119   -0.0910 27.1 128 
 627  0N  IAML    1840 53.89        27.0 0.10                          27.1 128 
 628  0Z IP   0   1840 49.87   85                        115    0.2410 30.4  61 
 628  0N ES   0   1840 54.20                             115    0.1410 30.4  61 
 628  0N  IAML    1840 54.73        51.7 0.14                          30.4  61 
 629  0Z IP   0   1840 53.07   83                        100    0.1610 50.0 139 
 629  0E ES   0   1840 59.71                             100   -0.0310 50.0 139 
 629  0E  IAML    1841  0.14        14.2 0.26                          50.0 139 
 621  0Z IP   0   1840 53.08   83                         99    0.1410 51.1 260 
 621  0N ES   0   1840 59.75                              99   -0.0410 51.1 260 
 621  0N  IAML    1841  0.04        20.1 0.21                          51.1 260 
 630  0Z IP   0   1840 56.07   88                         95    0.01 9 70.5 107 
 630  0E ES   1   1841  4.95                              95   -0.25 9 70.5 107 
 630  0N  IAML    1841  8.11         4.4 0.16                          70.5 107 
 631  0Z IP   0   1841  1.10   83                         62   -0.01 8  102 162 
 631  0N ES   0   1841 13.69                              62   -0.24 8  102 162 
 631  0E  IAML    1841 13.87        16.2 0.28                           102 162 
                                                                                
