 2017  317 1007 13.3 L  72.232 125.985  9.2  SLT  7 0.1 0.7LSLT 0.9CSLT        1
 GAP=115        0.32       0.6     1.7  1.0  0.1817E+00 -0.4402E+00  0.1016E+00E
 ACTION:ARG 20-12-21 03:09 OP:mn   STATUS:               ID:20170317100556     I
 2017-03-17-1005-56M.a_____039                                                 6
 STAT SP IPHASW D HRMM SECON CODA AMPLIT PERI AZIMU VELO AIN AR TRES W  DIS CAZ7
 625  0Z IP   0 C 10 7 15.52   28                        140    0.0310 7.66 147 
 625  0E ES   0   10 7 17.05                             140   -0.0310 7.66 147 
 625  0Z  IAML    10 7 17.31        20.4 0.18                          7.66 147 
 623  0Z IP   0 D 10 7 16.27   23                        125   -0.1210 13.0 324 
 623  0E ES   0   10 7 18.51                             125   -0.1210 13.0 324 
 623  0Z  IAML    10 7 19.03        21.6 0.25                          13.0 324 
 624  0Z IP   0 C 10 7 19.09   37                        108    0.1010 29.0  20 
 624  0E ES   0   10 7 23.21                             108    0.0910 29.0  20 
 624  0Z  IAML    10 7 23.77         9.2 0.17                          29.0  20 
 622  0Z IP   0 D 10 7 19.65   28                        106   -0.0710 32.7 316 
 622  0E ES   0   10 7 24.34                             106   -0.0610 32.7 316 
 622  0Z  IAML    10 7 28.80         4.3 0.60                          32.7 316 
 621  0Z IP   0 C 10 7 20.43   28                        104    0.0510 37.8 262 
 621  0N ES   0   10 7 25.73                             104    0.1910 37.8 262 
 621  0Z  IAML    10 7 27.08         9.0 0.28                          37.8 262 
 628  0Z IP   0 D 10 7 21.20   28                        102   -0.0610 43.6  64 
 628  0N ES   0   10 7 27.17                             102    0.1210 43.6  64 
 628  0Z  IAML    10 7 28.42         8.2 0.15                          43.6  64 
 629  0Z IP   0 D 10 7 23.73   40                         67   -0.0610 56.8 126 
 629  0E ES   0   10 7 31.37                              67   -0.0610 56.8 126 
 629  0Z  IAML    10 7 32.24         3.3 0.27                          56.8 126 
                                                                                
 2017  320 1900 33.9 L  72.417 126.097 17.7  SLT  7 0.1 0.7LSLT 0.6CSLT        1
 GAP=126        0.43       1.2     2.7  1.9 -0.5747E+00 -0.1849E+00  0.1013E+01E
 ACTION:ARG 20-12-21 03:09 OP:mn   STATUS:               ID:20170320190000     I
 2017-03-20-1900-00M.a_____039                                                 6
 STAT SP IPHASW D HRMM SECON CODA AMPLIT PERI AZIMU VELO AIN AR TRES W  DIS CAZ7
 624  0Z IP   0 D 19 0 37.68   22                        150    0.1710 8.90  42 
 624  0E ES   0   19 0 40.10                             150   -0.0310 8.90  42 
 624  0Z  IAML    19 0 40.49        27.4 0.14                          8.90  42 
 623  0Z IP   0 C 19 0 38.40   17                        133    0.2010 15.3 228 
 623  0N ES   0   19 0 41.37                             133    0.0510 15.3 228 
 623  0Z  IAML    19 0 41.66        25.9 0.19                          15.3 228 
 622  0Z IP   0 C 19 0 39.71   25                        113   -0.0210 26.6 276 
 622  0N ES   1   19 0 43.71                             113   -0.2510 26.6 276 
 622  0Z  IAML    19 0 44.04         5.4 0.12                          26.6 276 
 625  0Z IP   0 D 19 0 39.68   20                        112    0.0610 27.1 179 
 625  0N ES   0   19 0 43.66                             112   -0.1110 27.1 179 
 625  0Z  IAML    19 0 44.10         2.9 0.17                          27.1 179 
 628  0Z IP   0 D 19 0 40.69   25                        101    0.0410 35.5  93 
 628  0N ES   0   19 0 45.33                             101   -0.2310 35.5  93 
 628  0Z  IAML    19 0 46.85         8.3 0.26                          35.5  93 
 621  0Z IP   0 D 19 0 43.02   27                         93    0.1310 48.6 238 
 621  0N ES   0   19 0 49.31                              93   -0.1210 48.6 238 
 621  0Z  IAML    19 0 49.89         2.7 0.30                          48.6 238 
 626  0Z IP   0 C 19 0 44.66   24                         92    0.2010 59.1 182 
 626  0N ES   0   19 0 52.05                              92   -0.1010 59.1 182 
 626  0Z  IAML    19 0 52.41         4.2 0.32                          59.1 182 
                                                                                
 2017  326 0836 33.3 L  71.977 127.706 18.7  SLT  7 0.3 1.7LSLT 1.0CSLT        1
 GAP=120        0.79       2.0     4.6  3.9  0.2108E+01  0.1815E+01  0.2632E+01E
 ACTION:ARG 20-12-21 03:09 OP:mn   STATUS:               ID:20170326083527     I
 2017-03-26-0835-27M.a_____039                                                 6
 STAT SP IPHASW D HRMM SECON CODA AMPLIT PERI AZIMU VELO AIN AR TRES W  DIS CAZ7
 629  0Z IP   1 C  836 37.77   15                        137    0.2810 14.6 249 
 629  0N ES   0    836 40.52                             137   -0.0610 14.6 249 
 629  0Z  IAML     836 40.82       360.6 0.20                          14.6 249 
 630  0Z IP   1 D  836 38.91   22                        120    0.3310 23.9  63 
 630  0E ES   0    836 42.54                             120    0.0710 23.9  63 
 630  0Z  IAML     836 43.12       190.9 0.17                          23.9  63 
 627  0Z IP   0 C  836 39.40   35                        112    0.0510 29.4 302 
 627  0N ES   2    836 43.30                             112   -0.5010 29.4 302 
 627  0Z  IAML     836 43.48        88.3 0.34                          29.4 302 
 626  0Z IP   0 D  836 43.96   29                         94    0.2310 58.7 261 
 626  0N ES   0    836 51.25                              94   -0.1310 58.7 261 
 626  0Z  IAML     836 51.63        35.8 0.21                          58.7 261 
 625  0Z IP   0 D  836 44.17   34                         94    0.2310 59.2 293 
 625  0E ES   0    836 51.55                              94   -0.2010 59.2 293 
 625  0Z  IAML     836 51.71        10.9 0.18                          59.2 293 
 632  0Z IP   0 D  836 45.56   41                         93   -0.13 9 65.6 133 
 632  0E ES   2    836 54.09                              93   -0.68 9 65.6 133 
 632  0Z  IAML     836 55.46        17.7 0.12                          65.6 133 
 631  0Z IP   1 D  836 45.76   37                         93    0.37 9 66.5 194 
 631  0E ES   0    836 54.35                              93    0.11 9 66.5 194 
 631  0Z  IAML     836 54.70        21.7 0.11                          66.5 194 
                                                                                
 2017  4 2 0422  0.8 L  72.725 125.677 17.9  SLT 10 0.3 1.4LSLT 1.7CSLT        1
 GAP=225        0.63       2.4     4.6  3.1  0.3215E+01 -0.5246E+01 -0.1988E+01E
 ACTION:UP  20-12-20 22:46 OP:elen STATUS:               ID:20170402042039     I
 OLDACT:UP  20-12-20 00:44 OP:elen STATUS:               ID:20170402042039     3
 OLDACT:UP  20-12-16 20:09 OP:elen STATUS:               ID:20170402042039     3
 OLDACT:UP  20-12-16 14:06 OP:elen STATUS:               ID:20170402042039     3
 OLDACT:REG 20-12-12 10:59 OP:elen STATUS:               ID:20170402042039     3
 2017-04-02-0420-39M.NSN___039                                                 6
 STAT SP IPHASW D HRMM SECON CODA AMPLIT PERI AZIMU VELO AIN AR TRES W  DIS CAZ7
 622  0Z IP   0    422  7.79   47                        104    0.1310 33.9 201 
 622  0N ES   0    422 12.79                             104    0.0910 33.9 201 
 622  0N  IAML     422 13.69        13.8 0.15                          33.9 201 
 624  0Z IP   0    422  7.79   50                        104    0.1510 34.2 144 
 624  0N ES   0    422 12.83                             104    0.1610 34.2 144 
 624  0N  IAML     422 13.96        16.4 0.13                          34.2 144 
 623  0Z IP   0    422  9.41   48                         95    0.0810 44.6 176 
 623  0N ES   0    422 15.58                              95    0.0010 44.6 176 
 623  0E  IAML     422 17.17         7.4 0.15                          44.6 176 
 620  0Z IP   0    422  9.30   52                         95    0.0210 44.9 260 
 620  0N ES   0    422 15.36                              95   -0.1410 44.9 260 
 620  0N  IAML     422 15.71        31.6 0.15                          44.9 260 
 628  0Z IP   0    422 11.53   56                         92   -0.0010 61.1 126 
 628  0N ES   0    422 19.37                              92   -0.0210 61.1 126 
 628  0N  IAML     422 19.92        27.0 0.25                          61.1 126 
 621  0Z IP   0    422 12.50   48                         92    0.03 9 66.0 204 
 621  0N ES   0    422 20.98                              92   -0.04 9 66.0 204 
 621  0E  IAML     422 21.82         5.2 0.18                          66.0 204 
 626  0Z IP   0    422 16.65   47                         91   -0.21 8 94.2 172 
 626  0N ES   1    422 28.16                              91   -0.44 8 94.2 172 
 626  0E  IAML     422 28.49         3.2 0.21                          94.2 172 
 630  0Z IP   1    422 19.71   62                         62   -0.39 7  115 128 
 630  0N ES   2    422 33.47                              62   -0.74 7  115 128 
 630  0E  IAML     422 34.42         8.4 0.10                           115 128 
 631  0Z IP   1    422 26.15   76                         52    0.33 6  158 159 
 631  0N ES   2    422 44.66                              52    0.56 6  158 159 
 631  0E  IAML     422 45.70         6.6 0.23                           158 159 
 632  0Z IP   1    422 28.64   56                         49    0.46 5  173 136 
 632  0N ES   3    422 49.00                              49    0.80 5  173 136 
 632  0E  IAML     422 50.12         7.9 0.31                           173 136 
                                                                                
 2017  4 5 0307 35.6 L  71.679 128.840  7.5  SLT 11 0.3 1.1LSLT 1.7CSLT        1
 GAP=167        0.55       1.2     7.5  2.6  0.3033E+01  0.1540E+02  0.1515E+00E
 ACTION:UP  20-12-21 00:10 OP:elen STATUS:               ID:20170405030618     I
 OLDACT:UP  20-12-20 01:44 OP:elen STATUS:               ID:20170405030618     3
 OLDACT:UP  20-12-16 21:32 OP:elen STATUS:               ID:20170405030618     3
 OLDACT:REG 20-12-13 13:11 OP:elen STATUS:               ID:20170405030618     3
 2017-04-05-0306-18M.NSN___039                                                 6
 STAT SP IPHASW D HRMM SECON CODA AMPLIT PERI AZIMU VELO AIN AR TRES W  DIS CAZ7
 632  0Z IP   0    3 7 39.22   48                        118   -0.0510 14.3 145 
 632  0N ES   0    3 7 42.07                             118    0.1210 14.3 145 
 632  0N  IAML     3 7 42.69        27.1 0.05                          14.3 145 
 630  0Z IP   0    3 7 44.47   65                         99    0.0210 47.6 338 
 630  0N ES   0    3 7 50.96                              99    0.0510 47.6 338 
 630  0E  IAML     3 7 51.40         6.5 0.12                          47.6 338 
 629  0Z IP   0    3 7 46.88   48                         67    0.1310 60.1 298 
 629  0N ES   1    3 7 55.19                              67    0.3010 60.1 298 
 629  0E  IAML     3 7 56.96         2.5 0.13                          60.1 298 
 631  0Z IP   0    3 7 47.53   58                         67   -0.14 9 64.4 242 
 631  0N ES   0    3 7 56.26                              67   -0.22 9 64.4 242 
 631  0N  IAML     3 7 56.72         6.8 0.14                          64.4 242 
 627  0Z IP   0    3 7 50.25   43                         67    0.07 9 80.9 308 
 627  0N ES   0    3 8  1.00                              67    0.17 9 80.9 308 
 627  0E  IAML     3 8  1.36         3.5 0.22                          80.9 308 
 628  0Z IP   1    3 7 52.64   55                         67   -0.40 8 99.3 325 
 628  0N ES   2    3 8  5.23                              67   -0.54 8 99.3 325 
 628  0E  IAML     3 8  7.84         6.4 0.21                          99.3 325 
 626  0Z IP   0    3 7 53.31   55                         67   -0.03 8  101 285 
 626  0N ES   0    3 8  6.21                              67   -0.08 8  101 285 
 626  0E  IAML     3 8  9.71         7.5 0.24                           101 285 
 624  0Z IP   0    3 7 57.38   55                         50   -0.08 7  125 316 
 624  0N ES   0    3 8 13.29                              50   -0.12 7  125 316 
 624  0N  IAML     3 8 15.76         6.6 0.19                           125 316 
 623  0Z IP   0    3 7 57.86   54                         50   -0.11 7  128 306 
 623  0N ES   1    3 8 14.04                              50   -0.26 7  128 306 
 623  0E  IAML     3 8 17.30         2.9 0.24                           128 306 
 621  0Z IP   1    3 8  0.75   54                         46    0.41 6  148 294 
 621  0N ES   2    3 8 19.13                              46    0.74 6  148 294 
 621  0E  IAML     3 8 21.93         2.3 0.14                           148 294 
 622  0Z IP   0    3 8  0.73   57                         46    0.12 6  148 307 
 622  0N ES   0    3 8 19.09                              46    0.23 6  148 307 
 622  0N  IAML     3 8 21.09         5.1 0.20                           148 307 
                                                                                
 2017  4 5 0307 35.6 L  71.681 128.833  6.5  SLT 10 0.3 1.2LSLT 1.9CSLT        1
 GAP=180        0.59       2.0     5.1  2.5  0.3752E+01  0.1521E+01 -0.3280E+01E
 ACTION:UP  20-12-21 00:33 OP:elen STATUS:               ID:20170405030650     I
 OLDACT:UP  20-12-20 02:02 OP:elen STATUS:               ID:20170405030650     3
 OLDACT:UP  20-12-16 23:26 OP:elen STATUS:               ID:20170405030650     3
 OLDACT:REG 20-12-13 13:16 OP:elen STATUS:               ID:20170405030650     3
 2017-04-05-0306-50M.NSN___039                                                 6
 STAT SP IPHASW D HRMM SECON CODA AMPLIT PERI AZIMU VELO AIN AR TRES W  DIS CAZ7
 632  0Z IP   0    3 7 39.21   74                        114   -0.0310 14.6 145 
 632  0N ES   0    3 7 42.08                             114    0.1810 14.6 145 
 632  0N  IAML     3 7 42.69        26.9 0.04                          14.6 145 
 629  0Z IP   0    3 7 46.83   63                         96    0.1410 59.8 298 
 629  0N ES   1    3 7 55.19                              96    0.3910 59.8 298 
 629  0E  IAML     3 7 56.96         2.5 0.14                          59.8 298 
 631  0Z IP   0    3 7 47.53   78                         96   -0.18 9 64.3 241 
 631  0N ES   1    3 7 56.25                              96   -0.30 9 64.3 241 
 631  0N  IAML     3 7 56.72         6.9 0.15                          64.3 241 
 627  0Z IP   0    3 7 50.24   59                         67    0.05 9 80.5 308 
 627  0N ES   0    3 8  1.01                              67    0.17 9 80.5 308 
 627  0E  IAML     3 8  1.36         3.5 0.22                          80.5 308 
 628  0Z IP   1    3 7 52.64   64                         67   -0.41 8 99.0 325 
 628  0N ES   2    3 8  5.21                              67   -0.58 8 99.0 325 
 628  0E  IAML     3 8  7.84         6.3 0.23                          99.0 325 
 626  0Z IP   0    3 7 53.30   55                         67   -0.05 8  100 285 
 626  0N ES   0    3 8  6.38                              67    0.06 8  100 285 
 626  0E  IAML     3 8  9.71         7.4 0.23                           100 285 
 624  0Z IP   0    3 7 57.28   56                         60   -0.24 7  125 316 
 624  0N ES   0    3 8 13.30                              60   -0.22 7  125 316 
 624  0N  IAML     3 8 15.76         6.6 0.21                           125 316 
 623  0Z IP   0    3 7 58.00   61                         50   -0.03 7  128 306 
 623  0N ES   0    3 8 14.60                              50    0.19 7  128 306 
 623  0E  IAML     3 8 17.30         3.0 0.25                           128 306 
 622  0Z IP   0    3 8  0.73   76                         46    0.05 6  148 307 
 622  0N ES   1    3 8 19.30                              46    0.31 6  148 307 
 622  0N  IAML     3 8 21.09         5.1 0.19                           148 307 
 621  0Z IP   0    3 8  0.61   76                         46    0.20 6  148 294 
 621  0N ES   2    3 8 19.05                              46    0.52 6  148 294 
 621  0E  IAML     3 8 21.93         2.4 0.14                           148 294 
                                                                                
 2017  4 6 1728  0.8 L  72.726 125.677 17.2  SLT 10 0.3 1.1LSLT 1.8CSLT        1
 GAP=225        0.64       2.4     4.6  3.4  0.3149E+01 -0.5466E+01 -0.2139E+01E
 ACTION:UP  20-12-21 12:27 OP:elen STATUS:               ID:20170406172639     I
 OLDACT:UP  20-12-20 10:56 OP:elen STATUS:               ID:20170406172639     3
 OLDACT:UP  20-12-17 22:23 OP:elen STATUS:               ID:20170406172639     3
 OLDACT:REG 20-12-15 19:37 OP:elen STATUS:               ID:20170406172639     3
 2017-04-06-1726-39M.NSN___039                                                 6
 STAT SP IPHASW D HRMM SECON CODA AMPLIT PERI AZIMU VELO AIN AR TRES W  DIS CAZ7
 622  0Z IP   0   1728  7.84   49                        100    0.1910 33.9 201 
 622  0N ES   0   1728 12.73                             100    0.0610 33.9 201 
 622  0E  IAML    1728 14.00        10.3 0.41                          33.9 201 
 624  0Z IP   0   1728  7.81   52                         99    0.1910 34.3 144 
 624  0N ES   0   1728 12.77                              99    0.1310 34.3 144 
 624  0N  IAML    1728 13.91         6.5 0.11                          34.3 144 
 623  0Z IP   0   1728  9.42   62                         91    0.0910 44.7 176 
 623  0N ES   0   1728 15.48                              91   -0.1010 44.7 176 
 623  0E  IAML    1728 17.38         3.3 0.15                          44.7 176 
 620  0Z IP   0   1728  9.28   53                         91    0.0010 44.9 260 
 620  0N ES   0   1728 15.28                              91   -0.2110 44.9 260 
 620  0E  IAML    1728 15.49        25.5 0.18                          44.9 260 
 628  0Z IP   0   1728 11.58   47                         90    0.0510 61.2 126 
 628  0N ES   0   1728 19.31                              90   -0.0810 61.2 126 
 628  0N  IAML    1728 19.87        12.7 0.25                          61.2 126 
 621  0Z IP   0   1728 12.54   57                         90    0.06 9 66.0 204 
 621  0N ES   0   1728 21.02                              90   -0.01 9 66.0 204 
 621  0E  IAML    1728 21.75         2.5 0.16                          66.0 204 
 626  0Z IP   0   1728 16.77   51                         90   -0.09 8 94.3 172 
 626  0E ES   1   1728 28.24                              90   -0.37 8 94.3 172 
 626  0N  IAML    1728 29.14         1.6 0.15                          94.3 172 
 630  0Z IP   1   1728 19.73   74                         62   -0.42 7  115 128 
 630  0N ES   3   1728 33.53                              62   -0.78 7  115 128 
 630  0E  IAML    1728 34.32         3.9 0.15                           115 128 
 631  0Z IP   1   1728 26.31   93                         52    0.42 6  158 159 
 631  0N ES   2   1728 44.89                              52    0.66 6  158 159 
 631  0E  IAML    1728 46.34         3.2 0.16                           158 159 
 632  0Z IP   1   1728 28.58   90                         49    0.32 5  173 136 
 632  0N ES   2   1728 48.98                              49    0.65 5  173 136 
 632  0E  IAML    1728 50.06         4.5 0.31                           173 136 
                                                                                
