 2017  427 0912 28.1 L  72.051 127.804 11.8  SLT  8 0.1 1.1LSLT 1.6CSLT        1
 GAP=114        0.35       0.7     2.4  2.2  0.2184E-01  0.2694E+01 -0.2230E+00E
 ACTION:UP  21-01-03 00:37 OP:elen STATUS:               ID:20170427091104     I
 OLDACT:REG 21-01-02 12:22 OP:elen STATUS:               ID:20170427091104     3
 2017-04-27-0911-04M.NSN___024                                                 6
 STAT SP IPHASW D HRMM SECON CODA AMPLIT PERI AZIMU VELO AIN AR TRES W  DIS CAZ7
 630  0Z IP   0    912 32.08   60                        116    0.1010 18.1  81 
 630  0N ES   0    912 34.82                             116   -0.0210 18.1  81 
 630  0E  IAML     912 35.23        75.2 0.16                          18.1  81 
 629  0Z IP   0    912 32.72   51                        110    0.1110 21.7 232 
 629  0N ES   0    912 35.92                             110   -0.0210 21.7 232 
 629  0N  IAML     912 36.29        59.7 0.32                          21.7 232 
 627  0Z IP   0    912 33.91   56                        100    0.1510 29.2 285 
 627  0N ES   0    912 37.96                             100    0.0510 29.2 285 
 627  0N  IAML     912 38.62        15.6 0.11                          29.2 285 
 628  0Z IP   0    912 36.13   59                         94   -0.0110 44.9 330 
 628  0E ES   0    912 41.83                              94   -0.2110 44.9 330 
 628  0N  IAML     912 43.71        13.3 0.10                          44.9 330 
 625  0Z IP   0    912 38.95   47                         92    0.0810 59.8 284 
 625  0N ES   0    912 46.75                              92   -0.0110 59.8 284 
 625  0E  IAML     912 48.75         5.0 0.38                          59.8 284 
 624  0Z IP   0    912 40.79   55                         92    0.03 9 70.4 313 
 624  0N ES   0    912 49.90                              92   -0.14 9 70.4 313 
 624  0E  IAML     912 52.51         7.8 0.24                          70.4 313 
 631  0Z IP   0    912 41.71   65                         92   -0.05 9 75.3 195 
 631  0E ES   1    912 51.50                              92   -0.26 9 75.3 195 
 631  0N  IAML     912 56.09         4.4 0.17                          75.3 195 
 621  0Z IP   0    912 45.77   63                         70    0.15 8  101 280 
 621  0N ES   0    912 58.51                              70    0.07 8  101 280 
 621  0E  IAML     913  4.61         3.4 0.11                           101 280 
                                                                                
 2017  427 0912 28.1 L  72.052 127.802 11.4  SLT  8 0.1 1.1LSLT 1.8CSLT        1
 GAP=113        0.38       0.8     2.6  2.6  0.7457E-02  0.3694E+01 -0.3143E+00E
 ACTION:UP  21-01-03 02:00 OP:elen STATUS:               ID:20170427091134     I
 OLDACT:REG 21-01-02 12:26 OP:elen STATUS:               ID:20170427091134     3
 2017-04-27-0911-34M.NSN___024                                                 6
 STAT SP IPHASW D HRMM SECON CODA AMPLIT PERI AZIMU VELO AIN AR TRES W  DIS CAZ7
 630  0Z IP   0    912 32.09   73                        114    0.1210 18.1  82 
 630  0N ES   0    912 34.77                             114   -0.0410 18.1  82 
 630  0E  IAML     912 35.23        73.7 0.16                          18.1  82 
 629  0Z IP   0    912 32.76   63                        108    0.1510 21.8 231 
 629  0N ES   0    912 35.91                             108   -0.0210 21.8 231 
 629  0N  IAML     912 36.50        46.4 0.25                          21.8 231 
 627  0Z IP   0    912 33.89   69                         99    0.1510 29.1 285 
 627  0N ES   0    912 37.90                              99    0.0210 29.1 285 
 627  0N  IAML     912 38.62        15.3 0.11                          29.1 285 
 628  0Z IP   0    912 36.13   71                         93    0.0110 44.8 330 
 628  0E ES   0    912 41.77                              93   -0.2310 44.8 330 
 628  0N  IAML     912 43.71        13.4 0.10                          44.8 330 
 625  0Z IP   0    912 39.00   64                         92    0.1410 59.7 284 
 625  0N ES   0    912 46.73                              92   -0.0110 59.7 284 
 625  0E  IAML     912 48.75         5.0 0.37                          59.7 284 
 624  0Z IP   0    912 40.79   61                         91    0.04 9 70.2 313 
 624  0E ES   0    912 49.82                              91   -0.18 9 70.2 313 
 624  0N  IAML     912 53.81        11.0 0.23                          70.2 313 
 631  0Z IP   0    912 41.74   76                         91   -0.05 9 75.4 195 
 631  0E ES   1    912 51.50                              91   -0.31 9 75.4 195 
 631  0N  IAML     912 56.09         4.4 0.17                          75.4 195 
 621  0Z IP   0    912 45.78   68                         70    0.14 8  101 280 
 621  0N ES   0    912 58.52                              70    0.06 8  101 280 
 621  0E  IAML     913  4.61         3.4 0.10                           101 280 
                                                                                
