 2016  822 1318 48.8 L  72.369 127.068 19.8  SLT  8 0.2 0.8LSLT 1.2CSLT        1
 GAP=103        0.68       1.9     4.7  3.0  0.3597E+01  0.4849E+01  0.2329E+01E
 ACTION:UP  21-01-08 22:12 OP:elen STATUS:               ID:20160822131743     I
 OLDACT:REG 21-01-08 15:24 OP:elen STATUS:               ID:20160822131743     3
 2016-08-22-1317-43M.arct__039                                                 6
 STAT SP IPHASW D HRMM SECON CODA AMPLIT PERI AZIMU VELO AIN AR TRES W  DIS CAZ7
 628  0Z IP   1   1318 52.33   40                        166    0.2610 4.39  37 
 628  0N ES   0   1318 54.47                             166    0.0110 4.39  37 
 628  0N  IAML    1318 54.58        79.2 0.14                          4.39  37 
 627  0Z IP   0   1318 54.86   31                        117    0.0710 28.2 186 
 627  0E ES   1   1318 58.85                             117   -0.3210 28.2 186 
 627  0E  IAML    1318 59.21        13.9 0.14                          28.2 186 
 624  0Z IP   0   1318 55.20   43                        115    0.1710 29.3 294 
 624  0N ES   0   1318 59.45                             115   -0.1410 29.3 294 
 624  0N  IAML    1319  0.17         9.4 0.19                          29.3 294 
 625  0Z IP   1   1318 56.77   43                        106    0.3810 39.2 237 
 625  0N ES   0   1319  2.17                             106    0.2210 39.2 237 
 625  0E  IAML    1319  5.64         3.4 0.36                          39.2 237 
 623  0Z IP   0   1318 57.42   36                        102    0.0410 44.5 264 
 623  0E ES   1   1319  3.30                             102   -0.3510 44.5 264 
 623  0E  IAML    1319  3.64         2.5 0.18                          44.5 264 
 630  0Z IP   0   1318 58.72   48                         98    0.0310 53.9 127 
 630  0E ES   1   1319  5.54                              98   -0.3810 53.9 127 
 630  0E  IAML    1319  6.59         4.5 0.17                          53.9 127 
 622  0Z IP   0   1318 59.79   39                         96    0.0110 59.8 279 
 622  0N ES   1   1319  7.38                              96   -0.4310 59.8 279 
 622  0N  IAML    1319  8.26         2.5 0.11                          59.8 279 
 626  0Z IP   1   1319  0.46   48                         95    0.31 9 64.2 214 
 626  0N ES   0   1319  8.56                              95    0.11 9 64.2 214 
 626  0N  IAML    1319 10.91         1.7 0.06                          64.2 214 
                                                                                
 2016 10 5 1619 46.7 L  72.863 125.045 13.7  SLT  9 0.2 1.1LSLT 0.5CSLT        1
 GAP=260        0.43       1.9     4.0  1.9  0.4547E+00 -0.3730E+01 -0.7696E+00E
 ACTION:ARG 20-04-11 14:12 OP:mn   STATUS:               ID:20161005161823     I
 2016-10-05-1618-23M.SIOLA_039                                                 6
 STAT SP IPHASW D HRMM SECON CODA AMPLIT PERI AZIMU VELO AIN AR TRES W  DIS CAZ7
 620  0Z IP   0 C 1619 53.22   14                        104    0.0910 32.8 225 
 620  0E ES   0   1619 57.77                             104   -0.0510 32.8 225 
 620  0Z  IAML    1619 58.27        10.0 0.26                          32.8 225 
 622  0Z IP   0 C 1619 55.67   24                         97   -0.0410 47.8 169 
 622  0N ES   0   1620  2.15                              97   -0.1310 47.8 169 
 622  0Z  IAML    1620  2.41        12.4 0.26                          47.8 169 
 624  0Z IP   0 C 1619 57.78   12                         95    0.2010 59.5 136 
 624  0E ES   0   1620  5.66                              95    0.1410 59.5 136 
 624  0Z  IAML    1620  6.07        13.9 0.20                          59.5 136 
 623  0Z IP   0 D 1619 58.49   14                         95    0.01 9 64.5 158 
 623  0E ES   0   1620  7.08                              95   -0.00 9 64.5 158 
 623  0Z  IAML    1620  8.02         7.1 0.21                          64.5 158 
 621  0Z IP   0 D 1620  0.03   18                         70   -0.14 9 75.9 184 
 621  0N ES   1   1620 10.27                              70    0.26 9 75.9 184 
 621  0Z  IAML    1620 10.74         9.1 0.26                          75.9 184 
 628  0Z IP   0 D 1620  1.57   24                         70   -0.18 9 87.0 125 
 628  0E ES   0   1620 12.86                              70    0.12 9 87.0 125 
 628  0Z  IAML    1620 13.38         4.9 0.14                          87.0 125 
 627  0Z IP   0 D 1620  4.99   37                         70    0.05 8  106 141 
 627  0E ES   1   1620 17.78                              70   -0.49 8  106 141 
 627  0Z  IAML    1620 18.01         3.3 0.70                           106 141 
 629  0Z IP   0 D 1620  8.38   25                         52   -0.03 7  129 143 
 629  0E ES   0   1620 24.46                              52    0.21 7  129 143 
 629  0Z  IAML    1620 25.99         5.6 0.17                           129 143 
 630  0Z IP   0 D 1620  9.67   29                         52   -0.21 6  141 127 
 630  0E ES   0   1620 26.89                              52    0.08 6  141 127 
 630  0Z  IAML    1620 27.89         4.1 0.22                           141 127 
                                                                                
 2016 10 9 0036 44.4 L  72.857 125.038 10.0  SLT  8 0.3 1.4LSLT 1.4CSLT        1
 GAP=259        0.62       3.2    11.3  4.7 -0.1669E+02 -0.4644E+02  0.6826E+01E
 ACTION:ARG 20-04-11 14:12 OP:mn   STATUS:               ID:20161009003553     I
 2016-10-09-0035-53M.SIOLA_039                                                 6
 STAT SP IPHASW D HRMM SECON CODA AMPLIT PERI AZIMU VELO AIN AR TRES W  DIS CAZ7
 620  0Z IP   0 C  036 50.84   52                        107    0.1410 32.2 226 
 620  0N ES   0    036 55.36                             107    0.0910 32.2 226 
 620  0Z  IAML     036 56.58        17.0 0.10                          32.2 226 
 622  0Z IP   0 D  036 53.46   45                         67    0.1110 47.3 169 
 622  0N ES   0    036 59.76                              67   -0.0910 47.3 169 
 622  0Z  IAML     037  0.06        25.9 0.26                          47.3 169 
 623  0Z IP   0 C  036 56.30   31                         67    0.15 9 64.0 158 
 623  0N ES   0    037  4.89                              67    0.19 9 64.0 158 
 623  0Z  IAML     037  5.81         6.2 0.16                          64.0 158 
 621  0Z IP   1 C  036 57.58   30                         67   -0.25 9 75.3 184 
 621  0N ES   1    037  7.24                              67   -0.37 9 75.3 184 
 621  0Z  IAML     037  8.38        14.7 0.25                          75.3 184 
 628  0Z IP   0 C  036 59.56   41                         67   -0.04 9 86.9 125 
 628  0E ES   0    037 10.72                              67    0.06 9 86.9 125 
 628  0Z  IAML     037 11.62        12.3 0.18                          86.9 125 
 629  0Z IP   0 C  037  6.49   34                         46   -0.00 7  129 142 
 629  0N ES   1    037 23.04                              46    0.44 7  129 142 
 629  0Z  IAML     037 23.64         7.5 0.18                           129 142 
 630  0Z IP   2 C  037  7.39   41                         46   -0.60 6  141 127 
 630  0E ES   2    037 24.67                              46   -0.52 6  141 127 
 630  0Z  IAML     037 26.44         5.9 0.13                           141 127 
 632  0Z IP   0 C  037 15.92   58                         41    0.10 4  199 134 
 632  0E ES   4    037 39.74                              41    1.01 4  199 134 
 632  0Z  IAML     037 40.61         5.6 0.22                           199 134 
                                                                                
 2017  3 2 1359 58.8 L  72.663 124.948  6.4  SLT  7 0.2 0.7LSLT 0.6CSLT        1
 GAP=203        0.44       1.5     3.1  1.9  0.1364E+01 -0.2412E+01  0.5307E-01E
 ACTION:ARG 20-12-21 03:09 OP:mn   STATUS:               ID:20170302140000     I
 2017-03-02-1400-00M.a_____039                                                 6
 STAT SP IPHASW D HRMM SECON CODA AMPLIT PERI AZIMU VELO AIN AR TRES W  DIS CAZ7
 620  0Z IP   0 C 14 0  2.62   12                        108   -0.0610 20.0 268 
 620  0N ES   0   14 0  5.48                             108   -0.0710 20.0 268 
 620  0Z  IAML    14 0  6.17        11.7 0.22                          20.0 268 
 623  0Z IP   1 C 14 0  7.90   23                         98    0.3910 46.4 144 
 623  0E ES   0   14 0 13.91                              98    0.0210 46.4 144 
 623  0Z  IAML    14 0 16.05         2.6 0.31                          46.4 144 
 624  0Z IP   0 C 14 0  7.90   21                         97   -0.0210 49.0 114 
 624  0N ES   0   14 0 14.45                              97   -0.1610 49.0 114 
 624  0Z  IAML    14 0 14.90         4.1 0.20                          49.0 114 
 621  0Z IP   0 D 14 0  8.53   18                         97   -0.0410 53.4 182 
 621  0E ES   0   14 0 15.65                              97   -0.0710 53.4 182 
 621  0Z  IAML    14 0 15.67         1.7 0.16                          53.4 182 
 628  0Z IP   0 C 14 0 12.90   19                         67   -0.01 9 79.3 111 
 628  0Z  IAML    14 0 22.84         2.9 0.36                          79.3 111 
 628  0N ES   0   14 0 23.10                              67   -0.14 9 79.3 111 
 626  0Z IP   0 D 14 0 15.66   34                         67    0.19 8 94.0 156 
 626  0N ES   0   14 0 27.55                              67   -0.12 8 94.0 156 
 626  0Z  IAML    14 0 28.04         1.5 0.25                          94.0 156 
 631  0Z IP   1 C 14 0 26.12   35                         43    0.42 6  162 150 
 631  0N ES   0   14 0 45.20                              43   -0.17 6  162 150 
 631  0Z  IAML    14 0 47.10         2.3 0.16                           162 150 
                                                                                
 2017  3 4 2135  2.6 L  72.676 124.980  9.7  SLT  7 0.4 1.5LSLT 0.9CSLT        1
 GAP=208        0.85       4.2    10.8  3.6  0.2908E+02 -0.2952E+02 -0.5796E+01E
 ACTION:ARG 20-12-21 03:09 OP:mn   STATUS:               ID:20170304213342     I
 2017-03-04-2133-42M.a_____039                                                 6
 STAT SP IPHASW D HRMM SECON CODA AMPLIT PERI AZIMU VELO AIN AR TRES W  DIS CAZ7
 620  0Z IP   0 C 2135  6.89   22                        114   -0.0310 21.2 264 
 620  0N ES   0   2135  9.93                             114   -0.1610 21.2 264 
 620  0Z  IAML    2135 10.05        86.0 0.13                          21.2 264 
 622  0Z IP   1 C 2135  8.63   25                        109    0.3810 28.4 157 
 622  0E ES   1   2135 12.74                             109    0.3610 28.4 157 
 622  0Z  IAML    2135 12.96        43.3 0.27                          28.4 157 
 623  0Z IP   0 D 2135 11.57   25                         67    0.1210 47.0 146 
 623  0E ES   0   2135 17.74                              67   -0.1910 47.0 146 
 623  0Z  IAML    2135 18.46        11.2 0.28                          47.0 146 
 625  0Z IP   0 C 2135 14.52   28                         67   -0.24 9 67.7 145 
 625  0N ES   2   2135 23.03                              67   -0.62 9 67.7 145 
 625  0Z  IAML    2135 24.79         5.7 0.30                          67.7 145 
 628  0Z IP   0 D 2135 16.21   34                         67   -0.20 9 78.9 112 
 628  0E ES   1   2135 26.07                              67   -0.44 9 78.9 112 
 628  0Z  IAML    2135 27.53        11.0 0.31                          78.9 112 
 630  0Z IP   2 C 2135 25.48   35                         46    0.55 7  131 119 
 630  0E ES   2   2135 41.91                              46    0.66 7  131 119 
 630  0Z  IAML    2135 43.85        28.1 0.25                           131 119 
 631  0Z IP   1 C 2135 29.65   45                         43    0.47 5  162 150 
 631  0N ES   1   2135 48.84                              43    0.25 5  162 150 
 631  0Z  IAML    2135 50.49         7.9 0.16                           162 150 
                                                                                
 2017  3 7 0447 20.6 L  72.687 124.993  8.8  SLT 10 0.3 1.9LSLT 1.4CSLT        1
 GAP=212        0.69       3.3     7.4  2.8  0.1622E+02 -0.1598E+02 -0.5008E+01E
 ACTION:ARG 20-12-21 03:09 OP:mn   STATUS:               ID:20170307044601     I
 2017-03-07-0446-01M.a_____039                                                 6
 STAT SP IPHASW D HRMM SECON CODA AMPLIT PERI AZIMU VELO AIN AR TRES W  DIS CAZ7
 620  0Z IP   0 C  447 25.10   28                        112    0.0810 21.8 261 
 620  0N ES   0    447 28.18                             112   -0.0310 21.8 261 
 620  0Z  IAML     447 28.45       381.6 0.12                          21.8 261 
 622  0Z IP   0 D  447 26.62   34                        107    0.1910 29.4 158 
 622  0E ES   0    447 30.86                             107    0.2110 29.4 158 
 622  0Z  IAML     447 31.27        70.8 0.22                          29.4 158 
 623  0Z IP   0 D  447 29.64   30                        100   -0.0610 47.8 147 
 623  0E ES   1    447 36.57                             100    0.2510 47.8 147 
 623  0Z  IAML     447 37.13        23.8 0.25                          47.8 147 
 624  0Z IP   0 D  447 29.73   35                         67   -0.1010 48.9 118 
 624  0E ES   0    447 36.78                              67    0.2310 48.9 118 
 624  0Z  IAML     447 37.43        56.6 0.20                          48.9 118 
 625  0Z IP   0 C  447 32.96   49                         67   -0.06 9 68.4 146 
 625  0N ES   2    447 41.46                              67   -0.60 9 68.4 146 
 625  0Z  IAML     447 42.87        11.5 0.26                          68.4 146 
 628  0Z IP   1 D  447 34.30   39                         67   -0.25 9 78.9 113 
 628  0E ES   0    447 44.74                              67    0.03 9 78.9 113 
 628  0Z  IAML     447 45.61        24.7 0.35                          78.9 113 
 627  0Z IP   1 D  447 36.70   44                         67   -0.38 8 92.5 133 
 627  0N ES   1    447 48.67                              67   -0.42 8 92.5 133 
 627  0Z  IAML     447 48.90        10.6 0.36                          92.5 133 
 630  0Z IP   0 C  447 43.03   38                         46   -0.11 7  132 120 
 630  0N ES   2    448  0.14                              46    0.57 7  132 120 
 630  0Z  IAML     448  1.93        78.9 0.21                           132 120 
 631  0Z IP   0 D  447 47.59   48                         43    0.12 5  163 151 
 631  0E ES   0    448  7.03                              43   -0.03 5  163 151 
 631  0Z  IAML     448  9.42        22.3 0.20                           163 151 
 632  0Z IP   0 D  447 51.04   71                         41    0.24 5  187 130 
 632  0N ES   4    448 13.95                              41    1.13 5  187 130 
 632  0Z  IAML     448 14.76        14.6 0.48                           187 130 
                                                                                
 2017  313 0553 58.9 L  72.687 124.972 10.2  SLT  9 0.2 1.2LSLT 1.3CSLT        1
 GAP=212        0.61       2.1     5.1  2.2  0.2209E+01 -0.7170E+01  0.7037E-01E
 ACTION:ARG 20-12-21 03:09 OP:mn   STATUS:               ID:20170313055233     I
 2017-03-13-0552-33M.a_____039                                                 6
 STAT SP IPHASW D HRMM SECON CODA AMPLIT PERI AZIMU VELO AIN AR TRES W  DIS CAZ7
 620  0Z IP   0 C  554  3.31   33                        116    0.0610 21.1 260 
 620  0N ES   0    554  6.41                             116   -0.0210 21.1 260 
 620  0Z  IAML     554  6.63        51.0 0.11                          21.1 260 
 622  0Z IP   0 D  554  4.88   42                        109    0.0810 29.6 157 
 622  0E ES   0    554  9.34                             109    0.2210 29.6 157 
 622  0Z  IAML     554  9.50        13.0 0.16                          29.6 157 
 623  0Z IP   1 D  554  8.18   38                         67    0.2710 48.2 146 
 623  0E ES   1    554 14.89                              67    0.3910 48.2 146 
 623  0Z  IAML     554 16.90         6.3 0.22                          48.2 146 
 624  0Z IP   0 D  554  8.08   38                         67    0.0110 49.5 118 
 624  0N ES   0    554 14.63                              67   -0.1510 49.5 118 
 624  0Z  IAML     554 16.07        11.1 0.14                          49.5 118 
 621  0Z IP   0 C  554  8.88   33                         67   -0.1610 56.2 183 
 621  0E ES   1    554 16.03                              67   -0.4210 56.2 183 
 621  0Z  IAML     554 16.67         4.6 0.19                          56.2 183 
 628  0Z IP   0 D  554 12.56   44                         67   -0.23 9 79.6 113 
 628  0N ES   0    554 22.87                              67   -0.08 9 79.6 113 
 628  0Z  IAML     554 24.27         6.2 0.16                          79.6 113 
 627  0Z IP   1 D  554 15.02   50                         67   -0.28 8 93.0 132 
 627  0N ES   1    554 26.90                              67   -0.39 8 93.0 132 
 627  0Z  IAML     554 31.39         2.7 0.14                          93.0 132 
 630  0Z IP   0 D  554 21.36   40                         46    0.09 7  132 119 
 630  0N ES   1    554 37.94                              46    0.32 7  132 119 
 630  0Z  IAML     554 40.24        17.6 0.22                           132 119 
 631  0Z IP   1 D  554 25.86   55                         43    0.31 5  164 150 
 631  0E ES   1    554 45.43                              43    0.41 5  164 150 
 631  0Z  IAML     554 47.39         5.4 0.37                           164 150 
                                                                                
 2017  313 0809  5.1 L  72.454 125.103 14.4  SLT  7 0.1 1.3LSLT 1.1CSLT        1
 GAP=134        0.28       0.6     1.8  1.5  0.2754E+00 -0.2084E+00  0.1936E+00E
 ACTION:ARG 20-12-21 03:09 OP:mn   STATUS:               ID:20170313080741     I
 2017-03-13-0807-41M.a_____039                                                 6
 STAT SP IPHASW D HRMM SECON CODA AMPLIT PERI AZIMU VELO AIN AR TRES W  DIS CAZ7
 623  0Z IP   0 D  8 9 10.61   38                        112   -0.0110 26.4 122 
 623  0E ES   0    8 9 14.56                             112   -0.0910 26.4 122 
 623  0Z  IAML     8 9 15.47        41.9 0.23                          26.4 122 
 621  0Z IP   0 D  8 9 11.20   33                        108    0.0710 30.9 194 
 621  0E ES   0    8 9 15.58                             108    0.0610 30.9 194 
 621  0Z  IAML     8 9 17.34        23.5 0.15                          30.9 194 
 620  0Z IP   0 D  8 9 11.72   34                        106   -0.0010 33.8 312 
 620  0N ES   0    8 9 16.45                             106   -0.1010 33.8 312 
 620  0Z  IAML     8 9 17.87        44.7 0.14                          33.8 312 
 624  0Z IP   0 D  8 9 12.75   25                        102    0.0710 39.5  86 
 624  0N ES   0    8 9 18.26                             102    0.0510 39.5  86 
 624  0Z  IAML     8 9 18.61        42.4 0.14                          39.5  86 
 625  0Z IP   0 C  8 9 13.68   53                         99    0.0110 46.2 132 
 625  0N ES   0    8 9 19.84                              99   -0.0910 46.2 132 
 625  0Z  IAML     8 9 21.34        10.0 0.26                          46.2 132 
 628  0Z IP   0 D  8 9 17.39   42                         95    0.11 9 69.2  94 
 628  0N ES   0    8 9 26.13                              95   -0.04 9 69.2  94 
 628  0Z  IAML     8 9 27.51        18.6 0.24                          69.2  94 
 626  0Z IP   0 D  8 9 17.71   45                         70    0.08 9 70.7 153 
 626  0E ES   0    8 9 26.64                              70   -0.13 9 70.7 153 
 626  0Z  IAML     8 9 26.87         6.5 0.21                          70.7 153 
                                                                                
