 2017  4 8 1004 44.5 L  72.608 124.979 12.6  SLT 12 0.3 1.6LSLT 2.3CSLT        1
 GAP=183        0.59       2.1     4.8  1.9  0.6042E+01 -0.2569E+01  0.1374E+00E
 ACTION:UP  20-12-21 14:32 OP:elen STATUS:               ID:20170408100319     I
 OLDACT:UP  20-12-20 16:21 OP:elen STATUS:               ID:20170408100319     3
 OLDACT:UP  20-12-19 02:06 OP:elen STATUS:               ID:20170408100319     3
 OLDACT:REG 20-12-15 20:09 OP:elen STATUS:               ID:20170408100319     3
 2017-04-08-1003-19M.NSN___039                                                 6
 STAT SP IPHASW D HRMM SECON CODA AMPLIT PERI AZIMU VELO AIN AR TRES W  DIS CAZ7
 622  0Z IP   0   10 4 49.30   86                        113    0.1510 21.6 149 
 622  0N ES   1   10 4 52.82                             113    0.2510 21.6 149 
 622  0E  IAML    10 4 53.10        74.9 0.37                          21.6 149 
 620  0Z IP   0   10 4 49.10   78                        113    0.0410 21.7 284 
 620  0N ES   0   10 4 52.40                             113   -0.0110 21.7 284 
 620  0E  IAML    10 4 52.80       171.2 0.15                          21.7 284 
 623  0Z IP   0   10 4 52.26   80                         97   -0.0410 41.0 140 
 623  0N ES   0   10 4 58.11                              97    0.1010 41.0 140 
 623  0N  IAML    10 4 59.03        75.1 0.25                          41.0 140 
 624  0Z IP   0   10 4 53.11   93                         96    0.0610 45.8 108 
 624  0N ES   0   10 4 59.48                              96    0.1610 45.8 108 
 624  0N  IAML    10 5  1.03        27.4 0.11                          45.8 108 
 625  0Z IP   0   10 4 55.37  106                         93   -0.2210 61.6 141 
 625  0N ES   0   10 5  3.50                              93   -0.2010 61.6 141 
 625  0N  IAML    10 5  3.88         8.5 0.32                          61.6 141 
 628  0Z IP   0   10 4 57.62  104                         92   -0.22 9 76.4 107 
 628  0N ES   0   10 5  7.40                              92   -0.20 9 76.4 107 
 628  0E  IAML    10 5  8.95        21.9 0.21                          76.4 107 
 627  0Z IP   0   10 4 59.88  107                         70    0.03 9 87.1 128 
 627  0N ES   0   10 5 11.19                              70    0.11 9 87.1 128 
 627  0N  IAML    10 5 12.24         8.1 0.25                          87.1 128 
 626  0Z IP   1   10 4 59.53   99                         70   -0.30 8 88.0 155 
 626  0E ES   1   10 5 10.66                              70   -0.38 8 88.0 155 
 626  0E  IAML    10 5 11.00         8.5 0.17                          88.0 155 
 629  0Z IP   0   10 5  3.50   89                         70    0.01 8  110 133 
 629  0N ES   0   10 5 17.47                              70    0.09 8  110 133 
 629  0E  IAML    10 5 18.54         6.7 0.21                           110 133 
 630  0Z IP   0   10 5  5.80   97                         52   -0.24 7  128 116 
 630  0N ES   1   10 5 21.43                              52   -0.36 7  128 116 
 630  0E  IAML    10 5 25.71        18.6 0.18                           128 116 
 631  0Z IP   0   10 5 10.15  104                         48    0.24 6  156 149 
 631  0E ES   1   10 5 28.84                              48    0.36 6  156 149 
 631  0N  IAML    10 5 30.82        14.2 0.13                           156 149 
 632  0Z IP   2   10 5 14.26  104                         45    0.73 5  182 127 
 632  0N ES   4   10 5 35.96                              45    1.22 5  182 127 
 632  0E  IAML    10 5 36.82        10.4 0.35                           182 127 
                                                                                
 2017  4 8 1004 44.5 L  72.602 124.974 12.4  SLT 13 0.3 1.6LSLT 2.5CSLT        1
 GAP=180        0.58       1.6     4.0  1.9  0.2465E+01 -0.2518E+01  0.9803E-01E
 ACTION:UP  20-12-21 15:15 OP:elen STATUS:               ID:20170408100354     I
 OLDACT:UP  20-12-20 16:45 OP:elen STATUS:               ID:20170408100354     3
 OLDACT:UP  20-12-19 13:04 OP:elen STATUS:               ID:20170408100354     3
 OLDACT:REG 20-12-19 09:34 OP:elen STATUS:               ID:20170408100354     3
 2017-04-08-1003-54M.NSN___039                                                 6
 STAT SP IPHASW D HRMM SECON CODA AMPLIT PERI AZIMU VELO AIN AR TRES W  DIS CAZ7
 622  0Z IP   0   10 4 49.31  112                        113    0.2110 21.2 147 
 622  0N ES   1   10 4 52.78                             113    0.3210 21.2 147 
 622  0E  IAML    10 4 53.18        75.7 0.20                          21.2 147 
 620  0Z IP   0   10 4 49.12   92                        112    0.0510 21.7 286 
 620  0N ES   0   10 4 52.40                             112   -0.0110 21.7 286 
 620  0E  IAML    10 4 52.80       170.6 0.15                          21.7 286 
 623  0Z IP   0   10 4 52.27  100                         96    0.0110 40.6 139 
 623  0N ES   0   10 4 58.13                              96    0.2010 40.6 139 
 623  0N  IAML    10 4 59.15        73.9 0.30                          40.6 139 
 624  0Z IP   0   10 4 53.13  119                         95    0.0610 45.8 107 
 624  0N ES   0   10 4 59.48                              95    0.1510 45.8 107 
 624  0N  IAML    10 5  1.02        33.6 0.15                          45.8 107 
 621  0Z IP   0   10 4 52.92   98                         95   -0.1510 46.8 184 
 621  0N ES   0   10 4 59.20                              95   -0.1310 46.8 184 
 621  0E  IAML    10 5  1.72        20.3 0.22                          46.8 184 
 625  0Z IP   0   10 4 55.33  121                         93   -0.2210 61.2 141 
 625  0N ES   1   10 5  3.31                              93   -0.3110 61.2 141 
 625  0N  IAML    10 5  3.88         8.4 0.32                          61.2 141 
 628  0Z IP   0   10 4 57.63  111                         92   -0.24 9 76.4 106 
 628  0N ES   1   10 5  7.38                              92   -0.25 9 76.4 106 
 628  0E  IAML    10 5  8.94        21.7 0.19                          76.4 106 
 627  0Z IP   0   10 4 59.89  107                         70    0.04 9 86.9 128 
 627  0N ES   0   10 5 11.08                              70    0.02 9 86.9 128 
 627  0N  IAML    10 5 12.24         8.1 0.25                          86.9 128 
 626  0Z IP   0   10 4 59.78  122                         70   -0.02 8 87.5 155 
 626  0N ES   0   10 5 10.85                              70   -0.11 8 87.5 155 
 626  0E  IAML    10 5 11.00         8.5 0.18                          87.5 155 
 629  0Z IP   0   10 5  3.42  112                         70   -0.07 8  109 132 
 629  0N ES   0   10 5 17.26                              70   -0.09 8  109 132 
 629  0E  IAML    10 5 18.54         6.7 0.20                           109 132 
 630  0Z IP   1   10 5  5.81  123                         52   -0.27 7  128 116 
 630  0N ES   1   10 5 21.44                              52   -0.39 7  128 116 
 630  0E  IAML    10 5 25.71        18.5 0.18                           128 116 
 631  0Z IP   1   10 5 10.17  120                         48    0.26 6  155 149 
 631  0N ES   1   10 5 28.83                              48    0.37 6  155 149 
 631  0N  IAML    10 5 30.82        14.2 0.13                           155 149 
 632  0Z IP   2   10 5 14.26  118                         45    0.70 5  182 127 
 632  0N ES   4   10 5 35.99                              45    1.22 5  182 127 
 632  0E  IAML    10 5 37.29         8.6 0.16                           182 127 
                                                                                
 2017  414 0459 18.3 L  72.264 127.380 22.4  SLT  7 0.2 0.7LSLT 0.5CSLT        1
 GAP=150        0.46       1.2     3.7  1.7  0.1301E+01  0.6997E+00  0.7488E+00E
 ACTION:UP  20-12-23 23:35 OP:elen STATUS:               ID:20170414045811     I
 OLDACT:REG 20-12-21 23:05 OP:elen STATUS:               ID:20170414045811     3
 2017-04-14-0458-11M.NSN___039                                                 6
 STAT SP IPHASW D HRMM SECON CODA AMPLIT PERI AZIMU VELO AIN AR TRES W  DIS CAZ7
 628  0Z IP   0    459 23.05   21                        139    0.1610 17.1 333 
 628  0N ES   0    459 26.28                             139    0.0210 17.1 333 
 628  0N  IAML     459 26.45        23.3 0.08                          17.1 333 
 627  0Z IP   0    459 23.80   19                        132    0.1810 21.3 220 
 627  0N ES   0    459 27.53                             132    0.0210 21.3 220 
 627  0N  IAML     459 28.15         7.8 0.21                          21.3 220 
 629  0Z IP   0    459 25.93   20                        113    0.0710 37.5 184 
 629  0N ES   0    459 31.21                             113   -0.1810 37.5 184 
 629  0N  IAML     459 31.83         2.1 0.37                          37.5 184 
 630  0Z IP   0    459 26.00   20                        112    0.0510 38.6 123 
 630  0N ES   0    459 31.33                             112   -0.2210 38.6 123 
 630  0E  IAML     459 31.56         2.7 0.16                          38.6 123 
 626  0Z IP   0    459 29.62   24                        100    0.20 9 62.4 228 
 626  0E ES   0    459 37.59                             100    0.04 9 62.4 228 
 626  0N  IAML     459 37.71         1.9 0.21                          62.4 228 
 622  0Z IP   0    459 31.28   26                         98   -0.08 9 72.7 287 
 622  0E ES   1    459 40.52                              98   -0.39 9 72.7 287 
 622  0E  IAML     459 41.08         1.3 0.14                          72.7 287 
 631  0Z IP   0    459 35.11                              62    0.16 8 96.7 183 
 631  0N ES   0    459 47.07                              62   -0.05 8 96.7 183 
 631  0E  IAML     459 47.29         3.2 0.19                          96.7 183 
                                                                                
 2017  416 0523 41.2 L  71.947 127.110 20.4  SLT 13 0.3 1.7LSLT 2.2CSLT        1
 GAP= 85        0.79       1.4     4.2  2.4  0.1943E+01  0.2299E+01  0.6330E-01E
 ACTION:UP  20-12-26 19:23 OP:elen STATUS:               ID:20170416052232     I
 OLDACT:REG 20-12-24 20:31 OP:elen STATUS:               ID:20170416052232     3
 2017-04-16-0522-32M.NSN___039                                                 6
 STAT SP IPHASW D HRMM SECON CODA AMPLIT PERI AZIMU VELO AIN AR TRES W  DIS CAZ7
 629  0Z IP   1    523 45.45   82                        158    0.3710 7.31 106 
 629  0N ES   0    523 48.09                             158    0.2110 7.31 106 
 629  0N  IAML     523 48.18       179.5 0.06                          7.31 106 
 627  0Z IP   0    523 46.35   83                        131    0.2110 19.5 347 
 627  0N ES   0    523 49.70                             131   -0.0310 19.5 347 
 627  0E  IAML     523 49.90       231.5 0.18                          19.5 347 
 626  0Z IP   1    523 48.77   80                        109    0.2610 37.8 261 
 626  0N ES   0    523 53.87                             109    0.0410 37.8 261 
 626  0N  IAML     523 53.97        63.4 0.13                          37.8 261 
 625  0Z IP   0    523 49.48   82                        105    0.0710 42.8 307 
 625  0N ES   1    523 55.09                             105   -0.2910 42.8 307 
 625  0N  IAML     523 55.32        56.1 0.21                          42.8 307 
 630  0Z IP   1    523 49.98   86                        104    0.3210 44.3  71 
 630  0N ES   0    523 55.91                             104    0.1010 44.3  71 
 630  0E  IAML     523 56.36        36.3 0.12                          44.3  71 
 628  0Z IP   0    523 50.46   78                        101    0.0710 50.6   1 
 628  0N ES   1    523 56.76                             101   -0.3110 50.6   1 
 628  0E  IAML     523 57.87        59.4 0.22                          50.6   1 
 631  0Z IP   0    523 52.69   91                         97    0.1210 61.3 175 
 631  0N ES   0    524  0.61                              97   -0.2410 61.3 175 
 631  0E  IAML     524  0.91       108.1 0.18                          61.3 175 
 623  0Z IP   0    523 52.70   88                         97    0.03 9 62.7 313 
 623  0N ES   1    524  0.64                              97   -0.39 9 62.7 313 
 623  0E  IAML     524  0.98        12.3 0.17                          62.7 313 
 624  0Z IP   0    523 53.19   87                         96    0.12 9 65.6 335 
 624  0N ES   0    524  1.53                              96   -0.18 9 65.6 335 
 624  0E  IAML     524  3.80        21.0 0.28                          65.6 335 
 632  0Z IP   1    523 55.75   95                         94   -0.25 9 80.2 120 
 632  0N ES   3    524  5.91                              94   -0.87 9 80.2 120 
 632  0E  IAML     524  8.88        12.0 0.12                          80.2 120 
 621  0Z IP   0    523 55.38   86                         94    0.07 9 80.8 290 
 621  0N ES   1    524  5.30                              94   -0.29 9 80.8 290 
 621  0N  IAML     524 10.84        11.6 0.16                          80.8 290 
 622  0Z IP   0    523 55.88   87                         94    0.05 9 82.6 313 
 622  0E ES   1    524  6.15                              94   -0.33 9 82.6 313 
 622  0E  IAML     524 12.01        20.7 0.15                          82.6 313 
 620  0Z IP   2    524  2.06  120                         56    0.66 7  123 311 
 620  0N ES   2    524 16.86                              56    0.73 7  123 311 
 620  0E  IAML     524 20.08        17.2 0.19                           123 311 
                                                                                
 2017  416 1821  5.3 L  72.858 125.031 13.9  SLT 13 0.3 1.5LSLT 2.2CSLT        1
 GAP=260        0.61       2.5     5.5  2.2  0.6790E+00 -0.5500E+01 -0.7196E+00E
 ACTION:UP  20-12-27 00:47 OP:elen STATUS:               ID:20170416181941     I
 OLDACT:REG 20-12-24 20:59 OP:elen STATUS:               ID:20170416181941     3
 2017-04-16-1819-41M.NSN___039                                                 6
 STAT SP IPHASW D HRMM SECON CODA AMPLIT PERI AZIMU VELO AIN AR TRES W  DIS CAZ7
 620  0Z IP   0   1821 11.60   79                        106    0.0210 32.1 225 
 620  0E ES   0   1821 16.27                             106    0.0710 32.1 225 
 620  0E  IAML    1821 18.35        20.2 0.16                          32.1 225 
 622  0Z IP   0   1821 14.23   83                         98    0.0310 47.3 168 
 622  0E ES   0   1821 20.81                              98    0.0910 47.3 168 
 622  0N  IAML    1821 20.82        23.1 0.27                          47.3 168 
 624  0Z IP   0   1821 16.12   90                         96   -0.0110 59.4 135 
 624  0N ES   0   1821 24.11                              96    0.0410 59.4 135 
 624  0N  IAML    1821 24.84        18.5 0.25                          59.4 135 
 623  0Z IP   0   1821 17.07   85                         95    0.08 9 64.1 157 
 623  0E ES   0   1821 25.73                              95    0.17 9 64.1 157 
 623  0E  IAML    1821 26.39        16.1 0.19                          64.1 157 
 621  0Z IP   0   1821 18.44   78                         70   -0.19 9 75.3 184 
 621  0N ES   1   1821 28.05                              70   -0.34 9 75.3 184 
 621  0E  IAML    1821 29.12        15.1 0.21                          75.3 184 
 625  0Z IP   0   1821 19.96   85                         70   -0.15 9 84.4 154 
 625  0N ES   0   1821 30.82                              70   -0.14 9 84.4 154 
 625  0N  IAML    1821 32.15         4.3 0.38                          84.4 154 
 628  0Z IP   0   1821 20.12   85                         70   -0.19 9 87.1 125 
 628  0N ES   0   1821 31.05                              70   -0.24 9 87.1 125 
 628  0N  IAML    1821 32.39        16.4 0.29                          87.1 125 
 627  0Z IP   0   1821 23.51   88                         70    0.04 8  106 141 
 627  0E ES   0   1821 36.89                              70    0.13 8  106 141 
 627  0E  IAML    1821 38.22         4.4 0.21                           106 141 
 626  0Z IP   0   1821 24.38   87                         56   -0.16 7  113 162 
 626  0N ES   0   1821 38.38                              56   -0.24 7  113 162 
 626  0E  IAML    1821 38.73        21.4 0.23                           113 162 
 629  0Z IP   0   1821 26.93   76                         52    0.01 7  129 142 
 629  0E ES   0   1821 42.83                              52    0.10 7  129 142 
 629  0E  IAML    1821 47.02         3.3 0.46                           129 142 
 630  0Z IP   1   1821 28.17   78                         52   -0.25 6  141 127 
 630  0E ES   1   1821 45.06                              52   -0.27 6  141 127 
 630  0E  IAML    1821 46.35        10.8 0.24                           141 127 
 631  0Z IP   2   1821 34.15   89                         45    0.70 5  180 154 
 631  0N ES   4   1821 55.38                              45    1.35 5  180 154 
 631  0E  IAML    1821 56.98         8.3 0.23                           180 154 
 632  0Z IP   2   1821 36.81   87                         45    0.62 4  199 134 
 632  0N ES   4   1822  0.00                              45    1.23 4  199 134 
 632  0E  IAML    1822  3.02         4.0 0.37                           199 134 
                                                                                
