 2016 1126 1456 11.6 L  72.681 124.978 10.3  SLT 11 0.4 1.2LSLT 1.8CSLT        1
 GAP=210        0.53       2.8     6.0  2.9  0.1231E+00 -0.1296E+02  0.2106E+01E
 ACTION:REE 25-08-04 22:01 OP:mn   STATUS:               ID:20161126145445     I
 2016-11-26-1454-45M.arct__039                                                 6
 STAT SP IPHASW D HRMM SECON CODA AMPLIT PERI AZIMU VELO AIN AR TRES W  DIS CAZ7
 620  0Z IP   1   1456 15.80   67                        115   -0.42 7 21.2 262 
 620  0E ES   0   1456 19.72                             115    0.1410 21.2 262 
 620  0Z  IAML    1456 20.57        36.0 0.22                          21.2 262 
 622  0Z IP   0   1456 17.79   73                        109    0.1410 28.9 157 
 622  0E ES   3   1456 22.90                             109    0.84 2 28.9 157 
 622  0Z  IAML    1456 26.55        13.2 0.28                          28.9 157 
 624  0Z IP   0   1456 20.80   67                         66   -0.1310 49.0 117 
 624  0E ES   1   1456 28.06                              66    0.32 7 49.0 117 
 624  0Z  IAML    1456 28.27        26.9 0.17                          49.0 117 
 621  0Z IP   0   1456 22.26                              66    0.0510 55.5 183 
 621  0E ES   1   1456 29.67                              66   -0.29 7 55.5 183 
 625  0N IP   4   1456 25.66                              66    1.25 0 68.2 146 
 625  0E ES   3   1456 32.98                              66   -0.78 2 68.2 146 
 628  0Z IP   2   1456 25.12                              66   -0.55 4 79.1 112 
 628  0N ES   2   1456 35.32                              66   -0.62 4 79.1 112 
 627  0Z IP   0   1456 28.55                              58    0.26 8 92.4 132 
 627  0N ES   2   1456 39.97                              58   -0.51 4 92.4 132 
 629  0Z IP   0   1456 32.09                              48    0.04 7  115 136 
 629  0N ES   4   1456 45.73                              48   -1.25 0  115 136 
 630  0Z IP   0   1456 34.08                              44   -0.03 7  132 119 
 630  0N ES   3   1456 51.40                              44    0.85 2  132 119 
 631  0Z IP   1   1456 38.91                              37    0.56 4  163 150 
 631  0N ES   3   1456 58.80                              37    0.93 1  163 150 
 632  0Z IP   3   1456 42.04                              37    0.84 1  187 129 
 632  0N ES   4   1457  4.64                              37    1.83 0  187 129 
                                                                                
 2016 1228 2250 23.2 L  71.590 127.569  3.1  SLT 10 0.3 1.8LSLT 2.3CSLT        1
 GAP=117        0.47       1.0     4.6  3.5 -0.1064E+01  0.2315E+01 -0.1013E+01E
 ACTION:REE 25-08-04 22:04 OP:mn   STATUS:               ID:20161228224921     I
 2016-12-28-2249-21M.arct__039                                                 6
 STAT SP IPHASW D HRMM SECON CODA AMPLIT PERI AZIMU VELO AIN AR TRES W  DIS CAZ7
 631  0Z IP   1   2250 28.59   77                         97    0.26 7 24.1 208 
 631  0N ES   0   2250 32.09                              97    0.0010 24.1 208 
 631  0Z  IAML    2250 33.05       162.0 0.45                          24.1 208 
 629  0Z IP   1   2250 30.78                              94    0.13 7 38.9 347 
 629  0N ES   0   2250 36.02                              94   -0.0810 38.9 347 
 632  0Z IP   0   2250 33.78   84                         93   -0.1510 53.1  91 
 632  0N ES   3   2250 40.97                              93   -0.80 2 53.1  91 
 632  0Z  IAML    2250 42.34        30.3 0.26                          53.1  91 
 630  0Z IP   2   2250 35.00   83                         93    0.49 5 60.2  26 
 630  0N ES   1   2250 43.00                              93    0.21 7 60.2  26 
 630  0Z  IAML    2250 43.81        19.2 0.62                          60.2  26 
 627  0Z IP   2   2250 35.35                              93    0.39 5 62.3 341 
 626  0Z IP   0   2250 34.81                              93   -0.26 9 63.1 303 
 626  0N ES   4   2250 42.41                              93   -1.34 0 63.1 303 
 628  0Z IP   0   2250 39.83                              66   -0.12 8 91.6 351 
 623  0Z IP   0   2250 42.52                              58   -0.12 8  103 324 
 622  0Z IP   0   2250 45.89                              58    0.15 7  123 322 
 622  0E ES   4   2251  0.71                              58   -1.50 0  123 322 
 620  0Z IP   2   2250 51.19                              37    0.66 3  162 319 
 620  0Z ES   4   2251 11.71                              37    1.22 0  162 319 
                                                                                
 2016 1230 1909 41.4 L  72.245 129.663  9.5  SLT 13 0.4 2.0LSLT 2.2CSLT        1
 GAP=269        0.53       3.0    13.0  4.1  0.2292E+02  0.2535E+02  0.4247E+01E
 ACTION:REE 25-08-04 22:04 OP:mn   STATUS:               ID:20161230190840     I
 2016-12-30-1908-40M.arct__039                                                 6
 STAT SP IPHASW D HRMM SECON CODA AMPLIT PERI AZIMU VELO AIN AR TRES W  DIS CAZ7
 630  0Z  IAML    19 9 58.64        21.9 0.21                          49.5 248 
 632  0Z IP   1   19 9 56.07   62                         66   -0.26 8 77.6 196 
 632  0E ES   2   1910  6.80                              66   -0.46 5 77.6 196 
 632  0Z  IAML    1910  8.71        35.4 0.59                          77.6 196 
 628  0Z IP   0   19 9 57.07                              66    0.2210 87.0 283 
 628  0N ES   0   1910  7.97                              66   -0.1910 87.0 283 
 629  0Z IP   1   19 9 57.98                              58    0.46 7 88.1 248 
 629  0N ES   2   1910  9.91                              58    0.58 5 88.1 248 
 627  0Z IP   0   19 9 58.10   68                         58   -0.0710 92.7 262 
 627  0N ES   1   1910 10.16                              58   -0.29 7 92.7 262 
 627  0Z  IAML    1910 11.42        18.2 0.20                          92.7 262 
 624  0Z IP   2   1910  1.63                              48   -0.54 4  117 284 
 624  0N ES   4   1910 16.11                              48   -1.26 0  117 284 
 625  0Z IP   0   1910  3.05                              44    0.14 8  122 268 
 625  0N ES   1   1910 19.01                              44    0.37 6  122 268 
 631  0Z IP   2   1910  4.41   78                         44    0.52 4  126 223 
 631  0E ES   0   1910 20.21                              44   -0.12 8  126 223 
 631  0Z  IAML    1910 21.23        17.9 0.61                           126 223 
 626  0Z IP   2   1910  4.60                              44    0.72 4  131 254 
 626  0N ES   1   1910 20.74                              44    0.42 6  131 254 
 623  0Z IP   0   1910  4.28                              44   -0.20 8  133 276 
 623  0N ES   1   1910 20.97                              44   -0.38 6  133 276 
 622  0Z IP   1   1910  6.04                              37   -0.28 5  149 281 
 622  0N ES   1   1910 23.93                              37   -0.61 5  149 281 
 621  0Z IP   2   1910  8.59                              37    0.71 3  163 270 
 621  0N ES   2   1910 27.82                              37    0.57 3  163 270 
 620  0Z IP   2   1910 10.81                              37    0.52 3  185 287 
                                                                                
 2017  110 0630 46.8 L  72.205 129.928 11.7  SLT 11 0.5 3.2LSLT 2.3CSLT        1
 GAP=276        0.47       2.9    18.7  4.1  0.2969E+01  0.3561E+02 -0.4832E+01E
 ACTION:REE 25-08-04 22:06 OP:mn   STATUS:               ID:20170110062948     I
 2017-01-10-0629-48M.a_____039                                                 6
 STAT SP IPHASW D HRMM SECON CODA AMPLIT PERI AZIMU VELO AIN AR TRES W  DIS CAZ7
 630  0Z IP   2    630 57.75                              92    0.43 7 56.8 256 
 632  0Z IP   1    631  1.33                              91   -0.1510 76.4 203 
 632  0N ES   1    631 12.24                              91    0.0210 76.4 203 
 629  0Z IP   1    631  4.09                              68    0.19 9 95.0 252 
 629  0N ES   2    631 16.44                              68    0.05 6 95.0 252 
 627  0Z IP   2 D  631  4.01                              68   -0.78 6  101 266 
 627  0N ES   3    631 16.31                              68   -1.63 3  101 266 
 627  0Z  IAML     631 57.64       196.6 1.02                           101 266 
 624  0Z IP   2    631  8.03                              50   -0.64 5  127 285 
 624  0N ES   4    631 22.80                              50   -1.85 0  127 285 
 631  0Z IP   2    631  9.24                              50   -0.24 5  130 227 
 631  0N ES   0    631 26.07                              50    0.0210  130 227 
 625  0Z IP   1    631  9.55                              50    0.30 7  131 270 
 625  0N ES   1    631 25.79                              50    0.13 7  131 270 
 626  0Z IP   4    631 11.08                              41    1.10 0  139 257 
 626  0N ES   3    631 27.69                              41    0.78 2  139 257 
 622  0Z IP   0 D  631 12.51   88                         41   -0.03 8  159 282 
 622  0N ES   2    631 30.66                              41   -0.69 4  159 282 
 622  0Z  IAML     632  1.26       157.4 0.93                           159 282 
 621  0Z IP   2 D  631 14.81   89                         41    0.77 4  172 272 
 621  0N ES   4    631 34.85                              41    0.92 0  172 272 
 621  0Z  IAML     632  3.32       228.3 1.39                           172 272 
 620  0Z IP   2 D  631 17.20  112                         41    0.66 3  195 288 
 620  0N ES   2    631 38.63                              41    0.37 3  195 288 
 620  0Z  IAML     632 24.41       174.3 1.64                           195 288 
                                                                                
 2017  3 4 2135  2.6 L  72.637 124.938 10.4  SLT 11 0.3                        1
 GAP=193        0.62       2.3     6.0  2.9 -0.2135E-01 -0.1070E+02  0.2633E+01E
 ACTION:ARG 20-12-21 03:09 OP:mn   STATUS:               ID:20170304213342     I
 2017-03-04-2133-42M.a_____039                                                 6
 STAT SP IPHASW D HRMM SECON CODA AMPLIT PERI AZIMU VELO AIN AR TRES W  DIS CAZ7
 620  0Z IP   0   2135  6.89                             117   -0.1310 19.8 276 
 620  0N ES   1   2135  9.97                             117   -0.25 7 19.8 276 
 622  0Z IP   1   2135  8.40                             112    0.36 7 25.2 150 
 622  0Z ES   2   2135 12.52                             112    0.55 5 25.2 150 
 623  0Z IP   0   2135 11.59                              66    0.1810 44.4 141 
 623  0E ES   0   2135 17.76                              66   -0.0410 44.4 141 
 624  0Z IP   0   2135 11.59                              66   -0.2410 48.2 111 
 624  0N ES   1   2135 18.14                              66   -0.40 7 48.2 111 
 621  0Z IP   0   2135 12.49                              66    0.0910 50.6 182 
 621  0E ES   0   2135 19.36                              66   -0.1610 50.6 182 
 625  0Z IP   1   2135 15.37                              66    0.46 7 65.0 142 
 625  0N ES   2   2135 23.10                              66   -0.76 5 65.0 142 
 628  0Z IP   1   2135 16.91                              66    0.28 7 78.7 109 
 628  0N ES   1   2135 26.46                              66   -0.38 7 78.7 109 
 626  0Z IP   0   2135 19.31                              58    0.14 8 91.6 155 
 626  0E ES   1   2135 30.76                              58   -0.47 6 91.6 155 
 629  0Z IP   2   2135 23.36                              58    0.63 4  113 133 
 629  0E ES   4   2135 36.05                              58   -1.33 0  113 133 
 630  0Z IP   1   2135 25.40                              44    0.40 5  131 117 
 630  0N ES   0   2135 41.51                              44    0.19 7  131 117 
 631  0Z IP   1   2135 29.38                              37    0.40 4  159 149 
 631  0N ES   2   2135 48.84                              37    0.64 3  159 149 
                                                                                
 2017  3 7 0447 20.5 L  72.659 124.974 10.4  SLT 12 0.4                        1
 GAP=202        0.59       3.3     8.5  5.3 -0.1088E+02 -0.3915E+02  0.1178E+02E
 ACTION:ARG 20-12-21 03:09 OP:mn   STATUS:               ID:20170307044601     I
 2017-03-07-0446-01M.a_____039                                                 6
 STAT SP IPHASW D HRMM SECON CODA AMPLIT PERI AZIMU VELO AIN AR TRES W  DIS CAZ7
 620  0Z IP   0    447 25.09                             116    0.0410 20.9 269 
 620  0N ES   0    447 28.21                             116   -0.1810 20.9 269 
 622  0Z IP   1    447 26.58                              66    0.44 7 26.7 155 
 622  0N ES   2    447 30.76                              66    0.50 5 26.7 155 
 623  0Z IP   1    447 29.77                              66    0.33 7 45.5 144 
 623  0E ES   0    447 36.14                              66    0.1610 45.5 144 
 624  0Z IP   0    447 29.62                              66   -0.0210 48.0 114 
 624  0E ES   0    447 36.27                              66   -0.0510 48.0 114 
 621  0Z IP   0    447 30.66                              66    0.0110 53.0 183 
 621  0E ES   2    447 37.40                              66   -0.68 5 53.0 183 
 625  0Z IP   2    447 33.65                              66    0.71 5 66.2 144 
 625  0N ES   2    447 41.29                              66   -0.75 5 66.2 144 
 628  0Z IP   0    447 34.27                              66   -0.14 9 78.3 111 
 628  0N ES   2    447 44.02                              66   -0.55 4 78.3 111 
 627  0Z IP   1    447 36.61                              58   -0.30 6 90.8 131 
 627  0N ES   1    447 48.59                              58   -0.32 6 90.8 131 
 626  0Z IP   0    447 37.35                              58    0.08 8 93.2 157 
 626  0E ES   1    447 49.14                              58   -0.38 6 93.2 157 
 630  0Z IP   1    447 42.58                              44   -0.26 5  131 118 
 630  0N ES   1    447 59.57                              44    0.42 5  131 118 
 631  0Z IP   1    447 47.46                              37    0.49 4  161 150 
 631  0N ES   2    448  7.08                              37    0.77 3  161 150 
 632  0Z IP   3    447 50.90                              37    1.00 1  185 129 
 632  0N ES   4    448 13.79                              37    2.42 0  185 129 
                                                                                
 2017  313 0553 59.0 L  72.646 124.930 10.4  SLT 12 0.4                        1
 GAP=196        0.58       2.8     6.3  3.4 -0.3029E+00 -0.1537E+02  0.4634E+01E
 ACTION:ARG 20-12-21 03:09 OP:mn   STATUS:               ID:20170313055233     I
 2017-03-13-0552-33M.a_____039                                                 6
 STAT SP IPHASW D HRMM SECON CODA AMPLIT PERI AZIMU VELO AIN AR TRES W  DIS CAZ7
 620  0Z IP   0    554  3.30                             117    0.0110 19.4 273 
 620  0N ES   0    554  6.35                             117   -0.0910 19.4 273 
 622  0Z IP   1    554  4.92                             111    0.39 7 26.2 150 
 622  0E ES   3    554  9.27                             111    0.67 2 26.2 150 
 623  0Z IP   1    554  8.38                              66    0.49 7 45.3 142 
 623  0E ES   0    554 14.44                              66    0.0310 45.3 142 
 624  0Z IP   1    554  8.01                              66   -0.26 7 48.9 112 
 624  0N ES   0    554 15.14                              66    0.0910 48.9 112 
 621  0Z IP   0    554  8.87                              66   -0.0310 51.6 182 
 621  0E ES   1    554 15.88                              66   -0.26 7 51.6 182 
 625  0Z IP   3    554 12.43                              66    1.03 2 66.0 142 
 625  0E ES   2    554 19.90                              66   -0.57 5 66.0 142 
 628  0Z IP   2    554 12.54                              66   -0.52 4 79.3 109 
 628  0N ES   2    554 22.67                              66   -0.67 4 79.3 109 
 627  0Z IP   1    554 15.10                              58   -0.34 6 91.1 129 
 627  0N ES   2    554 26.94                              58   -0.53 4 91.1 129 
 626  0Z IP   1    554 16.01                              58    0.35 6 92.6 156 
 626  0E ES   2    554 27.31                              58   -0.53 4 92.6 156 
 630  0Z IP   1    554 21.29                              44   -0.13 5  131 117 
 630  0E ES   3    554 38.85                              44    1.05 2  131 117 
 631  0Z IP   1    554 25.93                              37    0.52 4  160 149 
 631  0N ES   1    554 45.42                              37    0.70 4  160 149 
 632  0Z IP   3    554 29.51                              37    1.09 1  186 128 
 632  0N ES   4    554 52.08                              37    2.15 0  186 128 
                                                                                
 2017  313 0809  5.0 L  72.452 125.099  9.9  SLT 12 0.2                        1
 GAP=133        0.41       1.0     2.7  1.0  0.9862E+00 -0.9851E+00  0.6418E-02E
 ACTION:ARG 20-12-21 03:09 OP:mn   STATUS:               ID:20170313080741     I
 2017-03-13-0807-41M.a_____039                                                 6
 STAT SP IPHASW D HRMM SECON CODA AMPLIT PERI AZIMU VELO AIN AR TRES W  DIS CAZ7
 622  0Z IP   1    8 9  7.76                             143    0.19 7 7.31  99 
 622  0N ES   0    8 9  9.32                             143   -0.1110 7.31  99 
 623  0Z IP   0    8 9 10.65                             110    0.0210 26.4 122 
 623  0N ES   1    8 9 14.89                             110    0.16 7 26.4 122 
 621  0Z IP   0    8 9 11.42                             108    0.0910 30.8 193 
 621  0N ES   1    8 9 15.96                             108    0.03 7 30.8 193 
 620  0Z IP   0    8 9 11.73                             106   -0.1110 33.8 312 
 620  0E ES   0    8 9 16.77                             106   -0.0510 33.8 312 
 624  0Z IP   0    8 9 12.86                              66    0.1110 39.7  86 
 624  0E ES   1    8 9 18.19                              66   -0.21 7 39.7  86 
 625  0Z IP   1    8 9 13.81                              66   -0.24 7 46.2 132 
 625  0E ES   1    8 9 20.38                              66   -0.26 7 46.2 132 
 628  0Z IP   0    8 9 17.50                              66    0.09 9 69.3  94 
 628  0N ES   0    8 9 26.57                              66    0.11 9 69.3  94 
 626  0Z IP   1    8 9 17.81                              66   -0.20 7 70.6 153 
 626  0E ES   3    8 9 26.75                              66   -0.74 2 70.6 153 
 627  0Z IP   0    8 9 18.62                              66   -0.02 9 74.1 119 
 627  0E ES   1    8 9 28.34                              66   -0.25 7 74.1 119 
 629  0Z IP   3    8 9 23.22                              58    0.88 2 95.5 127 
 629  0E ES   0    8 9 35.02                              58    0.03 8 95.5 127 
 630  0Z IP   0    8 9 25.92                              48    0.26 7  118 109 
 630  0N ES   4    8 9 42.64                              48    1.91 0  118 109 
 631  0Z IP   1    8 9 29.68                              37    0.57 5  139 147 
 631  0E ES   4    8 9 45.58                              37   -1.11 0  139 147 
 632  0Z IP   4    8 9 34.08                              37    1.50 0  168 124 
 632  0N ES   4    8 9 54.84                              37    2.15 0  168 124 
                                                                                
