 2016 11 5 0642 24.8 L  72.237 129.700 12.3  SLT 13 0.3 1.9LSLT 2.1CSLT        1
 GAP=270        0.44       2.1     9.5  2.6  0.5774E+01  0.3730E+01 -0.3020E+00E
 ACTION:REE 25-08-04 21:52 OP:mn   STATUS:               ID:20161105064125     I
 2016-11-05-0641-25M.arct__039                                                 6
 STAT SP IPHASW D HRMM SECON CODA AMPLIT PERI AZIMU VELO AIN AR TRES W  DIS CAZ7
 630  0Z IP   0    642 34.23                              94    0.0210 50.4 250 
 632  0Z IP   2    642 39.22   92                         68   -0.36 4 77.1 197 
 632  0E ES   1    642 50.38                              68   -0.01 7 77.1 197 
 632  0Z  IAML     642 51.93        22.1 0.57                          77.1 197 
 628  0Z IP   0    642 40.41   64                         68    0.12 8 88.5 283 
 628  0E ES   1    642 51.87                              68    0.24 6 88.5 283 
 628  0Z  IAML     642 52.85        17.4 0.13                          88.5 283 
 629  0Z IP   1    642 41.15                              68    0.29 6 88.9 248 
 629  0N ES   0    642 52.71                              68    0.11 8 88.9 248 
 627  0Z IP   0    642 41.31                              68   -0.24 8 93.8 263 
 627  0N ES   1    642 53.41                              68   -0.40 6 93.8 263 
 624  0Z IP   2    642 44.86                              50   -0.61 4  119 285 
 624  0N ES   4    642 59.24                              50   -1.35 0  119 285 
 625  0Z IP   0    642 46.24                              50    0.09 7  123 268 
 625  0N ES   2    643  1.28                              50   -0.48 4  123 268 
 631  0Z IP   2    642 47.72                              50    0.73 3  127 224 
 631  0N ES   1    643  3.31                              50    0.09 5  127 224 
 626  0Z IP   3    642 48.00   55                         45    0.92 2  132 255 
 626  0E ES   4    643  5.00                              45    1.62 0  132 255 
 626  0Z  IAML     643  5.05         7.7 0.37                           132 255 
 623  0Z IP   0    642 47.57                              45   -0.14 7  134 276 
 623  0N ES   2    643  3.99                              45   -0.46 3  134 276 
 622  0Z IP   1    642 49.23                              41   -0.27 4  150 281 
 622  0N ES   0    643  7.53                              41   -0.03 6  150 281 
 621  0Z IP   3    642 51.98                              41    0.93 1  164 270 
 621  0N ES   3    643 11.25                              41    1.01 1  164 270 
 620  0Z IP   2    642 54.08   57                         41    0.60 2  186 287 
 620  0E ES   1    643 15.04                              41    0.60 3  186 287 
 620  0Z  IAML     643 22.25         2.5 0.46                           186 287 
                                                                                
 2016 11 5 0653 53.1 L  72.249 129.766 12.8  SLT 13 0.3 2.0LSLT 1.8CSLT        1
 GAP=272        0.46       2.4    11.6  2.8  0.2861E+01  0.9155E+01 -0.1429E+00E
 ACTION:REE 25-08-04 21:52 OP:mn   STATUS:               ID:20161105065254     I
 2016-11-05-0652-54M.arct__039                                                 6
 STAT SP IPHASW D HRMM SECON CODA AMPLIT PERI AZIMU VELO AIN AR TRES W  DIS CAZ7
 630  0Z IP   1    654  2.86                              95   -0.10 9 53.0 249 
 630  0N ES   4    654 11.95                              95    1.77 0 53.0 249 
 632  0Z IP   2    654  7.71                              68   -0.44 5 79.1 198 
 632  0N ES   2    654 18.63                              68   -0.54 5 79.1 198 
 628  0Z IP   0    654  8.91   70                         68    0.0610 90.4 282 
 628  0E ES   2    654 19.86                              68   -0.53 5 90.4 282 
 628  0Z  IAML     654 21.51        31.5 0.14                          90.4 282 
 629  0Z IP   0    654  9.80                              68    0.2710 91.5 248 
 629  0N ES   0    654 21.65                              68    0.0910 91.5 248 
 627  0Z IP   1    654  9.96                              68   -0.24 7 96.3 263 
 627  0N ES   3    654 21.89                              68   -0.82 2 96.3 263 
 624  0Z IP   1    654 13.67                              50   -0.28 6  121 284 
 624  0N ES   4    654 27.63                              50   -1.57 0  121 284 
 625  0Z IP   0    654 14.89                              50    0.21 8  125 268 
 625  0N ES   0    654 30.61                              50    0.14 8  125 268 
 631  0Z IP   3    654 16.48   66                         50    0.92 2  129 224 
 631  0N ES   0    654 32.11                              50    0.13 8  129 224 
 631  0Z  IAML     654 33.81        16.1 0.40                           129 224 
 626  0Z IP   3    654 16.42                              45    0.80 2  134 254 
 626  0N ES   1    654 32.39                              45    0.30 6  134 254 
 623  0Z IP   1    654 16.63                              41    0.45 6  136 276 
 623  0N ES   1    654 32.63                              41   -0.43 6  136 276 
 622  0Z IP   0    654 17.91                              41   -0.04 7  152 280 
 622  0N ES   0    654 35.81                              41   -0.31 7  152 280 
 621  0Z IP   4    654 20.56   62                         41    1.03 0  166 270 
 621  0E ES   4    654 39.89                              41    1.04 0  166 270 
 621  0Z  IAML     654 41.99         5.9 0.31                           166 270 
 620  0Z IP   3    654 22.64   53                         41    0.74 1  188 286 
 620  0E ES   4    654 44.42                              41    1.46 0  188 286 
 620  0Z  IAML     654 50.90         3.2 0.39                           188 286 
                                                                                
 2016 11 5 0747 51.0 L  72.236 129.520 10.2  SLT 11 0.4 1.3LSLT 1.6CSLT        1
 GAP=265        0.43       2.7     9.5  4.0  0.1271E+02  0.1324E+02  0.2075E+01E
 ACTION:REE 25-08-04 21:53 OP:mn   STATUS:               ID:20161105074707     I
 2016-11-05-0747-07M.arct__039                                                 6
 STAT SP IPHASW D HRMM SECON CODA AMPLIT PERI AZIMU VELO AIN AR TRES W  DIS CAZ7
 630  0Z IP   1    747 59.45                              66    0.03 9 44.7 247 
 632  0Z IP   1    748  5.49                              66   -0.03 8 75.5 192 
 632  0N ES   4    748 14.75                              66   -1.40 0 75.5 192 
 628  0Z IP   0    748  5.65                              66    0.0310 82.5 284 
 628  0N ES   0    748 16.33                              66    0.0110 82.5 284 
 629  0Z IP   1    748  6.43                              66    0.20 7 83.2 247 
 629  0N ES   1    748 17.72                              66    0.34 7 83.2 247 
 627  0Z IP   0    748  6.65                              58   -0.2610 87.8 262 
 627  0N ES   1    748 18.26                              58   -0.30 7 87.8 262 
 624  0Z IP   3    748 10.12   50                         58   -0.92 2  113 285 
 624  0E ES   3    748 24.96                              58   -0.74 2  113 285 
 624  0Z  IAML     748 25.55         6.2 0.39                           113 285 
 631  0Z IP   1    748 12.98                              44    0.11 6  122 221 
 631  0N ES   1    748 28.54                              44   -0.33 6  122 221 
 626  0Z IP   3    748 13.47   50                         44    0.73 2  126 254 
 626  0N ES   4    748 29.88                              44    1.25 0  126 254 
 626  0Z  IAML     748 30.10         4.0 0.51                           126 254 
 622  0Z IP   3    748 14.32                              37   -0.97 2  144 281 
 622  0N ES   3    748 32.38                              37   -0.68 2  144 281 
 621  0Z IP   1    748 17.14   50                         37    0.31 5  158 270 
 621  0N ES   2    748 36.58                              37    0.87 3  158 270 
 621  0Z  IAML     748 38.55         2.3 0.34                           158 270 
 620  0Z IP   0    748 19.29   52                         37    0.00 5  180 287 
 620  0E ES   2    748 40.89                              37    0.92 3  180 287 
 620  0Z  IAML     748 47.43         1.3 0.38                           180 287 
                                                                                
 2016 1116 1036  3.7 L  72.702 124.948 13.2  SLT  7 0.2 0.8LSLT 1.3CSLT        1
 GAP=218        0.52       2.2     4.8  3.3  0.2460E+01 -0.9336E+01  0.4169E+00E
 ACTION:REE 25-08-04 21:55 OP:mn   STATUS:               ID:20161116103351     I
 2016-11-16-1033-51M.arct__039                                                 6
 STAT SP IPHASW D HRMM SECON CODA AMPLIT PERI AZIMU VELO AIN AR TRES W  DIS CAZ7
 620  0Z IP   0   1036  8.25   49                        116   -0.1710 20.7 255 
 620  0N ES   0   1036 11.86                             116    0.0110 20.7 255 
 620  0Z  IAML    1036 12.46        10.1 0.34                          20.7 255 
 622  0Z IP   0   1036 10.46                             104    0.2010 31.5 157 
 622  0N ES   0   1036 15.02                             104   -0.0210 31.5 157 
 623  0Z IP   1   1036 13.76                              96    0.29 7 50.0 147 
 624  0Z IP   0   1036 13.48   41                         96    0.0810 51.0 119 
 624  0E ES   0   1036 20.36                              96   -0.1110 51.0 119 
 624  0Z  IAML    1036 20.79         8.1 0.18                          51.0 119 
 621  0Z IP   0   1036 14.87   44                         95    0.1410 57.8 182 
 621  0E ES   1   1036 22.33                              95   -0.45 7 57.8 182 
 621  0Z  IAML    1036 22.48         3.3 0.21                          57.8 182 
 628  0Z IP   1   1036 17.72                              68   -0.25 7 81.0 114 
 628  0N ES   1   1036 28.08                              68   -0.30 7 81.0 114 
 626  0Z IP   2   1036 21.80   39                         68    0.72 4 98.0 157 
 626  0E ES   0   1036 33.86                              68    0.10 8 98.0 157 
 626  0Z  IAML    1036 34.58         1.8 0.45                          98.0 157 
                                                                                
 2016 1116 2215 49.9 L  72.693 124.951 10.2  SLT 12 0.3 2.4LSLT 1.8CSLT        1
 GAP=215        0.49       2.0     5.1  2.1  0.2575E+01 -0.7607E+01  0.2859E+00E
 ACTION:REE 25-08-04 21:56 OP:mn   STATUS:               ID:20161116221424     I
 2016-11-16-2214-24M.arct__039                                                 6
 STAT SP IPHASW D HRMM SECON CODA AMPLIT PERI AZIMU VELO AIN AR TRES W  DIS CAZ7
 620  0Z IP   0   2215 54.33                             116   -0.0310 20.5 258 
 620  0N ES   0   2215 57.69                             116    0.0410 20.5 258 
 622  0Z IP   1   2215 56.36                              66    0.17 7 30.5 156 
 622  0N ES   1   2216  0.83                              66    0.02 7 30.5 156 
 623  0Z IP   0   2215 59.54                              66    0.0910 49.1 146 
 623  0N ES   0   2216  6.30                              66   -0.1510 49.1 146 
 624  0Z IP   0   2215 59.56   78                         66    0.1210 50.4 118 
 624  0E ES   1   2216  6.74                              66    0.31 7 50.4 118 
 624  0Z  IAML    2216  6.79        99.1 0.14                          50.4 118 
 621  0Z IP   0   2216  0.83   76                         66    0.1310 56.8 182 
 621  0N ES   1   2216  8.33                              66   -0.28 7 56.8 182 
 621  0Z  IAML    2216 11.21        82.2 0.84                          56.8 182 
 625  0Z IP   0   2216  2.90                              66   -0.06 9 69.8 146 
 625  0N ES   1   2216 12.23                              66   -0.28 7 69.8 146 
 628  0Z IP   1   2216  3.65                              66   -0.52 7 80.5 113 
 628  0N ES   3   2216 13.71                              66   -0.90 2 80.5 113 
 626  0Z IP   0   2216  7.19   65                         58   -0.09 8 97.1 157 
 626  0E ES   1   2216 20.50                              58    0.50 6 97.1 157 
 626  0Z  IAML    2216 20.65        68.6 0.40                          97.1 157 
 629  0Z IP   1   2216 10.10                              48   -0.44 5  117 136 
 629  0N ES   4   2216 24.27                              48   -1.37 0  117 136 
 630  0Z IP   1   2216 12.27   49                         44   -0.30 5  133 120 
 630  0E ES   0   2216 29.41                              44    0.26 7  133 120 
 630  0Z  IAML    2216 31.39       177.1 0.37                           133 120 
 631  0Z IP   1   2216 17.26                              37    0.46 4  165 150 
 631  0N ES   3   2216 37.47                              37    1.01 1  165 150 
 632  0Z IP   3   2216 20.60                              37    0.95 1  188 130 
 632  0N ES   4   2216 43.01                              37    1.62 0  188 130 
                                                                                
 2016 1116 2253  5.7 L  72.686 124.966  9.4  SLT  7 0.3 1.3LSLT 1.1CSLT        1
 GAP=212        0.60       3.5     7.8  4.5 -0.1003E+02 -0.2826E+02  0.9173E+01E
 ACTION:REE 25-08-04 21:56 OP:mn   STATUS:               ID:20161116225147     I
 2016-11-16-2251-47M.arct__039                                                 6
 STAT SP IPHASW D HRMM SECON CODA AMPLIT PERI AZIMU VELO AIN AR TRES W  DIS CAZ7
 620  0Z IP   1   2253  9.98                             114   -0.21 7 20.9 260 
 620  0N ES   0   2253 13.47                             114   -0.0010 20.9 260 
 622  0Z IP   1   2253 11.95                             107    0.13 7 29.6 157 
 624  0Z IP   0   2253 15.13   39                         66   -0.0710 49.6 118 
 624  0N ES   1   2253 22.46                              66    0.32 7 49.6 118 
 624  0Z  IAML    2253 22.46        23.5 0.22                          49.6 118 
 621  0Z IP   1   2253 16.89   31                         66    0.41 7 56.1 183 
 621  0E ES   0   2253 24.07                              66   -0.2710 56.1 183 
 621  0Z  IAML    2253 24.15         7.7 0.26                          56.1 183 
 628  0Z IP   2   2253 19.41                              66   -0.53 4 79.7 113 
 628  0N ES   2   2253 29.65                              66   -0.68 4 79.7 113 
 626  0Z IP   1   2253 23.43   42                         58    0.37 6 96.2 157 
 626  0E ES   4   2253 34.43                              58   -1.30 0 96.2 157 
 626  0Z  IAML    2253 36.43         3.4 0.28                          96.2 157 
 630  0Z IP   1   2253 28.22   31                         44   -0.19 5  132 119 
 630  0N ES   1   2253 45.49                              44    0.50 5  132 119 
 630  0Z  IAML    2253 46.99        11.5 0.29                           132 119 
 632  0Z IP   4   2253 36.73                              37    1.22 0  188 129 
 632  0N ES   4   2253 59.25                              37    1.98 0  188 129 
                                                                                
 2016 1116 2316 11.2 L  72.689 124.907 13.6  SLT  9 0.2 1.9LSLT 1.4CSLT        1
 GAP=214        0.43       1.7     4.2  2.2  0.2084E+01 -0.5208E+01  0.9109E-01E
 ACTION:REE 25-08-04 21:56 OP:mn   STATUS:               ID:20161116231520     I
 2016-11-16-2315-20M.arct__039                                                 6
 STAT SP IPHASW D HRMM SECON CODA AMPLIT PERI AZIMU VELO AIN AR TRES W  DIS CAZ7
 620  0Z IP   0   2316 15.63                             119   -0.0610 19.0 258 
 620  0N ES   0   2316 18.99                             119    0.0410 19.0 258 
 622  0Z IP   0   2316 17.62                             105   -0.0210 30.7 154 
 623  0Z IP   0   2316 21.04                              97    0.1510 49.6 144 
 623  0N ES   0   2316 27.96                              97   -0.0110 49.6 144 
 624  0Z IP   0   2316 20.75   44                         96   -0.2410 51.5 117 
 624  0Z  IAML    2316 28.11        69.9 0.25                          51.5 117 
 624  0N ES   1   2316 28.40                              96    0.27 7 51.5 117 
 621  0Z IP   0   2316 22.07   54                         95    0.0910 56.3 181 
 621  0N ES   0   2316 29.73                              95   -0.1110 56.3 181 
 621  0Z  IAML    2316 29.80        31.3 0.24                          56.3 181 
 628  0Z IP   2   2316 25.01                              68   -0.55 4 81.6 112 
 628  0N ES   3   2316 35.25                              68   -0.78 2 81.6 112 
 626  0Z IP   0   2316 28.62   54                         68    0.19 8 97.2 156 
 626  0E ES   0   2316 40.86                              68   -0.14 8 97.2 156 
 626  0Z  IAML    2316 41.89        18.4 0.48                          97.2 156 
 629  0Z IP   0   2316 31.87                              50    0.24 7  118 135 
 629  0Z ES   4   2316 45.34                              50   -1.20 0  118 135 
 630  0Z IP   0   2316 33.52   36                         45   -0.12 7  134 119 
 630  0N ES   3   2316 51.10                              45    1.09 2  134 119 
 630  0Z  IAML    2316 52.63        44.8 0.27                           134 119 
 632  0Z IP   4   2316 41.91                              41    1.27 0  189 129 
 632  0Z ES   4   2317  4.70                              41    2.57 0  189 129 
                                                                                
