 2017  317 1007 13.3 L  72.231 125.972  7.1  SLT  9 0.3                        1
 GAP= 86        0.48       0.9     3.6  2.6  0.8753E+00  0.5575E+00 -0.3026E+00E
 ACTION:ARG 20-12-21 03:09 OP:mn   STATUS:               ID:20170317100556     I
 2017-03-17-1005-56M.a_____039                                                 6
 STAT SP IPHASW D HRMM SECON CODA AMPLIT PERI AZIMU VELO AIN AR TRES W  DIS CAZ7
 625  0Z IP   1   10 7 15.55                             131    0.10 7 7.85 144 
 625  0E ES   0   10 7 16.97                             131   -0.0810 7.85 144 
 623  0Z IP   0   10 7 16.27                             118   -0.0310 12.8 326 
 623  0E ES   1   10 7 18.62                             118    0.10 7 12.8 326 
 624  0Z IP   1   10 7 19.15                             103    0.17 7 29.2  20 
 624  0E ES   4   10 7 21.82                             103   -1.35 0 29.2  20 
 622  0Z IP   0   10 7 19.87                             102    0.0910 32.4 317 
 621  0E IP   1   10 7 20.40                             101   -0.23 7 37.3 262 
 621  0N ES   1   10 7 25.84                             101   -0.17 7 37.3 262 
 626  0Z IP   0   10 7 20.63                             100    0.0710 38.3 177 
 626  0E ES   0   10 7 26.15                             100    0.2610 38.3 177 
 628  0Z IP   0   10 7 21.20                              99   -0.0810 44.1  64 
 628  0E ES   2   10 7 27.42                              99    0.28 5 44.1  64 
 629  0Z IP   1   10 7 23.70                              97   -0.51 7 57.1 126 
 629  0E ES   3   10 7 31.28                              97   -0.93 2 57.1 126 
 630  0Z IP   3   10 7 29.36                              66    0.89 2 82.4 101 
                                                                                
 2017  320 1900 33.7 L  72.401 126.089 18.0  SLT  9 0.2                        1
 GAP=100        0.50       1.1     3.0  2.0  0.1064E+00  0.5662E+00  0.4394E+00E
 ACTION:ARG 20-12-21 03:09 OP:mn   STATUS:               ID:20170320190000     I
 2017-03-20-1900-00M.a_____039                                                 6
 STAT SP IPHASW D HRMM SECON CODA AMPLIT PERI AZIMU VELO AIN AR TRES W  DIS CAZ7
 624  0Z IP   0   19 0 37.65                             145    0.1010 10.5  37 
 624  0N ES   0   19 0 40.26                             145   -0.0710 10.5  37 
 623  0Z IP   1   19 0 38.41                             136    0.28 7 13.9 233 
 623  0N ES   0   19 0 41.36                             136    0.0210 13.9 233 
 625  0Z IP   0   19 0 39.69                             114    0.1210 25.3 179 
 625  0N ES   0   19 0 43.86                             114    0.0510 25.3 179 
 622  0Z IP   0   19 0 39.70                             112   -0.0810 26.6 280 
 622  0N ES   1   19 0 43.81                             112   -0.38 7 26.6 280 
 628  0Z IP   1   19 0 40.71                             101    0.18 7 35.7  90 
 628  0N ES   0   19 0 45.37                             101   -0.1110 35.7  90 
 621  0Z IP   0   19 0 43.05                              94    0.0310 47.4 240 
 621  0N ES   1   19 0 49.32                              94   -0.46 7 47.4 240 
 626  0Z IP   2   19 0 44.86                              93    0.53 5 57.2 182 
 626  0E ES   0   19 0 52.06                              93    0.0010 57.2 182 
 620  0Z IP   1   19 0 46.03                              92    0.25 7 64.9 297 
 620  0N ES   0   19 0 54.73                              92    0.17 9 64.9 297 
 630  0Z IP   0   19 0 48.34                              91   -0.33 9 84.4 114 
 630  0N ES   4   19 0 58.33                              91   -1.23 0 84.4 114 
                                                                                
 2017  326 0836 33.1 L  71.971 127.673 19.0  SLT 12 0.3                        1
 GAP= 83        0.55       1.2     4.0  2.6  0.4338E+00  0.2014E+01  0.1413E-01E
 ACTION:ARG 20-12-21 03:09 OP:mn   STATUS:               ID:20170326083527     I
 2017-03-26-0835-27M.a_____039                                                 6
 STAT SP IPHASW D HRMM SECON CODA AMPLIT PERI AZIMU VELO AIN AR TRES W  DIS CAZ7
 629  0Z IP   2    836 37.76                             140    0.45 5 13.3 249 
 629  0N ES   1    836 40.50                             140    0.10 7 13.3 249 
 630  0Z IP   0    836 38.93                             117    0.2510 25.3  62 
 630  0N ES   1    836 42.51                             117   -0.25 7 25.3  62 
 627  0Z IP   0    836 39.41                             112    0.1710 28.8 305 
 627  0N ES   2    836 43.27                             112   -0.47 5 28.8 305 
 628  0Z IP   0    836 42.34                              96    0.0110 51.1 340 
 628  0E ES   0    836 48.96                              96   -0.1210 51.1 340 
 626  0Z IP   1    836 43.96                              95    0.25 7 57.4 261 
 626  0N ES   0    836 51.36                              95   -0.1110 57.4 261 
 625  0Z IP   0    836 44.25                              94    0.1210 58.4 294 
 625  0N ES   2    836 51.44                              94   -0.75 5 58.4 294 
 631  0Z IP   0    836 45.78                              94    0.17 9 65.6 193 
 631  0E ES   1    836 54.34                              94   -0.42 7 65.6 193 
 632  0Z IP   0    836 45.58                              94   -0.25 9 66.0 132 
 632  0N ES   3    836 54.22                              94   -0.91 2 66.0 132 
 624  0Z IP   4    836 47.58                              93    1.15 0 73.8 320 
 624  0N ES   1    836 55.89                              93   -0.28 7 73.8 320 
 623  0Z IP   3    836 47.90                              93    0.80 2 76.5 302 
 622  0Z IP   0    836 50.40                              61    0.24 8 96.1 304 
 622  0N ES   3    837  1.80                              61   -0.82 2 96.1 304 
 621  0Z IP   0    836 50.66                              61    0.19 8 98.5 285 
 621  0N ES   3    837  2.37                              61   -0.79 2 98.5 285 
 620  0Z IP   4    836 56.79                              45    1.50 0  136 306 
 620  0N ES   4    837 13.42                              45    1.92 0  136 306 
                                                                                
 2017  4 2 0422  0.9 L  72.693 125.622 18.5  SLT 13 0.3                        1
 GAP=217        0.60       2.4     4.9  2.8  0.3561E+01 -0.2006E+01 -0.1170E+01E
 ACTION:UP  20-12-20 22:46 OP:elen STATUS:               ID:20170402042039     I
 OLDACT:UP  20-12-20 00:44 OP:elen STATUS:               ID:20170402042039     3
 OLDACT:UP  20-12-16 20:09 OP:elen STATUS:               ID:20170402042039     3
 OLDACT:UP  20-12-16 14:06 OP:elen STATUS:               ID:20170402042039     3
 OLDACT:REG 20-12-12 10:59 OP:elen STATUS:               ID:20170402042039     3
 2017-04-02-0420-39M.NSN___039                                                 6
 STAT SP IPHASW D HRMM SECON CODA AMPLIT PERI AZIMU VELO AIN AR TRES W  DIS CAZ7
 622  0Z IP   1    422  7.87                             109    0.43 7 29.9 200 
 622  0N ES   1    422 12.68                             109    0.45 7 29.9 200 
 624  0Z IP   1    422  7.93                             106    0.27 7 32.6 138 
 624  0N ES   0    422 12.72                             106    0.1010 32.6 138 
 623  0Z IP   0    422  9.48                              98    0.2310 41.2 173 
 623  0E ES   0    422 15.32                              98   -0.0510 41.2 173 
 620  0Z IP   0    422  9.31                              98   -0.0410 42.6 265 
 620  0E ES   1    422 15.33                              98   -0.21 7 42.6 265 
 625  0Z IP   0    422 12.32                              93    0.1110 60.2 164 
 625  0E ES   1    422 20.08                              93   -0.41 7 60.2 164 
 628  0Z IP   0    422 11.52                              93   -0.1310 60.6 122 
 628  0N ES   0    422 19.31                              93   -0.2010 60.6 122 
 621  0Z IP   2    422 13.07                              93    0.58 5 62.0 204 
 621  0E ES   1    422 20.50                              93   -0.46 7 62.0 204 
 627  0Z IP   1    422 15.23                              92    0.24 7 79.0 144 
 627  0E ES   2    422 24.48                              92   -0.82 4 79.0 144 
 626  0Z IP   0    422 16.68                              92   -0.20 8 90.9 171 
 626  0Z ES   1    422 28.14                              92   -0.42 6 90.9 171 
 629  0Z IP   0    422 18.83                              61    0.07 8  103 145 
 630  0Z IP   2    422 19.72                              55   -0.49 4  114 126 
 630  0N ES   4    422 33.07                              55   -1.26 0  114 126 
 631  0Z IP   1    422 26.19                              45    0.53 4  155 158 
 631  0E ES   3    422 44.71                              45    0.97 1  155 158 
 632  0Z IP   3    422 28.57                              45    0.84 1  172 135 
 632  0Z ES   4    422 49.10                              45    1.76 0  172 135 
                                                                                
 2017  4 5 0307 35.4 L  71.672 128.765  6.5  SLT 11 0.3                        1
 GAP=154        0.49       1.4     5.6  1.7  0.2952E+01  0.4374E+01  0.2512E+00E
 ACTION:UP  20-12-21 00:10 OP:elen STATUS:               ID:20170405030618     I
 OLDACT:UP  20-12-20 01:44 OP:elen STATUS:               ID:20170405030618     3
 OLDACT:UP  20-12-16 21:32 OP:elen STATUS:               ID:20170405030618     3
 OLDACT:REG 20-12-13 13:11 OP:elen STATUS:               ID:20170405030618     3
 2017-04-05-0306-18M.NSN___039                                                 6
 STAT SP IPHASW D HRMM SECON CODA AMPLIT PERI AZIMU VELO AIN AR TRES W  DIS CAZ7
 632  0Z IP   0    3 7 39.22                             112   -0.0610 15.4 135 
 630  0Z IP   0    3 7 44.60                              97    0.1610 47.5 341 
 630  0E ES   1    3 7 50.81                              97   -0.21 7 47.5 341 
 629  0N IP   4    3 7 47.79                              96    1.19 0 58.2 300 
 629  0E ES   0    3 7 55.11                              96    0.3710 58.2 300 
 631  0Z IP   0    3 7 47.79                              96    0.0710 61.7 241 
 631  0N ES   2    3 7 56.19                              96   -0.49 5 61.7 241 
 626  0Z IP   0    3 7 53.32                              58   -0.10 8 98.3 286 
 626  0N ES   0    3 8  6.48                              58   -0.07 8 98.3 286 
 628  0Z IP   0    3 7 52.89                              58   -0.21 8 98.5 326 
 628  0E ES   2    3 8  5.38                              58   -0.61 4 98.5 326 
 625  0Z IP   0    3 7 55.21                              58   -0.01 8  108 303 
 625  0N ES   2    3 8  8.99                              58   -0.67 4  108 303 
 624  0Z IP   0    3 7 57.43                              48   -0.13 7  124 318 
 624  0E ES   0    3 8 13.52                              48   -0.18 7  124 318 
 623  0Z IP   1    3 7 58.66                              44    0.49 5  127 307 
 623  0N ES   0    3 8 14.72                              44   -0.04 7  127 307 
 621  0Z IP   2    3 8  1.02                              37    0.53 3  146 295 
 621  0E ES   1    3 8 19.03                              37    0.25 5  146 295 
 622  0Z IP   1    3 8  0.83                              37    0.24 5  147 308 
 622  0N ES   2    3 8 19.58                              37    0.63 3  147 308 
                                                                                
 2017  4 8 1004 44.3 L  72.561 124.885 13.7  SLT 12 0.3                        1
 GAP=161        0.56       1.7     4.9  2.0  0.3802E+01 -0.4041E+01  0.2214E+00E
 ACTION:UP  20-12-21 14:32 OP:elen STATUS:               ID:20170408100319     I
 OLDACT:UP  20-12-20 16:21 OP:elen STATUS:               ID:20170408100319     3
 OLDACT:UP  20-12-19 02:06 OP:elen STATUS:               ID:20170408100319     3
 OLDACT:REG 20-12-15 20:09 OP:elen STATUS:               ID:20170408100319     3
 2017-04-08-1003-19M.NSN___039                                                 6
 STAT SP IPHASW D HRMM SECON CODA AMPLIT PERI AZIMU VELO AIN AR TRES W  DIS CAZ7
 622  0Z IP   1   10 4 49.31                             119    0.36 7 19.6 133 
 622  0E ES   2   10 4 52.71                             119    0.37 5 19.6 133 
 620  0Z IP   0   10 4 49.10                             117    0.0610 20.7 300 
 620  0N ES   0   10 4 52.37                             117   -0.1310 20.7 300 
 623  0Z IP   0   10 4 52.25                             100   -0.0010 39.5 131 
 623  0N ES   0   10 4 57.99                             100   -0.0710 39.5 131 
 621  0Z IP   2   10 4 53.23                              99    0.61 5 42.1 180 
 621  0N ES   0   10 4 58.56                              99   -0.1410 42.1 180 
 624  0Z IP   0   10 4 53.23                              97   -0.1710 47.6 101 
 624  0Z ES   1   10 5  0.44                              97    0.39 7 47.6 101 
 625  0Z IP   1   10 4 55.44                              95   -0.23 7 59.8 136 
 625  0N ES   3   10 5  3.16                              95   -0.82 2 59.8 136 
 628  0Z IP   2   10 4 57.57                              68   -0.50 4 78.1 102 
 628  0N ES   1   10 5  7.96                              68   -0.17 7 78.1 102 
 626  0Z IP   1   10 4 59.90                              68    0.40 6 84.8 152 
 626  0E ES   2   10 5 10.06                              68   -0.54 4 84.8 152 
 627  0Z IP   0   10 4 59.81                              68   -0.02 9 86.6 124 
 627  0E ES   1   10 5 10.80                              68   -0.37 6 86.6 124 
 629  0Z IP   0   10 5  3.42                              54   -0.03 8  109 129 
 629  0N ES   0   10 5 17.36                              54   -0.07 8  109 129 
 630  0Z IP   1   10 5  5.84                              50   -0.16 5  129 113 
 630  0E ES   3   10 5 23.00                              50    1.15 2  129 113 
 631  0Z IP   1   10 5 10.20                              41    0.72 4  153 147 
 631  0E ES   1   10 5 28.65                              41    0.79 4  153 147 
 632  0Z IP   4   10 5 14.07                              41    1.27 0  181 125 
 632  0E ES   4   10 5 35.68                              41    2.07 0  181 125 
                                                                                
 2017  416 0523 40.9 L  71.940 127.090 20.7  SLT 12 0.4                        1
 GAP= 87        0.53       1.1     3.6  2.4  0.5278E+00  0.6347E+00  0.1576E+00E
 ACTION:UP  20-12-26 19:23 OP:elen STATUS:               ID:20170416052232     I
 OLDACT:REG 20-12-24 20:31 OP:elen STATUS:               ID:20170416052232     3
 2017-04-16-0522-32M.NSN___039                                                 6
 STAT SP IPHASW D HRMM SECON CODA AMPLIT PERI AZIMU VELO AIN AR TRES W  DIS CAZ7
 629  0Z IP   2    523 45.44                             157    0.51 5 7.80  99 
 629  0E ES   1    523 48.02                             157    0.17 7 7.80  99 
 627  0Z IP   1    523 46.36                             130    0.32 7 20.1 349 
 627  0E ES   0    523 49.61                             130   -0.1610 20.1 349 
 626  0Z IP   2    523 48.76                             109    0.37 5 37.0 262 
 626  0N ES   0    523 53.71                             109   -0.1310 37.0 262 
 625  0Z IP   1    523 49.72                             105    0.18 7 42.7 308 
 625  0N ES   3    523 54.90                             105   -0.93 2 42.7 308 
 630  0Z IP   1    523 49.92                             103    0.29 7 45.2  70 
 630  0N ES   0    523 55.85                             103   -0.1310 45.2  70 
 628  0Z IP   0    523 50.39                             100    0.1310 51.4   2 
 628  0E ES   0    523 56.86                             100   -0.2110 51.4   2 
 631  0Z IP   0    523 52.66                              97   -0.0210 60.6 175 
 631  0E ES   2    524  0.63                              97   -0.63 5 60.6 175 
 623  0Z IP   0    523 52.77                              97    0.01 9 62.7 314 
 623  0N ES   3    524  0.55                              97   -0.86 2 62.7 314 
 624  0Z IP   2    523 53.61                              96    0.56 5 66.0 335 
 624  0N ES   0    524  1.79                              96   -0.11 9 66.0 335 
 632  0Z IP   0    523 55.84                              95   -0.15 9 80.4 120 
 632  0E ES   3    524  6.13                              95   -0.86 2 80.4 120 
 622  0Z IP   1    523 56.19                              94    0.29 7 82.6 314 
 622  0N ES   3    524  5.76                              94   -1.07 2 82.6 314 
 620  0Z IP   3    524  2.20                              50    0.85 2  123 312 
 620  0N ES   3    524 17.06                              50    0.80 2  123 312 
                                                                                
 2017  416 1821  5.5 L  72.817 125.022 13.6  SLT 13 0.3                        1
 GAP=251        0.54       3.0     6.0  2.8  0.3631E+01 -0.1004E+02 -0.1705E+01E
 ACTION:UP  20-12-27 00:47 OP:elen STATUS:               ID:20170416181941     I
 OLDACT:REG 20-12-24 20:59 OP:elen STATUS:               ID:20170416181941     3
 2017-04-16-1819-41M.NSN___039                                                 6
 STAT SP IPHASW D HRMM SECON CODA AMPLIT PERI AZIMU VELO AIN AR TRES W  DIS CAZ7
 620  0Z IP   0   1821 11.57                             107   -0.0210 28.9 231 
 620  0E ES   1   1821 16.25                             107    0.24 7 28.9 231 
 622  0Z IP   2   1821 14.36                              98    0.30 5 43.0 167 
 622  0N ES   1   1821 20.28                              98    0.00 7 43.0 167 
 624  0Z IP   0   1821 16.17                              95   -0.0210 56.5 132 
 624  0E ES   2   1821 24.11                              95    0.16 5 56.5 132 
 623  0Z IP   0   1821 17.02                              95   -0.0310 60.1 155 
 623  0E ES   1   1821 25.60                              95    0.15 7 60.1 155 
 621  0Z IP   1   1821 18.44                              68   -0.35 7 70.8 184 
 621  0N ES   2   1821 27.98                              68   -0.48 5 70.8 184 
 625  0Z IP   1   1821 19.95                              68   -0.40 7 80.5 153 
 625  0E ES   2   1821 30.59                              68   -0.57 4 80.5 153 
 628  0Z IP   1   1821 20.01                              68   -0.40 6 84.8 122 
 628  0N ES   0   1821 31.26                              68   -0.00 9 84.8 122 
 627  0Z IP   0   1821 23.55                              68   -0.05 8  102 139 
 627  0N ES   0   1821 36.98                              68    0.20 8  102 139 
 626  0Z IP   1   1821 24.46                              54   -0.22 6  109 161 
 626  0E ES   3   1821 38.21                              54   -0.43 2  109 161 
 629  0Z IP   1   1821 27.00                              50   -0.05 5  126 141 
 629  0N ES   1   1821 43.66                              50    0.92 5  126 141 
 630  0Z IP   3   1821 28.15                              41   -0.33 2  139 125 
 630  0N ES   2   1821 45.43                              41    0.20 3  139 125 
 631  0Z IP   1   1821 34.17                              41    0.87 4  176 153 
 631  0E ES   4   1821 55.93                              41    2.37 0  176 153 
 632  0Z IP   1   1821 36.64                              41    0.91 3  196 133 
 632  0N ES   4   1822  0.61                              41    2.85 0  196 133 
                                                                                
