 2016  819 0959 26.6 L  71.883 129.615  7.9  SLT 13 0.3 4.3LSLT                1
 GAP=264        0.43       1.3     7.7  1.4  0.2961E+01  0.1180E+01 -0.6963E+00E
 ACTION:REG 25-04-10 18:57 OP:mn   STATUS:               ID:20160819095900     I
 2016_08_19T09-59-00.mseed                                                     6
 STAT SP IPHASW D HRMM SECON CODA AMPLIT PERI AZIMU VELO AIN AR TRES W  DIS CAZ7
 632  0Z IP   0    959 34.86                             101   -0.0310 39.3 209 
 632  0N ES   0    959 41.02                             101    0.0910 39.3 209 
 632  0Z  IAML     959 42.18      3428.8 0.50                          39.3 209 
 630  0Z IP   0    959 35.80                              99   -0.2210 49.5 296 
 630  0N ES   1    959 43.04                              99    0.16 7 49.5 296 
 630  0Z  IAML     959 46.28      6337.0 0.50                          49.5 296 
 629  0Z IP   0    959 41.37                              66   -0.14 9 80.0 275 
 629  0N ES   1    959 52.67                              66    0.29 7 80.0 275 
 629  0Z  IAML     959 54.20      5388.4 0.68                          80.0 275 
 627  0Z IP   0    959 44.19                              58    0.30 8 94.5 287 
 627  0N ES   0    959 56.45                              58   -0.05 8 94.5 287 
 627  0Z  IAML     959 57.52      6764.5 0.60                          94.5 287 
 631  0Z IP   0    959 45.21                              58    0.00 8 99.2 238 
 631  0N ES   1    959 58.31                              58   -0.46 6 99.2 238 
 631  0Z  IAML    10 0  1.28      2471.1 0.60                          99.2 238 
 628  0Z IP   0    959 44.86                              58    0.12 8  102 306 
 628  0N ES   2    959 57.50                              58   -0.48 4  102 306 
 628  0Z  IAML     959 57.78     13245.6 0.30                           102 306 
 626  0Z IP   0    959 48.52                              44    0.04 7  124 272 
 626  0N ES   0   10 0  4.58                              44    0.14 7  124 272 
 626  0Z  IAML    10 0 10.30      1873.9 0.66                           124 272 
 625  0Z IP   2    959 48.49                              44   -0.37 3  125 287 
 625  0N ES   1   10 0  4.69                              44   -0.41 5  125 287 
 625  0Z  IAML    10 0 10.74      3132.8 1.06                           125 287 
 624  0Z IP   1    959 49.35                              44   -0.25 5  132 302 
 624  0N ES   4   10 0  5.15                              44   -1.22 0  132 302 
 624  0Z  IAML    10 0  8.14      5852.5 0.52                           132 302 
 623  0Z IP   0    959 51.19                              37    0.20 6  141 292 
 623  0N ES   0   10 0  8.74                              37   -0.04 6  141 292 
 623  0Z  IAML    10 0 14.06      3312.3 0.94                           141 292 
 622  0Z IP   3    959 53.97                              37    0.91 1  160 295 
 622  0N ES   0   10 0 12.65                              37    0.29 6  160 295 
 622  0Z  IAML    10 0 18.96      1931.4 0.68                           160 295 
 621  0Z IP   4    959 55.14                              37    1.38 0  166 284 
 621  0N ES   4   10 0 15.63                              37    2.06 0  166 284 
 621  0Z  IAML    10 0 16.65      3571.0 0.48                           166 284 
 620  0Z IP   3    959 58.52                              37    1.14 1  199 298 
 620  0N ES   4   10 0 21.63                              37    1.79 0  199 298 
 620  0Z  IAML    10 0 30.94      2333.6 0.54                           199 298 
                                                                                
 2016  820 1506 15.5 L  71.891 129.598  8.1  SLT 12 0.3                        1
 GAP=262        0.46       1.9     9.5  2.5  0.3189E+01  0.2277E+01 -0.3193E+01E
 ACTION:ARG 20-05-11 21:31 OP:mn   STATUS:               ID:20160820150518     I
 2016-08-20-1505-18M.arct__039                                                 6
 STAT SP IPHASW D HRMM SECON CODA AMPLIT PERI AZIMU VELO AIN AR TRES W  DIS CAZ7
 632  0Z IP   1   15 6 23.53                             101   -0.31 7 39.9 208 
 632  0N ES   0   15 6 30.00                             101    0.0310 39.9 208 
 630  0N ES   2   15 6 31.53                              99    0.10 5 48.5 296 
 629  0Z IP   0   15 6 30.49                              66    0.27 9 79.3 274 
 629  0N ES   1   15 6 41.29                              66    0.29 7 79.3 274 
 627  0Z IP   1   15 6 32.40                              58   -0.17 6 93.7 287 
 627  0N ES   1   15 6 44.74                              58   -0.33 6 93.7 287 
 631  0Z IP   4   15 6 35.44                              58    1.41 0 99.2 238 
 631  0N ES   2   15 6 47.30                              58   -0.28 4 99.2 238 
 628  0Z IP   1   15 6 33.09                              58   -0.31 6  101 305 
 628  0N ES   3   15 6 45.70                              58   -0.79 2  101 305 
 626  0Z IP   0   15 6 37.36                              44    0.15 7  124 272 
 626  0N ES   0   15 6 53.10                              44    0.01 7  124 272 
 625  0Z IP   1   15 6 37.52                              44   -0.04 5  124 286 
 625  0N ES   2   15 6 53.22                              44   -0.48 4  124 286 
 624  0Z IP   2   15 6 37.83                              44   -0.44 3  131 301 
 624  0N ES   3   15 6 54.31                              44   -0.62 2  131 301 
 623  0Z IP   0   15 6 39.93                              37    0.24 6  140 292 
 623  0N ES   1   15 6 57.20                              37   -0.19 5  140 292 
 622  0Z IP   1   15 6 42.30                              37    0.54 4  159 295 
 622  0Z ES   4   15 7  2.57                              37    1.62 0  159 295 
 621  0Z IP   2   15 6 43.40                              37    0.93 3  165 284 
 621  0N ES   4   15 7  4.06                              37    1.87 0  165 284 
 620  0Z IP   4   15 6 48.42                              37    2.34 0  198 298 
 620  0N ES   4   15 7 10.83                              37    2.39 0  198 298 
                                                                                
 2016  822 1318 48.8 L  72.352 127.037 19.7  SLT  8 0.3 0.8CSLT                1
 GAP= 96        0.56       1.6     4.3  2.7  0.1545E+01  0.4477E+01  0.1873E+01E
 ACTION:UP  21-01-08 22:12 OP:elen STATUS:               ID:20160822131743     I
 OLDACT:REG 21-01-08 15:24 OP:elen STATUS:               ID:20160822131743     3
 2016-08-22-1317-43M.arct__039                                                 6
 STAT SP IPHASW D HRMM SECON CODA AMPLIT PERI AZIMU VELO AIN AR TRES W  DIS CAZ7
 628  0Z IP   0A  1318 52.27   29                        159    0.1810 6.52  35 
 628  0N IS   0A  1318 54.48                             159   -0.0110 6.52  35 
 627  0Z IP   1AD 1318 54.94                             118    0.28 7 26.3 184 
 627  0E IS   0A  1318 58.78                             118   -0.1510 26.3 184 
 624  0Z IP   0   1318 55.19                             114    0.0410 29.2 299 
 624  0E ES   1   1318 59.46                             114   -0.32 7 29.2 299 
 625  0Z IP   0   1318 56.66                             106    0.1110 37.3 238 
 625  0N ES   0   1319  2.22                             106    0.0210 37.3 238 
 630  0Z IP   0   1318 58.88                              97    0.0410 53.7 125 
 630  0E ES   2   1319  5.54                              97   -0.62 5 53.7 125 
 630  0E IS   2A  1319  5.56                              97   -0.60 5 53.7 125 
 622  0Z IP   2   1319  0.53                              96    0.52 5 59.1 281 
 622  0N ES   1   1319  7.83                              96   -0.36 7 59.1 281 
 626  0Z IP   1   1319  0.52                              95    0.32 7 62.1 214 
 626  0N ES   0   1319  8.58                              95    0.0710 62.1 214 
 621  0Z IP   1   1319  2.86                              94    0.27 7 75.4 257 
 621  0N ES   1   1319 12.21                              94   -0.44 7 75.4 257 
                                                                                
 2016 10 5 1619 47.0 L  72.827 125.032 12.0  SLT 11 0.2 1.3LSLT                1
 GAP=253        0.42       2.0     3.9  2.1  0.1400E+01 -0.4313E+01 -0.1591E+01E
 ACTION:ARG 20-04-11 14:12 OP:mn   STATUS:               ID:20161005161823     I
 2016-10-05-1618-23M.SIOLA_039                                                 6
 STAT SP IPHASW D HRMM SECON CODA AMPLIT PERI AZIMU VELO AIN AR TRES W  DIS CAZ7
 620  0Z IP   0   1619 53.23                             100    0.1010 29.7 230 
 620  0N ES   0   1619 57.63                             100    0.0210 29.7 230 
 620  0Z  IAML    1619 58.01        11.3 0.26                          29.7 230 
 622  0Z IP   0   1619 55.77                              94    0.1210 43.9 168 
 622  0Z  IAML    1620  2.11        13.0 0.30                          43.9 168 
 622  0N ES   1   1620  2.15                              94    0.19 7 43.9 168 
 624  0Z IP   0   1619 57.69                              93   -0.0110 57.0 133 
 624  0N ES   0   1620  5.56                              93    0.0510 57.0 133 
 624  0Z  IAML    1620  5.84        11.9 0.16                          57.0 133 
 623  0Z IP   0   1619 58.60                              92   -0.0310 60.9 156 
 623  0N ES   0   1620  7.19                              92    0.0810 60.9 156 
 623  0Z  IAML    1620  7.57         8.4 0.68                          60.9 156 
 621  0Z IP   1   1620  0.07                              92   -0.36 7 71.9 184 
 621  0N ES   0   1620 10.15                              92   -0.09 9 71.9 184 
 621  0Z  IAML    1620 10.56         9.7 0.26                          71.9 184 
 625  0Z IP   4   1620  3.32                              68    1.29 0 81.3 153 
 625  0N ES   3   1620 12.17                              68   -0.83 2 81.3 153 
 625  0Z  IAML    1620 12.36         4.3 0.80                          81.3 153 
 628  0Z IP   1   1620  1.66                              68   -0.35 6 85.1 123 
 628  0N ES   0   1620 12.97                              68   -0.00 9 85.1 123 
 628  0Z  IAML    1620 13.46         8.2 0.52                          85.1 123 
 626  0Z IP   1   1620  6.07                              68   -0.32 6  110 162 
 626  0N ES   2   1620 19.87                              68   -0.67 4  110 162 
 629  0Z IP   0   1620  8.81                              50    0.05 7  126 141 
 629  0N ES   0   1620 24.67                              50    0.03 7  126 141 
 629  0Z  IAML    1620 25.99         4.7 0.18                           126 141 
 630  0Z IP   1   1620 10.00                              41   -0.18 5  139 126 
 630  0N ES   0   1620 27.46                              41    0.36 6  139 126 
 630  0Z  IAML    1620 27.89         3.9 0.22                           139 126 
 631  0Z IP   2   1620 15.85                              41    0.80 2  176 153 
 631  0N ES   4   1620 36.91                              41    1.39 0  176 153 
 631  0Z  IAML    1620 37.91         6.1 0.21                           176 153 
                                                                                
 2016 10 6 0156 56.2 L  72.803 125.009 13.8  SLT 11 0.3                        1
 GAP=248        0.50       2.8     4.8  2.5  0.1620E+01 -0.4782E+01 -0.5995E+00E
 ACTION:ARG 20-04-11 14:12 OP:mn   STATUS:               ID:20161006015532     I
 2016-10-06-0155-32M.SIOLA_039                                                 6
 STAT SP IPHASW D HRMM SECON CODA AMPLIT PERI AZIMU VELO AIN AR TRES W  DIS CAZ7
 620  0Z IP   0    157  1.81                             109   -0.2110 27.5 233 
 620  0N ES   1    157  6.52                             109    0.24 7 27.5 233 
 622  0Z IP   0    157  4.39                             100   -0.0610 41.5 166 
 622  0N ES   1    157 10.63                             100    0.15 7 41.5 166 
 624  0Z IP   0    157  6.69                              96   -0.0010 55.7 130 
 624  0N ES   0    157 14.36                              96   -0.0110 55.7 130 
 623  0Z IP   0    157  7.49                              95    0.0310 58.8 154 
 623  0N ES   2    157 16.15                              95    0.45 5 58.8 154 
 621  0Z IP   1    157  8.98                              68   -0.16 7 69.1 183 
 621  0N ES   1    157 18.32                              68   -0.27 7 69.1 183 
 625  0Z IP   2    157 11.58                              68    0.82 4 79.2 152 
 625  0N ES   2    157 21.00                              68   -0.41 4 79.2 152 
 628  0Z IP   1    157 10.67                              68   -0.27 6 84.3 121 
 628  0N ES   0    157 21.64                              68   -0.08 9 84.3 121 
 626  0Z IP   1    157 15.01                              54   -0.07 6  108 161 
 626  0N ES   3    157 28.53                              54   -0.34 2  108 161 
 630  0Z IP   3    157 18.68                              41   -0.33 2  138 124 
 630  0N ES   2    157 36.02                              41    0.34 3  138 124 
 631  0Z IP   0    157 24.49                              41    0.74 5  174 153 
 631  0N ES   4    157 46.17                              41    2.29 0  174 153 
 632  0Z IP   2    157 27.40                              41    1.17 2  195 133 
 632  0Z ES   4    157 51.48                              41    3.31 0  195 133 
                                                                                
 2016 10 9 0036 44.9 L  72.817 125.079  8.2  SLT 11 0.3                        1
 GAP=249        0.52       2.6     6.6  3.1  0.2764E+01 -0.1621E+02 -0.1355E+01E
 ACTION:ARG 20-04-11 14:12 OP:mn   STATUS:               ID:20161009003553     I
 2016-10-09-0035-53M.SIOLA_039                                                 6
 STAT SP IPHASW D HRMM SECON CODA AMPLIT PERI AZIMU VELO AIN AR TRES W  DIS CAZ7
 620  0Z IP   1    036 50.80                             105   -0.18 7 30.3 233 
 620  0N ES   0    036 55.35                             105   -0.0910 30.3 233 
 622  0Z IP   1    036 53.63                             101    0.31 7 42.5 169 
 622  0N ES   1    036 59.62                             101    0.13 7 42.5 169 
 624  0Z IP   0    036 55.49                              66    0.0710 55.1 133 
 624  0N ES   0    037  3.09                              66   -0.0210 55.1 133 
 623  0Z IP   1    036 56.77                              66    0.38 7 59.3 157 
 623  0N ES   0    037  4.84                              66    0.0510 59.3 157 
 625  0Z IP   3    037  0.75                              66    0.92 2 79.6 154 
 625  0N ES   1    037 10.17                              66   -0.57 7 79.6 154 
 628  0Z IP   0    036 59.69                              66   -0.13 9 83.2 123 
 628  0N ES   0    037 10.49                              66   -0.23 9 83.2 123 
 626  0Z IP   2    037  3.87                              58   -0.48 4  109 162 
 626  0N ES   4    037 17.49                              58   -1.07 0  109 162 
 629  0Z IP   2    037  6.51                              44   -0.36 4  125 142 
 629  0N ES   0    037 23.23                              44    0.31 7  125 142 
 630  0Z IP   1    037  8.10                              40   -0.26 5  137 126 
 630  0N ES   4    037 24.59                              40   -0.91 0  137 126 
 631  0Z IP   0    037 13.69                              37    0.41 5  175 154 
 631  0N ES   4    037 35.36                              37    1.35 0  175 154 
 632  0Z IP   2    037 16.45                              37    0.80 2  194 134 
 632  0N ES   4    037 39.68                              37    1.57 0  194 134 
                                                                                
 2016 1012 0800 21.9 L  72.709 125.969 16.9  SLT 12 0.3                        1
 GAP=226        0.52       2.1     4.6  2.3  0.1823E+01  0.3657E+01  0.6844E+00E
 ACTION:ARG 20-04-11 14:12 OP:mn   STATUS:               ID:20161012080000     I
 2016-10-12-0800-00M.SIOLA_039                                                 6
 STAT SP IPHASW D HRMM SECON CODA AMPLIT PERI AZIMU VELO AIN AR TRES W  DIS CAZ7
 624  0Z IP   0    8 0 27.96                             118    0.0210 27.9 158 
 624  0N ES   1    8 0 32.34                             118   -0.03 7 27.9 158 
 622  0Z IP   0    8 0 29.61                              68    0.1710 37.0 217 
 622  0N ES   0    8 0 34.99                              68    0.0210 37.0 217 
 623  0Z IP   0    8 0 30.71                              68    0.2110 43.3 189 
 623  0N ES   0    8 0 37.06                              68    0.2610 43.3 189 
 628  0Z IP   1    8 0 30.92                              68   -0.33 7 52.4 131 
 628  0N ES   1    8 0 37.84                              68   -0.25 7 52.4 131 
 620  0Z IP   1    8 0 31.96                              68   -0.18 7 54.3 264 
 620  0N ES   1    8 0 39.36                              68   -0.27 7 54.3 264 
 625  0Z IP   0    8 0 32.91                              68   -0.1810 59.9 175 
 625  0N ES   1    8 0 40.91                              68   -0.36 7 59.9 175 
 621  0Z IP   0    8 0 34.69                              68    0.15 9 68.9 212 
 621  0N ES   0    8 0 43.73                              68   -0.05 9 68.9 212 
 627  0Z IP   1    8 0 35.60                              68    0.42 7 74.3 152 
 627  0E ES   2    8 0 44.48                              68   -0.41 5 74.3 152 
 626  0Z IP   3    8 0 38.96                              68    1.04 2 91.6 179 
 626  0N ES   1    8 0 49.33                              68   -0.30 6 91.6 179 
 630  0Z IP   0    8 0 40.24                              54    0.08 8  106 131 
 630  0N ES   4    8 0 52.64                              54   -0.86 0  106 131 
 631  0Z IP   2    8 0 47.21                              41    0.75 3  153 163 
 631  0N ES   4    8 1  6.06                              41    1.66 0  153 163 
 632  0Z IP   4    8 0 49.44                              41    1.40 0  165 139 
 632  0N ES   3    8 1  8.39                              41    1.26 1  165 139 
                                                                                
