 2016 1117 0337  1.1 L  72.707 124.962  9.2  SLT 13 0.3 2.2LSLT 1.8CSLT        1
 GAP=220        0.48       2.4     5.5  3.2 -0.4977E+01 -0.1458E+02  0.4363E+01E
 ACTION:REE 25-08-04 21:57 OP:mn   STATUS:               ID:20161117033653     I
 2016-11-17-0336-53M.arct__039                                                 6
 STAT SP IPHASW D HRMM SECON CODA AMPLIT PERI AZIMU VELO AIN AR TRES W  DIS CAZ7
 620  0Z IP   0    337  5.70                             113    0.1010 21.3 254 
 620  0N ES   0    337  8.90                             113   -0.0110 21.3 254 
 622  0Z IP   1    337  7.74                             106    0.19 7 31.8 158 
 623  0Z IP   0    337 10.76                              66   -0.1510 50.2 147 
 623  0E ES   1    337 18.44                              66    0.34 7 50.2 147 
 624  0Z IP   0    337 10.92   66                         66    0.1410 50.8 120 
 624  0E ES   1    337 18.10                              66    0.22 7 50.8 120 
 624  0Z  IAML     337 18.92        55.9 0.17                          50.8 120 
 621  0Z IP   0    337 12.08   68                         66   -0.1610 58.4 182 
 621  0N ES   0    337 20.43                              66    0.0310 58.4 182 
 621  0Z  IAML     337 22.58        42.2 0.97                          58.4 182 
 625  0Z IP   0    337 14.18                              66   -0.23 9 70.8 146 
 625  0E ES   1    337 23.73                              66   -0.42 7 70.8 146 
 628  0Z IP   0    337 15.26   67                         66   -0.22 9 80.7 114 
 628  0N ES   0    337 26.02                              66    0.00 9 80.7 114 
 628  0Z  IAML     337 26.36        44.0 0.48                          80.7 114 
 627  0Z IP   1    337 18.53                              58    0.31 6 94.7 133 
 627  0N ES   2    337 30.05                              58   -0.71 4 94.7 133 
 626  0Z IP   0    337 18.79   68                         58    0.01 8 98.3 158 
 626  0N ES   1    337 31.97                              58    0.26 6 98.3 158 
 626  0Z  IAML     337 31.98        32.2 0.35                          98.3 158 
 629  0Z IP   2    337 21.53                              48   -0.45 4  118 136 
 629  0N ES   4    337 35.85                              48   -1.41 0  118 136 
 630  0Z IP   1    337 23.74   66                         44   -0.22 5  134 120 
 630  0N ES   1    337 41.06                              44    0.38 5  134 120 
 630  0Z  IAML     337 42.82        77.8 0.39                           134 120 
 631  0Z IP   1    337 28.67                              37    0.40 4  166 151 
 631  0N ES   3    337 49.09                              37    0.95 1  166 151 
 632  0Z IP   3    337 31.99                              37    0.92 1  189 130 
 632  0N ES   4    337 54.99                              37    2.01 0  189 130 
                                                                                
 2016 1124 2250 45.9 L  72.692 124.973 10.2  SLT 13 0.3                        1
 GAP=214        0.53       2.4     5.9  3.0 -0.4502E+00 -0.1366E+02  0.2597E+01E
 ACTION:REG 18-11-20 00:07 OP:art  STATUS:               ID:20161124224841     I
 2016-11-24-2248-41M.arct__039                                                 6
 STAT SP IPHASW D HRMM SECON CODA AMPLIT PERI AZIMU VELO AIN AR TRES W  DIS CAZ7
 620  0Z IP   0   2250 50.52                             115    0.0110 21.2 259 
 620  0N ES   0   2250 53.88                             115    0.0010 21.2 259 
 622  0Z IP   2   2250 52.65                             108    0.49 5 30.1 158 
 622  0N ES   2   2250 57.01                             108    0.28 5 30.1 158 
 623  0Z IP   0   2250 55.22                              66   -0.1810 48.7 147 
 623  0N ES   1   2251  2.63                              66    0.29 7 48.7 147 
 624  0Z IP   1   2250 55.66                              66    0.31 7 49.8 118 
 624  0N ES   1   2251  2.67                              66    0.41 7 49.8 118 
 621  0Z IP   0   2250 56.85                              66    0.1310 56.8 183 
 621  0E ES   1   2251  4.33                              66   -0.30 7 56.8 183 
 625  0Z IP   1   2250 58.49                              66   -0.41 7 69.3 146 
 625  0N ES   1   2251  8.14                              66   -0.26 7 69.3 146 
 628  0Z IP   1   2250 59.80                              66   -0.28 7 79.8 113 
 628  0N ES   1   2251 10.06                              66   -0.37 7 79.8 113 
 627  0Z IP   1   2251  2.50                              58   -0.25 6 93.4 132 
 627  0N ES   3   2251 14.39                              58   -0.66 2 93.4 132 
 626  0Z IP   0   2251  3.33                              58    0.08 8 96.7 158 
 626  0Z ES   0   2251 16.02                              58    0.09 8 96.7 158 
 629  0Z IP   1   2251  6.20                              48   -0.29 5  116 136 
 629  0N ES   4   2251 20.52                              48   -1.01 0  116 136 
 630  0Z IP   1   2251  8.39                              44   -0.12 5  133 120 
 630  0Z ES   2   2251 25.77                              44    0.74 3  133 120 
 631  0Z IP   1   2251 13.33                              37    0.55 4  164 150 
 631  0N ES   4   2251 33.82                              37    1.42 0  164 150 
 632  0Z IP   3   2251 16.75                              37    1.14 1  188 130 
 632  0N ES   4   2251 39.33                              37    2.03 0  188 130 
                                                                                
 2016 1124 2302 57.5 L  72.711 124.974  9.9  SLT 13 0.3 2.1LSLT 1.9CSLT        1
 GAP=221        0.48       2.1     5.1  2.3  0.2223E+01 -0.8412E+01  0.6936E-01E
 ACTION:REE 25-08-04 21:59 OP:mn   STATUS:               ID:20161124230145     I
 2016-11-24-2301-45M.arct__039                                                 6
 STAT SP IPHASW D HRMM SECON CODA AMPLIT PERI AZIMU VELO AIN AR TRES W  DIS CAZ7
 620  0Z IP   0   23 3  2.24                             114    0.1010 21.8 253 
 620  0N ES   0   23 3  5.52                             114   -0.0410 21.8 253 
 622  0Z IP   1   23 3  4.25                             107    0.20 7 32.1 159 
 622  0E ES   1   23 3  8.88                             107    0.01 7 32.1 159 
 623  0Z IP   0   23 3  7.23                              66   -0.0610 50.4 148 
 623  0N ES   1   23 3 14.72                              66    0.25 7 50.4 148 
 624  0Z IP   0   23 3  7.34   65                         66    0.2310 50.7 121 
 624  0E ES   1   23 3 14.42                              66    0.26 7 50.7 121 
 624  0Z  IAML    23 3 14.65        66.2 0.44                          50.7 121 
 621  0Z IP   0   23 3  8.68   60                         66    0.0110 58.9 183 
 621  0E ES   2   23 3 16.23                              66   -0.63 5 58.9 183 
 621  0Z  IAML    23 3 19.33        53.8 0.60                          58.9 183 
 625  0Z IP   0   23 3 10.60                              66   -0.19 9 71.0 147 
 628  0Z IP   0   23 3 11.59                              66   -0.21 9 80.6 114 
 628  0N ES   2   23 3 21.64                              66   -0.64 4 80.6 114 
 627  0Z IP   1   23 3 14.21                              58   -0.35 6 94.8 133 
 627  0N ES   3   23 3 26.24                              58   -0.81 2 94.8 133 
 626  0Z IP   0   23 3 15.22   86                         58    0.06 8 98.7 158 
 626  0E ES   0   23 3 28.20                              58    0.12 8 98.7 158 
 626  0Z  IAML    23 3 28.45        34.5 0.47                          98.7 158 
 629  0Z IP   1   23 3 17.92                              48   -0.38 5  118 137 
 629  0N ES   4   23 3 32.05                              48   -1.48 0  118 137 
 630  0Z IP   0   23 3 20.19   73                         44   -0.06 7  134 120 
 630  0E ES   3   23 3 37.94                              44    1.05 2  134 120 
 630  0Z  IAML    23 3 39.21        83.6 0.32                           134 120 
 631  0Z IP   1   23 3 25.15                              37    0.56 4  166 151 
 631  0N ES   3   23 3 45.23                              37    0.83 1  166 151 
 632  0Z IP   3   23 3 28.44                              37    1.08 1  189 130 
 632  0N ES   4   23 3 50.95                              37    1.75 0  189 130 
                                                                                
 2016 1124 2316 14.0 L  72.684 124.966 10.3  SLT 12 0.3 1.9LSLT 1.9CSLT        1
 GAP=212        0.51       3.1     8.3  5.0 -0.1621E+02 -0.3790E+02  0.1217E+02E
 ACTION:REE 25-08-04 21:59 OP:mn   STATUS:               ID:20161124231448     I
 2016-11-24-2314-48M.arct__039                                                 6
 STAT SP IPHASW D HRMM SECON CODA AMPLIT PERI AZIMU VELO AIN AR TRES W  DIS CAZ7
 620  0Z IP   0   2316 18.56                             116   -0.0210 20.8 261 
 620  0N ES   0   2316 21.82                             116   -0.0910 20.8 261 
 622  0Z IP   1   2316 20.47                              66    0.30 7 29.4 157 
 622  0N ES   1   2316 24.79                              66    0.14 7 29.4 157 
 624  0Z IP   0   2316 23.59   67                         66    0.1410 49.6 117 
 624  0E ES   1   2316 30.60                              66    0.27 7 49.6 117 
 624  0Z  IAML    2316 30.90        59.3 0.25                          49.6 117 
 621  0Z IP   0   2316 24.77   89                         66    0.0610 55.9 183 
 621  0N ES   0   2316 32.50                              66    0.0010 55.9 183 
 621  0Z  IAML    2316 35.59        32.5 0.61                          55.9 183 
 625  0Z IP   0   2316 27.00                              66    0.06 9 68.7 145 
 625  0E ES   2   2316 35.74                              66   -0.62 5 68.7 145 
 628  0Z IP   1   2316 27.87                              66   -0.32 7 79.7 112 
 628  0N ES   1   2316 38.01                              66   -0.52 7 79.7 112 
 627  0Z IP   0   2316 31.03                              58    0.22 8 93.0 132 
 627  0E ES   2   2316 42.37                              58   -0.70 4 93.0 132 
 626  0Z IP   0   2316 31.28   70                         58    0.01 8 96.0 157 
 626  0E ES   0   2316 43.70                              58   -0.16 8 96.0 157 
 626  0Z  IAML    2316 44.70        17.6 0.47                          96.0 157 
 629  0Z IP   1   2316 34.21                              48   -0.35 6  116 136 
 629  0N ES   4   2316 48.44                              48   -1.11 0  116 136 
 630  0Z IP   1   2316 36.36   66                         44   -0.26 5  132 119 
 630  0N ES   1   2316 53.62                              44    0.52 5  132 119 
 630  0Z  IAML    2316 55.52        52.5 0.35                           132 119 
 631  0Z IP   2   2316 41.48                              37    0.64 3  164 150 
 631  0N ES   3   2317  1.49                              37    1.08 1  164 150 
 632  0Z IP   3   2316 44.76                              37    1.07 1  187 129 
 632  0N ES   4   2317  7.56                              37    2.21 0  187 129 
                                                                                
 2016 1125 0156 34.0 L  72.681 124.993  7.7  SLT  9 0.4                        1
 GAP=210        0.56       3.3     4.4  2.5  0.6209E+01 -0.4445E+01  0.1354E+00E
 ACTION:REG 18-11-20 15:40 OP:art  STATUS:               ID:20161125015508     I
 2016-11-25-0155-08M.arct__039                                                 6
 STAT SP IPHASW D HRMM SECON CODA AMPLIT PERI AZIMU VELO AIN AR TRES W  DIS CAZ7
 620  0Z IP   0    156 38.27                             109   -0.2710 21.7 262 
 620  0N ES   0    156 41.96                             109    0.1210 21.7 262 
 623  0Z IP   0    156 43.61                              99    0.2410 47.3 147 
 623  0N ES   3    156 51.35                              99    1.16 2 47.3 147 
 624  0Z IP   0    156 43.50                              99    0.1210 48.6 118 
 624  0E ES   0    156 50.11                              99   -0.1010 48.6 118 
 621  0Z IP   1    156 44.59                              98   -0.25 7 55.6 184 
 621  0E ES   2    156 52.31                              98   -0.42 5 55.6 184 
 628  0Z IP   2    156 47.68                              66   -0.53 4 78.7 112 
 628  0N ES   2    156 58.01                              66   -0.56 4 78.7 112 
 626  0Z IP   0    156 51.76                              58    0.35 8 95.3 158 
 626  0E ES   2    157  3.75                              58   -0.36 4 95.3 158 
 629  0Z IP   0    156 54.73                              58    0.02 7  115 136 
 629  0N ES   4    157 11.17                              58    1.36 0  115 136 
 630  0Z IP   1    156 57.14                              44    0.31 5  131 119 
 630  0N ES   1    157 13.21                              44   -0.27 5  131 119 
 631  0Z IP   2    157  1.82                              37    0.69 3  163 150 
 631  0N ES   3    157 21.99                              37    1.07 1  163 150 
                                                                                
 2016 1125 0619  0.3 L  72.706 124.975 11.9  SLT 13 0.3 2.8LSLT 1.8CSLT        1
 GAP=219        0.51       2.1     5.4  3.0  0.4967E+01 -0.1127E+02 -0.2321E+01E
 ACTION:REE 25-08-04 22:00 OP:mn   STATUS:               ID:20161125061718     I
 2016-11-25-0617-18M.arct__039                                                 6
 STAT SP IPHASW D HRMM SECON CODA AMPLIT PERI AZIMU VELO AIN AR TRES W  DIS CAZ7
 620  0Z IP   0    619  5.16   64                        110    0.0610 21.7 255 
 620  0N ES   0    619  8.47                             110   -0.1110 21.7 255 
 620  0Z  IAML     619  9.38      1098.9 0.59                          21.7 255 
 622  0Z IP   0    619  6.92                              99    0.0910 31.5 159 
 622  0N ES   1    619 11.74                              99    0.16 7 31.5 159 
 623  0Z IP   0    619  9.91                              93   -0.1310 49.9 148 
 623  0N ES   1    619 17.29                              93    0.16 7 49.9 148 
 624  0Z IP   1    619 10.20   71                         93    0.31 7 50.4 120 
 624  0E ES   2    619 17.31                              93    0.43 5 50.4 120 
 624  0Z  IAML     619 17.37       482.5 0.57                          50.4 120 
 621  0Z IP   1    619 11.63   67                         93    0.22 7 58.3 183 
 621  0N ES   0    619 19.55                              93    0.0510 58.3 183 
 621  0Z  IAML     619 22.77       387.8 1.17                          58.3 183 
 625  0Z IP   1    619 13.16                              92   -0.37 7 70.5 147 
 625  0E ES   2    619 22.51                              92   -0.67 5 70.5 147 
 628  0Z IP   0    619 14.43                              68   -0.13 9 80.3 114 
 628  0N ES   2    619 24.35                              68   -0.61 4 80.3 114 
 627  0Z IP   0    619 17.11                              68   -0.10 8 94.3 133 
 627  0N ES   2    619 28.99                              68   -0.55 4 94.3 133 
 626  0Z IP   0    619 17.82   66                         68    0.04 8 98.1 158 
 626  0E ES   2    619 29.99                              68   -0.54 4 98.1 158 
 626  0Z  IAML     619 31.33       173.9 0.37                          98.1 158 
 629  0Z IP   1    619 20.53                              54   -0.36 5  117 136 
 629  0N ES   4    619 34.93                              54   -0.98 0  117 136 
 630  0Z IP   0    619 22.97                              45    0.15 7  133 120 
 630  0N ES   1    619 39.75                              45    0.50 5  133 120 
 631  0Z IP   1    619 27.80                              41    0.68 4  165 151 
 631  0N ES   3    619 47.92                              41    1.23 1  165 151 
 632  0Z IP   3    619 31.00                              41    1.09 1  189 130 
 632  0N ES   4    619 53.88                              41    2.37 0  189 130 
                                                                                
 2016 1125 1638 37.5 L  72.695 124.969  8.5  SLT  9 0.3 1.1LSLT 2.3CSLT        1
 GAP=216        0.46       2.3     4.7  2.0  0.6513E+01 -0.6684E+01 -0.2280E+01E
 ACTION:REE 25-08-04 22:00 OP:mn   STATUS:               ID:20161125163711     I
 2016-11-25-1637-11M.arct__039                                                 6
 STAT SP IPHASW D HRMM SECON CODA AMPLIT PERI AZIMU VELO AIN AR TRES W  DIS CAZ7
 620  0Z IP   0   1638 41.87   99                        111   -0.0910 21.2 258 
 620  0N ES   0   1638 45.25                             111    0.0210 21.2 258 
 620  0Z  IAML    1638 46.64        24.4 0.21                          21.2 258 
 622  0Z IP   1   1638 43.96                             105    0.24 7 30.5 158 
 622  0N ES   0   1638 48.26                             105   -0.0110 30.5 158 
 623  0Z IP   0   1638 47.26                             100    0.0810 49.0 147 
 623  0N ES   1   1638 54.54                             100    0.28 7 49.0 147 
 624  0Z IP   0   1638 47.16  114                         66    0.0410 50.0 119 
 624  0E ES   0   1638 54.03                              66   -0.1310 50.0 119 
 624  0Z  IAML    1638 54.30        25.4 0.17                          50.0 119 
 621  0Z IP   0   1638 48.39  102                         66   -0.1110 57.1 183 
 621  0E ES   2   1638 55.93                              66   -0.61 5 57.1 183 
 621  0Z  IAML    1638 56.04         9.0 0.26                          57.1 183 
 628  0Z IP   2   1638 51.20                              66   -0.64 4 80.0 113 
 628  0N ES   3   1639  1.36                              66   -0.96 2 80.0 113 
 630  0Z IP   0   1639  0.34                              44   -0.03 7  133 120 
 630  0N ES   0   1639 17.25                              44    0.17 7  133 120 
 631  0Z IP   1   1639  5.04                              37    0.38 4  165 150 
 631  0N ES   2   1639 25.12                              37    0.61 3  165 150 
 632  0Z IP   2   1639  8.13                              37    0.64 2  188 130 
 632  0N ES   4   1639 30.86                              37    1.47 0  188 130 
                                                                                
