 2017  418 1500 13.5 L  72.694 124.631 16.3  SLT 10 0.3                        1
 GAP=225        0.50       3.5     9.0  2.3  0.1677E+02 -0.1650E+02 -0.2211E+01E
 ACTION:UP  20-12-29 20:35 OP:elen STATUS:               ID:20170418150000     I
 OLDACT:REG 20-12-27 21:06 OP:elen STATUS:               ID:20170418150000     3
 2017-04-18-1500-00M.NSN___039                                                 6
 STAT SP IPHASW D HRMM SECON CODA AMPLIT PERI AZIMU VELO AIN AR TRES W  DIS CAZ7
 620  0Z IP   0   15 0 17.03                             145   -0.1310 10.4 245 
 620  0E ES   1   15 0 20.16                             145    0.32 7 10.4 245 
 622  0Z IP   0   15 0 20.78                             108   -0.1810 36.2 141 
 622  0E ES   1   15 0 26.67                             108    0.25 7 36.2 141 
 623  0Z IP   1   15 0 23.88                              68   -0.34 7 55.9 137 
 623  0N ES   0   15 0 32.00                              68   -0.0710 55.9 137 
 624  0Z IP   1   15 0 24.31                              68   -0.35 7 60.1 113 
 624  0N ES   1   15 0 33.06                              68    0.23 7 60.1 113 
 628  0Z IP   1   15 0 28.79                              68   -0.27 6 90.4 110 
 628  0N ES   0   15 0 40.61                              68    0.17 8 90.4 110 
 626  0Z IP   3   15 0 30.69                              68   -0.57 2  102 151 
 626  0E ES   2   15 0 43.85                              68   -0.39 4  102 151 
 627  0Z IP   2   15 0 32.05                              68    0.70 4  102 128 
 627  0N ES   0   15 0 44.24                              68   -0.16 8  102 128 
 629  0Z IP   0   15 0 34.77                              50    0.23 7  125 132 
 629  0N ES   0   15 0 50.10                              50    0.19 7  125 132 
 630  0Z IP   0   15 0 36.65                              41    0.14 6  143 117 
 630  0N ES   3   15 0 54.59                              41    1.27 2  143 117 
 631  0Z IP   0   15 0 40.50                              41    0.24 5  170 147 
 631  0E ES   4   15 1  1.79                              41    1.98 0  170 147 
                                                                                
 2017  423 2313 41.6 L  72.562 124.858 17.9  SLT 12 0.2                        1
 GAP=160        0.46       1.4     3.9  2.7  0.1271E+01 -0.4807E+01  0.1083E+01E
 ACTION:UP  21-01-01 14:08 OP:elen STATUS:               ID:20170423231216     I
 OLDACT:REG 20-12-30 23:59 OP:elen STATUS:               ID:20170423231216     3
 2017-04-23-2312-16M.NSN___036                                                 6
 STAT SP IPHASW D HRMM SECON CODA AMPLIT PERI AZIMU VELO AIN AR TRES W  DIS CAZ7
 620  0Z IP   0   2313 46.51                             123   -0.0510 19.9 301 
 620  0E ES   0   2313 50.11                             123   -0.1010 19.9 301 
 622  0Z IP   1   2313 47.03                             122    0.33 7 20.3 131 
 622  0E ES   3   2313 51.34                             122    0.88 2 20.3 131 
 623  0Z IP   0   2313 49.75                              96   -0.0210 40.2 131 
 623  0E ES   0   2313 55.83                              96    0.0710 40.2 131 
 621  0Z IP   0   2313 50.25                              96    0.2410 42.2 179 
 621  0E ES   0   2313 56.13                              96   -0.0510 42.2 179 
 624  0Z IP   0   2313 50.78                              93   -0.0810 48.5 101 
 624  0E ES   0   2313 57.64                              93    0.0010 48.5 101 
 625  0Z IP   0   2313 53.24                              92    0.2910 60.5 135 
 625  0N ES   1   2314  0.98                              92   -0.28 7 60.5 135 
 628  0Z IP   1   2313 55.01                              91   -0.28 7 79.0 102 
 628  0N ES   0   2314  5.37                              91    0.07 9 79.0 102 
 626  0Z IP   1   2313 56.46                              91   -0.20 6 85.3 151 
 626  0E ES   1   2314  7.25                              91   -0.42 6 85.3 151 
 627  0Z IP   0   2313 57.00                              91   -0.03 8 87.4 124 
 627  0E ES   1   2314  8.15                              91   -0.17 6 87.4 124 
 629  0Z IP   0   2314  0.29                              61   -0.15 8  109 129 
 629  0E ES   2   2314 13.64                              61   -0.57 4  109 129 
 630  0Z IP   1   2314  3.31                              50    0.40 5  130 113 
 630  0N ES   3   2314 19.32                              50    0.83 2  130 113 
 631  0Z IP   0   2314  6.52                              45    0.23 6  154 146 
 631  0E ES   4   2314 25.55                              45    1.21 0  154 146 
                                                                                
 2017  425 0652 22.2 L  71.947 128.015 10.4  SLT  9 0.2 1.5LSLT 1.8CSLT        1
 GAP=168        0.48       1.1     4.0  1.5 -0.1193E+01  0.2882E+01 -0.1913E+00E
 ACTION:REE 25-08-04 22:18 OP:mn   STATUS:               ID:20170425065114     I
 OLDACT:REG 20-12-31 19:06 OP:elen STATUS:               ID:20170425065114     3
 2017-04-25-0651-14M.NSN___027                                                 6
 STAT SP IPHASW D HRMM SECON CODA AMPLIT PERI AZIMU VELO AIN AR TRES W  DIS CAZ7
 630  0Z IP   0    652 26.18   85                        120    0.1210 17.9  37 
 630  0E ES   0    652 28.80                             120   -0.0510 17.9  37 
 630  0E  IAML     652 29.11       220.3 0.20                          17.9  37 
 629  0Z IP   0    652 27.55   63                        113    0.2310 24.4 266 
 629  0N ES   0    652 31.16                             113    0.1310 24.4 266 
 629  0E  IAML     652 31.82        95.0 0.25                          24.4 266 
 627  0Z IP   0    652 30.04   64                         66    0.0510 40.3 299 
 627  0N ES   0    652 35.52                              66   -0.1310 40.3 299 
 627  0E  IAML     652 38.27        30.9 0.53                          40.3 299 
 628  0Z IP   0    652 32.83   74                         66    0.0710 58.6 330 
 628  0N ES   0    652 40.31                              66   -0.1210 58.6 330 
 628  0N  IAML     652 47.06        11.6 0.14                          58.6 330 
 631  0Z IP   0    652 35.05   90                         66   -0.08 9 66.8 204 
 631  0N ES   1    652 44.17                              66   -0.37 7 66.8 204 
 631  0N  IAML     652 44.52        10.0 0.33                          66.8 204 
 625  0Z IP   0    652 35.26   67                         66   -0.16 9 70.3 292 
 625  0N ES   2    652 44.57                              66   -0.47 5 70.3 292 
 625  0N  IAML     652 48.33         6.8 0.40                          70.3 292 
 624  0Z IP   0    652 37.49   63                         66   -0.08 9 83.7 316 
 624  0N ES   1    652 48.42                              66   -0.34 6 83.7 316 
 624  0N  IAML     652 50.56        18.4 0.21                          83.7 316 
 623  0Z IP   2    652 39.13   64                         58    0.60 4 88.1 300 
 623  0E ES   3    652 51.26                              58    0.83 2 88.1 300 
 623  0N  IAML     652 57.27         5.5 0.26                          88.1 300 
 621  0Z IP   1    652 42.42   59                         58    0.33 6  111 285 
 621  0N ES   1    652 56.94                              58    0.36 6  111 285 
 621  0E  IAML     653  0.65         5.5 0.17                           111 285 
                                                                                
 2017  426 1425 20.4 L  72.063 127.218 23.4  SLT  6 0.3 0.4LSLT 0.6CSLT        1
 GAP=121        0.63       2.1     5.9  3.3  0.4928E+01 -0.2966E+01 -0.3180E+01E
 ACTION:REE 25-08-04 22:19 OP:mn   STATUS:               ID:20170426142409     I
 OLDACT:REG 21-01-02 11:34 OP:elen STATUS:               ID:20170426142409     3
 2017-04-26-1424-09M.NSN___024                                                 6
 STAT SP IPHASW D HRMM SECON CODA AMPLIT PERI AZIMU VELO AIN AR TRES W  DIS CAZ7
 627  0Z IP   1   1425 25.19   24                        154    0.30 7 10.1 307 
 627  0N ES   0   1425 28.15                             154    0.0010 10.1 307 
 627  0N  IAML    1425 28.30         9.4 0.08                          10.1 307 
 629  0Z IP   1   1425 25.70   24                        143    0.27 7 15.3 168 
 629  0N ES   0   1425 29.01                             143   -0.0710 15.3 168 
 629  0E  IAML    1425 29.36         1.7 0.10                          15.3 168 
 628  0Z IP   1   1425 28.19   21                        114    0.40 7 37.6 356 
 628  0N ES   0   1425 33.32                             114    0.1710 37.6 356 
 628  0N  IAML    1425 33.55         1.7 0.10                          37.6 356 
 630  0Z IP   0   1425 28.22   24                        114    0.0210 38.1  88 
 630  0N ES   1   1425 33.37                             114   -0.49 7 38.1  88 
 630  0N  IAML    1425 33.67         4.8 0.16                          38.1  88 
 625  0Z IP   0   1425 28.87   22                        112    0.1010 40.0 288 
 625  0N ES   1   1425 34.49                             112   -0.37 7 40.0 288 
 625  0N  IAML    1425 35.27         1.7 0.23                          40.0 288 
 624  0Z IP   0   1425 31.08   24                        103    0.0110 56.1 326 
 624  0N ES   1   1425 38.30                             103   -0.54 7 56.1 326 
 624  0E  IAML    1425 38.99         1.1 0.28                          56.1 326 
                                                                                
 2017  426 1840 43.2 L  72.256 126.325 20.6  SLT  8 0.2 1.6LSLT 2.0CSLT        1
 GAP= 95        0.56       1.4     3.4  2.2  0.3536E+00 -0.6738E+00  0.7319E+00E
 ACTION:REE 25-08-04 22:19 OP:mn   STATUS:               ID:20170426183923     I
 OLDACT:REG 21-01-02 11:44 OP:elen STATUS:               ID:20170426183923     3
 2017-04-26-1839-23M.NSN___024                                                 6
 STAT SP IPHASW D HRMM SECON CODA AMPLIT PERI AZIMU VELO AIN AR TRES W  DIS CAZ7
 625  0Z IP   1   1840 47.88   74                        146    0.28 7 11.8 219 
 625  0N ES   0   1840 50.73                             146   -0.1110 11.8 219 
 625  0E  IAML    1840 51.37       213.3 0.52                          11.8 219 
 624  0Z IP   0   1840 48.98   77                        122    0.0510 24.6 356 
 624  0N ES   1   1840 52.65                             122   -0.48 7 24.6 356 
 624  0N  IAML    1840 52.83       190.5 0.14                          24.6 356 
 627  0Z IP   1   1840 49.51   82                        119    0.28 7 27.3 124 
 627  0N ES   0   1840 53.59                             119   -0.0610 27.3 124 
 627  0N  IAML    1840 53.89        27.0 0.10                          27.3 124 
 628  0Z IP   1   1840 49.87   85                        113    0.34 7 32.2  60 
 628  0N ES   0   1840 54.20                             113    0.0210 32.2  60 
 628  0N  IAML    1840 54.73        51.7 0.14                          32.2  60 
 621  0Z IP   0   1840 53.08   83                        101    0.2310 49.6 261 
 621  0N ES   0   1840 59.75                             101   -0.1710 49.6 261 
 621  0N  IAML    1841  0.04        20.1 0.21                          49.6 261 
 629  0Z IP   1   1840 53.07   83                        100    0.32 7 49.8 137 
 629  0E ES   0   1840 59.71                             100   -0.0410 49.8 137 
 629  0E  IAML    1841  0.14        14.2 0.26                          49.8 137 
 630  0Z IP   0   1840 56.07   88                         95    0.05 9 71.3 105 
 630  0E ES   1   1841  4.95                              95   -0.45 7 71.3 105 
 630  0N  IAML    1841  8.11         4.4 0.16                          71.3 105 
 631  0Z IP   0   1841  1.10   83                         61    0.00 8  101 161 
 631  0N ES   1   1841 13.69                              61   -0.49 6  101 161 
 631  0E  IAML    1841 13.87        16.2 0.28                           101 161 
                                                                                
 2017  427 0912 27.6 L  72.043 127.792 15.8  SLT  8 0.2 1.3LSLT 1.6CSLT        1
 GAP=116        0.50       1.1     3.8  1.6  0.4636E+00  0.2017E+01 -0.2157E-01E
 ACTION:REE 25-08-04 22:19 OP:mn   STATUS:               ID:20170427091104     I
 OLDACT:REG 21-01-02 12:22 OP:elen STATUS:               ID:20170427091104     3
 2017-04-27-0911-04M.NSN___024                                                 6
 STAT SP IPHASW D HRMM SECON CODA AMPLIT PERI AZIMU VELO AIN AR TRES W  DIS CAZ7
 630  0Z IP   0    912 32.08   60                        126    0.0910 18.7  79 
 630  0N ES   1    912 34.82                             126   -0.38 7 18.7  79 
 630  0E  IAML     912 35.23        75.2 0.16                          18.7  79 
 629  0Z IP   1    912 32.72   51                        122    0.26 7 20.9 233 
 629  0N ES   0    912 35.92                             122   -0.0910 20.9 233 
 629  0N  IAML     912 36.29        59.7 0.32                          20.9 233 
 627  0Z IP   1    912 33.91   56                        113    0.30 7 29.0 287 
 627  0N ES   0    912 37.96                             113   -0.0410 29.0 287 
 627  0N  IAML     912 38.62        15.6 0.11                          29.0 287 
 628  0Z IP   0    912 36.13   59                        102    0.2010 45.5 331 
 628  0E ES   0    912 41.83                             102   -0.1910 45.5 331 
 628  0N  IAML     912 43.71        13.3 0.10                          45.5 331 
 625  0Z IP   0    912 38.95   47                         68    0.0510 59.6 285 
 625  0N ES   1    912 46.75                              68   -0.40 7 59.6 285 
 625  0E  IAML     912 48.75         5.0 0.38                          59.6 285 
 624  0Z IP   1    912 40.79   55                         68    0.28 7 70.7 314 
 624  0N ES   0    912 49.90                              68   -0.04 9 70.7 314 
 624  0E  IAML     912 52.51         7.8 0.24                          70.7 314 
 631  0Z IP   0    912 41.71   65                         68    0.11 9 74.4 195 
 631  0E ES   1    912 51.50                              68   -0.33 7 74.4 195 
 631  0N  IAML     912 56.09         4.4 0.17                          74.4 195 
 621  0Z IP   1    912 45.77   63                         68    0.27 6  101 280 
 621  0N ES   0    912 58.51                              68   -0.06 8  101 280 
 621  0E  IAML     913  4.61         3.4 0.11                           101 280 
                                                                                
