 2016 1015 1013 35.4 L  72.049 126.956 16.2  SLT 13 0.3                        1
 GAP= 77        0.57       1.0     3.1  1.3  0.9765E+00  0.1045E+01 -0.1164E+00E
 ACTION:ARG 20-04-11 14:12 OP:mn   STATUS:               ID:20161015101225     I
 2016-10-15-1012-25M.SIOLA_039                                                 6
 STAT SP IPHASW D HRMM SECON CODA AMPLIT PERI AZIMU VELO AIN AR TRES W  DIS CAZ7
 627  0Z IP   0   1013 38.86                             153    0.1910 7.60   7 
 627  0N ES   1   1013 40.65                             153   -0.38 7 7.60   7 
 629  0Z IP   1   1013 40.18                             128    0.22 7 18.2 137 
 629  0Z ES   0   1013 43.13                             128   -0.1410 18.2 137 
 625  0Z IP   0   1013 42.39                             111    0.1510 32.3 296 
 625  0N ES   1   1013 46.82                             111   -0.39 7 32.3 296 
 626  0Z IP   1   1013 43.03                             108    0.36 7 36.5 241 
 626  0N ES   0   1013 47.98                             108    0.0310 36.5 241 
 628  0Z IP   0   1013 43.01                             106    0.1910 39.7   9 
 628  0N ES   0   1013 48.22                             106    0.0110 39.7   9 
 630  0Z IP   1   1013 44.61                             102    0.18 7 47.2  86 
 630  0N ES   1   1013 50.64                             102   -0.35 7 47.2  86 
 623  0Z IP   1   1013 45.75                              68    0.31 7 51.2 308 
 623  0N ES   0   1013 52.58                              68   -0.1510 51.2 308 
 624  0Z IP   1   1013 45.77                              68    0.29 7 52.9 334 
 624  0N ES   0   1013 52.66                              68   -0.1510 52.9 334 
 622  0Z IP   0   1013 48.64                              68    0.06 9 71.1 309 
 622  0N ES   1   1013 57.74                              68   -0.44 7 71.1 309 
 621  0Z IP   1   1013 49.10                              68    0.33 7 72.4 283 
 621  0N ES   1   1013 57.96                              68   -0.54 7 72.4 283 
 631  0Z IP   0   1013 49.10                              68   -0.14 9 73.3 172 
 631  0N ES   3   1013 58.06                              68   -1.25 2 73.3 172 
 632  0Z IP   0   1013 52.19                              68   -0.01 8 90.9 125 
 632  0N ES   0   1014  4.38                              68   -0.07 8 90.9 125 
 620  0Z IP   0   1013 54.93                              54    0.15 8  111 309 
 620  0N ES   1   1014  9.29                              54    0.40 6  111 309 
                                                                                
 2016 1029 0831 54.7 L  72.032 127.658 14.2  SLT 11 0.4 2.0LSLT 1.7CSLT        1
 GAP=114        0.64       1.6     4.2  2.2  0.5728E+00  0.1120E+01 -0.5657E+00E
 ACTION:REE 25-08-04 21:46 OP:mn   STATUS:               ID:20161029083048     I
 OLDACT:UP  20-04-26 21:33 OP:alex STATUS:               ID:20161029083048     3
 OLDACT:ARG 20-04-26 14:49 OP:alex STATUS:               ID:20161029083048     3
 2016-10-29-0830-48M.SIOLA_039                                                 6
 STAT SP IPHASW D HRMM SECON CODA AMPLIT PERI AZIMU VELO AIN AR TRES W  DIS CAZ7
 629  0Z IP   1 D  831 59.17   58                        126    0.39 7 16.5 226 
 629  0E IS   1    832  1.87                             126    0.11 7 16.5 226 
 629  0Z  IAML     832  2.25       315.8 0.32                          16.5 226 
 630  0Z IP   0    831 59.66                             115   -0.0110 23.4  78 
 630  0N ES   1    832  2.95                             115   -0.34 7 23.4  78 
 627  0Z EP   1 C  832  0.41   37                        113    0.43 7 25.1 293 
 627  0E ES   1    832  3.48                             113   -0.35 7 25.1 293 
 627  0Z ES        832  4.05                             113    0.2210 25.1 293 
 628  0Z IP   0    832  2.86                              99    0.0210 44.6 337 
 628  0N ES   1    832  8.64                              99   -0.14 7 44.6 337 
 625  0Z EP   0 C  832  5.37   99                         97    0.0310 55.5 287 
 625  0E ES   1    832 12.61                              97   -0.51 7 55.5 287 
 625  0Z  IAML     832 16.70        18.1 1.02                          55.5 287 
 626  0Z IP   1    832  5.72                              96    0.17 7 58.3 255 
 626  0N ES   1    832 13.09                              96   -0.39 7 58.3 255 
 624  0Z IP   1    832  7.82                              68    0.48 7 68.3 317 
 624  0N ES   1    832 16.34                              68   -0.22 7 68.3 317 
 631  0Z EP   0 C  832  8.24   77                         68   -0.19 9 72.1 192 
 631  0E ES   3    832 17.24                              68   -1.21 2 72.1 192 
 631  0Z  IAML     832 19.49        65.7 0.34                          72.1 192 
 623  0Z IP   4    832  9.37                              68    1.10 0 72.7 298 
 623  0N ES   1    832 17.84                              68   -0.34 7 72.7 298 
 622  0Z IP   1    832 11.79                              68    0.46 6 92.0 301 
 622  0N ES   3    832 22.69                              68   -0.79 2 92.0 301 
 620  0Z IP   2    832 17.65                              45    0.67 3  132 303 
 620  0N ES   1    832 33.70                              45    0.44 5  132 303 
                                                                                
 2016 1030 1322 37.0 L  72.532 126.485 14.0  SLT 12 0.3 2.4LSLT                1
 GAP=201        0.54       1.7     3.8  1.5  0.3277E+01 -0.1202E+01 -0.3709E+00E
 ACTION:REE 25-08-04 21:47 OP:mn   STATUS:               ID:20161030132120     I
 OLDACT:ARG 20-04-26 14:49 OP:alex STATUS:               ID:20161030132120     3
 2016-10-30-1321-20M.SIOLA_039                                                 6
 STAT SP IPHASW D HRMM SECON CODA AMPLIT PERI AZIMU VELO AIN AR TRES W  DIS CAZ7
 624  0Z EP   0 C 1322 40.12                             143   -0.0510 9.41 229 
 624  0E ES   2   1322 41.68                             143   -0.79 5 9.41 229 
 624  0Z  IAML    1322 42.72       707.3 0.21                          9.41 229 
 628  0Z EP   1 C 1322 42.27                             110    0.12 7 26.7 123 
 628  0N ES   1   1322 46.16                             110    0.26 7 26.7 123 
 628  0Z  IAML    1322 46.61       182.7 0.30                          26.7 123 
 623  0Z IP   1   1322 44.27                             104    0.28 7 33.5 227 
 623  0N ES   1   1322 49.46                             104    0.38 7 33.5 227 
 622  0Z IP   0   1322 45.24                             100    0.0910 40.6 256 
 622  0N ES   0   1322 51.03                             100   -0.0510 40.6 256 
 625  0Z IP   0   1322 45.46                             100    0.1210 41.9 198 
 625  0N ES   0   1322 51.31                             100   -0.1010 41.9 198 
 627  0Z IP   0   1322 46.47                              98    0.1110 49.3 160 
 627  0E ES   0   1322 53.05                              98   -0.1210 49.3 160 
 620  0Z IP   0   1322 50.31                              68   -0.19 9 72.7 282 
 620  0N ES   0   1323  0.27                              68   -0.06 9 72.7 282 
 629  0Z IP   0   1322 50.21                              68   -0.24 9 72.9 157 
 629  0E ES   0   1323  0.08                              68   -0.16 9 72.9 157 
 626  0Z EP   1 C 1322 50.70                              68    0.30 7 73.4 192 
 626  0N ES   1   1322 59.97                              68   -0.19 7 73.4 192 
 626  0Z  IAML    1323  1.87        36.2 0.58                          73.4 192 
 630  0Z IP   1   1322 51.12                              68   -0.41 7 80.6 128 
 630  0E ES   3   1323  1.13                              68   -0.98 2 80.6 128 
 631  0Z EP   1 C 1322 59.88                              50    0.49 5  129 168 
 631  0N ES   2   1323 16.50                              50    0.79 3  129 168 
 631  0Z  IAML    1323 22.17        29.5 0.65                           129 168 
 632  0Z IP   1   1323  1.17                              41    0.45 5  139 139 
 632  0E ES   0   1323 17.99                              41   -0.02 6  139 139 
                                                                                
 2016 11 5 0556 46.8 L  72.245 129.690 12.9  SLT 13 0.4 2.3LSLT 2.2CSLT        1
 GAP=269        0.50       2.3    10.1  2.9  0.3366E+01 -0.8296E-01  0.4151E+00E
 ACTION:REE 25-08-04 21:51 OP:mn   STATUS:               ID:20161105055546     I
 2016-11-05-0555-46M.arct__039                                                 6
 STAT SP IPHASW D HRMM SECON CODA AMPLIT PERI AZIMU VELO AIN AR TRES W  DIS CAZ7
 630  0Z IP   0    556 56.31                              95    0.0210 50.4 249 
 630  0N ES   2    557  3.72                              95    0.53 5 50.4 249 
 632  0Z IP   2    557  1.07   70                         68   -0.66 4 77.9 196 
 632  0Z  IAML     557 12.36       104.1 0.21                          77.9 196 
 632  0E ES   1    557 12.38                              68   -0.23 7 77.9 196 
 628  0Z IP   0    557  2.31                              68    0.08 8 87.9 283 
 628  0N ES   2    557 12.89                              68   -0.59 4 87.9 283 
 629  0Z IP   1    557  3.20                              68    0.31 6 88.9 248 
 629  0N ES   0    557 14.64                              68    0.03 8 88.9 248 
 627  0Z IP   0    557  3.36                              68   -0.19 8 93.6 263 
 627  0N ES   1    557 15.29                              68   -0.46 6 93.6 263 
 624  0Z IP   2    557  6.88                              50   -0.52 4  118 284 
 624  0N ES   4    557 21.08                              50   -1.33 0  118 284 
 625  0Z IP   0    557  8.18                              50    0.07 7  122 268 
 625  0N ES   2    557 23.14                              50   -0.50 4  122 268 
 631  0Z IP   2    557  9.61                              50    0.56 3  127 223 
 631  0N ES   0    557 25.40                              50    0.14 7  127 223 
 626  0Z IP   2    557  9.79                              45    0.72 3  132 254 
 626  0E ES   1    557 25.78                              45    0.48 5  132 254 
 623  0Z IP   0    557  9.58                              45   -0.07 7  134 276 
 623  0N ES   3    557 25.54                              45   -0.76 2  134 276 
 622  0Z IP   0    557 11.44   84                         41    0.01 6  150 281 
 622  0E ES   4    557 31.74                              41    2.35 0  150 281 
 622  0Z  IAML     557 33.03        18.6 0.28                           150 281 
 621  0Z IP   3    557 13.87   63                         41    0.87 1  164 270 
 621  0E ES   4    557 33.44                              41    1.34 0  164 270 
 621  0Z  IAML     557 35.39        26.2 0.37                           164 270 
 620  0Z IP   2    557 16.11   68                         41    0.71 2  186 287 
 620  0E ES   2    557 37.04                              41    0.78 2  186 287 
 620  0Z  IAML     557 41.20        10.7 0.43                           186 287 
                                                                                
 2016 11 5 0610 51.3 L  72.232 129.702 13.2  SLT 13 0.3 1.4LSLT 1.8CSLT        1
 GAP=270        0.46       2.2    12.3  2.8  0.9186E+01  0.1069E+02  0.2730E+00E
 ACTION:REE 25-08-04 21:51 OP:mn   STATUS:               ID:20161105061008     I
 2016-11-05-0610-08M.arct__039                                                 6
 STAT SP IPHASW D HRMM SECON CODA AMPLIT PERI AZIMU VELO AIN AR TRES W  DIS CAZ7
 630  0Z IP   1    611  0.74                              96   -0.03 9 50.3 250 
 630  0N ES   4    611  9.46                              96    1.80 0 50.3 250 
 632  0Z IP   2    611  5.41   62                         68   -0.59 5 76.6 197 
 632  0E ES   1    611 16.45                              68   -0.27 8 76.6 197 
 632  0Z  IAML     611 18.64        11.0 0.54                          76.6 197 
 628  0Z IP   0    611  6.96                              68    0.1310 88.7 283 
 628  0N ES   3    611 17.44                              68   -0.70 2 88.7 283 
 629  0Z IP   0    611  7.58                              68    0.2410 88.8 249 
 629  0N ES   1    611 19.02                              68   -0.01 7 88.8 249 
 627  0Z IP   0    611  7.98                              68   -0.0810 93.8 263 
 627  0N ES   2    611 19.90                              68   -0.37 5 93.8 263 
 624  0Z IP   1    611 11.44   39                         50   -0.52 6  119 285 
 624  0N ES   4    611 25.75                              50   -1.27 0  119 285 
 624  0Z  IAML     611 27.76         8.5 0.79                           119 285 
 625  0Z IP   2    611 13.16                              50    0.54 4  123 269 
 625  0N ES   0    611 28.15                              50   -0.01 8  123 269 
 631  0Z IP   2    611 14.16                              50    0.75 4  126 224 
 631  0N ES   0    611 29.82                              50    0.30 8  126 224 
 626  0Z IP   3    611 14.29                              45    0.77 2  132 255 
 626  0N ES   2    611 30.28                              45    0.55 4  132 255 
 623  0Z IP   1    611 14.42                              45    0.25 6  134 276 
 623  0N ES   0    611 30.68                              45   -0.17 8  134 276 
 622  0Z IP   0    611 15.81                              41   -0.15 7  151 281 
 622  0N ES   0    611 33.75                              41   -0.20 7  151 281 
 621  0Z IP   3    611 18.29   47                         41    0.79 2  164 270 
 621  0N ES   4    611 37.85                              41    1.24 0  164 270 
 621  0Z  IAML     611 39.92         2.3 0.21                           164 270 
 620  0Z IP   2    611 20.51   47                         41    0.56 3  186 287 
 620  0E ES   4    611 41.99                              41    1.15 0  186 287 
 620  0Z  IAML     611 45.61         1.3 0.61                           186 287 
                                                                                
 2016 11 5 0626 28.8 L  72.244 129.681 12.1  SLT 13 0.4 2.8LSLT 2.4CSLT        1
 GAP=269        0.51       2.7    10.2  3.5  0.1062E+02  0.1120E+02  0.1494E+01E
 ACTION:REE 25-08-04 21:51 OP:mn   STATUS:               ID:20161105062528     I
 2016-11-05-0625-28M.arct__039                                                 6
 STAT SP IPHASW D HRMM SECON CODA AMPLIT PERI AZIMU VELO AIN AR TRES W  DIS CAZ7
 630  0Z IP   1    626 38.35                              94    0.19 9 50.1 249 
 632  0Z IP   1    626 43.28   81                         68   -0.41 8 77.7 196 
 632  0E ES   2    626 53.82                              68   -0.76 5 77.7 196 
 632  0Z  IAML     626 56.13       266.0 0.58                          77.7 196 
 628  0Z IP   0    626 44.05  104                         68   -0.1310 87.7 283 
 628  0N ES   0    626 55.36                              68   -0.0610 87.7 283 
 628  0Z  IAML     626 57.07       211.3 0.18                          87.7 283 
 629  0Z IP   1    626 45.26                              68    0.44 7 88.6 248 
 629  0N ES   1    626 56.78                              68    0.24 7 88.6 248 
 627  0Z IP   0    626 45.54                              68    0.0610 93.3 263 
 627  0N ES   0    626 57.37                              68   -0.3110 93.3 263 
 624  0Z IP   1    626 49.11                              54   -0.28 6  118 284 
 624  0N ES   4    627  2.97                              54   -1.47 0  118 284 
 625  0Z IP   0    626 50.07                              50   -0.02 8  122 268 
 625  0N ES   0    627  5.57                              50   -0.08 8  122 268 
 631  0Z IP   2    626 51.81                              50    0.78 4  127 223 
 631  0N ES   0    627  7.55                              50    0.26 8  127 223 
 626  0Z IP   2    626 51.82                              50    0.77 4  131 254 
 626  0N ES   1    627  7.66                              50    0.34 6  131 254 
 623  0Z IP   0    626 51.64                              45   -0.00 8  134 276 
 623  0N ES   3    627  7.68                              45   -0.66 2  134 276 
 622  0Z IP   1    626 53.38                              41   -0.06 5  150 281 
 622  0N ES   2    627 11.09                              41   -0.36 4  150 281 
 621  0Z IP   3    626 56.09   82                         41    1.09 2  164 270 
 621  0N ES   4    627 15.57                              41    1.41 0  164 270 
 621  0Z  IAML     627 17.54        48.7 0.40                           164 270 
 620  0Z IP   2    626 58.20   67                         41    0.79 3  185 287 
 620  0N ES   4    627 19.60                              41    1.28 0  185 287 
 620  0Z  IAML     627 23.30        25.7 0.39                           185 287 
                                                                                
 2016 11 5 0629  6.3 L  72.221 129.755 12.6  SLT 13 0.4 2.8LSLT 2.3CSLT        1
 GAP=271        0.49       2.3     9.3  2.9  0.3325E+01 -0.8842E+01 -0.7039E+00E
 ACTION:REE 25-08-04 21:52 OP:mn   STATUS:               ID:20161105062806     I
 2016-11-05-0628-06M.arct__039                                                 6
 STAT SP IPHASW D HRMM SECON CODA AMPLIT PERI AZIMU VELO AIN AR TRES W  DIS CAZ7
 630  0Z IP   0    629 15.99                              94    0.0710 51.6 252 
 630  0N ES   0    629 22.93                              94   -0.0310 51.6 252 
 632  0Z IP   1    629 20.72   80                         68   -0.15 7 75.9 198 
 632  0E ES   1    629 31.30                              68   -0.23 7 75.9 198 
 632  0Z  IAML     629 33.37       233.2 0.65                          75.9 198 
 629  0Z IP   1    629 22.93                              68    0.42 6 90.0 250 
 629  0N ES   1    629 34.54                              68    0.17 6 90.0 250 
 628  0Z IP   0    629 22.14   75                         68    0.01 8 90.7 284 
 628  0N ES   2    629 34.02                              68    0.31 4 90.7 284 
 628  0Z  IAML     629 34.83       210.9 0.37                          90.7 284 
 627  0Z IP   1    629 23.02                              68   -0.28 6 95.5 264 
 627  0N ES   2    629 34.80                              68   -0.93 4 95.5 264 
 624  0Z IP   2    629 26.62                              50   -0.62 4  121 285 
 624  0N ES   4    629 40.85                              50   -1.70 0  121 285 
 625  0Z IP   0    629 27.88                              50    0.02 7  125 269 
 625  0N ES   3    629 42.67                              50   -0.95 2  125 269 
 631  0Z IP   3    629 29.41                              50    0.95 2  127 225 
 631  0N ES   1    629 45.07                              50    0.41 5  127 225 
 626  0Z IP   2    629 29.37                              45    0.66 3  133 256 
 626  0N ES   1    629 45.29                              45    0.20 5  133 256 
 623  0Z IP   0    629 29.35                              41   -0.06 7  136 277 
 623  0N ES   4    629 45.18                              41   -1.13 0  136 277 
 622  0Z IP   1    629 30.90                              41   -0.31 4  153 281 
 622  0N ES   2    629 48.68                              41   -0.74 3  153 281 
 621  0Z IP   2    629 33.52   77                         41    0.79 3  166 271 
 621  0E ES   4    629 54.24                              41    2.20 0  166 271 
 621  0Z  IAML     630  3.58        42.6 0.33                           166 271 
 620  0Z IP   2    629 35.78   84                         41    0.58 2  188 287 
 620  0E ES   4    629 59.11                              41    2.78 0  188 287 
 620  0Z  IAML     630  4.05        23.6 0.49                           188 287 
                                                                                
