 2016  819 0959 26.8 L  71.882 129.582  7.4  SLT 13 0.6 4.3LSLT                1
 GAP=262        1.09       2.8    15.6  3.1  0.1434E+02  0.1868E+01 -0.3120E+01E
 ACTION:REG 25-04-10 18:57 OP:mn   STATUS:               ID:20160819095900     I
 2016_08_19T09-59-00.mseed                                                     6
 STAT SP IPHASW D HRMM SECON CODA AMPLIT PERI AZIMU VELO AIN AR TRES W  DIS CAZ7
 632  0Z IP   0    959 34.86                             101   -0.1110 38.7 208 
 632  0N ES   0    959 41.02                             101    0.1010 38.7 208 
 632  0Z  IAML     959 42.18      3428.8 0.50                          38.7 208 
 630  0Z IP   0    959 35.80                              98   -0.2210 48.4 297 
 630  0N ES   1    959 43.04                              98    0.3010 48.4 297 
 630  0Z  IAML     959 46.28      6337.0 0.50                          48.4 297 
 629  0Z IP   0    959 41.37                              66   -0.19 9 78.8 275 
 629  0N ES   1    959 52.67                              66    0.36 9 78.8 275 
 629  0Z  IAML     959 54.20      5388.4 0.68                          78.8 275 
 627  0Z IP   0    959 44.19                              58    0.22 8 93.4 288 
 627  0N ES   0    959 56.45                              58   -0.03 8 93.4 288 
 627  0Z  IAML     959 57.52      6764.5 0.60                          93.4 288 
 631  0Z IP   0    959 45.21                              58   -0.09 8 98.2 238 
 631  0N ES   1    959 58.31                              58   -0.48 8 98.2 238 
 631  0Z  IAML    10 0  1.28      2471.1 0.60                          98.2 238 
 628  0Z IP   0    959 44.86                              58    0.01 8  101 306 
 628  0N ES   2    959 57.50                              58   -0.51 8  101 306 
 628  0Z  IAML     959 57.78     13245.6 0.30                           101 306 
 626  0Z IP   0    959 48.52                              48   -0.07 7  123 272 
 626  0N ES   0   10 0  4.58                              48    0.09 7  123 272 
 626  0Z  IAML    10 0 10.30      1873.9 0.66                           123 272 
 625  0Z IP   2    959 48.49                              44   -0.50 7  124 287 
 625  0N ES   1   10 0  4.69                              44   -0.48 7  124 287 
 625  0Z  IAML    10 0 10.74      3132.8 1.06                           124 287 
 624  0Z IP   1    959 49.35                              44   -0.39 7  131 302 
 624  0N ES   4   10 0  5.15                              44   -1.32 7  131 302 
 624  0Z  IAML    10 0  8.14      5852.5 0.52                           131 302 
 623  0Z IP   0    959 51.19                              40    0.04 6  140 292 
 623  0N ES   0   10 0  8.74                              40   -0.16 6  140 292 
 623  0Z  IAML    10 0 14.06      3312.3 0.94                           140 292 
 622  0Z IP   3    959 53.97                              37    0.75 6  159 295 
 622  0N ES   0   10 0 12.65                              37    0.17 6  159 295 
 622  0Z  IAML    10 0 18.96      1931.4 0.68                           159 295 
 621  0Z IP   4    959 55.14                              37    1.23 5  165 284 
 621  0N ES   4   10 0 15.63                              37    1.95 5  165 284 
 621  0Z  IAML    10 0 16.65      3571.0 0.48                           165 284 
 620  0Z IP   3    959 58.52                              37    0.97 4  198 298 
 620  0N ES   4   10 0 21.63                              37    1.65 4  198 298 
 620  0Z  IAML    10 0 30.94      2333.6 0.54                           198 298 
                                                                                
 2016  820 1506 15.7 L  71.896 129.550  6.4  SLT 13 0.7                        1
 GAP=260        1.36       3.7    19.0  4.4  0.2776E+02 -0.2403E+01 -0.7407E+01E
 ACTION:ARG 20-05-11 21:31 OP:mn   STATUS:               ID:20160820150518     I
 2016-08-20-1505-18M.arct__039                                                 6
 STAT SP IPHASW D HRMM SECON CODA AMPLIT PERI AZIMU VELO AIN AR TRES W  DIS CAZ7
 632  0Z IP   1   15 6 23.53                              99   -0.4410 39.6 205 
 632  0N ES   0   15 6 30.00                              99   -0.0210 39.6 205 
 630  0N ES   2   15 6 31.53                              97    0.5210 46.7 296 
 629  0Z IP   0   15 6 30.49                              66    0.20 9 77.6 274 
 629  0N ES   1   15 6 41.29                              66    0.34 9 77.6 274 
 627  0Z IP   1   15 6 32.40                              66   -0.26 8 91.9 287 
 627  0N ES   1   15 6 44.74                              66   -0.32 8 91.9 287 
 631  0Z IP   4   15 6 35.44                              58    1.19 8 98.1 237 
 631  0N ES   2   15 6 47.30                              58   -0.51 8 98.1 237 
 628  0Z IP   1   15 6 33.09                              58   -0.44 8 99.6 305 
 628  0N ES   3   15 6 45.70                              58   -0.85 8 99.6 305 
 626  0Z IP   0   15 6 37.36                              48   -0.07 7  122 271 
 626  0N ES   0   15 6 53.10                              48   -0.20 7  122 271 
 625  0Z IP   1   15 6 37.52                              48   -0.26 7  123 286 
 625  0N ES   2   15 6 53.22                              48   -0.68 7  123 286 
 624  0Z IP   2   15 6 37.83                              44   -0.68 7  129 302 
 624  0N ES   3   15 6 54.31                              44   -0.86 7  129 302 
 623  0Z IP   0   15 6 39.93                              40   -0.04 6  139 292 
 623  0N ES   1   15 6 57.20                              40   -0.49 6  139 292 
 622  0Z IP   1   15 6 42.30                              37    0.25 6  157 295 
 622  0Z ES   4   15 7  2.57                              37    1.27 6  157 295 
 621  0Z IP   2   15 6 43.40                              37    0.63 5  164 284 
 621  0N ES   4   15 7  4.06                              37    1.52 5  164 284 
 620  0Z IP   4   15 6 48.42                              37    2.04 4  196 298 
 620  0N ES   4   15 7 10.83                              37    2.05 4  196 298 
                                                                                
 2016  822 1318 48.8 L  72.354 127.043 19.7  SLT  8 0.3 0.8CSLT                1
 GAP= 96        0.76       2.4     5.1  5.4  0.4918E+01  0.6871E+01  0.6084E+01E
 ACTION:UP  21-01-08 22:12 OP:elen STATUS:               ID:20160822131743     I
 OLDACT:REG 21-01-08 15:24 OP:elen STATUS:               ID:20160822131743     3
 2016-08-22-1317-43M.arct__039                                                 6
 STAT SP IPHASW D HRMM SECON CODA AMPLIT PERI AZIMU VELO AIN AR TRES W  DIS CAZ7
 628  0Z IP   0A  1318 52.27   29                        160    0.2210 6.22  34 
 628  0N IS   0A  1318 54.48                             160    0.04 2 6.22  34 
 627  0Z IP   1AD 1318 54.94                             117    0.2710 26.5 185 
 627  0E IS   0A  1318 58.78                             117   -0.18 2 26.5 185 
 624  0Z IP   0   1318 55.19                             114    0.0510 29.3 298 
 624  0E ES   1   1318 59.46                             114   -0.3110 29.3 298 
 625  0Z IP   0   1318 56.66                             106    0.0910 37.6 238 
 625  0N ES   0   1319  2.22                             106   -0.0310 37.6 238 
 630  0Z IP   0   1318 58.88                              97    0.0810 53.7 125 
 630  0E ES   2   1319  5.54                              97   -0.5810 53.7 125 
 630  0E IS   2A  1319  5.56                              97   -0.56 2 53.7 125 
 622  0Z IP   2   1319  0.53                              96    0.5210 59.2 280 
 622  0N ES   1   1319  7.83                              96   -0.3710 59.2 280 
 626  0Z IP   1   1319  0.52                              95    0.30 9 62.4 214 
 626  0N ES   0   1319  8.58                              95    0.01 9 62.4 214 
 621  0Z IP   1   1319  2.86                              94    0.26 9 75.7 257 
 621  0N ES   1   1319 12.21                              94   -0.48 9 75.7 257 
                                                                                
 2016 10 5 1619 47.2 L  72.816 125.038 11.7  SLT 11 0.5 1.3LSLT                1
 GAP=250        1.02       4.0     8.7  4.1  0.5282E+01 -0.1812E+02 -0.4670E+01E
 ACTION:ARG 20-04-11 14:12 OP:mn   STATUS:               ID:20161005161823     I
 2016-10-05-1618-23M.SIOLA_039                                                 6
 STAT SP IPHASW D HRMM SECON CODA AMPLIT PERI AZIMU VELO AIN AR TRES W  DIS CAZ7
 620  0Z IP   0   1619 53.23                              99   -0.0310 29.2 232 
 620  0N ES   0   1619 57.63                              99   -0.0310 29.2 232 
 620  0Z  IAML    1619 58.01        11.3 0.26                          29.2 232 
 622  0Z IP   0   1619 55.77                              94    0.1010 42.7 167 
 622  0Z  IAML    1620  2.11        13.0 0.30                          42.7 167 
 622  0N ES   1   1620  2.15                              94    0.3210 42.7 167 
 624  0Z IP   0   1619 57.69                              92   -0.0810 56.0 132 
 624  0N ES   0   1620  5.56                              92    0.1010 56.0 132 
 624  0Z  IAML    1620  5.84        11.9 0.16                          56.0 132 
 623  0Z IP   0   1619 58.60                              92   -0.0610 59.8 156 
 623  0N ES   0   1620  7.19                              92    0.2010 59.8 156 
 623  0Z  IAML    1620  7.57         8.4 0.68                          59.8 156 
 621  0Z IP   1   1620  0.07                              92   -0.39 9 70.7 184 
 621  0N ES   0   1620 10.15                              92    0.03 9 70.7 184 
 621  0Z  IAML    1620 10.56         9.7 0.26                          70.7 184 
 625  0Z IP   4   1620  3.32                              68    1.22 9 80.1 153 
 625  0N ES   3   1620 12.17                              68   -0.78 9 80.1 153 
 625  0Z  IAML    1620 12.36         4.3 0.80                          80.1 153 
 628  0Z IP   1   1620  1.66                              68   -0.47 9 84.3 122 
 628  0N ES   0   1620 12.97                              68   -0.04 9 84.3 122 
 628  0Z  IAML    1620 13.46         8.2 0.52                          84.3 122 
 626  0Z IP   1   1620  6.07                              68   -0.38 8  109 161 
 626  0N ES   2   1620 19.87                              68   -0.61 8  109 161 
 629  0Z IP   0   1620  8.81                              50   -0.07 7  125 141 
 629  0N ES   0   1620 24.67                              50   -0.01 7  125 141 
 629  0Z  IAML    1620 25.99         4.7 0.18                           125 141 
 630  0Z IP   1   1620 10.00                              41   -0.35 6  138 125 
 630  0N ES   0   1620 27.46                              41    0.23 6  138 125 
 630  0Z  IAML    1620 27.89         3.9 0.22                           138 125 
 631  0Z IP   2   1620 15.85                              41    0.66 5  175 153 
 631  0N ES   4   1620 36.91                              41    1.31 5  175 153 
 631  0Z  IAML    1620 37.91         6.1 0.21                           175 153 
                                                                                
 2016 10 6 0156 56.2 L  72.799 125.060  8.4  SLT 11 0.6                        1
 GAP=246        1.17       4.2    10.7  4.4  0.3115E+01 -0.3131E+02 -0.1095E+01E
 ACTION:ARG 20-04-11 14:12 OP:mn   STATUS:               ID:20161006015532     I
 2016-10-06-0155-32M.SIOLA_039                                                 6
 STAT SP IPHASW D HRMM SECON CODA AMPLIT PERI AZIMU VELO AIN AR TRES W  DIS CAZ7
 620  0Z IP   0    157  1.81                             106   -0.2110 28.6 236 
 620  0N ES   1    157  6.52                             106    0.2610 28.6 236 
 622  0Z IP   0    157  4.39                             101    0.0810 40.7 168 
 622  0N ES   1    157 10.63                             101    0.4010 40.7 168 
 624  0Z IP   0    157  6.69                              66    0.1210 54.2 131 
 624  0N ES   0    157 14.36                              66    0.2310 54.2 131 
 623  0Z IP   0    157  7.49                              66    0.0710 57.7 156 
 623  0N ES   2    157 16.15                              66    0.5510 57.7 156 
 621  0Z IP   1    157  8.98                              66   -0.28 9 68.8 185 
 621  0N ES   1    157 18.32                              66   -0.46 9 68.8 185 
 625  0Z IP   2    157 11.58                              66    0.71 9 78.1 153 
 625  0N ES   2    157 21.00                              66   -0.57 9 78.1 153 
 628  0Z IP   1    157 10.67                              66   -0.36 9 82.7 122 
 628  0N ES   0    157 21.64                              66   -0.21 9 82.7 122 
 626  0Z IP   1    157 15.01                              58   -0.36 8  107 162 
 626  0N ES   3    157 28.53                              58   -0.83 8  107 162 
 630  0Z IP   3    157 18.68                              40   -0.89 7  136 125 
 630  0N ES   2    157 36.02                              40   -0.61 7  136 125 
 631  0Z IP   0    157 24.49                              37    0.09 5  173 153 
 631  0N ES   4    157 46.17                              37    1.20 5  173 153 
 632  0Z IP   2    157 27.40                              37    0.57 4  193 133 
 632  0Z ES   4    157 51.48                              37    2.29 4  193 133 
                                                                                
 2016 10 9 0036 45.1 L  72.803 125.093  7.3  SLT 11 0.6                        1
 GAP=246        1.14       4.6    12.0  4.5  0.1371E+02 -0.3942E+02 -0.5287E+01E
 ACTION:ARG 20-04-11 14:12 OP:mn   STATUS:               ID:20161009003553     I
 2016-10-09-0035-53M.SIOLA_039                                                 6
 STAT SP IPHASW D HRMM SECON CODA AMPLIT PERI AZIMU VELO AIN AR TRES W  DIS CAZ7
 620  0Z IP   1    036 50.80                             103   -0.3110 29.8 236 
 620  0N ES   0    036 55.35                             103   -0.1210 29.8 236 
 622  0Z IP   1    036 53.63                             100    0.3810 40.9 170 
 622  0N ES   1    036 59.62                             100    0.4510 40.9 170 
 624  0Z IP   0    036 55.49                              98    0.0610 53.7 132 
 624  0N ES   0    037  3.09                              98    0.1410 53.7 132 
 623  0Z IP   1    036 56.77                              97    0.3410 57.7 157 
 623  0N ES   0    037  4.84                              97    0.1710 57.7 157 
 625  0Z IP   3    037  0.75                              66    0.88 9 78.0 154 
 625  0N ES   1    037 10.17                              66   -0.46 9 78.0 154 
 628  0Z IP   0    036 59.69                              66   -0.23 9 82.0 122 
 628  0N ES   0    037 10.49                              66   -0.23 9 82.0 122 
 626  0Z IP   2    037  3.87                              58   -0.56 8  107 162 
 626  0N ES   4    037 17.49                              58   -1.02 8  107 162 
 629  0Z IP   2    037  6.51                              48   -0.53 7  123 141 
 629  0N ES   0    037 23.23                              48    0.21 7  123 141 
 630  0Z IP   1    037  8.10                              44   -0.48 7  136 125 
 630  0N ES   4    037 24.59                              44   -1.10 7  136 125 
 631  0Z IP   0    037 13.69                              37    0.21 5  173 154 
 631  0N ES   4    037 35.36                              37    1.18 5  173 154 
 632  0Z IP   2    037 16.45                              37    0.58 4  193 133 
 632  0N ES   4    037 39.68                              37    1.37 4  193 133 
                                                                                
 2016 1012 0800 21.8 L  72.707 125.974 16.0  SLT 12 0.5                        1
 GAP=226        1.18       3.9     7.8  3.3  0.9609E+01 -0.7247E+01 -0.3877E+01E
 ACTION:ARG 20-04-11 14:12 OP:mn   STATUS:               ID:20161012080000     I
 2016-10-12-0800-00M.SIOLA_039                                                 6
 STAT SP IPHASW D HRMM SECON CODA AMPLIT PERI AZIMU VELO AIN AR TRES W  DIS CAZ7
 624  0Z IP   0    8 0 27.96                             114    0.2410 27.7 159 
 624  0N ES   1    8 0 32.34                             114    0.3210 27.7 159 
 622  0Z IP   0    8 0 29.61                             107    0.2010 37.0 217 
 622  0N ES   0    8 0 34.99                             107    0.0410 37.0 217 
 623  0Z IP   0    8 0 30.71                             103    0.2210 43.2 190 
 623  0N ES   0    8 0 37.06                             103    0.2410 43.2 190 
 628  0Z IP   1    8 0 30.92                              68   -0.3710 52.1 131 
 628  0N ES   1    8 0 37.84                              68   -0.3510 52.1 131 
 620  0Z IP   1    8 0 31.96                              68   -0.2710 54.4 264 
 620  0N ES   1    8 0 39.36                              68   -0.4710 54.4 264 
 625  0Z IP   0    8 0 32.91                              68   -0.2310 59.7 176 
 625  0N ES   1    8 0 40.91                              68   -0.4810 59.7 176 
 621  0Z IP   0    8 0 34.69                              68    0.08 9 68.9 213 
 621  0N ES   0    8 0 43.73                              68   -0.20 9 68.9 213 
 627  0Z IP   1    8 0 35.60                              68    0.38 9 74.1 152 
 627  0E ES   2    8 0 44.48                              68   -0.51 9 74.1 152 
 626  0Z IP   3    8 0 38.96                              68    0.99 8 91.5 179 
 626  0N ES   1    8 0 49.33                              68   -0.42 8 91.5 179 
 630  0Z IP   0    8 0 40.24                              54   -0.02 8  106 131 
 630  0N ES   4    8 0 52.64                              54   -1.08 8  106 131 
 631  0Z IP   2    8 0 47.21                              41    0.58 6  152 163 
 631  0N ES   4    8 1  6.06                              41    1.32 6  152 163 
 632  0Z IP   4    8 0 49.44                              41    1.23 5  165 139 
 632  0N ES   3    8 1  8.39                              41    0.93 5  165 139 
                                                                                
