 2016 1015 1013 35.4 L  72.044 126.955 16.6  SLT 13 0.3                        1
 GAP= 76        0.88       1.4     4.1  1.6  0.2006E+01  0.6302E+00 -0.5013E-01E
 ACTION:ARG 20-04-11 14:12 OP:mn   STATUS:               ID:20161015101225     I
 2016-10-15-1012-25M.SIOLA_039                                                 6
 STAT SP IPHASW D HRMM SECON CODA AMPLIT PERI AZIMU VELO AIN AR TRES W  DIS CAZ7
 627  0Z IP   0   1013 38.86                             152    0.1510 8.17   7 
 627  0N ES   1   1013 40.65                             152   -0.4910 8.17   7 
 629  0Z IP   1   1013 40.18                             129    0.3010 17.8 136 
 629  0Z ES   0   1013 43.13                             129   -0.0510 17.8 136 
 625  0Z IP   0   1013 42.39                             111    0.1610 32.5 297 
 625  0N ES   1   1013 46.82                             111   -0.4210 32.5 297 
 626  0Z IP   1   1013 43.03                             109    0.4610 36.2 242 
 626  0N ES   0   1013 47.98                             109    0.1510 36.2 242 
 628  0Z IP   0   1013 43.01                             106    0.1410 40.2   9 
 628  0N ES   0   1013 48.22                             106   -0.1210 40.2   9 
 630  0Z IP   1   1013 44.61                              68    0.2610 47.2  85 
 630  0N ES   1   1013 50.64                              68   -0.2710 47.2  85 
 623  0Z IP   1   1013 45.75                              68    0.3510 51.5 308 
 623  0N ES   0   1013 52.58                              68   -0.1410 51.5 308 
 624  0Z IP   1   1013 45.77                              68    0.3010 53.4 335 
 624  0N ES   0   1013 52.66                              68   -0.1910 53.4 335 
 622  0Z IP   0   1013 48.64                              68    0.09 9 71.4 309 
 622  0N ES   1   1013 57.74                              68   -0.42 9 71.4 309 
 621  0Z IP   1   1013 49.10                              68    0.40 9 72.5 283 
 621  0N ES   1   1013 57.96                              68   -0.46 9 72.5 283 
 631  0Z IP   0   1013 49.10                              68    0.04 9 72.7 172 
 631  0N ES   3   1013 58.06                              68   -0.99 9 72.7 172 
 632  0Z IP   0   1013 52.19                              68    0.12 8 90.6 124 
 632  0N ES   0   1014  4.38                              68    0.12 8 90.6 124 
 620  0Z IP   0   1013 54.93                              54    0.21 8  111 309 
 620  0N ES   1   1014  9.29                              54    0.44 8  111 309 
                                                                                
 2016 1029 0831 54.6 L  72.025 127.653 14.5  SLT 11 0.5 2.0LSLT 1.7CSLT        1
 GAP=116        1.21       2.2     6.9  3.0  0.9827E+00  0.4533E+01 -0.8866E+00E
 ACTION:REE 25-08-04 21:46 OP:mn   STATUS:               ID:20161029083048     I
 OLDACT:UP  20-04-26 21:33 OP:alex STATUS:               ID:20161029083048     3
 OLDACT:ARG 20-04-26 14:49 OP:alex STATUS:               ID:20161029083048     3
 2016-10-29-0830-48M.SIOLA_039                                                 6
 STAT SP IPHASW D HRMM SECON CODA AMPLIT PERI AZIMU VELO AIN AR TRES W  DIS CAZ7
 629  0Z IP   1 D  831 59.17   58                        128    0.4910 15.9 228 
 629  0E IS   1    832  1.87                             128    0.2510 15.9 228 
 629  0Z  IAML     832  2.25       315.8 0.32                          15.9 228 
 630  0Z IP   0    831 59.66                             115   -0.0310 23.8  76 
 630  0N ES   1    832  2.95                             115   -0.4210 23.8  76 
 627  0Z EP   1 C  832  0.41   37                        113    0.4410 25.2 294 
 627  0E ES   1    832  3.48                             113   -0.3810 25.2 294 
 627  0Z ES        832  4.05                             100           25.2 294 
 628  0Z IP   0    832  2.86                             100   -0.0410 45.2 338 
 628  0N ES   1    832  8.64                             100   -0.2910 45.2 338 
 625  0Z EP   0 C  832  5.37   99                         97    0.0510 55.6 288 
 625  0E ES   1    832 12.61                              97   -0.4910 55.6 288 
 625  0Z  IAML     832 16.70        18.1 1.02                          55.6 288 
 626  0Z IP   1    832  5.72                              97    0.2710 58.0 255 
 626  0N ES   1    832 13.09                              97   -0.2510 58.0 255 
 624  0Z IP   1    832  7.82                              68    0.48 9 68.8 318 
 624  0N ES   1    832 16.34                              68   -0.27 9 68.8 318 
 631  0Z EP   0 C  832  8.24   77                         68   -0.01 9 71.3 192 
 631  0E ES   3    832 17.24                              68   -0.93 9 71.3 192 
 631  0Z  IAML     832 19.49        65.7 0.34                          71.3 192 
 623  0Z IP   4    832  9.37                              68    1.13 9 72.9 298 
 623  0N ES   1    832 17.84                              68   -0.32 9 72.9 298 
 622  0Z IP   1    832 11.79                              68    0.48 8 92.3 301 
 622  0N ES   3    832 22.69                              68   -0.79 8 92.3 301 
 620  0Z IP   2    832 17.65                              45    0.71 7  132 304 
 620  0N ES   1    832 33.70                              45    0.49 7  132 304 
                                                                                
 2016 1030 1322 37.0 L  72.534 126.496 13.4  SLT 12 0.4 2.4LSLT                1
 GAP=203        0.88       2.5     5.0  2.0  0.5022E+01 -0.2498E+01 -0.3329E+00E
 ACTION:REE 25-08-04 21:47 OP:mn   STATUS:               ID:20161030132120     I
 OLDACT:ARG 20-04-26 14:49 OP:alex STATUS:               ID:20161030132120     3
 2016-10-30-1321-20M.SIOLA_039                                                 6
 STAT SP IPHASW D HRMM SECON CODA AMPLIT PERI AZIMU VELO AIN AR TRES W  DIS CAZ7
 624  0Z EP   0 C 1322 40.12                             140    0.0510 9.87 229 
 624  0E ES   2   1322 41.68                             140   -0.6710 9.87 229 
 624  0Z  IAML    1322 42.72       707.3 0.21                          9.87 229 
 628  0Z EP   1 C 1322 42.27                             109    0.2510 26.5 124 
 628  0N ES   1   1322 46.16                             109    0.4410 26.5 124 
 628  0Z  IAML    1322 46.61       182.7 0.30                          26.5 124 
 623  0Z IP   1   1322 44.27                             102    0.3010 34.0 227 
 623  0N ES   1   1322 49.46                             102    0.3610 34.0 227 
 622  0Z IP   0   1322 45.24                              99    0.1110 41.1 256 
 622  0N ES   0   1322 51.03                              99   -0.0710 41.1 256 
 625  0Z IP   0   1322 45.46                              98    0.1410 42.3 198 
 625  0N ES   0   1322 51.31                              98   -0.1110 42.3 198 
 627  0Z IP   0   1322 46.47                              96    0.1810 49.4 160 
 627  0E ES   0   1322 53.05                              96   -0.0610 49.4 160 
 620  0Z IP   0   1322 50.31                              68   -0.20 9 73.0 282 
 620  0N ES   0   1323  0.27                              68   -0.14 9 73.0 282 
 629  0Z IP   0   1322 50.21                              68   -0.22 9 73.0 157 
 629  0E ES   0   1323  0.08                              68   -0.19 9 73.0 157 
 626  0Z EP   1 C 1322 50.70                              68    0.28 9 73.8 192 
 626  0N ES   1   1322 59.97                              68   -0.28 9 73.8 192 
 626  0Z  IAML    1323  1.87        36.2 0.58                          73.8 192 
 630  0Z IP   1   1322 51.12                              68   -0.35 9 80.5 129 
 630  0E ES   3   1323  1.13                              68   -0.94 9 80.5 129 
 631  0Z EP   1 C 1322 59.88                              50    0.47 7  129 168 
 631  0N ES   2   1323 16.50                              50    0.71 7  129 168 
 631  0Z  IAML    1323 22.17        29.5 0.65                           129 168 
 632  0Z IP   1   1323  1.17                              41    0.45 6  139 139 
 632  0E ES   0   1323 17.99                              41   -0.07 6  139 139 
                                                                                
 2016 11 5 0556 46.8 L  72.247 129.684 12.4  SLT 13 0.7 2.3LSLT 2.2CSLT        1
 GAP=269        1.32       4.7    17.7  5.2  0.2712E+02 -0.7304E+01 -0.7290E+01E
 ACTION:REE 25-08-04 21:51 OP:mn   STATUS:               ID:20161105055546     I
 2016-11-05-0555-46M.arct__039                                                 6
 STAT SP IPHASW D HRMM SECON CODA AMPLIT PERI AZIMU VELO AIN AR TRES W  DIS CAZ7
 630  0Z IP   0    556 56.31                              94    0.0510 50.3 248 
 630  0N ES   2    557  3.72                              94    0.5810 50.3 248 
 632  0Z IP   2    557  1.07   70                         68   -0.71 9 78.0 196 
 632  0Z  IAML     557 12.36       104.1 0.21                          78.0 196 
 632  0E ES   1    557 12.38                              68   -0.31 9 78.0 196 
 628  0Z IP   0    557  2.31                              68    0.08 8 87.7 282 
 628  0N ES   2    557 12.89                              68   -0.58 8 87.7 282 
 629  0Z IP   1    557  3.20                              68    0.30 8 88.8 248 
 629  0N ES   0    557 14.64                              68    0.01 8 88.8 248 
 627  0Z IP   0    557  3.36                              68   -0.19 8 93.4 262 
 627  0N ES   1    557 15.29                              68   -0.47 8 93.4 262 
 624  0Z IP   2    557  6.88                              50   -0.55 7  118 284 
 624  0N ES   4    557 21.08                              50   -1.38 7  118 284 
 625  0Z IP   0    557  8.18                              50    0.04 7  122 268 
 625  0N ES   2    557 23.14                              50   -0.56 7  122 268 
 631  0Z IP   2    557  9.61                              50    0.51 7  127 223 
 631  0N ES   0    557 25.40                              50    0.04 7  127 223 
 626  0Z IP   2    557  9.79                              45    0.68 7  132 254 
 626  0E ES   1    557 25.78                              45    0.40 7  132 254 
 623  0Z IP   0    557  9.58                              45   -0.10 7  134 276 
 623  0N ES   3    557 25.54                              45   -0.83 7  134 276 
 622  0Z IP   0    557 11.44   84                         41   -0.04 6  150 280 
 622  0E ES   4    557 31.74                              41    2.27 6  150 280 
 622  0Z  IAML     557 33.03        18.6 0.28                           150 280 
 621  0Z IP   3    557 13.87   63                         41    0.82 5  164 270 
 621  0E ES   4    557 33.44                              41    1.25 5  164 270 
 621  0Z  IAML     557 35.39        26.2 0.37                           164 270 
 620  0Z IP   2    557 16.11   68                         41    0.67 5  185 287 
 620  0E ES   2    557 37.04                              41    0.71 5  185 287 
 620  0Z  IAML     557 41.20        10.7 0.43                           185 287 
                                                                                
 2016 11 5 0610 51.3 L  72.243 129.756 15.0  SLT 13 0.7 1.4LSLT 1.8CSLT        1
 GAP=271        1.30       4.7    17.9  4.7  0.2890E+02 -0.1280E+02 -0.6681E+01E
 ACTION:REE 25-08-04 21:51 OP:mn   STATUS:               ID:20161105061008     I
 2016-11-05-0610-08M.arct__039                                                 6
 STAT SP IPHASW D HRMM SECON CODA AMPLIT PERI AZIMU VELO AIN AR TRES W  DIS CAZ7
 630  0Z IP   1    611  0.74                              99   -0.3810 52.4 250 
 630  0N ES   4    611  9.46                              99    1.1510 52.4 250 
 632  0Z IP   2    611  5.41   62                         68   -0.70 9 78.3 198 
 632  0E ES   1    611 16.45                              68   -0.48 9 78.3 198 
 632  0Z  IAML     611 18.64        11.0 0.54                          78.3 198 
 628  0Z IP   0    611  6.96                              68    0.06 8 90.2 282 
 628  0N ES   3    611 17.44                              68   -0.87 8 90.2 282 
 629  0Z IP   0    611  7.58                              68    0.07 8 90.9 249 
 629  0N ES   1    611 19.02                              68   -0.35 8 90.9 249 
 627  0Z IP   0    611  7.98                              68   -0.22 8 95.8 263 
 627  0N ES   2    611 19.90                              68   -0.66 8 95.8 263 
 624  0Z IP   1    611 11.44   39                         50   -0.46 7  121 284 
 624  0N ES   4    611 25.75                              50   -1.21 7  121 284 
 624  0Z  IAML     611 27.76         8.5 0.79                           121 284 
 625  0Z IP   2    611 13.16                              50    0.55 7  125 268 
 625  0N ES   0    611 28.15                              50   -0.04 7  125 268 
 631  0Z IP   2    611 14.16                              50    0.72 7  128 224 
 631  0N ES   0    611 29.82                              50    0.21 7  128 224 
 626  0Z IP   3    611 14.29                              41    0.78 7  134 255 
 626  0N ES   2    611 30.28                              41    0.54 7  134 255 
 623  0Z IP   1    611 14.42                              41    0.33 7  136 276 
 623  0N ES   0    611 30.68                              41   -0.06 7  136 276 
 622  0Z IP   0    611 15.81                              41   -0.05 6  152 281 
 622  0N ES   0    611 33.75                              41   -0.05 6  152 281 
 621  0Z IP   3    611 18.29   47                         41    0.87 5  166 270 
 621  0N ES   4    611 37.85                              41    1.34 5  166 270 
 621  0Z  IAML     611 39.92         2.3 0.21                           166 270 
 620  0Z IP   2    611 20.51   47                         41    0.69 5  188 287 
 620  0E ES   4    611 41.99                              41    1.33 5  188 287 
 620  0Z  IAML     611 45.61         1.3 0.61                           188 287 
                                                                                
 2016 11 5 0626 29.0 L  72.239 129.614 10.4  SLT 13 0.6 2.8LSLT 2.4CSLT        1
 GAP=267        1.12       3.8    17.5  5.6  0.2952E+02  0.3358E+02 -0.6027E+00E
 ACTION:REE 25-08-04 21:51 OP:mn   STATUS:               ID:20161105062528     I
 2016-11-05-0625-28M.arct__039                                                 6
 STAT SP IPHASW D HRMM SECON CODA AMPLIT PERI AZIMU VELO AIN AR TRES W  DIS CAZ7
 630  0Z IP   1    626 38.35                              66    0.3710 47.7 248 
 632  0Z IP   1    626 43.28   81                         66   -0.45 9 76.6 194 
 632  0E ES   2    626 53.82                              66   -0.66 9 76.6 194 
 632  0Z  IAML     626 56.13       266.0 0.58                          76.6 194 
 628  0Z IP   0    626 44.05  104                         66   -0.13 9 85.6 283 
 628  0N ES   0    626 55.36                              66    0.11 9 85.6 283 
 628  0Z  IAML     626 57.07       211.3 0.18                          85.6 283 
 629  0Z IP   1    626 45.26                              66    0.46 9 86.3 247 
 629  0N ES   1    626 56.78                              66    0.45 9 86.3 247 
 627  0Z IP   0    626 45.54                              58    0.08 8 91.0 263 
 627  0N ES   0    626 57.37                              58   -0.10 8 91.0 263 
 624  0Z IP   1    626 49.11                              48   -0.40 7  116 285 
 624  0N ES   4    627  2.97                              48   -1.51 7  116 285 
 625  0Z IP   0    626 50.07                              48   -0.14 7  120 268 
 625  0N ES   0    627  5.57                              48   -0.13 7  120 268 
 631  0Z IP   2    626 51.81                              44    0.60 7  125 222 
 631  0N ES   0    627  7.55                              44    0.13 7  125 222 
 626  0Z IP   2    626 51.82                              44    0.64 7  129 254 
 626  0N ES   1    627  7.66                              44    0.30 7  129 254 
 623  0Z IP   0    626 51.64                              44   -0.16 7  131 276 
 623  0N ES   3    627  7.68                              44   -0.76 7  131 276 
 622  0Z IP   1    626 53.38                              37   -0.28 6  147 281 
 622  0N ES   2    627 11.09                              37   -0.58 6  147 281 
 621  0Z IP   3    626 56.09   82                         37    0.88 6  161 270 
 621  0N ES   4    627 15.57                              37    1.22 6  161 270 
 621  0Z  IAML     627 17.54        48.7 0.40                           161 270 
 620  0Z IP   2    626 58.20   67                         37    0.55 5  183 287 
 620  0N ES   4    627 19.60                              37    1.04 5  183 287 
 620  0Z  IAML     627 23.30        25.7 0.39                           183 287 
                                                                                
 2016 11 5 0629  6.6 L  72.223 129.699 12.9  SLT 13 0.8 2.8LSLT 2.3CSLT        1
 GAP=270        1.48       5.2    19.9  5.7  0.3576E+02 -0.1131E+02 -0.8260E+01E
 ACTION:REE 25-08-04 21:52 OP:mn   STATUS:               ID:20161105062806     I
 2016-11-05-0628-06M.arct__039                                                 6
 STAT SP IPHASW D HRMM SECON CODA AMPLIT PERI AZIMU VELO AIN AR TRES W  DIS CAZ7
 630  0Z IP   0    629 15.99                              95    0.0410 49.9 251 
 630  0N ES   0    629 22.93                              95    0.1510 49.9 251 
 632  0Z IP   1    629 20.72   80                         68   -0.40 9 75.6 197 
 632  0E ES   1    629 31.30                              68   -0.43 9 75.6 197 
 632  0Z  IAML     629 33.37       233.2 0.65                          75.6 197 
 629  0Z IP   1    629 22.93                              68    0.39 8 88.3 249 
 629  0N ES   1    629 34.54                              68    0.35 8 88.3 249 
 628  0Z IP   0    629 22.14   75                         68    0.01 8 88.8 284 
 628  0N ES   2    629 34.02                              68    0.55 8 88.8 284 
 628  0Z  IAML     629 34.83       210.9 0.37                          88.8 284 
 627  0Z IP   1    629 23.02                              68   -0.28 8 93.6 264 
 627  0N ES   2    629 34.80                              68   -0.71 8 93.6 264 
 624  0Z IP   2    629 26.62                              50   -0.66 7  119 285 
 624  0N ES   4    629 40.85                              50   -1.53 7  119 285 
 625  0Z IP   0    629 27.88                              50   -0.01 7  123 269 
 625  0N ES   3    629 42.67                              50   -0.78 7  123 269 
 631  0Z IP   3    629 29.41                              50    0.82 7  126 224 
 631  0N ES   1    629 45.07                              50    0.41 7  126 224 
 626  0Z IP   2    629 29.37                              45    0.59 7  131 255 
 626  0N ES   1    629 45.29                              45    0.31 7  131 255 
 623  0Z IP   0    629 29.35                              45   -0.12 7  134 277 
 623  0N ES   4    629 45.18                              45   -1.00 7  134 277 
 622  0Z IP   1    629 30.90                              41   -0.37 6  151 281 
 622  0N ES   2    629 48.68                              41   -0.62 6  151 281 
 621  0Z IP   2    629 33.52   77                         41    0.73 5  164 271 
 621  0E ES   4    629 54.24                              41    2.32 5  164 271 
 621  0Z  IAML     630  3.58        42.6 0.33                           164 271 
 620  0Z IP   2    629 35.78   84                         41    0.51 5  187 287 
 620  0E ES   4    629 59.11                              41    2.90 5  187 287 
 620  0Z  IAML     630  4.05        23.6 0.49                           187 287 
                                                                                
