 2016 1126 1456 11.6 L  72.683 124.991  9.8  SLT 11 0.7 1.2LSLT 1.8CSLT        1
 GAP=211        1.45       4.8    11.4  4.5  0.1338E+02 -0.3313E+02 -0.9646E+00E
 ACTION:REE 25-08-04 22:01 OP:mn   STATUS:               ID:20161126145445     I
 2016-11-26-1454-45M.arct__039                                                 6
 STAT SP IPHASW D HRMM SECON CODA AMPLIT PERI AZIMU VELO AIN AR TRES W  DIS CAZ7
 620  0Z IP   1   1456 15.80   67                        114   -0.4710 21.6 262 
 620  0E ES   0   1456 19.72                             114    0.0510 21.6 262 
 620  0Z  IAML    1456 20.57        36.0 0.22                          21.6 262 
 622  0Z IP   0   1456 17.79   73                        108    0.1510 29.0 158 
 622  0E ES   3   1456 22.90                             108    0.8610 29.0 158 
 622  0Z  IAML    1456 26.55        13.2 0.28                          29.0 158 
 624  0Z IP   0   1456 20.80   67                         66   -0.1310 48.7 118 
 624  0E ES   1   1456 28.06                              66    0.3310 48.7 118 
 624  0Z  IAML    1456 28.27        26.9 0.17                          48.7 118 
 621  0Z IP   0   1456 22.26                              66   -0.0410 55.8 184 
 621  0E ES   1   1456 29.67                              66   -0.4310 55.8 184 
 625  0N IP   4   1456 25.66                              66    1.21 9 68.1 146 
 625  0E ES   3   1456 32.98                              66   -0.84 9 68.1 146 
 628  0Z IP   2   1456 25.12                              66   -0.55 9 78.8 113 
 628  0N ES   2   1456 35.32                              66   -0.60 9 78.8 113 
 627  0Z IP   0   1456 28.55                              58    0.22 8 92.2 132 
 627  0N ES   2   1456 39.97                              58   -0.55 8 92.2 132 
 629  0Z IP   0   1456 32.09                              48   -0.02 7  115 136 
 629  0N ES   4   1456 45.73                              48   -1.33 7  115 136 
 630  0Z IP   0   1456 34.08                              44   -0.08 7  132 119 
 630  0N ES   3   1456 51.40                              44    0.79 7  132 119 
 631  0Z IP   1   1456 38.91                              37    0.48 5  163 150 
 631  0N ES   3   1456 58.80                              37    0.80 5  163 150 
 632  0Z IP   3   1456 42.04                              37    0.78 5  187 130 
 632  0N ES   4   1457  4.64                              37    1.73 5  187 130 
                                                                                
 2016 1228 2250 23.1 L  71.592 127.554  2.2  SLT 10 0.6 1.8LSLT 2.3CSLT        1
 GAP=116        1.37       2.3     7.9  6.1 -0.8613E+00  0.1120E+02 -0.3070E+01E
 ACTION:REE 25-08-04 22:04 OP:mn   STATUS:               ID:20161228224921     I
 2016-12-28-2249-21M.arct__039                                                 6
 STAT SP IPHASW D HRMM SECON CODA AMPLIT PERI AZIMU VELO AIN AR TRES W  DIS CAZ7
 631  0Z IP   1   2250 28.59   77                         95    0.3610 24.1 207 
 631  0N ES   0   2250 32.09                              95    0.1210 24.1 207 
 631  0Z  IAML    2250 33.05       162.0 0.45                          24.1 207 
 629  0Z IP   1   2250 30.78                              93    0.2910 38.6 347 
 629  0N ES   0   2250 36.02                              93    0.1310 38.6 347 
 632  0Z IP   0   2250 33.78   84                         92   -0.1710 53.6  91 
 632  0N ES   3   2250 40.97                              92   -0.8910 53.6  91 
 632  0Z  IAML    2250 42.34        30.3 0.26                          53.6  91 
 630  0Z IP   2   2250 35.00   83                         92    0.5610 60.2  26 
 630  0N ES   1   2250 43.00                              92    0.2910 60.2  26 
 630  0Z  IAML    2250 43.81        19.2 0.62                          60.2  26 
 627  0Z IP   2   2250 35.35                              92    0.5510 61.9 342 
 626  0Z IP   0   2250 34.81                              92   -0.07 9 62.6 303 
 626  0N ES   4   2250 42.41                              92   -1.06 9 62.6 303 
 628  0Z IP   0   2250 39.83                              66   -0.06 8 91.3 351 
 623  0Z IP   0   2250 42.52                              58   -0.06 8  103 324 
 622  0Z IP   0   2250 45.89                              58    0.21 7  122 322 
 622  0E ES   4   2251  0.71                              58   -1.44 7  122 322 
 620  0Z IP   2   2250 51.19                              37    0.65 6  162 319 
 620  0Z ES   4   2251 11.71                              37    1.15 6  162 319 
                                                                                
 2016 1230 1909 41.5 L  72.248 129.663 10.4  SLT 13 0.5 2.0LSLT 2.2CSLT        1
 GAP=269        0.96       3.4    18.7  6.5  0.2814E+02  0.7215E+02  0.2066E+01E
 ACTION:REE 25-08-04 22:04 OP:mn   STATUS:               ID:20161230190840     I
 2016-12-30-1908-40M.arct__039                                                 6
 STAT SP IPHASW D HRMM SECON CODA AMPLIT PERI AZIMU VELO AIN AR TRES W  DIS CAZ7
 630  0Z  IAML    19 9 58.64        21.9 0.21                          49.7 248 
 632  0Z IP   1   19 9 56.07   62                         66   -0.3510 77.9 196 
 632  0E ES   2   1910  6.80                              66   -0.5410 77.9 196 
 632  0Z  IAML    1910  8.71        35.4 0.59                          77.9 196 
 628  0Z IP   0   19 9 57.07                              58    0.1910 87.0 282 
 628  0N ES   0   1910  7.97                              58   -0.1610 87.0 282 
 629  0Z IP   1   19 9 57.98                              58    0.4110 88.2 247 
 629  0N ES   2   1910  9.91                              58    0.5910 88.2 247 
 627  0Z IP   0   19 9 58.10   68                         58   -0.10 9 92.8 262 
 627  0N ES   1   1910 10.16                              58   -0.26 9 92.8 262 
 627  0Z  IAML    1910 11.42        18.2 0.20                          92.8 262 
 624  0Z IP   2   1910  1.63                              48   -0.53 8  117 284 
 624  0N ES   4   1910 16.11                              48   -1.16 8  117 284 
 625  0Z IP   0   1910  3.05                              44    0.15 8  122 268 
 625  0N ES   1   1910 19.01                              44    0.46 8  122 268 
 631  0Z IP   2   1910  4.41   78                         44    0.50 8  127 223 
 631  0E ES   0   1910 20.21                              44   -0.08 8  127 223 
 631  0Z  IAML    1910 21.23        17.9 0.61                           127 223 
 626  0Z IP   2   1910  4.60                              44    0.72 8  131 254 
 626  0N ES   1   1910 20.74                              44    0.49 8  131 254 
 623  0Z IP   0   1910  4.28                              44   -0.19 8  133 276 
 623  0N ES   1   1910 20.97                              44   -0.29 8  133 276 
 622  0Z IP   1   1910  6.04                              37   -0.25 7  149 280 
 622  0N ES   1   1910 23.93                              37   -0.48 7  149 280 
 621  0Z IP   2   1910  8.59                              37    0.73 6  163 270 
 621  0N ES   2   1910 27.82                              37    0.69 6  163 270 
 620  0Z IP   2   1910 10.81                              37    0.55 5  185 287 
                                                                                
 2017  110 0630 47.1 L  72.217 129.792  9.8  SLT 11 0.7 3.2LSLT 2.3CSLT        1
 GAP=272        1.32       5.0    27.2  8.3  0.3699E+02  0.1139E+03 -0.5051E+01E
 ACTION:REE 25-08-04 22:06 OP:mn   STATUS:               ID:20170110062948     I
 2017-01-10-0629-48M.a_____039                                                 6
 STAT SP IPHASW D HRMM SECON CODA AMPLIT PERI AZIMU VELO AIN AR TRES W  DIS CAZ7
 630  0Z IP   2    630 57.75                              66    0.7410 52.6 253 
 632  0Z IP   1    631  1.33                              66   -0.47 9 75.9 200 
 632  0N ES   1    631 12.24                              66   -0.26 9 75.9 200 
 629  0Z IP   1    631  4.09                              58    0.33 8 91.0 251 
 629  0N ES   2    631 16.44                              58    0.55 8 91.0 251 
 627  0Z IP   2 D  631  4.01                              58   -0.56 8 96.7 265 
 627  0N ES   3    631 16.31                              58   -0.99 8 96.7 265 
 627  0Z  IAML     631 57.64       196.6 1.02                          96.7 265 
 624  0Z IP   2    631  8.03                              44   -0.59 7  123 285 
 624  0N ES   4    631 22.80                              44   -1.51 7  123 285 
 625  0Z IP   1    631  9.55                              44    0.32 7  126 270 
 625  0N ES   1    631 25.79                              44    0.44 7  126 270 
 631  0Z IP   2    631  9.24                              44   -0.50 7  127 225 
 631  0N ES   0    631 26.07                              44   -0.16 7  127 225 
 626  0Z IP   4    631 11.08                              44    1.00 7  134 256 
 626  0N ES   3    631 27.69                              44    0.86 7  134 256 
 622  0Z IP   0 D  631 12.51   88                         37   -0.11 6  154 282 
 622  0N ES   2    631 30.66                              37   -0.56 6  154 282 
 622  0Z  IAML     632  1.26       157.4 0.93                           154 282 
 621  0Z IP   2 D  631 14.81   89                         37    0.68 5  167 271 
 621  0N ES   4    631 34.85                              37    1.02 5  167 271 
 621  0Z  IAML     632  3.32       228.3 1.39                           167 271 
 620  0Z IP   2 D  631 17.20  112                         37    0.59 4  190 287 
 620  0N ES   2    631 38.63                              37    0.50 4  190 287 
 620  0Z  IAML     632 24.41       174.3 1.64                           190 287 
                                                                                
 2017  3 4 2135  2.7 L  72.637 124.946 10.3  SLT 11 0.5                        1
 GAP=193        1.06       3.1     7.0  4.4  0.7877E+01 -0.1007E+02  0.1028E+01E
 ACTION:ARG 20-12-21 03:09 OP:mn   STATUS:               ID:20170304213342     I
 2017-03-04-2133-42M.a_____039                                                 6
 STAT SP IPHASW D HRMM SECON CODA AMPLIT PERI AZIMU VELO AIN AR TRES W  DIS CAZ7
 620  0Z IP   0   2135  6.89                             117   -0.1910 20.0 276 
 620  0N ES   1   2135  9.97                             117   -0.3410 20.0 276 
 622  0Z IP   1   2135  8.40                             112    0.3910 25.0 150 
 622  0Z ES   2   2135 12.52                             112    0.6010 25.0 150 
 623  0Z IP   0   2135 11.59                              66    0.2110 44.2 141 
 623  0E ES   0   2135 17.76                              66    0.0110 44.2 141 
 624  0Z IP   0   2135 11.59                              66   -0.2110 48.0 111 
 624  0N ES   1   2135 18.14                              66   -0.3310 48.0 111 
 621  0Z IP   0   2135 12.49                              66    0.0910 50.6 182 
 621  0E ES   0   2135 19.36                              66   -0.1610 50.6 182 
 625  0Z IP   1   2135 15.37                              66    0.49 9 64.8 142 
 625  0N ES   2   2135 23.10                              66   -0.71 9 64.8 142 
 628  0Z IP   1   2135 16.91                              66    0.31 9 78.4 109 
 628  0N ES   1   2135 26.46                              66   -0.31 9 78.4 109 
 626  0Z IP   0   2135 19.31                              58    0.16 8 91.4 156 
 626  0E ES   1   2135 30.76                              58   -0.43 8 91.4 156 
 629  0Z IP   2   2135 23.36                              58    0.66 7  113 133 
 629  0E ES   4   2135 36.05                              58   -1.28 7  113 133 
 630  0Z IP   1   2135 25.40                              44    0.42 7  130 117 
 630  0N ES   0   2135 41.51                              44    0.24 7  130 117 
 631  0Z IP   1   2135 29.38                              37    0.41 6  159 149 
 631  0N ES   2   2135 48.84                              37    0.66 6  159 149 
                                                                                
 2017  3 7 0447 20.6 L  72.651 124.974  9.9  SLT 12 0.5                        1
 GAP=199        1.16       3.4     8.7  3.4  0.7479E+01 -0.1744E+02  0.9536E+00E
 ACTION:ARG 20-12-21 03:09 OP:mn   STATUS:               ID:20170307044601     I
 2017-03-07-0446-01M.a_____039                                                 6
 STAT SP IPHASW D HRMM SECON CODA AMPLIT PERI AZIMU VELO AIN AR TRES W  DIS CAZ7
 620  0Z IP   0    447 25.09                             115   -0.0310 20.9 271 
 620  0N ES   0    447 28.21                             115   -0.2110 20.9 271 
 622  0Z IP   1    447 26.58                             110    0.4910 25.9 154 
 622  0N ES   2    447 30.76                             110    0.6610 25.9 154 
 623  0Z IP   1    447 29.77                              66    0.3010 44.9 144 
 623  0E ES   0    447 36.14                              66    0.1810 44.9 144 
 624  0Z IP   0    447 29.62                              66   -0.1110 47.7 114 
 624  0E ES   0    447 36.27                              66   -0.1310 47.7 114 
 621  0Z IP   0    447 30.66                              66    0.0010 52.2 183 
 621  0E ES   2    447 37.40                              66   -0.6110 52.2 183 
 625  0Z IP   2    447 33.65                              66    0.67 9 65.5 144 
 625  0N ES   2    447 41.29                              66   -0.73 9 65.5 144 
 628  0Z IP   0    447 34.27                              66   -0.24 9 78.1 110 
 628  0N ES   2    447 44.02                              66   -0.65 9 78.1 110 
 627  0Z IP   1    447 36.61                              58   -0.38 8 90.3 130 
 627  0N ES   1    447 48.59                              58   -0.37 8 90.3 130 
 626  0Z IP   0    447 37.35                              58    0.04 8 92.5 157 
 626  0E ES   1    447 49.14                              58   -0.37 8 92.5 157 
 630  0Z IP   1    447 42.58                              44   -0.39 7  130 118 
 630  0N ES   1    447 59.57                              44    0.27 7  130 118 
 631  0Z IP   1    447 47.46                              37    0.38 6  160 150 
 631  0N ES   2    448  7.08                              37    0.66 6  160 150 
 632  0Z IP   3    447 50.90                              37    0.87 5  185 129 
 632  0N ES   4    448 13.79                              37    2.27 5  185 129 
                                                                                
 2017  313 0553 59.1 L  72.644 124.944  9.6  SLT 12 0.6                        1
 GAP=196        1.30       3.8     9.6  3.8  0.9741E+01 -0.2080E+02  0.1429E+01E
 ACTION:ARG 20-12-21 03:09 OP:mn   STATUS:               ID:20170313055233     I
 2017-03-13-0552-33M.a_____039                                                 6
 STAT SP IPHASW D HRMM SECON CODA AMPLIT PERI AZIMU VELO AIN AR TRES W  DIS CAZ7
 620  0Z IP   0    554  3.30                             115   -0.1110 19.9 274 
 620  0N ES   0    554  6.35                             115   -0.2310 19.9 274 
 622  0Z IP   1    554  4.92                             110    0.4310 25.6 151 
 622  0E ES   3    554  9.27                             110    0.8210 25.6 151 
 623  0Z IP   1    554  8.38                              66    0.4210 44.8 142 
 623  0E ES   0    554 14.44                              66   -0.0110 44.8 142 
 624  0Z IP   1    554  8.01                              66   -0.3210 48.3 112 
 624  0N ES   0    554 15.14                              66    0.0510 48.3 112 
 621  0Z IP   0    554  8.87                              66   -0.1410 51.3 182 
 621  0E ES   1    554 15.88                              66   -0.3810 51.3 182 
 625  0Z IP   3    554 12.43                              66    0.96 9 65.4 143 
 625  0E ES   2    554 19.90                              66   -0.61 9 65.4 143 
 628  0Z IP   2    554 12.54                              66   -0.58 9 78.7 109 
 628  0N ES   2    554 22.67                              66   -0.71 9 78.7 109 
 627  0Z IP   1    554 15.10                              58   -0.43 8 90.5 129 
 627  0N ES   2    554 26.94                              58   -0.61 8 90.5 129 
 626  0Z IP   1    554 16.01                              58    0.25 8 92.1 156 
 626  0E ES   2    554 27.31                              58   -0.63 8 92.1 156 
 630  0Z IP   1    554 21.29                              44   -0.26 7  131 117 
 630  0E ES   3    554 38.85                              44    0.89 7  131 117 
 631  0Z IP   1    554 25.93                              37    0.35 6  160 149 
 631  0N ES   1    554 45.42                              37    0.49 6  160 149 
 632  0Z IP   3    554 29.51                              37    0.93 5  185 128 
 632  0N ES   4    554 52.08                              37    1.96 5  185 128 
                                                                                
 2017  313 0809  5.1 L  72.445 125.096  8.9  SLT 13 0.6                        1
 GAP=131        1.26       2.4     6.8  2.4  0.3786E+01 -0.2164E+01  0.1123E+01E
 ACTION:ARG 20-12-21 03:09 OP:mn   STATUS:               ID:20170313080741     I
 2017-03-13-0807-41M.a_____039                                                 6
 STAT SP IPHASW D HRMM SECON CODA AMPLIT PERI AZIMU VELO AIN AR TRES W  DIS CAZ7
 622  0Z IP   1    8 9  7.76                             140    0.2510 7.31  92 
 622  0N ES   0    8 9  9.32                             140    0.0510 7.31  92 
 623  0Z IP   0    8 9 10.65                             108    0.0510 26.0 120 
 623  0N ES   1    8 9 14.89                             108    0.2810 26.0 120 
 621  0Z IP   0    8 9 11.42                             107    0.2110 29.9 194 
 621  0N ES   1    8 9 15.96                             107    0.2910 29.9 194 
 620  0Z IP   0    8 9 11.73                             104   -0.2410 34.3 313 
 620  0E ES   0    8 9 16.77                             104   -0.2210 34.3 313 
 624  0Z IP   0    8 9 12.86                             102   -0.0210 39.8  84 
 624  0E ES   1    8 9 18.19                             102   -0.3610 39.8  84 
 625  0Z IP   1    8 9 13.81                             101   -0.3210 45.7 131 
 625  0E ES   1    8 9 20.38                             101   -0.3410 45.7 131 
 628  0Z IP   0    8 9 17.50                              66   -0.09 9 69.3  93 
 628  0N ES   0    8 9 26.57                              66   -0.13 9 69.3  93 
 626  0Z IP   1    8 9 17.81                              66   -0.25 9 69.9 152 
 626  0E ES   3    8 9 26.75                              66   -0.75 9 69.9 152 
 627  0Z IP   0    8 9 18.62                              66   -0.14 9 73.8 119 
 627  0E ES   1    8 9 28.34                              66   -0.38 9 73.8 119 
 629  0Z IP   3    8 9 23.22                              58    0.75 8 95.1 126 
 629  0E ES   0    8 9 35.02                              58   -0.12 8 95.1 126 
 630  0Z IP   0    8 9 25.92                              48    0.06 7  117 109 
 630  0N ES   4    8 9 42.64                              48    1.64 7  117 109 
 631  0Z IP   1    8 9 29.68                              40    0.41 6  138 146 
 631  0E ES   4    8 9 45.58                              40   -1.33 6  138 146 
 632  0Z IP   4    8 9 34.08                              37    1.30 5  168 123 
 632  0N ES   4    8 9 54.84                              37    1.86 5  168 123 
                                                                                
