 2017  418 1500 13.6 L  72.698 124.677 14.3  SLT 10 0.5                        1
 GAP=225        1.00       5.0    10.1  3.0  0.2157E+02 -0.1776E+02 -0.2623E+01E
 ACTION:UP  20-12-29 20:35 OP:elen STATUS:               ID:20170418150000     I
 OLDACT:REG 20-12-27 21:06 OP:elen STATUS:               ID:20170418150000     3
 2017-04-18-1500-00M.NSN___039                                                 6
 STAT SP IPHASW D HRMM SECON CODA AMPLIT PERI AZIMU VELO AIN AR TRES W  DIS CAZ7
 620  0Z IP   0   15 0 17.03                             136   -0.1610 12.0 246 
 620  0E ES   1   15 0 20.16                             136    0.3510 12.0 246 
 622  0Z IP   0   15 0 20.78                             104   -0.1110 35.6 143 
 622  0E ES   1   15 0 26.67                             104    0.4610 35.6 143 
 623  0Z IP   1   15 0 23.88                              97   -0.3810 55.2 138 
 623  0N ES   0   15 0 32.00                              97   -0.0510 55.2 138 
 624  0Z IP   1   15 0 24.31                              96   -0.3510 58.9 114 
 624  0N ES   1   15 0 33.06                              96    0.3310 58.9 114 
 628  0Z IP   1   15 0 28.79                              68   -0.32 8 89.1 111 
 628  0N ES   0   15 0 40.61                              68    0.18 8 89.1 111 
 627  0Z IP   2   15 0 32.05                              68    0.60 8  101 129 
 627  0N ES   0   15 0 44.24                              68   -0.24 8  101 129 
 626  0Z IP   3   15 0 30.69                              68   -0.77 8  102 152 
 626  0E ES   2   15 0 43.85                              68   -0.65 8  102 152 
 629  0Z IP   0   15 0 34.77                              50   -0.00 7  124 133 
 629  0N ES   0   15 0 50.10                              50   -0.13 7  124 133 
 630  0Z IP   0   15 0 36.65                              41   -0.11 6  141 118 
 630  0N ES   3   15 0 54.59                              41    0.92 6  141 118 
 631  0Z IP   0   15 0 40.50                              41   -0.09 5  170 147 
 631  0E ES   4   15 1  1.79                              41    1.49 5  170 147 
                                                                                
 2017  423 2313 41.6 L  72.562 124.853 17.9  SLT 12 0.4                        1
 GAP=159        0.87       2.4     6.7  2.9  0.5940E+01 -0.5849E+01  0.9463E+00E
 ACTION:UP  21-01-01 14:08 OP:elen STATUS:               ID:20170423231216     I
 OLDACT:REG 20-12-30 23:59 OP:elen STATUS:               ID:20170423231216     3
 2017-04-23-2312-16M.NSN___036                                                 6
 STAT SP IPHASW D HRMM SECON CODA AMPLIT PERI AZIMU VELO AIN AR TRES W  DIS CAZ7
 620  0Z IP   0   2313 46.51                             123   -0.0710 19.7 301 
 620  0E ES   0   2313 50.11                             123   -0.1110 19.7 301 
 622  0Z IP   1   2313 47.03                             122    0.2710 20.5 131 
 622  0E ES   3   2313 51.34                             122    0.8110 20.5 131 
 623  0Z IP   0   2313 49.75                              96   -0.0810 40.4 130 
 623  0E ES   0   2313 55.83                              96   -0.0110 40.4 130 
 621  0Z IP   0   2313 50.25                              96    0.2010 42.2 178 
 621  0E ES   0   2313 56.13                              96   -0.0910 42.2 178 
 624  0Z IP   0   2313 50.78                              94   -0.1410 48.7 101 
 624  0E ES   0   2313 57.64                              94   -0.0810 48.7 101 
 625  0Z IP   0   2313 53.24                              92    0.2310 60.6 135 
 625  0N ES   1   2314  0.98                              92   -0.3510 60.6 135 
 628  0Z IP   1   2313 55.01                              91   -0.34 9 79.2 102 
 628  0N ES   0   2314  5.37                              91   -0.02 9 79.2 102 
 626  0Z IP   1   2313 56.46                              91   -0.25 9 85.4 151 
 626  0E ES   1   2314  7.25                              91   -0.48 9 85.4 151 
 627  0Z IP   0   2313 57.00                              91   -0.09 8 87.6 124 
 627  0E ES   1   2314  8.15                              91   -0.25 8 87.6 124 
 629  0Z IP   0   2314  0.29                              61   -0.20 8  110 129 
 629  0E ES   2   2314 13.64                              61   -0.64 8  110 129 
 630  0Z IP   1   2314  3.31                              50    0.35 7  130 113 
 630  0N ES   3   2314 19.32                              50    0.77 7  130 113 
 631  0Z IP   0   2314  6.52                              45    0.18 6  154 146 
 631  0E ES   4   2314 25.55                              45    1.16 6  154 146 
                                                                                
 2017  425 0652 22.2 L  71.945 128.020 10.4  SLT  9 0.3 1.5LSLT 1.8CSLT        1
 GAP=169        0.77       1.5     6.1  2.3 -0.1615E+01  0.7320E+01 -0.2342E+00E
 ACTION:REE 25-08-04 22:18 OP:mn   STATUS:               ID:20170425065114     I
 OLDACT:REG 20-12-31 19:06 OP:elen STATUS:               ID:20170425065114     3
 2017-04-25-0651-14M.NSN___027                                                 6
 STAT SP IPHASW D HRMM SECON CODA AMPLIT PERI AZIMU VELO AIN AR TRES W  DIS CAZ7
 630  0Z IP   0    652 26.18   85                        120    0.1110 17.9  36 
 630  0E ES   0    652 28.80                             120   -0.0710 17.9  36 
 630  0E  IAML     652 29.11       220.3 0.20                          17.9  36 
 629  0Z IP   0    652 27.55   63                        112    0.2110 24.5 266 
 629  0N ES   0    652 31.16                             112    0.0910 24.5 266 
 629  0E  IAML     652 31.82        95.0 0.25                          24.5 266 
 627  0Z IP   0    652 30.04   64                         66    0.0210 40.6 299 
 627  0N ES   0    652 35.52                              66   -0.1910 40.6 299 
 627  0E  IAML     652 38.27        30.9 0.53                          40.6 299 
 628  0Z IP   0    652 32.83   74                         66    0.0410 58.9 330 
 628  0N ES   0    652 40.31                              66   -0.2010 58.9 330 
 628  0N  IAML     652 47.06        11.6 0.14                          58.9 330 
 631  0Z IP   0    652 35.05   90                         66   -0.04 9 66.7 204 
 631  0N ES   1    652 44.17                              66   -0.32 9 66.7 204 
 631  0N  IAML     652 44.52        10.0 0.33                          66.7 204 
 625  0Z IP   0    652 35.26   67                         66   -0.19 9 70.6 292 
 625  0N ES   2    652 44.57                              66   -0.53 9 70.6 292 
 625  0N  IAML     652 48.33         6.8 0.40                          70.6 292 
 624  0Z IP   0    652 37.49   63                         66   -0.12 9 84.0 316 
 624  0N ES   1    652 48.42                              66   -0.41 9 84.0 316 
 624  0N  IAML     652 50.56        18.4 0.21                          84.0 316 
 623  0Z IP   2    652 39.13   64                         58    0.56 8 88.3 300 
 623  0E ES   3    652 51.26                              58    0.77 8 88.3 300 
 623  0N  IAML     652 57.27         5.5 0.26                          88.3 300 
 621  0Z IP   1    652 42.42   59                         58    0.31 8  111 285 
 621  0N ES   1    652 56.94                              58    0.31 8  111 285 
 621  0E  IAML     653  0.65         5.5 0.17                           111 285 
                                                                                
 2017  426 1425 20.4 L  72.065 127.219 23.5  SLT  6 0.3 0.4LSLT 0.6CSLT        1
 GAP=120        0.80       2.5     6.3  4.2  0.6363E+01 -0.3925E+01 -0.4928E+01E
 ACTION:REE 25-08-04 22:19 OP:mn   STATUS:               ID:20170426142409     I
 OLDACT:REG 21-01-02 11:34 OP:elen STATUS:               ID:20170426142409     3
 2017-04-26-1424-09M.NSN___024                                                 6
 STAT SP IPHASW D HRMM SECON CODA AMPLIT PERI AZIMU VELO AIN AR TRES W  DIS CAZ7
 627  0Z IP   1   1425 25.19   24                        155    0.3110 9.97 305 
 627  0N ES   0   1425 28.15                             155    0.0110 9.97 305 
 627  0N  IAML    1425 28.30         9.4 0.08                          9.97 305 
 629  0Z IP   1   1425 25.70   24                        143    0.2510 15.5 168 
 629  0N ES   0   1425 29.01                             143   -0.1010 15.5 168 
 629  0E  IAML    1425 29.36         1.7 0.10                          15.5 168 
 628  0Z IP   1   1425 28.19   21                        114    0.4410 37.4 356 
 628  0N ES   0   1425 33.32                             114    0.2210 37.4 356 
 628  0N  IAML    1425 33.55         1.7 0.10                          37.4 356 
 630  0Z IP   0   1425 28.22   24                        114    0.0310 38.0  88 
 630  0N ES   1   1425 33.37                             114   -0.4810 38.0  88 
 630  0N  IAML    1425 33.67         4.8 0.16                          38.0  88 
 625  0Z IP   0   1425 28.87   22                        112    0.1010 40.0 288 
 625  0N ES   1   1425 34.49                             112   -0.3610 40.0 288 
 625  0N  IAML    1425 35.27         1.7 0.23                          40.0 288 
 624  0Z IP   0   1425 31.08   24                        103    0.0410 55.9 325 
 624  0N ES   1   1425 38.30                             103   -0.4910 55.9 325 
 624  0E  IAML    1425 38.99         1.1 0.28                          55.9 325 
                                                                                
 2017  426 1840 43.1 L  72.258 126.326 20.9  SLT  8 0.3 1.6LSLT 2.0CSLT        1
 GAP= 95        0.70       1.6     4.1  2.5  0.4567E+00 -0.1325E+01  0.1344E+01E
 ACTION:REE 25-08-04 22:19 OP:mn   STATUS:               ID:20170426183923     I
 OLDACT:REG 21-01-02 11:44 OP:elen STATUS:               ID:20170426183923     3
 2017-04-26-1839-23M.NSN___024                                                 6
 STAT SP IPHASW D HRMM SECON CODA AMPLIT PERI AZIMU VELO AIN AR TRES W  DIS CAZ7
 625  0Z IP   1   1840 47.88   74                        146    0.2510 11.9 219 
 625  0N ES   0   1840 50.73                             146   -0.1810 11.9 219 
 625  0E  IAML    1840 51.37       213.3 0.52                          11.9 219 
 624  0Z IP   0   1840 48.98   77                        123    0.0810 24.4 356 
 624  0N ES   1   1840 52.65                             123   -0.4510 24.4 356 
 624  0N  IAML    1840 52.83       190.5 0.14                          24.4 356 
 627  0Z IP   1   1840 49.51   82                        119    0.2710 27.4 125 
 627  0N ES   0   1840 53.59                             119   -0.0910 27.4 125 
 627  0N  IAML    1840 53.89        27.0 0.10                          27.4 125 
 628  0Z IP   1   1840 49.87   85                        114    0.3610 32.0  60 
 628  0N ES   0   1840 54.20                             114    0.0410 32.0  60 
 628  0N  IAML    1840 54.73        51.7 0.14                          32.0  60 
 621  0Z IP   0   1840 53.08   83                        101    0.2310 49.7 261 
 621  0N ES   0   1840 59.75                             101   -0.1810 49.7 261 
 621  0N  IAML    1841  0.04        20.1 0.21                          49.7 261 
 629  0Z IP   1   1840 53.07   83                        101    0.3210 49.9 137 
 629  0E ES   0   1840 59.71                             101   -0.0610 49.9 137 
 629  0E  IAML    1841  0.14        14.2 0.26                          49.9 137 
 630  0Z IP   0   1840 56.07   88                         96    0.06 9 71.3 106 
 630  0E ES   1   1841  4.95                              96   -0.44 9 71.3 106 
 630  0N  IAML    1841  8.11         4.4 0.16                          71.3 106 
 631  0Z IP   0   1841  1.10   83                         61    0.03 8  101 161 
 631  0N ES   1   1841 13.69                              61   -0.47 8  101 161 
 631  0E  IAML    1841 13.87        16.2 0.28                           101 161 
                                                                                
 2017  427 0912 27.6 L  72.043 127.798 16.0  SLT  8 0.2 1.3LSLT 1.6CSLT        1
 GAP=117        0.61       1.2     4.2  1.7  0.6501E+00  0.3095E+01  0.1083E+00E
 ACTION:REE 25-08-04 22:19 OP:mn   STATUS:               ID:20170427091104     I
 OLDACT:REG 21-01-02 12:22 OP:elen STATUS:               ID:20170427091104     3
 2017-04-27-0911-04M.NSN___024                                                 6
 STAT SP IPHASW D HRMM SECON CODA AMPLIT PERI AZIMU VELO AIN AR TRES W  DIS CAZ7
 630  0Z IP   0    912 32.08   60                        127    0.1310 18.5  79 
 630  0N ES   1    912 34.82                             127   -0.3310 18.5  79 
 630  0E  IAML     912 35.23        75.2 0.16                          18.5  79 
 629  0Z IP   1    912 32.72   51                        123    0.2610 21.0 233 
 629  0N ES   0    912 35.92                             123   -0.1210 21.0 233 
 629  0N  IAML     912 36.29        59.7 0.32                          21.0 233 
 627  0Z IP   1    912 33.91   56                        113    0.2810 29.2 287 
 627  0N ES   0    912 37.96                             113   -0.0910 29.2 287 
 627  0N  IAML     912 38.62        15.6 0.11                          29.2 287 
 628  0Z IP   0    912 36.13   59                        102    0.1910 45.6 331 
 628  0E ES   0    912 41.83                             102   -0.2210 45.6 331 
 628  0N  IAML     912 43.71        13.3 0.10                          45.6 331 
 625  0Z IP   0    912 38.95   47                         68    0.0510 59.8 285 
 625  0N ES   1    912 46.75                              68   -0.4210 59.8 285 
 625  0E  IAML     912 48.75         5.0 0.38                          59.8 285 
 624  0Z IP   1    912 40.79   55                         68    0.29 9 70.9 314 
 624  0N ES   0    912 49.90                              68   -0.04 9 70.9 314 
 624  0E  IAML     912 52.51         7.8 0.24                          70.9 314 
 631  0Z IP   0    912 41.71   65                         68    0.15 9 74.4 195 
 631  0E ES   1    912 51.50                              68   -0.28 9 74.4 195 
 631  0N  IAML     912 56.09         4.4 0.17                          74.4 195 
 621  0Z IP   1    912 45.77   63                         68    0.27 8  101 280 
 621  0N ES   0    912 58.51                              68   -0.08 8  101 280 
 621  0E  IAML     913  4.61         3.4 0.11                           101 280 
                                                                                
