 2016 1117 0337  1.1 L  72.701 124.976  8.5  SLT 13 0.5 2.1LSLT 1.8CSLT        1
 GAP=217        1.02       3.5     7.5  3.1  0.5091E+01 -0.1357E+02  0.5720E+00E
 ACTION:REE 25-08-04 21:57 OP:mn   STATUS:               ID:20161117033653     I
 2016-11-17-0336-53M.arct__039                                                 6
 STAT SP IPHASW D HRMM SECON CODA AMPLIT PERI AZIMU VELO AIN AR TRES W  DIS CAZ7
 620  0Z IP   0    337  5.70                             111    0.0410 21.5 256 
 620  0N ES   0    337  8.90                             111   -0.0710 21.5 256 
 622  0Z IP   1    337  7.74                             105    0.3010 31.0 159 
 623  0Z IP   0    337 10.76                              99   -0.1310 49.4 147 
 623  0E ES   1    337 18.44                              99    0.4210 49.4 147 
 624  0Z IP   0    337 10.92   66                         66    0.1410 50.1 119 
 624  0E ES   1    337 18.10                              66    0.2710 50.1 119 
 624  0Z  IAML     337 18.92        55.9 0.17                          50.1 119 
 621  0Z IP   0    337 12.08   68                         66   -0.1710 57.7 183 
 621  0N ES   0    337 20.43                              66    0.0610 57.7 183 
 621  0Z  IAML     337 22.58        42.2 0.97                          57.7 183 
 625  0Z IP   0    337 14.18                              66   -0.21 9 70.0 146 
 625  0E ES   1    337 23.73                              66   -0.35 9 70.0 146 
 628  0Z IP   0    337 15.26   67                         66   -0.23 9 80.1 114 
 628  0N ES   0    337 26.02                              66    0.04 9 80.1 114 
 628  0Z  IAML     337 26.36        44.0 0.48                          80.1 114 
 627  0Z IP   1    337 18.53                              58    0.29 8 93.9 133 
 627  0N ES   2    337 30.05                              58   -0.69 8 93.9 133 
 626  0Z IP   0    337 18.79   68                         58   -0.00 8 97.6 158 
 626  0N ES   1    337 31.97                              58    0.28 8 97.6 158 
 626  0Z  IAML     337 31.98        32.2 0.35                          97.6 158 
 629  0Z IP   2    337 21.53                              48   -0.50 7  117 136 
 629  0N ES   4    337 35.85                              48   -1.44 7  117 136 
 630  0Z IP   1    337 23.74   66                         44   -0.29 7  133 120 
 630  0N ES   1    337 41.06                              44    0.31 7  133 120 
 630  0Z  IAML     337 42.82        77.8 0.39                           133 120 
 631  0Z IP   1    337 28.67                              37    0.31 5  165 151 
 631  0N ES   3    337 49.09                              37    0.85 5  165 151 
 632  0Z IP   3    337 31.99                              37    0.83 4  188 130 
 632  0N ES   4    337 54.99                              37    1.90 4  188 130 
                                                                                
 2016 1124 2250 45.9 L  72.689 124.997  8.4  SLT 13 0.5                        1
 GAP=213        1.15       3.5     7.2  2.7  0.7261E+01 -0.6677E+01  0.1082E+00E
 ACTION:REG 18-11-20 00:07 OP:art  STATUS:               ID:20161124224841     I
 2016-11-24-2248-41M.arct__039                                                 6
 STAT SP IPHASW D HRMM SECON CODA AMPLIT PERI AZIMU VELO AIN AR TRES W  DIS CAZ7
 620  0Z IP   0   2250 50.52                             110   -0.0110 21.9 260 
 620  0N ES   0   2250 53.88                             110   -0.0110 21.9 260 
 622  0Z IP   2   2250 52.65                             105    0.6910 29.5 159 
 622  0N ES   2   2250 57.01                             105    0.6410 29.5 159 
 623  0Z IP   0   2250 55.22                             100   -0.1810 47.9 147 
 623  0N ES   1   2251  2.63                             100    0.3010 47.9 147 
 624  0Z IP   1   2250 55.66                             100    0.3110 48.9 118 
 624  0N ES   1   2251  2.67                             100    0.4410 48.9 118 
 621  0Z IP   0   2250 56.85                              66    0.0210 56.4 184 
 621  0E ES   1   2251  4.33                              66   -0.4610 56.4 184 
 625  0Z IP   1   2250 58.49                              66   -0.44 9 68.5 146 
 625  0N ES   1   2251  8.14                              66   -0.29 9 68.5 146 
 628  0Z IP   1   2250 59.80                              66   -0.29 9 78.9 113 
 628  0N ES   1   2251 10.06                              66   -0.37 9 78.9 113 
 627  0Z IP   1   2251  2.50                              58   -0.32 8 92.5 133 
 627  0N ES   3   2251 14.39                              58   -0.76 8 92.5 133 
 626  0Z IP   0   2251  3.33                              58   -0.02 8 96.0 158 
 626  0Z ES   0   2251 16.02                              58   -0.06 8 96.0 158 
 629  0Z IP   1   2251  6.20                              58   -0.41 7  116 136 
 629  0N ES   4   2251 20.52                              58   -1.20 7  116 136 
 630  0Z IP   1   2251  8.39                              44   -0.28 7  132 120 
 630  0Z ES   2   2251 25.77                              44    0.50 7  132 120 
 631  0Z IP   1   2251 13.33                              37    0.34 5  163 151 
 631  0N ES   4   2251 33.82                              37    1.06 5  163 151 
 632  0Z IP   3   2251 16.75                              37    0.94 5  187 130 
 632  0N ES   4   2251 39.33                              37    1.70 5  187 130 
                                                                                
 2016 1124 2302 57.5 L  72.702 124.978  9.2  SLT 13 0.6 2.1LSLT 1.9CSLT        1
 GAP=218        1.14       3.8     9.1  3.5  0.5924E+01 -0.2075E+02  0.1006E+00E
 ACTION:REE 25-08-04 21:59 OP:mn   STATUS:               ID:20161124230145     I
 2016-11-24-2301-45M.arct__039                                                 6
 STAT SP IPHASW D HRMM SECON CODA AMPLIT PERI AZIMU VELO AIN AR TRES W  DIS CAZ7
 620  0Z IP   0   23 3  2.24                             112    0.1110 21.7 256 
 620  0N ES   0   23 3  5.52                             112    0.0210 21.7 256 
 622  0Z IP   1   23 3  4.25                             106    0.3410 31.1 159 
 622  0E ES   1   23 3  8.88                             106    0.3110 31.1 159 
 623  0Z IP   0   23 3  7.23                              66   -0.0210 49.5 148 
 623  0N ES   1   23 3 14.72                              66    0.3610 49.5 148 
 624  0Z IP   0   23 3  7.34   65                         66    0.2110 50.2 120 
 624  0E ES   1   23 3 14.42                              66    0.2810 50.2 120 
 624  0Z  IAML    23 3 14.65        66.2 0.44                          50.2 120 
 621  0Z IP   0   23 3  8.68   60                         66    0.0510 57.9 183 
 621  0E ES   2   23 3 16.23                              66   -0.5010 57.9 183 
 621  0Z  IAML    23 3 19.33        53.8 0.60                          57.9 183 
 625  0Z IP   0   23 3 10.60                              66   -0.15 9 70.2 147 
 628  0Z IP   0   23 3 11.59                              66   -0.24 9 80.1 114 
 628  0N ES   2   23 3 21.64                              66   -0.64 9 80.1 114 
 627  0Z IP   1   23 3 14.21                              58   -0.37 8 94.0 133 
 627  0N ES   3   23 3 26.24                              58   -0.79 8 94.0 133 
 626  0Z IP   0   23 3 15.22   86                         58    0.08 8 97.7 158 
 626  0E ES   0   23 3 28.20                              58    0.20 8 97.7 158 
 626  0Z  IAML    23 3 28.45        34.5 0.47                          97.7 158 
 629  0Z IP   1   23 3 17.92                              48   -0.43 7  117 136 
 629  0N ES   4   23 3 32.05                              48   -1.50 7  117 136 
 630  0Z IP   0   23 3 20.19   73                         44   -0.14 7  133 120 
 630  0E ES   3   23 3 37.94                              44    0.96 7  133 120 
 630  0Z  IAML    23 3 39.21        83.6 0.32                           133 120 
 631  0Z IP   1   23 3 25.15                              37    0.49 5  165 151 
 631  0N ES   3   23 3 45.23                              37    0.76 5  165 151 
 632  0Z IP   3   23 3 28.44                              37    0.99 4  188 130 
 632  0N ES   4   23 3 50.95                              37    1.65 4  188 130 
                                                                                
 2016 1124 2316 14.0 L  72.681 124.983  9.1  SLT 12 0.5 1.9LSLT 1.9CSLT        1
 GAP=210        1.10       3.5     8.5  3.3  0.6130E+01 -0.1752E+02  0.3267E+00E
 ACTION:REE 25-08-04 21:59 OP:mn   STATUS:               ID:20161124231448     I
 2016-11-24-2314-48M.arct__039                                                 6
 STAT SP IPHASW D HRMM SECON CODA AMPLIT PERI AZIMU VELO AIN AR TRES W  DIS CAZ7
 620  0Z IP   0   2316 18.56                             112   -0.0210 21.3 262 
 620  0N ES   0   2316 21.82                             112   -0.0810 21.3 262 
 622  0Z IP   1   2316 20.47                             107    0.4810 28.8 157 
 622  0N ES   1   2316 24.79                             107    0.4410 28.8 157 
 624  0Z IP   0   2316 23.59   67                         66    0.1610 48.9 117 
 624  0E ES   1   2316 30.60                              66    0.3210 48.9 117 
 624  0Z  IAML    2316 30.90        59.3 0.25                          48.9 117 
 621  0Z IP   0   2316 24.77   89                         66    0.0410 55.5 183 
 621  0N ES   0   2316 32.50                              66   -0.0410 55.5 183 
 621  0Z  IAML    2316 35.59        32.5 0.61                          55.5 183 
 625  0Z IP   0   2316 27.00                              66    0.09 9 68.1 146 
 625  0E ES   2   2316 35.74                              66   -0.58 9 68.1 146 
 628  0Z IP   1   2316 27.87                              66   -0.30 9 79.0 112 
 628  0N ES   1   2316 38.01                              66   -0.47 9 79.0 112 
 627  0Z IP   0   2316 31.03                              58    0.21 8 92.3 132 
 627  0E ES   2   2316 42.37                              58   -0.71 8 92.3 132 
 626  0Z IP   0   2316 31.28   70                         58   -0.02 8 95.4 157 
 626  0E ES   0   2316 43.70                              58   -0.20 8 95.4 157 
 626  0Z  IAML    2316 44.70        17.6 0.47                          95.4 157 
 629  0Z IP   1   2316 34.21                              58   -0.40 7  115 136 
 629  0N ES   4   2316 48.44                              58   -1.19 7  115 136 
 630  0Z IP   1   2316 36.36   66                         44   -0.32 7  132 119 
 630  0N ES   1   2316 53.62                              44    0.40 7  132 119 
 630  0Z  IAML    2316 55.52        52.5 0.35                           132 119 
 631  0Z IP   2   2316 41.48                              37    0.54 5  163 150 
 631  0N ES   3   2317  1.49                              37    0.90 5  163 150 
 632  0Z IP   3   2316 44.76                              37    0.97 5  187 129 
 632  0N ES   4   2317  7.56                              37    2.04 5  187 129 
                                                                                
 2016 1125 0156 33.9 L  72.692 124.993  7.3  SLT  9 0.5                        1
 GAP=214        1.22       4.2     8.2  3.8  0.9794E+01 -0.1465E+02 -0.2014E+01E
 ACTION:REG 18-11-20 15:40 OP:art  STATUS:               ID:20161125015508     I
 2016-11-25-0155-08M.arct__039                                                 6
 STAT SP IPHASW D HRMM SECON CODA AMPLIT PERI AZIMU VELO AIN AR TRES W  DIS CAZ7
 620  0Z IP   0    156 38.27                             108   -0.1810 21.9 259 
 620  0N ES   0    156 41.96                             108    0.2110 21.9 259 
 623  0Z IP   0    156 43.61                              98    0.1710 48.2 147 
 623  0N ES   3    156 51.35                              98    0.9710 48.2 147 
 624  0Z IP   0    156 43.50                              98    0.1310 49.1 119 
 624  0E ES   0    156 50.11                              98   -0.1510 49.1 119 
 621  0Z IP   1    156 44.59                              97   -0.3510 56.7 184 
 621  0E ES   2    156 52.31                              97   -0.6710 56.7 184 
 628  0Z IP   2    156 47.68                              66   -0.54 9 79.1 113 
 628  0N ES   2    156 58.01                              66   -0.65 9 79.1 113 
 626  0Z IP   0    156 51.76                              58    0.23 8 96.4 158 
 626  0E ES   2    157  3.75                              58   -0.62 8 96.4 158 
 629  0Z IP   0    156 54.73                              58   -0.05 7  116 136 
 629  0N ES   4    157 11.17                              58    1.16 7  116 136 
 630  0Z IP   1    156 57.14                              44    0.28 7  132 120 
 630  0N ES   1    157 13.21                              44   -0.39 7  132 120 
 631  0Z IP   2    157  1.82                              37    0.61 5  164 151 
 631  0N ES   3    157 21.99                              37    0.86 5  164 151 
                                                                                
 2016 1125 0619  0.4 L  72.699 124.990 10.5  SLT 13 0.5 2.8LSLT 1.8CSLT        1
 GAP=217        1.09       3.5     7.1  4.0  0.6925E+01 -0.1049E+02 -0.1280E+01E
 ACTION:REE 25-08-04 22:00 OP:mn   STATUS:               ID:20161125061718     I
 2016-11-25-0617-18M.arct__039                                                 6
 STAT SP IPHASW D HRMM SECON CODA AMPLIT PERI AZIMU VELO AIN AR TRES W  DIS CAZ7
 620  0Z IP   0    619  5.16   64                         99   -0.0310 22.0 257 
 620  0N ES   0    619  8.47                              99   -0.1910 22.0 257 
 620  0Z  IAML     619  9.38      1098.9 0.59                          22.0 257 
 622  0Z IP   0    619  6.92                              91    0.1510 30.7 159 
 622  0N ES   1    619 11.74                              91    0.3410 30.7 159 
 623  0Z IP   0    619  9.91                              90   -0.0710 49.0 148 
 623  0N ES   1    619 17.29                              90    0.3310 49.0 148 
 624  0Z IP   1    619 10.20   71                         90    0.3410 49.6 119 
 624  0E ES   2    619 17.31                              90    0.5710 49.6 119 
 624  0Z  IAML     619 17.37       482.5 0.57                          49.6 119 
 621  0Z IP   1    619 11.63   67                         90    0.2510 57.6 183 
 621  0N ES   0    619 19.55                              90    0.1710 57.6 183 
 621  0Z  IAML     619 22.77       387.8 1.17                          57.6 183 
 625  0Z IP   1    619 13.16                              90   -0.32 9 69.6 147 
 625  0E ES   2    619 22.51                              90   -0.50 9 69.6 147 
 628  0Z IP   0    619 14.43                              90   -0.13 9 79.6 114 
 628  0N ES   2    619 24.35                              90   -0.53 9 79.6 114 
 627  0Z IP   0    619 17.11                              68   -0.16 8 93.5 133 
 627  0N ES   2    619 28.99                              68   -0.58 8 93.5 133 
 626  0Z IP   0    619 17.82   66                         68   -0.03 8 97.2 158 
 626  0E ES   2    619 29.99                              68   -0.57 8 97.2 158 
 626  0Z  IAML     619 31.33       173.9 0.37                          97.2 158 
 629  0Z IP   1    619 20.53                              54   -0.49 7  117 136 
 629  0N ES   4    619 34.93                              54   -1.12 7  117 136 
 630  0Z IP   0    619 22.97                              50   -0.03 7  132 120 
 630  0N ES   1    619 39.75                              50    0.27 7  132 120 
 631  0Z IP   1    619 27.80                              41    0.48 5  165 151 
 631  0N ES   3    619 47.92                              41    0.97 5  165 151 
 632  0Z IP   3    619 31.00                              41    0.89 4  188 130 
 632  0N ES   4    619 53.88                              41    2.11 4  188 130 
                                                                                
 2016 1125 1638 37.4 L  72.696 124.985  7.9  SLT  9 0.5 1.1LSLT 2.3CSLT        1
 GAP=216        0.98       3.3     6.2  2.7  0.5941E+01 -0.5316E+01 -0.1028E+01E
 ACTION:REE 25-08-04 22:00 OP:mn   STATUS:               ID:20161125163711     I
 2016-11-25-1637-11M.arct__039                                                 6
 STAT SP IPHASW D HRMM SECON CODA AMPLIT PERI AZIMU VELO AIN AR TRES W  DIS CAZ7
 620  0Z IP   0   1638 41.87   99                        109   -0.1110 21.7 258 
 620  0N ES   0   1638 45.25                             109   -0.0410 21.7 258 
 620  0Z  IAML    1638 46.64        24.4 0.21                          21.7 258 
 622  0Z IP   1   1638 43.96                             104    0.3410 30.4 159 
 622  0N ES   0   1638 48.26                             104    0.1310 30.4 159 
 623  0Z IP   0   1638 47.26                              99    0.1810 48.8 147 
 623  0N ES   1   1638 54.54                              99    0.4310 48.8 147 
 624  0Z IP   0   1638 47.16  114                         99    0.1710 49.6 119 
 624  0E ES   0   1638 54.03                              99    0.0710 49.6 119 
 624  0Z  IAML    1638 54.30        25.4 0.17                          49.6 119 
 621  0Z IP   0   1638 48.39  102                         66   -0.1410 57.2 183 
 621  0E ES   2   1638 55.93                              66   -0.6910 57.2 183 
 621  0Z  IAML    1638 56.04         9.0 0.26                          57.2 183 
 628  0Z IP   2   1638 51.20                              66   -0.57 9 79.5 113 
 628  0N ES   3   1639  1.36                              66   -0.87 9 79.5 113 
 630  0Z IP   0   1639  0.34                              44   -0.02 7  132 120 
 630  0N ES   0   1639 17.25                              44    0.16 7  132 120 
 631  0Z IP   1   1639  5.04                              37    0.34 5  164 151 
 631  0N ES   2   1639 25.12                              37    0.52 5  164 151 
 632  0Z IP   2   1639  8.13                              37    0.62 4  188 130 
 632  0N ES   4   1639 30.86                              37    1.41 4  188 130 
                                                                                
