 2016 11 5 0642 24.8 L  72.246 129.655 10.1  SLT 13 0.6 1.9LSLT 2.1CSLT        1
 GAP=269        1.11       3.9    19.1  5.9  0.3570E+02  0.4908E+02  0.1363E+01E
 ACTION:REE 25-08-04 21:52 OP:mn   STATUS:               ID:20161105064125     I
 2016-11-05-0641-25M.arct__039                                                 6
 STAT SP IPHASW D HRMM SECON CODA AMPLIT PERI AZIMU VELO AIN AR TRES W  DIS CAZ7
 630  0Z IP   0    642 34.23                              66    0.1810 49.3 248 
 632  0Z IP   2    642 39.22   92                         66   -0.50 9 77.7 195 
 632  0E ES   1    642 50.38                              66   -0.25 9 77.7 195 
 632  0Z  IAML     642 51.93        22.1 0.57                          77.7 195 
 628  0Z IP   0    642 40.41   64                         66    0.24 9 86.7 283 
 628  0E ES   1    642 51.87                              66    0.46 9 86.7 283 
 628  0Z  IAML     642 52.85        17.4 0.13                          86.7 283 
 629  0Z IP   1    642 41.15                              58    0.30 8 87.9 247 
 629  0N ES   0    642 52.71                              58    0.12 8 87.9 247 
 627  0Z IP   0    642 41.31                              58   -0.18 8 92.4 262 
 627  0N ES   1    642 53.41                              58   -0.28 8 92.4 262 
 624  0Z IP   2    642 44.86                              48   -0.61 7  117 284 
 624  0N ES   4    642 59.24                              48   -1.34 7  117 284 
 625  0Z IP   0    642 46.24                              44    0.03 7  121 268 
 625  0N ES   2    643  1.28                              44   -0.58 7  121 268 
 631  0Z IP   2    642 47.72                              44    0.50 7  126 223 
 631  0N ES   1    643  3.31                              44   -0.29 7  126 223 
 626  0Z IP   3    642 48.00   55                         44    0.81 7  131 254 
 626  0E ES   4    643  5.00                              44    1.45 7  131 254 
 626  0Z  IAML     643  5.05         7.7 0.37                           131 254 
 623  0Z IP   0    642 47.57                              44   -0.21 7  133 276 
 623  0N ES   2    643  3.99                              44   -0.58 7  133 276 
 622  0Z IP   1    642 49.23                              37   -0.38 6  149 281 
 622  0N ES   0    643  7.53                              37   -0.22 6  149 281 
 621  0Z IP   3    642 51.98                              37    0.80 5  163 270 
 621  0N ES   3    643 11.25                              37    0.79 5  163 270 
 620  0Z IP   2    642 54.08   57                         37    0.50 5  184 287 
 620  0E ES   1    643 15.04                              37    0.43 5  184 287 
 620  0Z  IAML     643 22.25         2.5 0.46                           184 287 
                                                                                
 2016 11 5 0653 53.2 L  72.253 129.790 15.0  SLT 13 0.7 2.0LSLT 1.8CSLT        1
 GAP=272        1.40       5.1    19.4  5.1  0.3292E+02 -0.1453E+02 -0.8008E+01E
 ACTION:REE 25-08-04 21:52 OP:mn   STATUS:               ID:20161105065254     I
 2016-11-05-0652-54M.arct__039                                                 6
 STAT SP IPHASW D HRMM SECON CODA AMPLIT PERI AZIMU VELO AIN AR TRES W  DIS CAZ7
 630  0Z IP   1    654  2.86                              98   -0.4510 53.9 249 
 630  0N ES   4    654 11.95                              98    1.2710 53.9 249 
 632  0Z IP   2    654  7.71                              68   -0.56 9 79.7 199 
 632  0N ES   2    654 18.63                              68   -0.64 9 79.7 199 
 628  0Z IP   0    654  8.91   70                         68   -0.08 8 91.1 282 
 628  0E ES   2    654 19.86                              68   -0.64 8 91.1 282 
 628  0Z  IAML     654 21.51        31.5 0.14                          91.1 282 
 629  0Z IP   0    654  9.80                              68    0.11 8 92.4 248 
 629  0N ES   0    654 21.65                              68   -0.07 8 92.4 248 
 627  0Z IP   1    654  9.96                              68   -0.39 8 97.1 262 
 627  0N ES   3    654 21.89                              68   -0.97 8 97.1 262 
 624  0Z IP   1    654 13.67                              50   -0.29 7  121 283 
 624  0N ES   4    654 27.63                              50   -1.47 7  121 283 
 625  0Z IP   0    654 14.89                              50    0.18 7  126 268 
 625  0N ES   0    654 30.61                              50    0.21 7  126 268 
 631  0Z IP   3    654 16.48   66                         45    0.90 7  130 224 
 631  0N ES   0    654 32.11                              45    0.21 7  130 224 
 631  0Z  IAML     654 33.81        16.1 0.40                           130 224 
 626  0Z IP   3    654 16.42                              41    0.81 7  135 254 
 626  0N ES   1    654 32.39                              41    0.43 7  135 254 
 623  0Z IP   1    654 16.63                              41    0.48 7  137 275 
 623  0N ES   1    654 32.63                              41   -0.25 7  137 275 
 622  0Z IP   0    654 17.91                              41    0.00 6  153 280 
 622  0N ES   0    654 35.81                              41   -0.12 6  153 280 
 621  0Z IP   4    654 20.56   62                         41    1.06 5  167 270 
 621  0E ES   4    654 39.89                              41    1.21 5  167 270 
 621  0Z  IAML     654 41.99         5.9 0.31                           167 270 
 620  0Z IP   3    654 22.64   53                         41    0.78 5  189 286 
 620  0E ES   4    654 44.42                              41    1.66 5  189 286 
 620  0Z  IAML     654 50.90         3.2 0.39                           189 286 
                                                                                
 2016 11 5 0747 50.5 L  72.232 129.548  8.5  SLT 11 0.6 1.3LSLT 1.6CSLT        1
 GAP=265        1.22       4.3    19.5  6.5  0.4452E+02  0.3761E+02  0.1717E+01E
 ACTION:REE 25-08-04 21:53 OP:mn   STATUS:               ID:20161105074707     I
 2016-11-05-0747-07M.arct__039                                                 6
 STAT SP IPHASW D HRMM SECON CODA AMPLIT PERI AZIMU VELO AIN AR TRES W  DIS CAZ7
 630  0Z IP   1    747 59.45                             100    0.2910 45.4 248 
 632  0Z IP   1    748  5.49                              66    0.35 9 75.3 193 
 632  0N ES   4    748 14.75                              66   -1.08 9 75.3 193 
 628  0Z IP   0    748  5.65                              66    0.19 9 83.5 284 
 628  0N ES   0    748 16.33                              66   -0.06 9 83.5 284 
 629  0Z IP   1    748  6.43                              66    0.41 9 83.9 247 
 629  0N ES   1    748 17.72                              66    0.37 9 83.9 247 
 627  0Z IP   0    748  6.65                              66   -0.09 8 88.6 263 
 627  0N ES   1    748 18.26                              66   -0.34 8 88.6 263 
 624  0Z IP   3    748 10.12   50                         58   -0.79 7  114 285 
 624  0E ES   3    748 24.96                              58   -0.85 7  114 285 
 624  0Z  IAML     748 25.55         6.2 0.39                           114 285 
 631  0Z IP   1    748 12.98                              44    0.31 7  123 222 
 631  0N ES   1    748 28.54                              44   -0.32 7  123 222 
 626  0Z IP   3    748 13.47   50                         44    0.87 7  127 254 
 626  0N ES   4    748 29.88                              44    1.14 7  127 254 
 626  0Z  IAML     748 30.10         4.0 0.51                           127 254 
 622  0Z IP   3    748 14.32                              37   -0.88 6  145 281 
 622  0N ES   3    748 32.38                              37   -0.85 6  145 281 
 621  0Z IP   1    748 17.14   50                         37    0.41 6  159 270 
 621  0N ES   2    748 36.58                              37    0.70 6  159 270 
 621  0Z  IAML     748 38.55         2.3 0.34                           159 270 
 620  0Z IP   0    748 19.29   52                         37    0.09 5  181 288 
 620  0E ES   2    748 40.89                              37    0.74 5  181 288 
 620  0Z  IAML     748 47.43         1.3 0.38                           181 288 
                                                                                
 2016 1116 1036  3.8 L  72.700 124.952 12.9  SLT  7 0.3 0.8LSLT 1.3CSLT        1
 GAP=217        0.70       2.7     6.2  4.1  0.2966E+01 -0.1591E+02 -0.9581E-01E
 ACTION:REE 25-08-04 21:55 OP:mn   STATUS:               ID:20161116103351     I
 2016-11-16-1033-51M.arct__039                                                 6
 STAT SP IPHASW D HRMM SECON CODA AMPLIT PERI AZIMU VELO AIN AR TRES W  DIS CAZ7
 620  0Z IP   0   1036  8.25   49                        114   -0.2010 20.7 256 
 620  0N ES   0   1036 11.86                             114   -0.0110 20.7 256 
 620  0Z  IAML    1036 12.46        10.1 0.34                          20.7 256 
 622  0Z IP   0   1036 10.46                             103    0.2110 31.2 157 
 622  0N ES   0   1036 15.02                             103    0.0310 31.2 157 
 623  0Z IP   1   1036 13.76                              95    0.2910 49.8 147 
 624  0Z IP   0   1036 13.48   41                         95    0.0710 50.8 119 
 624  0E ES   0   1036 20.36                              95   -0.0910 50.8 119 
 624  0Z  IAML    1036 20.79         8.1 0.18                          50.8 119 
 621  0Z IP   0   1036 14.87   44                         94    0.1310 57.6 182 
 621  0E ES   1   1036 22.33                              94   -0.4310 57.6 182 
 621  0Z  IAML    1036 22.48         3.3 0.21                          57.6 182 
 628  0Z IP   1   1036 17.72                              68   -0.30 9 80.8 113 
 628  0N ES   1   1036 28.08                              68   -0.34 9 80.8 113 
 626  0Z IP   2   1036 21.80   39                         68    0.68 8 97.8 157 
 626  0E ES   0   1036 33.86                              68    0.07 8 97.8 157 
 626  0Z  IAML    1036 34.58         1.8 0.45                          97.8 157 
                                                                                
 2016 1116 2215 49.7 L  72.696 124.975  8.9  SLT 12 0.5 2.4LSLT 1.8CSLT        1
 GAP=216        1.06       3.4     8.4  3.3  0.5681E+01 -0.1725E+02  0.2370E+00E
 ACTION:REE 25-08-04 21:56 OP:mn   STATUS:               ID:20161116221424     I
 2016-11-16-2214-24M.arct__039                                                 6
 STAT SP IPHASW D HRMM SECON CODA AMPLIT PERI AZIMU VELO AIN AR TRES W  DIS CAZ7
 620  0Z IP   0   2215 54.33                             112    0.0510 21.4 258 
 620  0N ES   0   2215 57.69                             112    0.0810 21.4 258 
 622  0Z IP   1   2215 56.36                             106    0.3610 30.5 158 
 622  0N ES   1   2216  0.83                             106    0.2610 30.5 158 
 623  0Z IP   0   2215 59.54                              66    0.1410 49.0 147 
 623  0N ES   0   2216  6.30                              66   -0.1510 49.0 147 
 624  0Z IP   0   2215 59.56   78                         66    0.2410 49.9 119 
 624  0E ES   1   2216  6.74                              66    0.4310 49.9 119 
 624  0Z  IAML    2216  6.79        99.1 0.14                          49.9 119 
 621  0Z IP   0   2216  0.83   76                         66    0.0910 57.2 183 
 621  0N ES   1   2216  8.33                              66   -0.4410 57.2 183 
 621  0Z  IAML    2216 11.21        82.2 0.84                          57.2 183 
 625  0Z IP   0   2216  2.90                              66    0.00 9 69.6 146 
 625  0N ES   1   2216 12.23                              66   -0.28 9 69.6 146 
 628  0Z IP   1   2216  3.65                              66   -0.38 9 79.9 113 
 628  0N ES   3   2216 13.71                              66   -0.76 9 79.9 113 
 626  0Z IP   0   2216  7.19   65                         58   -0.09 8 97.1 158 
 626  0E ES   1   2216 20.50                              58    0.41 8 97.1 158 
 626  0Z  IAML    2216 20.65        68.6 0.40                          97.1 158 
 629  0Z IP   1   2216 10.10                              48   -0.43 7  117 136 
 629  0N ES   4   2216 24.27                              48   -1.45 7  117 136 
 630  0Z IP   1   2216 12.27   49                         44   -0.28 7  133 120 
 630  0E ES   0   2216 29.41                              44    0.21 7  133 120 
 630  0Z  IAML    2216 31.39       177.1 0.37                           133 120 
 631  0Z IP   1   2216 17.26                              37    0.41 5  164 151 
 631  0N ES   3   2216 37.47                              37    0.82 5  164 151 
 632  0Z IP   3   2216 20.60                              37    0.94 4  188 130 
 632  0N ES   4   2216 43.01                              37    1.50 4  188 130 
                                                                                
 2016 1116 2253  5.8 L  72.671 124.983  8.1  SLT  8 0.6 1.3LSLT 1.1CSLT        1
 GAP=206        1.27       5.4     8.3  4.4  0.2596E+01 -0.1327E+02  0.1020E+02E
 ACTION:REE 25-08-04 21:56 OP:mn   STATUS:               ID:20161116225147     I
 2016-11-16-2251-47M.arct__039                                                 6
 STAT SP IPHASW D HRMM SECON CODA AMPLIT PERI AZIMU VELO AIN AR TRES W  DIS CAZ7
 620  0Z IP   1   2253  9.98                             110   -0.3210 21.2 265 
 620  0N ES   0   2253 13.47                             110   -0.0910 21.2 265 
 622  0Z IP   1   2253 11.95                             106    0.3910 27.8 156 
 624  0Z IP   0   2253 15.13   39                         99   -0.0310 48.3 116 
 624  0N ES   1   2253 22.46                              99    0.4910 48.3 116 
 624  0Z  IAML    2253 22.46        23.5 0.22                          48.3 116 
 621  0Z IP   1   2253 16.89   31                         66    0.4810 54.4 183 
 621  0E ES   0   2253 24.07                              66   -0.0610 54.4 183 
 621  0Z  IAML    2253 24.15         7.7 0.26                          54.4 183 
 628  0Z IP   2   2253 19.41                              66   -0.56 9 78.5 112 
 628  0N ES   2   2253 29.65                              66   -0.64 9 78.5 112 
 626  0Z IP   1   2253 23.43   42                         58    0.40 8 94.4 157 
 626  0E ES   4   2253 34.43                              58   -1.15 8 94.4 157 
 626  0Z  IAML    2253 36.43         3.4 0.28                          94.4 157 
 630  0Z IP   1   2253 28.22   31                         44   -0.33 7  131 119 
 630  0N ES   1   2253 45.49                              44    0.36 7  131 119 
 630  0Z  IAML    2253 46.99        11.5 0.29                           131 119 
 632  0Z IP   4   2253 36.73                              37    1.06 5  186 129 
 632  0N ES   4   2253 59.25                              37    1.81 5  186 129 
                                                                                
 2016 1116 2316 11.2 L  72.689 124.927 12.5  SLT 10 0.6 1.9LSLT 1.4CSLT        1
 GAP=213        1.22       4.5    10.0  4.7  0.1100E+02 -0.2825E+02 -0.1832E+01E
 ACTION:REE 25-08-04 21:56 OP:mn   STATUS:               ID:20161116231520     I
 2016-11-16-2315-20M.arct__039                                                 6
 STAT SP IPHASW D HRMM SECON CODA AMPLIT PERI AZIMU VELO AIN AR TRES W  DIS CAZ7
 620  0Z IP   0   2316 15.63                             115   -0.1010 19.7 259 
 620  0N ES   0   2316 18.99                             115   -0.0210 19.7 259 
 622  0Z IP   0   2316 17.62                             102    0.0510 30.4 155 
 623  0Z IP   0   2316 21.04                              95    0.2110 49.2 145 
 623  0N ES   0   2316 27.96                              95    0.1210 49.2 145 
 624  0Z IP   0   2316 20.75   44                         94   -0.1410 50.9 117 
 624  0Z  IAML    2316 28.11        69.9 0.25                          50.9 117 
 624  0N ES   1   2316 28.40                              94    0.4610 50.9 117 
 621  0Z IP   0   2316 22.07   54                         94    0.0910 56.3 181 
 621  0N ES   0   2316 29.73                              94   -0.1010 56.3 181 
 621  0Z  IAML    2316 29.80        31.3 0.24                          56.3 181 
 628  0Z IP   2   2316 25.01                              68   -0.54 9 81.0 112 
 628  0N ES   3   2316 35.25                              68   -0.75 9 81.0 112 
 626  0Z IP   0   2316 28.62   54                         68    0.15 8 96.9 157 
 626  0E ES   0   2316 40.86                              68   -0.20 8 96.9 157 
 626  0Z  IAML    2316 41.89        18.4 0.48                          96.9 157 
 629  0Z IP   0   2316 31.87                              54    0.16 7  117 135 
 629  0Z ES   4   2316 45.34                              54   -1.31 7  117 135 
 630  0Z IP   0   2316 33.52   36                         45   -0.19 7  134 119 
 630  0N ES   3   2316 51.10                              45    0.97 7  134 119 
 630  0Z  IAML    2316 52.63        44.8 0.27                           134 119 
 632  0Z IP   4   2316 41.91                              41    1.17 4  189 129 
 632  0Z ES   4   2317  4.70                              41    2.41 4  189 129 
                                                                                
