 2017  317 1007 13.3 L  72.235 125.985  5.4  SLT  9 0.5                        1
 GAP= 84        1.25       1.8     6.2  6.2  0.1802E+01 -0.5769E+01 -0.6775E+00E
 ACTION:ARG 20-12-21 03:09 OP:mn   STATUS:               ID:20170317100556     I
 2017-03-17-1005-56M.a_____039                                                 6
 STAT SP IPHASW D HRMM SECON CODA AMPLIT PERI AZIMU VELO AIN AR TRES W  DIS CAZ7
 625  0Z IP   1   10 7 15.55                             123    0.2610 8.00 149 
 625  0E ES   0   10 7 16.97                             123    0.1910 8.00 149 
 623  0Z IP   0   10 7 16.27                             112    0.1210 12.7 323 
 623  0E ES   1   10 7 18.62                             112    0.3510 12.7 323 
 624  0Z IP   1   10 7 19.15                             100    0.3310 28.6  20 
 624  0E ES   4   10 7 21.82                             100   -1.0510 28.6  20 
 622  0Z IP   0   10 7 19.87                              99    0.1410 32.4 316 
 621  0E IP   1   10 7 20.40                              98   -0.2910 37.8 262 
 621  0N ES   1   10 7 25.84                              98   -0.2710 37.8 262 
 626  0Z IP   0   10 7 20.63                              98    0.0310 38.8 177 
 626  0E ES   0   10 7 26.15                              98    0.1910 38.8 177 
 628  0Z IP   0   10 7 21.20                              97    0.0710 43.5  64 
 628  0E ES   2   10 7 27.42                              97    0.5510 43.5  64 
 629  0Z IP   1   10 7 23.70                              95   -0.4710 57.0 126 
 629  0E ES   3   10 7 31.28                              95   -0.8510 57.0 126 
 630  0Z IP   3   10 7 29.36                              66    0.82 9 82.0 101 
                                                                                
 2017  320 1900 33.7 L  72.400 126.101 18.4  SLT  9 0.3                        1
 GAP= 98        0.91       1.9     4.6  3.3  0.6192E+00  0.1156E+00  0.1457E+01E
 ACTION:ARG 20-12-21 03:09 OP:mn   STATUS:               ID:20170320190000     I
 2017-03-20-1900-00M.a_____039                                                 6
 STAT SP IPHASW D HRMM SECON CODA AMPLIT PERI AZIMU VELO AIN AR TRES W  DIS CAZ7
 624  0Z IP   0   19 0 37.65                             146    0.1410 10.3  35 
 624  0N ES   0   19 0 40.26                             146   -0.0610 10.3  35 
 623  0Z IP   1   19 0 38.41                             136    0.2710 14.2 235 
 623  0N ES   0   19 0 41.36                             136   -0.0410 14.2 235 
 625  0Z IP   0   19 0 39.69                             115    0.1810 25.2 180 
 625  0N ES   0   19 0 43.86                             115    0.0910 25.2 180 
 622  0Z IP   0   19 0 39.70                             113   -0.0910 27.0 280 
 622  0N ES   1   19 0 43.81                             113   -0.4510 27.0 280 
 628  0Z IP   1   19 0 40.71                             103    0.3110 35.3  90 
 628  0N ES   0   19 0 45.37                             103    0.0510 35.3  90 
 621  0Z IP   0   19 0 43.05                              95    0.0510 47.7 240 
 621  0N ES   1   19 0 49.32                              95   -0.4910 47.7 240 
 626  0Z IP   2   19 0 44.86                              93    0.6010 57.2 182 
 626  0E ES   0   19 0 52.06                              93    0.0810 57.2 182 
 620  0Z IP   1   19 0 46.03                              93    0.26 9 65.3 297 
 620  0N ES   0   19 0 54.73                              93    0.13 9 65.3 297 
 630  0Z IP   0   19 0 48.34                              92   -0.19 9 84.0 115 
 630  0N ES   4   19 0 58.33                              92   -1.05 9 84.0 115 
                                                                                
 2017  326 0836 33.2 L  71.968 127.671 17.0  SLT 13 0.6                        1
 GAP= 82        1.40       2.5     7.5  2.8  0.5156E+01  0.4462E+01  0.4275E+00E
 ACTION:ARG 20-12-21 03:09 OP:mn   STATUS:               ID:20170326083527     I
 2017-03-26-0835-27M.a_____039                                                 6
 STAT SP IPHASW D HRMM SECON CODA AMPLIT PERI AZIMU VELO AIN AR TRES W  DIS CAZ7
 629  0Z IP   2    836 37.76                             141    0.5010 13.1 251 
 629  0N ES   1    836 40.50                             141    0.2610 13.1 251 
 630  0Z IP   0    836 38.93                             121    0.1810 25.5  62 
 630  0N ES   1    836 42.51                             121   -0.3110 25.5  62 
 627  0Z IP   0    836 39.41                             117    0.0810 29.0 305 
 627  0N ES   2    836 43.27                             117   -0.5610 29.0 305 
 628  0Z IP   0    836 42.34                              68   -0.0510 51.5 340 
 628  0E ES   0    836 48.96                              68   -0.1710 51.5 340 
 626  0Z IP   1    836 43.96                              68    0.2610 57.3 262 
 626  0N ES   0    836 51.36                              68   -0.0310 57.3 262 
 625  0Z IP   0    836 44.25                              68    0.0910 58.5 294 
 625  0N ES   2    836 51.44                              68   -0.7410 58.5 294 
 631  0Z IP   0    836 45.78                              68    0.23 9 65.2 193 
 631  0E ES   1    836 54.34                              68   -0.26 9 65.2 193 
 632  0Z IP   0    836 45.58                              68   -0.22 9 65.8 131 
 632  0N ES   3    836 54.22                              68   -0.80 9 65.8 131 
 624  0Z IP   4    836 47.58                              68    1.09 9 74.1 321 
 624  0N ES   1    836 55.89                              68   -0.33 9 74.1 321 
 623  0Z IP   3    836 47.90                              68    0.75 9 76.7 302 
 622  0Z IP   0    836 50.40                              68    0.14 8 96.3 304 
 622  0N ES   3    837  1.80                              68   -0.93 8 96.3 304 
 621  0Z IP   0    836 50.66                              68    0.07 8 98.6 285 
 621  0N ES   3    837  2.37                              68   -0.94 8 98.6 285 
 620  0Z IP   4    836 56.79                              41    1.28 7  136 306 
 620  0N ES   4    837 13.42                              41    1.60 7  136 306 
                                                                                
 2017  4 2 0422  1.0 L  72.687 125.638 18.2  SLT 13 0.5                        1
 GAP=216        1.14       3.7     7.6  4.5  0.9148E+01 -0.1216E+02 -0.5161E+01E
 ACTION:UP  20-12-20 22:46 OP:elen STATUS:               ID:20170402042039     I
 OLDACT:UP  20-12-20 00:44 OP:elen STATUS:               ID:20170402042039     3
 OLDACT:UP  20-12-16 20:09 OP:elen STATUS:               ID:20170402042039     3
 OLDACT:UP  20-12-16 14:06 OP:elen STATUS:               ID:20170402042039     3
 OLDACT:REG 20-12-12 10:59 OP:elen STATUS:               ID:20170402042039     3
 2017-04-02-0420-39M.NSN___039                                                 6
 STAT SP IPHASW D HRMM SECON CODA AMPLIT PERI AZIMU VELO AIN AR TRES W  DIS CAZ7
 622  0Z IP   1    422  7.87                             109    0.3810 29.5 202 
 622  0N ES   1    422 12.68                             109    0.4610 29.5 202 
 624  0Z IP   1    422  7.93                             106    0.2810 31.8 138 
 624  0N ES   0    422 12.72                             106    0.2210 31.8 138 
 623  0Z IP   0    422  9.48                              98    0.2210 40.5 174 
 623  0E ES   0    422 15.32                              98    0.0310 40.5 174 
 620  0Z IP   0    422  9.31                              97   -0.2310 43.1 266 
 620  0E ES   1    422 15.33                              97   -0.4510 43.1 266 
 625  0Z IP   0    422 12.32                              93    0.1110 59.4 164 
 625  0E ES   1    422 20.08                              93   -0.3210 59.4 164 
 628  0Z IP   0    422 11.52                              93   -0.1310 59.9 122 
 628  0N ES   0    422 19.31                              93   -0.1110 59.9 122 
 621  0Z IP   2    422 13.07                              93    0.5210 61.6 205 
 621  0E ES   1    422 20.50                              93   -0.4810 61.6 205 
 627  0Z IP   1    422 15.23                              92    0.25 9 78.2 144 
 627  0E ES   2    422 24.48                              92   -0.70 9 78.2 144 
 626  0Z IP   0    422 16.68                              91   -0.20 8 90.2 171 
 626  0Z ES   1    422 28.14                              91   -0.34 8 90.2 171 
 629  0Z IP   0    422 18.83                              61    0.05 8  102 145 
 630  0Z IP   2    422 19.72                              55   -0.53 7  114 126 
 630  0N ES   4    422 33.07                              55   -1.24 7  114 126 
 631  0Z IP   1    422 26.19                              45    0.48 6  154 158 
 631  0E ES   3    422 44.71                              45    0.96 6  154 158 
 632  0Z IP   3    422 28.57                              45    0.78 5  171 135 
 632  0Z ES   4    422 49.10                              45    1.76 5  171 135 
                                                                                
 2017  4 5 0307 35.5 L  71.671 128.765  7.2  SLT 11 0.4                        1
 GAP=153        0.96       2.2     9.4  2.8  0.3704E+01  0.1116E+02  0.5459E+00E
 ACTION:UP  20-12-21 00:10 OP:elen STATUS:               ID:20170405030618     I
 OLDACT:UP  20-12-20 01:44 OP:elen STATUS:               ID:20170405030618     3
 OLDACT:UP  20-12-16 21:32 OP:elen STATUS:               ID:20170405030618     3
 OLDACT:REG 20-12-13 13:11 OP:elen STATUS:               ID:20170405030618     3
 2017-04-05-0306-18M.NSN___039                                                 6
 STAT SP IPHASW D HRMM SECON CODA AMPLIT PERI AZIMU VELO AIN AR TRES W  DIS CAZ7
 632  0Z IP   0    3 7 39.22                             115   -0.2110 15.3 135 
 630  0Z IP   0    3 7 44.60                              98    0.0310 47.6 341 
 630  0E ES   1    3 7 50.81                              98   -0.3610 47.6 341 
 629  0N IP   4    3 7 47.79                              97    1.0710 58.2 300 
 629  0E ES   0    3 7 55.11                              97    0.2410 58.2 300 
 631  0Z IP   0    3 7 47.79                              66    0.0110 61.7 241 
 631  0N ES   2    3 7 56.19                              66   -0.5210 61.7 241 
 626  0Z IP   0    3 7 53.32                              58   -0.13 8 98.3 286 
 626  0N ES   0    3 8  6.48                              58   -0.04 8 98.3 286 
 628  0Z IP   0    3 7 52.89                              58   -0.24 8 98.6 326 
 628  0E ES   2    3 8  5.38                              58   -0.59 8 98.6 326 
 625  0Z IP   0    3 7 55.21                              58   -0.04 8  108 303 
 625  0N ES   2    3 8  8.99                              58   -0.64 8  108 303 
 624  0Z IP   0    3 7 57.43                              44   -0.13 7  124 318 
 624  0E ES   0    3 8 13.52                              44   -0.12 7  124 318 
 623  0Z IP   1    3 7 58.66                              44    0.49 7  127 307 
 623  0N ES   0    3 8 14.72                              44    0.03 7  127 307 
 621  0Z IP   2    3 8  1.02                              37    0.54 6  146 295 
 621  0E ES   1    3 8 19.03                              37    0.34 6  146 295 
 622  0Z IP   1    3 8  0.83                              37    0.25 6  147 308 
 622  0N ES   2    3 8 19.58                              37    0.72 6  147 308 
                                                                                
 2017  4 8 1004 44.4 L  72.559 124.897 12.5  SLT 13 0.5                        1
 GAP=160        1.12       2.8     7.8  3.1  0.9446E+01 -0.7882E+01  0.9652E-01E
 ACTION:UP  20-12-21 14:32 OP:elen STATUS:               ID:20170408100319     I
 OLDACT:UP  20-12-20 16:21 OP:elen STATUS:               ID:20170408100319     3
 OLDACT:UP  20-12-19 02:06 OP:elen STATUS:               ID:20170408100319     3
 OLDACT:REG 20-12-15 20:09 OP:elen STATUS:               ID:20170408100319     3
 2017-04-08-1003-19M.NSN___039                                                 6
 STAT SP IPHASW D HRMM SECON CODA AMPLIT PERI AZIMU VELO AIN AR TRES W  DIS CAZ7
 622  0Z IP   1   10 4 49.31                             116    0.4210 19.1 133 
 622  0E ES   2   10 4 52.71                             116    0.5510 19.1 133 
 620  0Z IP   0   10 4 49.10                             112   -0.0510 21.2 300 
 620  0N ES   0   10 4 52.37                             112   -0.2310 21.2 300 
 623  0Z IP   0   10 4 52.25                              97   -0.0010 39.0 131 
 623  0N ES   0   10 4 57.99                              97    0.0110 39.0 131 
 621  0Z IP   2   10 4 53.23                              96    0.5710 41.8 180 
 621  0N ES   0   10 4 58.56                              96   -0.1210 41.8 180 
 624  0Z IP   0   10 4 53.23                              95   -0.1910 47.1 101 
 624  0Z ES   1   10 5  0.44                              95    0.4410 47.1 101 
 625  0Z IP   1   10 4 55.44                              93   -0.2510 59.3 136 
 625  0N ES   3   10 5  3.16                              93   -0.7610 59.3 136 
 628  0Z IP   2   10 4 57.57                              68   -0.63 9 77.7 102 
 628  0N ES   1   10 5  7.96                              68   -0.30 9 77.7 102 
 626  0Z IP   1   10 4 59.90                              68    0.27 9 84.3 152 
 626  0E ES   2   10 5 10.06                              68   -0.67 9 84.3 152 
 627  0Z IP   0   10 4 59.81                              68   -0.14 9 86.1 124 
 627  0E ES   1   10 5 10.80                              68   -0.49 9 86.1 124 
 629  0Z IP   0   10 5  3.42                              68   -0.17 8  108 129 
 629  0N ES   0   10 5 17.36                              68   -0.22 8  108 129 
 630  0Z IP   1   10 5  5.84                              50   -0.36 7  128 113 
 630  0E ES   3   10 5 23.00                              50    0.90 7  128 113 
 631  0Z IP   1   10 5 10.20                              41    0.49 6  153 147 
 631  0E ES   1   10 5 28.65                              41    0.48 6  153 147 
 632  0Z IP   4   10 5 14.07                              41    1.05 5  181 125 
 632  0E ES   4   10 5 35.68                              41    1.77 5  181 125 
                                                                                
 2017  416 0523 40.9 L  71.938 127.076 20.1  SLT 12 0.5                        1
 GAP= 88        1.25       2.1     6.8  3.8  0.4976E+01  0.5328E+01  0.1903E+00E
 ACTION:UP  20-12-26 19:23 OP:elen STATUS:               ID:20170416052232     I
 OLDACT:REG 20-12-24 20:31 OP:elen STATUS:               ID:20170416052232     3
 2017-04-16-0522-32M.NSN___039                                                 6
 STAT SP IPHASW D HRMM SECON CODA AMPLIT PERI AZIMU VELO AIN AR TRES W  DIS CAZ7
 629  0Z IP   2    523 45.44                             155    0.5910 8.27  97 
 629  0E ES   1    523 48.02                             155    0.2910 8.27  97 
 627  0Z IP   1    523 46.36                             128    0.3910 20.2 351 
 627  0E ES   0    523 49.61                             128   -0.0610 20.2 351 
 626  0Z IP   2    523 48.76                             108    0.5010 36.5 262 
 626  0N ES   0    523 53.71                             108    0.0910 36.5 262 
 625  0Z IP   1    523 49.72                             103    0.2610 42.5 309 
 625  0N ES   3    523 54.90                             103   -0.8010 42.5 309 
 630  0Z IP   1    523 49.92                             101    0.2510 45.7  70 
 630  0N ES   0    523 55.85                             101   -0.2310 45.7  70 
 628  0Z IP   0    523 50.39                              99    0.1310 51.6   3 
 628  0E ES   0    523 56.86                              99   -0.2310 51.6   3 
 631  0Z IP   0    523 52.66                              96    0.0410 60.4 174 
 631  0E ES   2    524  0.63                              96   -0.5510 60.4 174 
 623  0Z IP   0    523 52.77                              96    0.07 9 62.5 314 
 623  0N ES   3    524  0.55                              96   -0.76 9 62.5 314 
 624  0Z IP   2    523 53.61                              95    0.59 9 66.0 336 
 624  0N ES   0    524  1.79                              95   -0.07 9 66.0 336 
 632  0Z IP   0    523 55.84                              94   -0.18 9 80.7 119 
 632  0E ES   3    524  6.13                              94   -0.93 9 80.7 119 
 622  0Z IP   1    523 56.19                              94    0.35 9 82.4 314 
 622  0N ES   3    524  5.76                              94   -0.98 9 82.4 314 
 620  0Z IP   3    524  2.20                              50    0.83 7  122 312 
 620  0N ES   3    524 17.06                              50    0.75 7  122 312 
                                                                                
 2017  416 1821  5.5 L  72.811 125.075  8.5  SLT 13 0.5                        1
 GAP=248        1.09       3.8    10.0  3.9  0.2443E+01 -0.2656E+02 -0.1097E+01E
 ACTION:UP  20-12-27 00:47 OP:elen STATUS:               ID:20170416181941     I
 OLDACT:REG 20-12-24 20:59 OP:elen STATUS:               ID:20170416181941     3
 2017-04-16-1819-41M.NSN___039                                                 6
 STAT SP IPHASW D HRMM SECON CODA AMPLIT PERI AZIMU VELO AIN AR TRES W  DIS CAZ7
 620  0Z IP   0   1821 11.57                             106    0.0210 29.8 234 
 620  0E ES   1   1821 16.25                             106    0.3010 29.8 234 
 622  0Z IP   2   1821 14.36                             101    0.5010 41.9 169 
 622  0N ES   1   1821 20.28                             101    0.3410 41.9 169 
 624  0Z IP   0   1821 16.17                              66    0.2010 54.7 132 
 624  0E ES   2   1821 24.11                              66    0.5110 54.7 132 
 623  0Z IP   0   1821 17.02                              66    0.1110 58.7 157 
 623  0E ES   1   1821 25.60                              66    0.3910 58.7 157 
 621  0Z IP   1   1821 18.44                              66   -0.37 9 70.2 185 
 621  0N ES   2   1821 27.98                              66   -0.52 9 70.2 185 
 625  0Z IP   1   1821 19.95                              66   -0.40 9 79.0 153 
 625  0E ES   2   1821 30.59                              66   -0.58 9 79.0 153 
 628  0Z IP   1   1821 20.01                              66   -0.38 9 83.0 123 
 628  0N ES   0   1821 31.26                              66    0.02 9 83.0 123 
 627  0Z IP   0   1821 23.55                              58   -0.15 8  101 139 
 627  0N ES   0   1821 36.98                              58    0.02 8  101 139 
 626  0Z IP   1   1821 24.46                              58   -0.40 8  108 162 
 626  0E ES   3   1821 38.21                              58   -0.76 8  108 162 
 629  0Z IP   1   1821 27.00                              44   -0.41 7  124 141 
 629  0N ES   1   1821 43.66                              44    0.28 7  124 141 
 630  0Z IP   3   1821 28.15                              40   -0.77 7  137 125 
 630  0N ES   2   1821 45.43                              40   -0.57 7  137 125 
 631  0Z IP   1   1821 34.17                              37    0.36 5  174 154 
 631  0E ES   4   1821 55.93                              37    1.47 5  174 154 
 632  0Z IP   1   1821 36.64                              37    0.44 4  194 133 
 632  0N ES   4   1822  0.61                              37    2.01 4  194 133 
                                                                                
