 2017  427 0912 28.8 L  72.063 127.796  2.7  BER  8 0.2 0.9LBER 1.8CBER        1
 GAP=116        0.46       1.1     2.8  2.2 -0.2071E+00  0.2271E+01 -0.7916E+00E
 ACTION:UP  21-01-03 00:37 OP:elen STATUS:               ID:20170427091104     I
 OLDACT:REG 21-01-02 12:22 OP:elen STATUS:               ID:20170427091104     3
 2017-04-27-0911-04M.NSN___024                                                 6
 STAT SP IPHASW D HRMM SECON CODA AMPLIT PERI AZIMU VELO AIN AR TRES W  DIS CAZ7
 630  0Z IP        912 32.08   60                         99   -0.0510 18.2  85 
 630  0N ES        912 34.82                              99    0.1910 18.2  85 
 630  0E  IAML     912 35.23        75.2 0.16                          18.2  85 
 629  0Z IP        912 32.72   51                         97   -0.1510 22.4 228 
 629  0N ES        912 35.92                              97   -0.0110 22.4 228 
 629  0N  IAML     912 36.29        59.7 0.32                          22.4 228 
 627  0Z IP        912 33.91   56                         95   -0.0710 28.6 283 
 627  0N ES        912 37.96                              95    0.0810 28.6 283 
 627  0N  IAML     912 38.62        15.6 0.11                          28.6 283 
 628  0Z IP        912 36.13   59                         65   -0.31 9 43.6 330 
 628  0E ES        912 41.83                              65   -0.39 9 43.6 330 
 628  0N  IAML     912 43.71        13.3 0.10                          43.6 330 
 625  0Z IP        912 38.95   47                         65   -0.00 9 59.2 283 
 625  0N ES        912 46.75                              65    0.11 9 59.2 283 
 625  0E  IAML     912 48.75         5.0 0.38                          59.2 283 
 624  0Z IP        912 40.79   55                         65    0.21 8 69.3 312 
 624  0N ES        912 49.90                              65    0.40 8 69.3 312 
 624  0E  IAML     912 52.51         7.8 0.24                          69.3 312 
 631  0Z IP        912 41.71   65                         65   -0.03 8 76.5 195 
 631  0E ES        912 51.50                              65   -0.05 8 76.5 195 
 631  0N  IAML     912 56.09         4.4 0.17                          76.5 195 
 621  0Z IP        912 45.77   63                         65    0.15 7  101 279 
 621  0N ES        912 58.51                              65    0.14 7  101 279 
 621  0E  IAML     913  4.61         3.4 0.11                           101 279 
                                                                                
 2017  427 0912 28.8 L  72.064 127.797  2.6  BER  8 0.2 0.9LBER 2.1CBER        1
 GAP=116        0.45       1.1     2.7  2.2 -0.1855E+00  0.2145E+01 -0.7567E+00E
 ACTION:UP  21-01-03 02:00 OP:elen STATUS:               ID:20170427091134     I
 OLDACT:REG 21-01-02 12:26 OP:elen STATUS:               ID:20170427091134     3
 2017-04-27-0911-34M.NSN___024                                                 6
 STAT SP IPHASW D HRMM SECON CODA AMPLIT PERI AZIMU VELO AIN AR TRES W  DIS CAZ7
 630  0Z IP        912 32.09   73                         98   -0.0210 18.2  86 
 630  0N ES        912 34.77                              98    0.1610 18.2  86 
 630  0E  IAML     912 35.23        73.7 0.16                          18.2  86 
 629  0Z IP        912 32.76   63                         97   -0.1110 22.5 228 
 629  0N ES        912 35.91                              97   -0.0410 22.5 228 
 629  0N  IAML     912 36.50        46.4 0.25                          22.5 228 
 627  0Z IP        912 33.89   69                         95   -0.0710 28.6 282 
 627  0N ES        912 37.90                              95    0.0510 28.6 282 
 627  0N  IAML     912 38.62        15.3 0.11                          28.6 282 
 628  0Z IP        912 36.13   71                         65   -0.28 9 43.5 330 
 628  0E ES        912 41.77                              65   -0.41 9 43.5 330 
 628  0N  IAML     912 43.71        13.4 0.10                          43.5 330 
 625  0Z IP        912 39.00   64                         65    0.06 9 59.2 283 
 625  0N ES        912 46.73                              65    0.10 9 59.2 283 
 625  0E  IAML     912 48.75         5.0 0.37                          59.2 283 
 624  0Z IP        912 40.79   61                         65    0.23 8 69.2 312 
 624  0E ES        912 49.82                              65    0.35 8 69.2 312 
 624  0N  IAML     912 53.81        11.0 0.23                          69.2 312 
 631  0Z IP        912 41.74   76                         65   -0.02 8 76.7 195 
 631  0E ES        912 51.50                              65   -0.09 8 76.7 195 
 631  0N  IAML     912 56.09         4.4 0.17                          76.7 195 
 621  0Z IP        912 45.78   68                         65    0.17 7  101 279 
 621  0N ES        912 58.52                              65    0.16 7  101 279 
 621  0E  IAML     913  4.61         3.4 0.10                           101 279 
                                                                                
