 2017  418 1500 12.9 L  72.734 124.513 23.1  BER 12 0.3 1.3LBER 2.0CBER        1
 GAP=260        0.55       2.9     7.6  1.6  0.5967E+01 -0.6974E+01 -0.6865E+00E
 ACTION:UP  20-12-29 20:35 OP:elen STATUS:               ID:20170418150000     I
 OLDACT:REG 20-12-27 21:06 OP:elen STATUS:               ID:20170418150000     3
 2017-04-18-1500-00M.NSN___039                                                 6
 STAT SP IPHASW D HRMM SECON CODA AMPLIT PERI AZIMU VELO AIN AR TRES W  DIS CAZ7
 620  0Z IP       15 0 17.01   45                        155   -0.0910 10.5 212 
 620  0N ES       15 0 20.21                             155   -0.0710 10.5 212 
 620  0E  IAML    15 0 20.40        46.0 0.06                          10.5 212 
 622  0Z IP       15 0 20.82   62                        117   -0.01 9 42.2 140 
 622  0E ES       15 0 26.88                             117    0.04 9 42.2 140 
 622  0E  IAML    15 0 27.41        11.0 0.25                          42.2 140 
 623  0Z IP       15 0 23.95   64                        109    0.19 8 61.8 137 
 623  0N ES       15 0 32.25                             109    0.25 8 61.8 137 
 623  0N  IAML    15 0 32.59        15.2 0.23                          61.8 137 
 621  0Z IP       15 0 23.90   61                        108    0.01 8 62.7 168 
 621  0N ES       15 0 32.11                             108   -0.12 8 62.7 168 
 621  0N  IAML    15 0 32.91         5.1 0.16                          62.7 168 
 624  0Z IP       15 0 24.31   72                        108   -0.01 8 65.5 115 
 624  0N ES       15 0 32.87                             108   -0.12 8 65.5 115 
 624  0E  IAML    15 0 33.70        15.7 0.13                          65.5 115 
 625  0Z IP       15 0 27.09   68                        104    0.15 8 82.4 139 
 625  0E ES       15 0 37.66                             104    0.05 8 82.4 139 
 625  0E  IAML    15 0 42.86         5.3 0.15                          82.4 139 
 628  0Z IP       15 0 28.73   62                         68   -0.30 7 95.7 112 
 628  0N ES       15 0 40.56                              68   -0.71 7 95.7 112 
 628  0N  IAML    15 0 42.58         9.3 0.32                          95.7 112 
 626  0N ES       15 0 43.79                              58   -0.41 7  108 151 
 627  0Z IP       15 0 30.88   70                         58    0.13 7  108 128 
 626  0Z IP       15 0 30.64   66                         58   -0.05 7  108 151 
 626  0E  IAML    15 0 46.76        15.3 0.29                           108 151 
 627  0N ES       15 0 44.21                              58   -0.09 7  108 128 
 627  0E  IAML    15 0 46.27         8.7 0.18                           108 128 
 629  0Z IP       15 0 34.49   63                         58    0.64 6  131 132 
 629  0N ES       15 0 50.51                              58    0.75 6  131 132 
 629  0E  IAML    15 0 51.67        10.5 0.26                           131 132 
 630  0Z IP       15 0 36.66   69                         58    0.41 5  148 118 
 630  0E ES       15 0 54.25                              58    0.27 5  148 118 
 630  0E  IAML    15 0 55.69        10.5 0.13                           148 118 
 631  0Z IP       15 0 40.10   68                         58    0.02 4  176 146 
 631  0N ES       15 1  0.17                              58   -0.55 4  176 146 
 631  0E  IAML    15 1  2.92         5.5 0.22                           176 146 
                                                                                
 2017  420 1302 36.2 L  72.629 129.025 21.8  BER 11 0.3 0.9LBER 1.7CBER        1
 GAP=299        0.52       2.8     9.4  2.1  0.7280E+01  0.7190E-01 -0.1861E+01E
 ACTION:UP  20-12-30 20:06 OP:elen STATUS:               ID:20170420130148     I
 OLDACT:REG 20-12-27 21:23 OP:elen STATUS:               ID:20170420130148     3
 2017-04-20-1301-48M.NSN___039                                                 6
 STAT SP IPHASW D HRMM SECON CODA AMPLIT PERI AZIMU VELO AIN AR TRES W  DIS CAZ7
 630  0Z IP       13 2 47.72   48                        106    0.0810 66.2 201 
 630  0E ES       13 2 56.70                             106    0.3510 66.2 201 
 630  0E  IAML    13 2 57.62         4.2 0.12                          66.2 201 
 628  0Z IP       13 2 48.04   43                        106    0.1310 68.0 249 
 628  0N ES       13 2 57.25                             106    0.4210 68.0 249 
 628  0N  IAML    13 2 59.12         8.4 0.12                          68.0 249 
 627  0Z IP       13 2 51.30   41                        102   -0.01 9 89.7 231 
 627  0N ES       13 3  2.84                             102    0.04 9 89.7 231 
 627  0N  IAML    13 3  3.72         3.6 0.20                          89.7 231 
 624  0Z IP       13 2 51.72   56                        101   -0.21 9 93.6 261 
 624  0N ES       13 3  3.60                             101   -0.31 9 93.6 261 
 624  0E  IAML    13 3  6.29        11.1 0.17                          93.6 261 
 629  0Z IP       13 2 52.13   45                        101   -0.40 9 97.4 217 
 629  0N ES       13 3  4.30                             101   -0.66 9 97.4 217 
 629  0N  IAML    13 3  7.12         1.6 0.12                          97.4 217 
 625  0Z IP       13 2 54.58   56                         58    0.07 8  111 244 
 625  0N ES       13 3  8.54                              58    0.10 8  111 244 
 625  0N  IAML    13 3 12.64         2.7 0.28                           111 244 
 623  0Z IP       13 2 54.92   53                         58   -0.14 8  115 254 
 623  0N ES       13 3  9.14                              58   -0.26 8  115 254 
 623  0N  IAML    13 3 13.97         1.9 0.31                           115 254 
 622  0Z IP       13 2 56.57   62                         58   -0.03 7  126 262 
 622  0E ES       13 3 11.98                              58   -0.14 7  126 262 
 622  0N  IAML    13 3 16.58         2.0 0.17                           126 262 
 626  0Z IP       13 2 57.46   55                         58    0.18 7  131 232 
 626  0N ES       13 3 13.50                              58    0.18 7  131 232 
 626  0N  IAML    13 3 15.11         3.2 0.16                           131 232 
 621  0Z IP       13 3  0.04   50                         58    0.42 6  148 252 
 621  0N ES       13 3 17.92                              58    0.49 6  148 252 
 621  0N  IAML    13 3 19.43         3.5 0.20                           148 252 
 631  0Z IP       13 2 59.88   53                         58   -0.04 6  150 205 
 631  0N ES       13 3 17.65                              58   -0.31 6  150 205 
 631  0E  IAML    13 3 18.76         4.9 0.32                           150 205 
                                                                                
 2017  423 1455 44.1 L  72.840 124.493 16.8  BER  8 0.2 0.6LBER 1.4CBER        1
 GAP=285        0.42       2.7     6.7  3.3  0.2031E+01 -0.1247E+02 -0.3691E+01E
 ACTION:UP  20-12-31 12:43 OP:elen STATUS:               ID:20170423145418     I
 OLDACT:REG 20-12-30 23:54 OP:elen STATUS:               ID:20170423145418     3
 2017-04-23-1454-18M.NSN___036                                                 6
 STAT SP IPHASW D HRMM SECON CODA AMPLIT PERI AZIMU VELO AIN AR TRES W  DIS CAZ7
 620  0Z IP       1455 48.50   35                        126   -0.1310 21.3 193 
 620  0N ES       1455 51.91                             126   -0.1510 21.3 193 
 620  0N  IAML    1455 52.17         7.5 0.26                          21.3 193 
 622  0Z IP       1455 53.26   37                        105    0.09 9 52.1 148 
 622  0N ES       1456  0.15                             105    0.10 9 52.1 148 
 622  0N  IAML    1456  0.80         2.6 0.14                          52.1 148 
 623  0Z IP       1455 56.38   39                        101    0.20 8 71.3 143 
 623  0N ES       1456  5.47                             101    0.12 8 71.3 143 
 623  0N  IAML    1456  7.34         2.3 0.20                          71.3 143 
 624  0Z IP       1455 56.49   45                        101    0.21 8 71.9 124 
 624  0N ES       1456  5.67                             101    0.15 8 71.9 124 
 624  0N  IAML    1456  7.60         2.5 0.13                          71.9 124 
 621  0Z IP       1455 56.84   32                        100    0.16 8 74.4 170 
 621  0E  IAML    1456  6.32         1.9 0.18                          74.4 170 
 621  0N ES       1456  6.34                             100    0.12 8 74.4 170 
 628  0Z IP       1456  0.83   54                         97   -0.12 7  101 118 
 628  0N ES       1456 13.28                              97   -0.46 7  101 118 
 628  0E  IAML    1456 14.87         2.2 0.23                           101 118 
 626  0Z IP       1456  3.70   45                         96    0.00 7  118 153 
 626  0N ES       1456 18.27                              96   -0.30 7  118 153 
 626  0E  IAML    1456 18.75         1.2 0.25                           118 153 
 630  0Z IP       1456  8.91   56                         58    0.05 5  155 122 
 630  0N ES       1456 27.27                              58   -0.40 5  155 122 
 630  0E  IAML    1456 28.26         3.0 0.26                           155 122 
                                                                                
 2017  423 2313 41.8 L  72.596 124.874 22.0  BER 12 0.3 1.3LBER 2.4CBER        1
 GAP=174        0.53       1.9     5.0  1.7  0.3957E+01 -0.3026E+01  0.1073E+00E
 ACTION:UP  21-01-01 14:08 OP:elen STATUS:               ID:20170423231216     I
 OLDACT:REG 20-12-30 23:59 OP:elen STATUS:               ID:20170423231216     3
 2017-04-23-2312-16M.NSN___036                                                 6
 STAT SP IPHASW D HRMM SECON CODA AMPLIT PERI AZIMU VELO AIN AR TRES W  DIS CAZ7
 620  0Z IP       2313 46.48   80                        139   -0.0710 18.7 290 
 620  0N ES       2313 50.18                             139    0.0110 18.7 290 
 620  0E  IAML    2313 50.37        79.3 0.10                          18.7 290 
 622  0Z IP       2313 47.05   83                        133    0.0610 22.6 139 
 622  0N ES       2313 51.23                             133    0.2810 22.6 139 
 622  0N  IAML    2313 52.56        48.0 0.16                          22.6 139 
 623  0Z IP       2313 49.73   80                        116    0.08 9 42.4 135 
 623  0N ES       2313 55.88                             116    0.25 9 42.4 135 
 623  0E  IAML    2313 56.62        82.7 0.25                          42.4 135 
 621  0Z IP       2313 50.11   78                        114   -0.07 9 46.0 179 
 621  0N ES       2313 56.52                             114   -0.04 9 46.0 179 
 621  0E  IAML    2313 56.54        16.1 0.14                          46.0 179 
 624  0Z IP       2313 50.63   84                        112    0.03 9 48.8 105 
 624  0N ES       2313 57.40                             112    0.10 9 48.8 105 
 624  0E  IAML    2313 58.06        49.5 0.19                          48.8 105 
 625  0Z IP       2313 52.86   87                        107    0.12 8 62.9 138 
 625  0E ES       2314  1.25                             107    0.19 8 62.9 138 
 625  0N  IAML    2314  3.61         7.8 0.27                          62.9 138 
 628  0Z IP       2313 54.98   89                        104   -0.33 8 79.4 105 
 628  0N ES       2314  4.93                             104   -0.65 8 79.4 105 
 628  0N  IAML    2314  6.54        12.5 0.19                          79.4 105 
 626  0Z IP       2313 56.45   85                        102   -0.26 8 88.4 153 
 626  0N ES       2314  7.49                             102   -0.57 8 88.4 153 
 626  0E  IAML    2314  8.44        13.9 0.16                          88.4 153 
 627  0Z IP       2313 56.83   83                        102   -0.01 7 89.1 126 
 627  0E ES       2314  8.15                             102   -0.13 7 89.1 126 
 627  0E  IAML    2314  9.54         4.7 0.16                          89.1 126 
 629  0Z IP       2314  0.22   88                         58    0.04 7  111 131 
 629  0N ES       2314 14.02                              58   -0.14 7  111 131 
 629  0E  IAML    2314 16.94         4.7 0.22                           111 131 
 630  0Z IP       2314  3.25   84                         58    0.45 6  131 115 
 630  0N ES       2314 19.30                              58    0.53 6  131 115 
 630  0E  IAML    2314 20.72         6.7 0.13                           131 115 
 631  0Z IP       2314  6.59   87                         58    0.22 5  157 147 
 631  0N ES       2314 25.05                              58   -0.01 5  157 147 
 631  0E  IAML    2314 26.89        13.4 0.18                           157 147 
                                                                                
 2017  425 0652 23.3 L  71.960 128.031  0.0  BER  9 0.5 1.2LBER 2.1CBER        1
 GAP=166        1.14       2.8     8.4  6.2 -0.6494E+01  0.1530E+02 -0.4218E+00E
 ACTION:UP  21-01-02 01:38 OP:elen STATUS:               ID:20170425065114     I
 OLDACT:REG 20-12-31 19:06 OP:elen STATUS:               ID:20170425065114     3
 2017-04-25-0651-14M.NSN___027                                                 6
 STAT SP IPHASW D HRMM SECON CODA AMPLIT PERI AZIMU VELO AIN AR TRES W  DIS CAZ7
 630  0Z IP        652 26.18   85                         90   -0.0810 16.4  38 
 630  0E ES        652 28.80                              90    0.3210 16.4  38 
 630  0E  IAML     652 29.11       220.3 0.20                          16.4  38 
 629  0Z IP        652 27.55   63                         90   -0.2710 25.1 262 
 629  0N ES        652 31.16                              90   -0.0710 25.1 262 
 629  0E  IAML     652 31.82        95.0 0.25                          25.1 262 
 627  0Z IP        652 30.04   64                         90   -0.47 9 40.2 296 
 627  0N ES        652 35.52                              90   -0.44 9 40.2 296 
 627  0E  IAML     652 38.27        30.9 0.53                          40.2 296 
 628  0Z IP        652 32.83   74                         65   -0.58 9 57.7 329 
 628  0N ES        652 40.31                              65   -0.75 9 57.7 329 
 628  0N  IAML     652 47.06        11.6 0.14                          57.7 329 
 631  0Z IP        652 35.05   90                         65   -0.08 8 68.4 204 
 631  0N ES        652 44.17                              65    0.08 8 68.4 204 
 631  0N  IAML     652 44.52        10.0 0.33                          68.4 204 
 625  0Z IP        652 35.26   67                         65   -0.19 8 70.3 291 
 625  0N ES        652 44.57                              65   -0.09 8 70.3 291 
 625  0N  IAML     652 48.33         6.8 0.40                          70.3 291 
 624  0Z IP        652 37.49   63                         65   -0.02 8 83.1 315 
 624  0N ES        652 48.42                              65    0.14 8 83.1 315 
 624  0N  IAML     652 50.56        18.4 0.21                          83.1 315 
 623  0Z IP        652 39.13   64                         65    0.86 7 87.8 299 
 623  0E ES        652 51.26                              65    1.63 7 87.8 299 
 623  0N  IAML     652 57.27         5.5 0.26                          87.8 299 
 621  0Z IP        652 42.42   59                         65    0.43 7  111 285 
 621  0N ES        652 56.94                              65    0.78 7  111 285 
 621  0E  IAML     653  0.65         5.5 0.17                           111 285 
                                                                                
 2017  426 1840 44.1 L  72.271 126.367 18.1  BER  8 0.1 1.3LBER 2.4CBER        1
 GAP= 93        0.30       0.7     2.1  1.7  0.9802E-01 -0.6929E+00  0.2459E+00E
 ACTION:UP  21-01-02 22:25 OP:elen STATUS:               ID:20170426183923     I
 OLDACT:REG 21-01-02 11:44 OP:elen STATUS:               ID:20170426183923     3
 2017-04-26-1839-23M.NSN___024                                                 6
 STAT SP IPHASW D HRMM SECON CODA AMPLIT PERI AZIMU VELO AIN AR TRES W  DIS CAZ7
 625  0Z IP       1840 47.88   74                        141    0.0210 14.0 219 
 625  0N ES       1840 50.73                             141   -0.0110 14.0 219 
 625  0E  IAML    1840 51.37       213.3 0.52                          14.0 219 
 624  0Z IP       1840 48.98   77                        126    0.0510 23.1 352 
 624  0N ES       1840 52.65                             126    0.0210 23.1 352 
 624  0N  IAML    1840 52.83       190.5 0.14                          23.1 352 
 627  0Z IP       1840 49.51   82                        122    0.0410 27.1 129 
 627  0N ES       1840 53.59                             122    0.0110 27.1 129 
 627  0N  IAML    1840 53.89        27.0 0.10                          27.1 129 
 628  0Z IP       1840 49.87   85                        119   -0.02 9 30.1  61 
 628  0N ES       1840 54.20                             119   -0.11 9 30.1  61 
 628  0N  IAML    1840 54.73        51.7 0.14                          30.1  61 
 629  0Z IP       1840 53.07   83                        107    0.20 9 50.1 139 
 629  0E ES       1840 59.71                             107    0.16 9 50.1 139 
 629  0E  IAML    1841  0.14        14.2 0.26                          50.1 139 
 621  0Z IP       1840 53.08   83                        107    0.03 9 51.3 260 
 621  0N ES       1840 59.75                             107   -0.12 9 51.3 260 
 621  0N  IAML    1841  0.04        20.1 0.21                          51.3 260 
 630  0Z IP       1840 56.07   88                        102    0.03 8 70.4 107 
 630  0E ES       1841  4.95                             102   -0.18 8 70.4 107 
 630  0N  IAML    1841  8.11         4.4 0.16                          70.4 107 
 631  0Z IP       1841  1.10   83                         98    0.04 7  102 162 
 631  0N ES       1841 13.69                              98   -0.28 7  102 162 
 631  0E  IAML    1841 13.87        16.2 0.28                           102 162 
                                                                                
