 2017  4 8 1004 44.9 L  72.613 124.950 15.2  BER 12 0.3 1.5LBER 2.6CBER        1
 GAP=184        0.54       2.4     5.6  2.8  0.8413E+01 -0.5357E+01 -0.1881E+00E
 ACTION:UP  20-12-21 14:32 OP:elen STATUS:               ID:20170408100319     I
 OLDACT:UP  20-12-20 16:21 OP:elen STATUS:               ID:20170408100319     3
 OLDACT:UP  20-12-19 02:06 OP:elen STATUS:               ID:20170408100319     3
 OLDACT:REG 20-12-15 20:09 OP:elen STATUS:               ID:20170408100319     3
 2017-04-08-1003-19M.NSN___039                                                 6
 STAT SP IPHASW D HRMM SECON CODA AMPLIT PERI AZIMU VELO AIN AR TRES W  DIS CAZ7
 620  0Z IP       10 4 49.10   78                        124   -0.0210 20.6 283 
 620  0N ES       10 4 52.40                             124    0.0410 20.6 283 
 620  0E  IAML    10 4 52.80       171.2 0.15                          20.6 283 
 622  0Z IP       10 4 49.30   86                        121   -0.0910 22.6 147 
 622  0N ES       10 4 52.82                             121   -0.0210 22.6 147 
 622  0E  IAML    10 4 53.10        74.9 0.37                          22.6 147 
 623  0Z IP       10 4 52.26   80                        107   -0.01 9 42.0 139 
 623  0N ES       10 4 58.11                             107    0.21 9 42.0 139 
 623  0N  IAML    10 4 59.03        75.1 0.25                          42.0 139 
 624  0Z IP       10 4 53.11   93                        105    0.09 9 46.9 108 
 624  0N ES       10 4 59.48                             105    0.25 9 46.9 108 
 624  0N  IAML    10 5  1.03        27.4 0.11                          46.9 108 
 625  0Z IP       10 4 55.37  106                        101   -0.13 8 62.6 141 
 625  0N ES       10 5  3.50                             101   -0.09 8 62.6 141 
 625  0N  IAML    10 5  3.88         8.5 0.32                          62.6 141 
 628  0Z IP       10 4 57.62  104                         99   -0.23 8 77.5 107 
 628  0N ES       10 5  7.40                              99   -0.33 8 77.5 107 
 628  0E  IAML    10 5  8.95        21.9 0.21                          77.5 107 
 627  0Z IP       10 4 59.88  107                         97    0.31 8 88.2 128 
 627  0N ES       10 5 11.19                              97    0.43 8 88.2 128 
 627  0N  IAML    10 5 12.24         8.1 0.25                          88.2 128 
 626  0Z IP       10 4 59.53   99                         97   -0.16 8 88.9 155 
 626  0E ES       10 5 10.66                              97   -0.30 8 88.9 155 
 626  0E  IAML    10 5 11.00         8.5 0.17                          88.9 155 
 629  0Z IP       10 5  3.50   89                         96    0.31 7  111 132 
 629  0N ES       10 5 17.47                              96    0.35 7  111 132 
 629  0E  IAML    10 5 18.54         6.7 0.21                           111 132 
 630  0Z IP       10 5  5.80   97                         95   -0.32 6  129 116 
 630  0N ES       10 5 21.43                              95   -0.86 6  129 116 
 630  0E  IAML    10 5 25.71        18.6 0.18                           129 116 
 631  0Z IP       10 5 10.15  104                         58    0.10 5  157 149 
 631  0E ES       10 5 28.84                              58   -0.36 5  157 149 
 631  0N  IAML    10 5 30.82        14.2 0.13                           157 149 
 632  0Z IP       10 5 14.26  104                         58    0.65 4  183 127 
 632  0N ES       10 5 35.96                              58    0.49 4  183 127 
 632  0E  IAML    10 5 36.82        10.4 0.35                           183 127 
                                                                                
 2017  4 8 1004 44.9 L  72.607 124.944 15.0  BER 13 0.3 1.4LBER 2.8CBER        1
 GAP=181        0.52       1.8     4.4  2.6  0.3422E+01 -0.4029E+01  0.1362E+00E
 ACTION:UP  20-12-21 15:15 OP:elen STATUS:               ID:20170408100354     I
 OLDACT:UP  20-12-20 16:45 OP:elen STATUS:               ID:20170408100354     3
 OLDACT:UP  20-12-19 13:04 OP:elen STATUS:               ID:20170408100354     3
 OLDACT:REG 20-12-19 09:34 OP:elen STATUS:               ID:20170408100354     3
 2017-04-08-1003-54M.NSN___039                                                 6
 STAT SP IPHASW D HRMM SECON CODA AMPLIT PERI AZIMU VELO AIN AR TRES W  DIS CAZ7
 620  0Z IP       10 4 49.12   92                        124   -0.0110 20.6 285 
 620  0N ES       10 4 52.40                             124    0.0410 20.6 285 
 620  0E  IAML    10 4 52.80       170.6 0.15                          20.6 285 
 622  0Z IP       10 4 49.31  112                        122   -0.0410 22.2 146 
 622  0N ES       10 4 52.78                             122    0.0310 22.2 146 
 622  0E  IAML    10 4 53.18        75.7 0.20                          22.2 146 
 623  0Z IP       10 4 52.27  100                        107    0.03 9 41.7 138 
 623  0N ES       10 4 58.13                             107    0.30 9 41.7 138 
 623  0N  IAML    10 4 59.15        73.9 0.30                          41.7 138 
 624  0Z IP       10 4 53.13  119                        105    0.08 9 46.9 108 
 624  0N ES       10 4 59.48                             105    0.22 9 46.9 108 
 624  0N  IAML    10 5  1.02        33.6 0.15                          46.9 108 
 621  0Z IP       10 4 52.92   98                        105   -0.18 9 47.2 182 
 621  0N ES       10 4 59.20                             105   -0.15 9 47.2 182 
 621  0E  IAML    10 5  1.72        20.3 0.22                          47.2 182 
 625  0Z IP       10 4 55.33  121                        101   -0.14 9 62.3 140 
 625  0N ES       10 5  3.31                             101   -0.20 9 62.3 140 
 625  0N  IAML    10 5  3.88         8.4 0.32                          62.3 140 
 628  0Z IP       10 4 57.63  111                         98   -0.26 8 77.5 106 
 628  0N ES       10 5  7.38                              98   -0.39 8 77.5 106 
 628  0E  IAML    10 5  8.94        21.7 0.19                          77.5 106 
 627  0Z IP       10 4 59.89  107                         97    0.32 8 88.0 127 
 627  0N ES       10 5 11.08                              97    0.35 8 88.0 127 
 627  0N  IAML    10 5 12.24         8.1 0.25                          88.0 127 
 626  0Z IP       10 4 59.78  122                         97    0.14 8 88.4 155 
 626  0N ES       10 5 10.85                              97    0.00 8 88.4 155 
 626  0E  IAML    10 5 11.00         8.5 0.18                          88.4 155 
 629  0Z IP       10 5  3.42  112                         96    0.24 7  111 132 
 629  0N ES       10 5 17.26                              96    0.18 7  111 132 
 629  0E  IAML    10 5 18.54         6.7 0.20                           111 132 
 630  0Z IP       10 5  5.81  123                         95   -0.33 6  129 116 
 630  0N ES       10 5 21.44                              95   -0.86 6  129 116 
 630  0E  IAML    10 5 25.71        18.5 0.18                           129 116 
 631  0Z IP       10 5 10.17  120                         58    0.13 5  156 148 
 631  0N ES       10 5 28.83                              58   -0.32 5  156 148 
 631  0N  IAML    10 5 30.82        14.2 0.13                           156 148 
 632  0Z IP       10 5 14.26  118                         58    0.63 4  183 127 
 632  0N ES       10 5 35.99                              58    0.52 4  183 127 
 632  0E  IAML    10 5 37.29         8.6 0.16                           183 127 
                                                                                
 2017  414 0459 18.8 L  72.268 127.384 20.1  BER  7 0.1 0.5LBER 0.5CBER        1
 GAP=152        0.35       0.9     3.2  2.1  0.8691E+00  0.6009E+00  0.6195E+00E
 ACTION:UP  20-12-23 23:35 OP:elen STATUS:               ID:20170414045811     I
 OLDACT:REG 20-12-21 23:05 OP:elen STATUS:               ID:20170414045811     3
 2017-04-14-0458-11M.NSN___039                                                 6
 STAT SP IPHASW D HRMM SECON CODA AMPLIT PERI AZIMU VELO AIN AR TRES W  DIS CAZ7
 628  0Z IP        459 23.05   21                        139   -0.0410 16.8 332 
 628  0N ES        459 26.28                             139   -0.1010 16.8 332 
 628  0N  IAML     459 26.45        23.3 0.08                          16.8 332 
 627  0Z IP        459 23.80   19                        131    0.1510 21.7 219 
 627  0N ES        459 27.53                             131    0.1610 21.7 219 
 627  0N  IAML     459 28.15         7.8 0.21                          21.7 219 
 629  0Z IP        459 25.93   20                        116    0.10 9 37.9 184 
 629  0N ES        459 31.21                             116   -0.00 9 37.9 184 
 629  0N  IAML     459 31.83         2.1 0.37                          37.9 184 
 630  0Z IP        459 26.00   20                        115    0.05 9 38.7 123 
 630  0N ES        459 31.33                             115   -0.09 9 38.7 123 
 630  0E  IAML     459 31.56         2.7 0.16                          38.7 123 
 626  0Z IP        459 29.62   24                        106    0.02 8 62.8 228 
 626  0E ES        459 37.59                             106   -0.25 8 62.8 228 
 626  0N  IAML     459 37.71         1.9 0.21                          62.8 228 
 622  0Z IP        459 31.28   26                        103    0.12 8 72.7 286 
 622  0E ES        459 40.52                             103   -0.06 8 72.7 286 
 622  0E  IAML     459 41.08         1.3 0.14                          72.7 286 
 631  0Z IP        459 35.11                             100    0.11 7 97.1 183 
 631  0N ES        459 47.07                             100   -0.28 7 97.1 183 
 631  0E  IAML     459 47.29         3.2 0.19                          97.1 183 
                                                                                
 2017  416 0523 41.9 L  71.956 127.088 19.3  BER 13 0.2 1.6LBER 2.5CBER        1
 GAP= 84        0.44       0.9     2.7  1.5  0.8481E+00  0.1013E+01  0.2515E-01E
 ACTION:UP  20-12-26 19:23 OP:elen STATUS:               ID:20170416052232     I
 OLDACT:REG 20-12-24 20:31 OP:elen STATUS:               ID:20170416052232     3
 2017-04-16-0522-32M.NSN___039                                                 6
 STAT SP IPHASW D HRMM SECON CODA AMPLIT PERI AZIMU VELO AIN AR TRES W  DIS CAZ7
 629  0Z IP        523 45.45   82                        156    0.1010 8.35 111 
 629  0N ES        523 48.09                             156    0.0910 8.35 111 
 629  0N  IAML     523 48.18       179.5 0.06                          8.35 111 
 627  0Z IP        523 46.35   83                        135    0.0710 18.3 349 
 627  0N ES        523 49.70                             135    0.0710 18.3 349 
 627  0E  IAML     523 49.90       231.5 0.18                          18.3 349 
 626  0Z IP        523 48.77   80                        115   -0.03 9 37.2 259 
 626  0N ES        523 53.87                             115   -0.19 9 37.2 259 
 626  0N  IAML     523 53.97        63.4 0.13                          37.2 259 
 625  0Z IP        523 49.48   82                        113    0.03 9 41.6 306 
 625  0N ES        523 55.09                             113   -0.11 9 41.6 306 
 625  0N  IAML     523 55.32        56.1 0.21                          41.6 306 
 630  0Z IP        523 49.98   86                        111    0.07 9 44.7  72 
 630  0N ES        523 55.91                             111   -0.10 9 44.7  72 
 630  0E  IAML     523 56.36        36.3 0.12                          44.7  72 
 628  0Z IP        523 50.46   78                        109   -0.20 9 49.6   2 
 628  0N ES        523 56.76                             109   -0.57 9 49.6   2 
 628  0E  IAML     523 57.87        59.4 0.22                          49.6   2 
 623  0Z IP        523 52.70   88                        105    0.22 8 61.4 313 
 623  0N ES        524  0.64                             105    0.10 8 61.4 313 
 623  0E  IAML     524  0.98        12.3 0.17                          61.4 313 
 631  0Z IP        523 52.69   91                        105    0.07 8 62.4 175 
 631  0N ES        524  0.61                             105   -0.18 8 62.4 175 
 631  0E  IAML     524  0.91       108.1 0.18                          62.4 175 
 624  0Z IP        523 53.19   87                        104    0.26 8 64.3 335 
 624  0N ES        524  1.53                             104    0.20 8 64.3 335 
 624  0E  IAML     524  3.80        21.0 0.28                          64.3 335 
 621  0Z IP        523 55.38   86                        101    0.02 8 79.7 290 
 621  0N ES        524  5.30                             101   -0.30 8 79.7 290 
 621  0N  IAML     524 10.84        11.6 0.16                          79.7 290 
 622  0Z IP        523 55.88   87                        101    0.28 7 81.3 313 
 622  0E ES        524  6.15                             101    0.11 7 81.3 313 
 622  0E  IAML     524 12.01        20.7 0.15                          81.3 313 
 632  0Z IP        523 55.75   95                        101    0.14 7 81.4 121 
 632  0N ES        524  5.91                             101   -0.14 7 81.4 121 
 632  0E  IAML     524  8.88        12.0 0.12                          81.4 121 
 620  0Z IP        524  2.06  120                         58    0.21 6  121 311 
 620  0N ES        524 16.86                              58   -0.18 6  121 311 
 620  0E  IAML     524 20.08        17.2 0.19                           121 311 
                                                                                
 2017  416 1821  5.5 L  72.867 125.003 19.3  BER 13 0.3 1.3LBER 2.4CBER        1
 GAP=262        0.54       2.9     6.2  2.7  0.3876E+01 -0.8357E+01 -0.2648E+01E
 ACTION:UP  20-12-27 00:47 OP:elen STATUS:               ID:20170416181941     I
 OLDACT:REG 20-12-24 20:59 OP:elen STATUS:               ID:20170416181941     3
 2017-04-16-1819-41M.NSN___039                                                 6
 STAT SP IPHASW D HRMM SECON CODA AMPLIT PERI AZIMU VELO AIN AR TRES W  DIS CAZ7
 620  0Z IP       1821 11.60   79                        119   -0.1010 32.1 223 
 620  0E ES       1821 16.27                             119   -0.1510 32.1 223 
 620  0E  IAML    1821 18.35        20.2 0.16                          32.1 223 
 622  0Z IP       1821 14.23   83                        109    0.12 9 48.5 168 
 622  0E ES       1821 20.81                             109    0.15 9 48.5 168 
 622  0N  IAML    1821 20.82        23.1 0.27                          48.5 168 
 624  0Z IP       1821 16.12   90                        105    0.12 9 60.7 135 
 624  0N ES       1821 24.11                             105    0.14 9 60.7 135 
 624  0N  IAML    1821 24.84        18.5 0.25                          60.7 135 
 623  0Z IP       1821 17.07   85                        104    0.34 9 65.4 157 
 623  0E ES       1821 25.73                             104    0.47 9 65.4 157 
 623  0E  IAML    1821 26.39        16.1 0.19                          65.4 157 
 621  0Z IP       1821 18.44   78                        102    0.01 8 76.3 183 
 621  0N ES       1821 28.05                             102   -0.21 8 76.3 183 
 621  0E  IAML    1821 29.12        15.1 0.21                          76.3 183 
 625  0Z IP       1821 19.96   85                        101    0.04 8 85.7 154 
 625  0N ES       1821 30.82                             101   -0.06 8 85.7 154 
 625  0N  IAML    1821 32.15         4.3 0.38                          85.7 154 
 628  0Z IP       1821 20.12   85                        100   -0.23 8 88.4 125 
 628  0N ES       1821 31.05                             100   -0.59 8 88.4 125 
 628  0N  IAML    1821 32.39        16.4 0.29                          88.4 125 
 627  0Z IP       1821 23.51   88                         98    0.22 7  107 141 
 627  0E ES       1821 36.89                              98    0.09 7  107 141 
 627  0E  IAML    1821 38.22         4.4 0.21                           107 141 
 626  0Z IP       1821 24.38   87                         98   -0.15 7  115 162 
 626  0N ES       1821 38.38                              98   -0.62 7  115 162 
 626  0E  IAML    1821 38.73        21.4 0.23                           115 162 
 629  0Z IP       1821 26.93   76                         58    0.20 6  130 142 
 629  0E ES       1821 42.83                              58   -0.04 6  130 142 
 629  0E  IAML    1821 47.02         3.3 0.46                           130 142 
 630  0Z IP       1821 28.17   78                         58   -0.19 6  142 127 
 630  0E ES       1821 45.06                              58   -0.68 6  142 127 
 630  0E  IAML    1821 46.35        10.8 0.24                           142 127 
 631  0Z IP       1821 34.15   89                         58    0.51 4  181 154 
 631  0N ES       1821 55.38                              58    0.36 4  181 154 
 631  0E  IAML    1821 56.98         8.3 0.23                           181 154 
 632  0Z IP       1821 36.81   87                         58    0.54 4  200 134 
 632  0N ES       1822  0.00                              58    0.36 4  200 134 
 632  0E  IAML    1822  3.02         4.0 0.37                           200 134 
                                                                                
