 2016 10 6 0156 55.5 L  72.836 125.043 13.8  SLT  7 0.2 1.2LSLT 0.8CSLT        1
 GAP=255        0.36       2.4     4.7  3.7  0.5744E+01 -0.1289E+02 -0.5229E+01E
 ACTION:ARG 20-04-11 14:12 OP:mn   STATUS:               ID:20161006015532     I
 2016-10-06-0155-32M.SIOLA_039                                                 6
 STAT SP IPHASW D HRMM SECON CODA AMPLIT PERI AZIMU VELO AIN AR TRES W  DIS CAZ7
 620  0Z IP   0 C  157  1.78   21                        106   -0.0010 30.7 229 
 620  0N ES   0    157  6.32                             106   -0.0910 30.7 229 
 620  0Z  IAML     157  6.94         7.4 0.28                          30.7 229 
 622  0Z IP   0 C  157  4.35   18                         98    0.0910 44.8 168 
 622  0N ES   0    157 10.75                              98    0.0710 44.8 168 
 622  0Z  IAML     157 10.80        14.9 0.26                          44.8 168 
 624  0Z IP   1 D  157  6.38   32                         96    0.06 7 57.4 134 
 624  0E ES   0    157 14.22                              96   -0.0310 57.4 134 
 624  0Z  IAML     157 14.72        11.1 0.18                          57.4 134 
 623  0Z IP   0 D  157  7.18   36                         95    0.0210 61.7 157 
 623  0E ES   0    157 15.67                              95   -0.0310 61.7 157 
 623  0Z  IAML     157 16.76         6.4 0.18                          61.7 157 
 628  0Z IP   0 D  157 10.53   30                         68   -0.07 9 85.4 124 
 628  0E ES   1    157 21.50                              68   -0.15 6 85.4 124 
 628  0Z  IAML     157 22.62         8.0 0.20                          85.4 124 
 627  0Z IP   1 C  157 13.67   29                         68   -0.05 6  103 140 
 627  0Z  IAML     157 26.49         3.7 0.63                           103 140 
 627  0E ES   2    157 26.93                              68   -0.13 4  103 140 
 631  0Z IP   2 C  157 24.68   34                         41    1.42 2  177 154 
 631  0E ES   4    157 46.16                              41    2.60 0  177 154 
 631  0Z  IAML     157 48.38         5.3 0.29                           177 154 
                                                                                
 2016 10 9 0036 44.8 L  72.822 125.005 14.0  SLT  7 0.3 1.3LSLT 1.2CSLT        1
 GAP=256        0.49       3.4     7.4  3.0  0.1379E+02 -0.1560E+02 -0.5321E+01E
 ACTION:ARG 20-04-11 14:12 OP:mn   STATUS:               ID:20161009003502     I
 2016-10-09-0035-02M.SIOLA_039                                                 6
 STAT SP IPHASW D HRMM SECON CODA AMPLIT PERI AZIMU VELO AIN AR TRES W  DIS CAZ7
 620  0Z IP   0 C  036 50.84   32                        109   -0.0110 28.8 230 
 620  0N ES   0    036 55.38                             109    0.1310 28.8 230 
 620  0Z  IAML     036 56.58        16.7 0.10                          28.8 230 
 622  0Z IP   1 C  036 53.50   32                         99    0.06 7 43.6 166 
 622  0N ES   0    036 59.75                              99    0.0310 43.6 166 
 622  0Z  IAML     036 59.81        24.2 0.25                          43.6 166 
 623  0Z IP   0 C  036 56.35   38                         95   -0.0410 60.8 155 
 623  0E ES   0    037  4.77                              95   -0.0610 60.8 155 
 623  0Z  IAML     037  5.81         6.2 0.14                          60.8 155 
 621  0Z IP   1 D  036 57.60   35                         68   -0.40 7 71.3 183 
 621  0E ES   2    037  7.10                              68   -0.52 5 71.3 183 
 621  0Z  IAML     037  8.38        15.3 0.24                          71.3 183 
 629  0Z IP   0 C  037  6.43   45                         50   -0.01 7  127 141 
 629  0N ES   0    037 22.76                              50    0.55 7  127 141 
 629  0Z  IAML     037 23.64         7.5 0.18                           127 141 
 630  0Z IP   2 C  037  7.41   51                         41   -0.54 3  139 125 
 630  0E ES   2    037 24.61                              41   -0.22 3  139 125 
 630  0Z  IAML     037 26.45         6.3 0.14                           139 125 
 631  0Z IP   3 D  037 13.60   46                         41    1.08 1  176 153 
 631  0E ES   4    037 35.16                              41    2.43 0  176 153 
 631  0Z  IAML     037 37.16         4.4 0.15                           176 153 
                                                                                
 2016 10 9 0036 44.5 L  72.836 125.029 13.5  SLT  8 0.3 1.4LSLT 1.4CSLT        1
 GAP=255        0.50       3.0     6.7  3.5  0.6771E+01 -0.1688E+02 -0.4909E+01E
 ACTION:ARG 20-04-11 14:12 OP:mn   STATUS:               ID:20161009003553     I
 2016-10-09-0035-53M.SIOLA_039                                                 6
 STAT SP IPHASW D HRMM SECON CODA AMPLIT PERI AZIMU VELO AIN AR TRES W  DIS CAZ7
 620  0Z IP   0 C  036 50.84   52                        106    0.0610 30.4 228 
 620  0N ES   0    036 55.36                             106    0.0210 30.4 228 
 620  0Z  IAML     036 56.58        17.0 0.10                          30.4 228 
 622  0Z IP   1 D  036 53.46   45                         98    0.13 7 44.9 168 
 622  0N ES   0    036 59.76                              98   -0.0010 44.9 168 
 622  0Z  IAML     037  0.06        25.9 0.26                          44.9 168 
 623  0Z IP   0 C  036 56.30   31                         94    0.0510 61.9 156 
 623  0N ES   1    037  4.89                              94    0.08 7 61.9 156 
 623  0Z  IAML     037  5.81         6.2 0.16                          61.9 156 
 621  0Z IP   1 C  036 57.58   30                         68   -0.40 7 72.9 184 
 621  0N ES   2    037  7.24                              68   -0.56 5 72.9 184 
 621  0Z  IAML     037  8.38        14.7 0.25                          72.9 184 
 628  0Z IP   0 C  036 59.56   41                         68   -0.19 9 85.7 124 
 628  0E ES   0    037 10.72                              68   -0.14 9 85.7 124 
 628  0Z  IAML     037 11.62        12.3 0.18                          85.7 124 
 629  0Z IP   0 C  037  6.49   34                         50    0.21 7  127 142 
 629  0N ES   1    037 23.04                              50    0.88 5  127 142 
 629  0Z  IAML     037 23.64         7.5 0.18                           127 142 
 630  0Z IP   2 C  037  7.39   41                         41   -0.35 3  140 126 
 630  0E ES   2    037 24.67                              41   -0.01 3  140 126 
 630  0Z  IAML     037 26.44         5.9 0.13                           140 126 
 632  0Z IP   3 C  037 15.92   58                         41    1.10 1  197 134 
 632  0E ES   4    037 39.74                              41    2.79 0  197 134 
 632  0Z  IAML     037 40.61         5.6 0.22                           197 134 
                                                                                
 2016 1012 0800 21.6 L  72.724 125.978 17.0  SLT  7 0.2 0.9LSLT 0.9CSLT        1
 GAP=250        0.46       2.1     6.5  2.5  0.6733E+01  0.1092E+02  0.1229E+01E
 ACTION:ARG 20-04-11 14:12 OP:mn   STATUS:               ID:20161012080000     I
 2016-10-12-0800-00M.SIOLA_039                                                 6
 STAT SP IPHASW D HRMM SECON CODA AMPLIT PERI AZIMU VELO AIN AR TRES W  DIS CAZ7
 624  0Z IP   0    8 0 27.95   30                        115    0.0910 29.4 160 
 624  0E ES   0    8 0 32.38                             115   -0.0810 29.4 160 
 624  0Z  IAML     8 0 32.42        56.4 0.15                          29.4 160 
 622  0Z IP   0 C  8 0 29.57   25                         68    0.1610 38.5 216 
 622  0Z  IAML     8 0 34.95         5.9 0.11                          38.5 216 
 622  0N ES   0    8 0 35.15                              68    0.0110 38.5 216 
 623  0Z IP   0 C  8 0 30.65   19                         68    0.2010 45.0 189 
 623  0N ES   0    8 0 37.07                              68    0.1310 45.0 189 
 623  0Z  IAML     8 0 37.41         3.8 0.08                          45.0 189 
 620  0Z IP   0 D  8 0 31.90   23                         68   -0.0310 54.7 263 
 620  0N ES   0    8 0 39.36                              68   -0.1310 54.7 263 
 620  0Z  IAML     8 0 39.78         3.5 0.14                          54.7 263 
 621  0Z IP   0 D  8 0 34.41   30                         68   -0.00 9 70.5 212 
 621  0N ES   0    8 0 43.65                              68   -0.14 9 70.5 212 
 621  0Z  IAML     8 0 44.87         4.4 0.19                          70.5 212 
 627  0Z IP   0 C  8 0 34.98   36                         68   -0.22 9 75.7 153 
 627  0E ES   2    8 0 44.45                              68   -0.71 4 75.7 153 
 627  0Z  IAML     8 0 44.79         2.0 0.23                          75.7 153 
 631  0Z IP   2 C  8 0 47.07   47                         41    0.74 3  154 163 
 631  0E ES   3    8 1  5.36                              41    0.95 1  154 163 
 631  0Z  IAML     8 1  7.14         4.7 0.69                           154 163 
                                                                                
 2016 1015 1013 35.7 L  72.059 126.943 15.3  SLT  7 0.2 0.8LSLT 0.9CSLT        1
 GAP=228        0.49       1.4     6.0  1.6 -0.1945E+01  0.3969E+01 -0.5423E+00E
 ACTION:ARG 20-04-11 14:12 OP:mn   STATUS:               ID:20161015101225     I
 2016-10-15-1012-25M.SIOLA_039                                                 6
 STAT SP IPHASW D HRMM SECON CODA AMPLIT PERI AZIMU VELO AIN AR TRES W  DIS CAZ7
 627  0Z IP   0 C 1013 38.86   33                        155    0.0810 6.65  12 
 627  0N ES   1   1013 40.66                             155   -0.38 7 6.65  12 
 627  0Z  IAML    1013 40.89        30.3 0.08                          6.65  12 
 625  0Z IP   0 D 1013 42.35   27                        110    0.1910 31.4 295 
 625  0E ES   0   1013 46.96                             110    0.0710 31.4 295 
 625  0Z  IAML    1013 46.96        15.8 0.13                          31.4 295 
 626  0Z IP   0 D 1013 42.99   25                        106    0.0910 36.7 239 
 626  0N ES   0   1013 47.98                             106   -0.2010 36.7 239 
 626  0Z  IAML    1013 48.27        16.6 0.41                          36.7 239 
 623  0Z IP   1 D 1013 45.75   25                        100    0.32 7 50.2 307 
 623  0E ES   0   1013 52.67                             100    0.1110 50.2 307 
 623  0Z  IAML    1013 54.07         1.9 0.09                          50.2 307 
 624  0Z IP   0 D 1013 45.77   24                         99    0.1510 51.8 334 
 624  0E ES   0   1013 52.73                              99   -0.1410 51.8 334 
 624  0Z  IAML    1013 53.80        10.3 0.20                          51.8 334 
 622  0Z IP   0 D 1013 48.55   32                         68   -0.13 9 70.1 308 
 622  0Z  IAML    1013 57.77         4.3 0.21                          70.1 308 
 622  0N ES   1   1013 57.77                              68   -0.41 7 70.1 308 
 620  0Z IP   0 C 1013 54.94   42                         54    0.00 8  110 308 
 620  0N ES   0   1014  8.98                              54   -0.02 8  110 308 
 620  0Z  IAML    1014  9.97         1.8 0.09                           110 308 
                                                                                
 2016 1021 0507 32.3 L  72.570 124.810 13.1  SLT  6 0.3 0.9LSLT 1.1CSLT        1
 GAP=160        0.59       2.1     5.9  3.6  0.6534E+01 -0.9966E+01 -0.1134E+01E
 ACTION:ARG 20-04-11 14:12 OP:mn   STATUS:               ID:20161021050606     I
 2016-10-21-0506-06M.SIOLA_039                                                 6
 STAT SP IPHASW D HRMM SECON CODA AMPLIT PERI AZIMU VELO AIN AR TRES W  DIS CAZ7
 620  0Z IP   0 C  5 7 36.69   23                        120    0.1410 18.1 302 
 620  0N ES   1    5 7 39.21                             120   -0.45 7 18.1 302 
 620  0Z  IAML     5 7 39.68        28.7 0.19                          18.1 302 
 622  0Z IP   0 C  5 7 37.45   38                        114    0.2010 22.1 130 
 622  0E ES   0    5 7 40.86                             114   -0.0110 22.1 130 
 622  0Z  IAML     5 7 41.16        28.4 0.28                          22.1 130 
 623  0Z IP   1 C  5 7 40.84   38                         98    0.26 7 42.0 130 
 623  0E ES   0    5 7 46.60                              98   -0.0410 42.0 130 
 623  0Z  IAML     5 7 48.07         7.4 0.13                          42.0 130 
 621  0Z IP   1 C  5 7 40.90   38                         97    0.24 7 43.1 176 
 621  0E ES   1    5 7 46.42                              97   -0.35 7 43.1 176 
 621  0Z  IAML     5 7 49.01         3.2 0.22                          43.1 176 
 624  0Z IP   1 C  5 7 42.28   37                         95    0.37 7 50.2 101 
 624  0E ES   0    5 7 48.73                              95   -0.2010 50.2 101 
 624  0Z  IAML     5 7 50.52        11.5 0.15                          50.2 101 
 628  0Z IP   0 C  5 7 46.83   39                         68    0.09 9 80.8 102 
 628  0N ES   1    5 7 56.85                              68   -0.45 7 80.8 102 
 628  0Z  IAML     5 7 58.61         3.8 0.14                          80.8 102 
                                                                                
 2016 1125 0156 33.7 L  72.716 124.976 11.7  SLT  7 0.3 0.7LSLT 1.2CSLT        1
 GAP=223        0.55       2.5     5.0  3.4  0.2115E+01 -0.1098E+02  0.1237E+00E
 ACTION:REG 18-11-20 15:40 OP:art  STATUS:               ID:20161125015508     I
 2016-11-25-0155-08M.arct__039                                                 6
 STAT SP IPHASW D HRMM SECON CODA AMPLIT PERI AZIMU VELO AIN AR TRES W  DIS CAZ7
 620  0Z IP   0    156 38.31                             109   -0.1310 22.0 252 
 620  0N ES   0    156 42.09                             109    0.1610 22.0 252 
 620  0Z  IAML     156 43.32         7.2 0.50                          22.0 252 
 622  0Z IP   0    156 40.36                              97    0.0610 32.5 160 
 622  0E ES   1    156 45.42                              97    0.27 7 32.5 160 
 622  0Z  IAML     156 47.11         3.5 0.15                          32.5 160 
 624  0Z IP   0    156 43.31   41                         93   -0.0810 51.0 121 
 624  0E ES   0    156 50.63                              93    0.1410 51.0 121 
 624  0Z  IAML     156 50.79         6.7 0.19                          51.0 121 
 621  0Z IP   0    156 44.79   36                         92   -0.0310 59.4 183 
 621  0N ES   1    156 52.50                              92   -0.46 7 59.4 183 
 621  0Z  IAML     156 54.72         2.3 0.42                          59.4 183 
 628  0Z IP   1    156 47.80                              68   -0.40 7 80.7 115 
 628  0N ES   0    156 58.61                              68   -0.20 9 80.7 115 
 628  0Z  IAML     156 58.74         3.3 0.20                          80.7 115 
 626  0Z IP   0    156 51.26   45                         68   -0.05 8 99.1 158 
 626  0E ES   0    157  4.29                              68    0.10 8 99.1 158 
 626  0Z  IAML     157  4.57         1.4 0.44                          99.1 158 
 630  0Z IP   1    156 57.01   38                         50    0.62 5  134 121 
 630  0N ES   2    157 13.89                              50    0.90 3  134 121 
 630  0Z  IAML     157 15.36         5.6 0.19                           134 121 
                                                                                
 2016 1125 0517 25.2 L  72.740 124.962 15.3  SLT  6 0.3 1.8LSLT 0.9CSLT        1
 GAP=231        0.55       2.9     5.2  2.7  0.8607E+00 -0.5337E+01  0.2209E+01E
 ACTION:REG 18-11-22 12:44 OP:art  STATUS:               ID:20161125051714     I
 2016-11-25-0517-14M.arct__039                                                 6
 STAT SP IPHASW D HRMM SECON CODA AMPLIT PERI AZIMU VELO AIN AR TRES W  DIS CAZ7
 620  0Z IP   0    517 30.42   34                        119    0.1110 22.5 245 
 620  0N ES   1    517 33.71                             119   -0.34 7 22.5 245 
 620  0Z  IAML     517 34.59       119.4 0.24                          22.5 245 
 622  0Z IP   0    517 32.38   33                        107   -0.0410 35.2 160 
 622  0E ES   1    517 37.98                             107    0.29 7 35.2 160 
 622  0Z  IAML     517 38.18        66.7 0.69                          35.2 160 
 624  0Z IP   0    517 35.40   32                         99    0.1110 52.8 123 
 624  0E ES   0    517 42.50                              99   -0.1710 52.8 123 
 624  0Z  IAML     517 43.14        32.8 0.24                          52.8 123 
 621  0Z IP   1    517 37.11   36                         68    0.32 7 62.0 182 
 621  0N ES   1    517 44.80                              68   -0.46 7 62.0 182 
 621  0Z  IAML     517 47.45        45.5 0.66                          62.0 182 
 628  0Z IP   0    517 39.72   26                         68   -0.02 9 82.3 116 
 628  0N ES   1    517 50.03                              68   -0.34 7 82.3 116 
 628  0Z  IAML     517 50.56        33.4 0.49                          82.3 116 
 626  0Z IP   1    517 43.39   26                         68    0.36 6  102 159 
 626  0E ES   0    517 56.25                              68    0.20 8  102 159 
 626  0Z  IAML     517 56.73        22.4 0.41                           102 159 
                                                                                
 2016 1125 0525 15.1 L  72.748 124.958 15.0  SLT  6 0.3 1.0LSLT 1.2CSLT        1
 GAP=234        0.51       2.8     4.7  2.6  0.3141E+01 -0.6464E+01 -0.7346E+00E
 ACTION:REG 18-11-22 13:29 OP:art  STATUS:               ID:20161125052350     I
 2016-11-25-0523-50M.arct__039                                                 6
 STAT SP IPHASW D HRMM SECON CODA AMPLIT PERI AZIMU VELO AIN AR TRES W  DIS CAZ7
 620  0Z IP   0    525 20.47                             118    0.2410 22.8 243 
 620  0N ES   0    525 23.76                             118   -0.2210 22.8 243 
 620  0Z  IAML     525 24.62        14.7 0.17                          22.8 243 
 622  0Z IP   0    525 22.38                             105   -0.0710 36.1 161 
 622  0Z  IAML     525 27.15         7.5 0.23                          36.1 161 
 622  0E ES   0    525 27.94                             105    0.1110 36.1 161 
 624  0Z IP   0    525 25.31   35                         98    0.0210 53.4 124 
 624  0N ES   0    525 32.71                              98   -0.0310 53.4 124 
 624  0Z  IAML     525 32.74        12.9 0.25                          53.4 124 
 621  0Z IP   0    525 26.90   40                         68    0.05 9 62.9 182 
 621  0N ES   2    525 34.94                              68   -0.50 5 62.9 182 
 621  0Z  IAML     525 37.48         5.6 0.65                          62.9 182 
 628  0Z IP   0    525 29.78   36                         68    0.03 9 82.8 117 
 628  0N ES   1    525 40.09                              68   -0.36 7 82.8 117 
 628  0Z  IAML     525 40.84         5.1 0.47                          82.8 117 
 626  0Z IP   3    525 33.97   39                         68    0.88 2  103 159 
 626  0Z  IAML     525 46.74         3.0 0.27                           103 159 
 626  0E ES   2    525 46.99                              68    0.76 4  103 159 
                                                                                
