 2017  4 5 1410 52.6 L  71.559 128.701  0.0  SLT 10 0.2 1.8LSLT 2.2CSLT        1
 GAP=281        0.45       1.8     7.2  2.6 -0.4729E+01  0.3588E+01 -0.2163E+01E
 ACTION:UP  20-12-21 00:57 OP:elen STATUS:               ID:20170405140956     I
 OLDACT:UP  20-12-20 03:02 OP:elen STATUS:               ID:20170405140956     3
 OLDACT:UP  20-12-17 00:06 OP:elen STATUS:               ID:20170405140956     3
 OLDACT:REG 20-12-13 13:22 OP:elen STATUS:               ID:20170405140956     3
 2017-04-05-1409-56M.NSN___039                                                 6
 STAT SP IPHASW D HRMM SECON CODA AMPLIT PERI AZIMU VELO AIN AR TRES W  DIS CAZ7
 631  0Z IP   0   1411  3.23   94                         65   -0.1010 54.6 252 
 631  0E ES   0   1411 11.26                              65    0.0910 54.6 252 
 631  0N  IAML    1411 12.28        28.6 0.17                          54.6 252 
 629  0Z IP   0   1411  4.71   96                         65   -0.0610 63.7 311 
 629  0N ES   0   1411 13.77                              65    0.1110 63.7 311 
 629  0N  IAML    1411 16.28         9.9 0.21                          63.7 311 
 626  0Z IP   1   1411 11.13  106                         56   -0.37 6  100 293 
 626  0N ES   1   1411 24.81                              56   -0.49 6  100 293 
 626  0N  IAML    1411 29.66        16.6 0.18                           100 293 
 628  0Z IP   1   1411 12.40   82                         50   -0.25 6  108 331 
 628  0N ES   1   1411 26.97                              50   -0.31 6  108 331 
 628  0N  IAML    1411 32.64        11.3 0.18                           108 331 
 625  0Z IP   0   1411 13.83   87                         50    0.06 8  113 308 
 625  0N ES   0   1411 29.36                              50    0.14 8  113 308 
 625  0N  IAML    1411 33.02        22.4 0.21                           113 308 
 624  0Z IP   0   1411 16.80   72                         39    0.06 7  132 322 
 624  0N ES   0   1411 34.63                              39    0.27 7  132 322 
 624  0N  IAML    1411 37.41        30.9 0.20                           132 322 
 623  0Z IP   1   1411 16.69   81                         39   -0.25 5  133 311 
 623  0N ES   0   1411 34.51                              39   -0.20 7  133 311 
 623  0N  IAML    1411 37.18        10.9 0.20                           133 311 
 621  0Z IP   0   1411 19.20   95                         33    0.24 6  150 300 
 621  0N ES   1   1411 38.62                              33    0.42 5  150 300 
 621  0E  IAML    1411 40.83        12.2 0.14                           150 300 
 622  0Z IP   0   1411 19.68   86                         33    0.24 6  153 312 
 622  0N ES   1   1411 39.50                              33    0.46 4  153 312 
 622  0N  IAML    1411 41.87        19.3 0.17                           153 312 
 620  0Z IP   4   1411 25.49   90                         33    1.57 0  193 311 
 620  0N ES   4   1411 49.48                              33    2.70 0  193 311 
 620  0E  IAML    1411 50.64         9.1 0.34                           193 311 
                                                                                
 2017  4 6 0838 42.2 L  72.370 129.369 11.7  SLT 10 0.3 1.1LSLT 2.0CSLT        1
 GAP=269        0.51       2.6     9.1  2.7  0.2702E+01 -0.8902E+00  0.1285E+01E
 ACTION:UP  20-12-21 11:42 OP:elen STATUS:               ID:20170406083758     I
 OLDACT:UP  20-12-20 10:20 OP:elen STATUS:               ID:20170406083758     3
 OLDACT:UP  20-12-17 00:35 OP:elen STATUS:               ID:20170406083758     3
 OLDACT:REG 20-12-13 13:33 OP:elen STATUS:               ID:20170406083758     3
 2017-04-06-0837-58M.NSN___039                                                 6
 STAT SP IPHASW D HRMM SECON CODA AMPLIT PERI AZIMU VELO AIN AR TRES W  DIS CAZ7
 630  0Z IP   1    838 51.70   57                         93    0.24 8 48.5 228 
 630  0N ES   1    838 58.20                              93    0.00 8 48.5 228 
 630  0E  IAML     838 59.08         4.6 0.32                          48.5 228 
 628  0Z IP   0    838 55.91   54                         91    0.0910 75.1 274 
 628  0N ES   1    839  5.39                              91   -0.35 7 75.1 274 
 628  0N  IAML     839  6.74         7.1 0.22                          75.1 274 
 629  0Z IP   1    838 58.08   72                         68    0.17 7 85.8 236 
 629  0N ES   0    839  9.14                              68   -0.2210 85.8 236 
 629  0N  IAML     839 10.76         1.9 0.30                          85.8 236 
 627  0Z IP   1    838 58.22   59                         68    0.36 7 86.0 252 
 627  0N ES   0    839  9.43                              68    0.1510 86.0 252 
 627  0E  IAML     839 10.65         5.5 0.18                          86.0 252 
 632  0Z IP   1    838 58.38   81                         68   -0.58 7 89.4 187 
 632  0N ES   4    839  9.68                              68   -1.50 0 89.4 187 
 632  0E  IAML     839 11.80         4.6 0.32                          89.4 187 
 624  0Z IP   1    839  0.59   77                         68   -0.37 7  105 278 
 624  0N ES   4    839 13.56                              68   -1.08 0  105 278 
 624  0N  IAML     839 14.48        13.0 0.22                           105 278 
 626  0Z IP   1    839  4.21   83                         50    0.33 6  126 246 
 626  0N ES   0    839 19.89                              50    0.20 8  126 246 
 626  0N  IAML     839 21.55         3.0 0.36                           126 246 
 631  0Z IP   1    839  5.19   85                         50    0.24 6  131 215 
 631  0N ES   0    839 21.50                              50   -0.05 8  131 215 
 631  0E  IAML     839 23.21         3.0 0.23                           131 215 
 622  0Z IP   0    839  5.45   70                         45   -0.08 7  137 275 
 622  0N ES   2    839 22.04                              45   -0.50 4  137 275 
 622  0E  IAML     839 24.42         1.8 0.17                           137 275 
 621  0Z IP   4    839  8.64   76                         41    1.34 0  154 264 
 621  0N ES   4    839 27.55                              41    1.95 0  154 264 
 621  0N  IAML     839 30.04         2.0 0.17                           154 264 
                                                                                
 2017  4 6 1728  0.6 L  72.714 125.650 18.6  SLT 10 0.3 1.0LSLT 1.8CSLT        1
 GAP=222        0.49       2.0     4.1  3.0  0.1765E+01 -0.1296E+01 -0.1546E+01E
 ACTION:UP  20-12-21 12:27 OP:elen STATUS:               ID:20170406172639     I
 OLDACT:UP  20-12-20 10:56 OP:elen STATUS:               ID:20170406172639     3
 OLDACT:UP  20-12-17 22:23 OP:elen STATUS:               ID:20170406172639     3
 OLDACT:REG 20-12-15 19:37 OP:elen STATUS:               ID:20170406172639     3
 2017-04-06-1726-39M.NSN___039                                                 6
 STAT SP IPHASW D HRMM SECON CODA AMPLIT PERI AZIMU VELO AIN AR TRES W  DIS CAZ7
 622  0Z IP   1   1728  7.84   49                        106    0.33 7 32.3 201 
 622  0N ES   0   1728 12.73                             106    0.1710 32.3 201 
 622  0E  IAML    1728 14.00        10.3 0.41                          32.3 201 
 624  0Z IP   0   1728  7.81   52                        105    0.1710 33.7 141 
 624  0N ES   0   1728 12.77                             105   -0.0110 33.7 141 
 624  0N  IAML    1728 13.91         6.5 0.11                          33.7 141 
 623  0Z IP   0   1728  9.42   62                         97    0.1710 43.4 175 
 623  0N ES   0   1728 15.48                              97   -0.0810 43.4 175 
 623  0E  IAML    1728 17.38         3.3 0.15                          43.4 175 
 620  0Z IP   0   1728  9.28   53                         97    0.0510 43.8 262 
 620  0N ES   1   1728 15.28                              97   -0.25 7 43.8 262 
 620  0E  IAML    1728 15.49        25.5 0.18                          43.8 262 
 628  0Z IP   0   1728 11.58   47                         93   -0.0810 61.1 124 
 628  0N ES   1   1728 19.31                              93   -0.43 7 61.1 124 
 628  0N  IAML    1728 19.87        12.7 0.25                          61.1 124 
 621  0Z IP   0   1728 12.54   57                         93    0.06 9 64.4 204 
 621  0N ES   0   1728 21.02                              93   -0.13 9 64.4 204 
 621  0E  IAML    1728 21.75         2.5 0.16                          64.4 204 
 626  0Z IP   0   1728 16.77   51                         91   -0.17 8 93.1 172 
 626  0E ES   2   1728 28.24                              91   -0.63 4 93.1 172 
 626  0N  IAML    1728 29.14         1.6 0.15                          93.1 172 
 630  0Z IP   2   1728 19.73   74                         56   -0.40 4  115 127 
 630  0N ES   4   1728 33.53                              56   -0.87 0  115 127 
 630  0E  IAML    1728 34.32         3.9 0.15                           115 127 
 631  0Z IP   2   1728 26.31   93                         45    0.84 3  157 159 
 631  0N ES   3   1728 44.89                              45    1.26 1  157 159 
 631  0E  IAML    1728 46.34         3.2 0.16                           157 159 
 632  0Z IP   3   1728 28.58   90                         45    1.06 1  173 136 
 632  0N ES   4   1728 48.98                              45    1.81 0  173 136 
 632  0E  IAML    1728 50.06         4.5 0.31                           173 136 
                                                                                
 2017  4 8 1004 44.1 L  72.601 124.965 14.9  SLT 12 0.3 1.6LSLT 2.3CSLT        1
 GAP=180        0.49       2.2     4.8  1.5  0.7140E+01 -0.2589E+01  0.6304E-01E
 ACTION:UP  20-12-21 14:32 OP:elen STATUS:               ID:20170408100319     I
 OLDACT:UP  20-12-20 16:21 OP:elen STATUS:               ID:20170408100319     3
 OLDACT:UP  20-12-19 02:06 OP:elen STATUS:               ID:20170408100319     3
 OLDACT:REG 20-12-15 20:09 OP:elen STATUS:               ID:20170408100319     3
 2017-04-08-1003-19M.NSN___039                                                 6
 STAT SP IPHASW D HRMM SECON CODA AMPLIT PERI AZIMU VELO AIN AR TRES W  DIS CAZ7
 622  0Z IP   1   10 4 49.30   86                        120    0.25 7 21.2 146 
 622  0N ES   1   10 4 52.82                             120    0.14 7 21.2 146 
 622  0E  IAML    10 4 53.10        74.9 0.37                          21.2 146 
 620  0Z IP   0   10 4 49.10   78                        120    0.1010 21.4 286 
 620  0N ES   0   10 4 52.40                             120   -0.1910 21.4 286 
 620  0E  IAML    10 4 52.80       171.2 0.15                          21.4 286 
 623  0Z IP   0   10 4 52.26   80                        102    0.0510 40.7 139 
 623  0N ES   0   10 4 58.11                             102   -0.0310 40.7 139 
 623  0N  IAML    10 4 59.03        75.1 0.25                          40.7 139 
 624  0Z IP   0   10 4 53.11   93                        100    0.0810 46.1 107 
 624  0N ES   0   10 4 59.48                             100   -0.0810 46.1 107 
 624  0N  IAML    10 5  1.03        27.4 0.11                          46.1 107 
 625  0Z IP   0   10 4 55.37  106                         68   -0.2210 61.3 140 
 625  0N ES   1   10 5  3.50                              68   -0.50 7 61.3 140 
 625  0N  IAML    10 5  3.88         8.5 0.32                          61.3 140 
 628  0Z IP   1   10 4 57.62  104                         68   -0.13 7 76.6 106 
 628  0N ES   1   10 5  7.40                              68   -0.34 7 76.6 106 
 628  0E  IAML    10 5  8.95        21.9 0.21                          76.6 106 
 627  0Z IP   0   10 4 59.88  107                         68    0.21 9 87.0 127 
 627  0N ES   0   10 5 11.19                              68    0.14 9 87.0 127 
 627  0N  IAML    10 5 12.24         8.1 0.25                          87.0 127 
 626  0Z IP   1   10 4 59.53   99                         68   -0.14 6 87.5 155 
 626  0E ES   2   10 5 10.66                              68   -0.39 4 87.5 155 
 626  0E  IAML    10 5 11.00         8.5 0.17                          87.5 155 
 629  0Z IP   0   10 5  3.50   89                         54    0.20 8  110 132 
 629  0N ES   0   10 5 17.47                              54    0.13 8  110 132 
 629  0E  IAML    10 5 18.54         6.7 0.21                           110 132 
 630  0Z IP   0   10 5  5.80   97                         50    0.09 7  128 116 
 630  0N ES   1   10 5 21.43                              50   -0.07 5  128 116 
 630  0E  IAML    10 5 25.71        18.6 0.18                           128 116 
 631  0Z IP   2   10 5 10.15  104                         41    0.87 3  156 148 
 631  0E ES   2   10 5 28.84                              41    1.17 3  156 148 
 631  0N  IAML    10 5 30.82        14.2 0.13                           156 148 
 632  0Z IP   4   10 5 14.26  104                         41    1.81 0  182 127 
 632  0N ES   4   10 5 35.96                              41    2.79 0  182 127 
 632  0E  IAML    10 5 36.82        10.4 0.35                           182 127 
                                                                                
 2017  4 8 1004 44.1 L  72.592 124.957 14.2  SLT 13 0.3 1.6LSLT 2.5CSLT        1
 GAP=176        0.46       1.5     3.8  1.6  0.2598E+01 -0.2457E+01  0.1186E+00E
 ACTION:UP  20-12-21 15:15 OP:elen STATUS:               ID:20170408100354     I
 OLDACT:UP  20-12-20 16:45 OP:elen STATUS:               ID:20170408100354     3
 OLDACT:UP  20-12-19 13:04 OP:elen STATUS:               ID:20170408100354     3
 OLDACT:REG 20-12-19 09:34 OP:elen STATUS:               ID:20170408100354     3
 2017-04-08-1003-54M.NSN___039                                                 6
 STAT SP IPHASW D HRMM SECON CODA AMPLIT PERI AZIMU VELO AIN AR TRES W  DIS CAZ7
 622  0Z IP   1   10 4 49.31  112                        119    0.35 7 20.6 144 
 622  0N ES   2   10 4 52.78                             119    0.30 5 20.6 144 
 622  0E  IAML    10 4 53.18        75.7 0.20                          20.6 144 
 620  0Z IP   0   10 4 49.12   92                        118    0.1110 21.5 289 
 620  0N ES   0   10 4 52.40                             118   -0.1710 21.5 289 
 620  0E  IAML    10 4 52.80       170.6 0.15                          21.5 289 
 623  0Z IP   0   10 4 52.27  100                        101    0.1110 40.2 137 
 623  0N ES   0   10 4 58.13                             101    0.1210 40.2 137 
 623  0N  IAML    10 4 59.15        73.9 0.30                          40.2 137 
 621  0Z IP   0   10 4 52.92   98                         99   -0.0410 45.6 183 
 621  0N ES   1   10 4 59.20                              99   -0.21 7 45.6 183 
 621  0E  IAML    10 5  1.72        20.3 0.22                          45.6 183 
 624  0Z IP   0   10 4 53.13  119                         99    0.0710 46.0 106 
 624  0N ES   0   10 4 59.48                              99   -0.1010 46.0 106 
 624  0N  IAML    10 5  1.02        33.6 0.15                          46.0 106 
 625  0Z IP   0   10 4 55.33  121                         96   -0.2310 60.7 140 
 625  0N ES   2   10 5  3.31                              96   -0.59 5 60.7 140 
 625  0N  IAML    10 5  3.88         8.4 0.32                          60.7 140 
 628  0Z IP   1   10 4 57.63  111                         68   -0.22 7 76.6 105 
 628  0N ES   2   10 5  7.38                              68   -0.48 4 76.6 105 
 628  0E  IAML    10 5  8.94        21.7 0.19                          76.6 105 
 627  0Z IP   0   10 4 59.89  107                         68    0.18 9 86.7 127 
 627  0N ES   0   10 5 11.08                              68    0.00 9 86.7 127 
 627  0N  IAML    10 5 12.24         8.1 0.25                          86.7 127 
 626  0Z IP   0   10 4 59.78  122                         68    0.13 9 86.8 154 
 626  0N ES   1   10 5 10.85                              68   -0.12 6 86.8 154 
 626  0E  IAML    10 5 11.00         8.5 0.18                          86.8 154 
 629  0Z IP   0   10 5  3.42  112                         54    0.06 8  109 132 
 629  0N ES   1   10 5 17.26                              54   -0.13 6  109 132 
 629  0E  IAML    10 5 18.54         6.7 0.20                           109 132 
 630  0Z IP   0   10 5  5.81  123                         50   -0.00 7  128 115 
 630  0N ES   1   10 5 21.44                              50   -0.20 5  128 115 
 630  0E  IAML    10 5 25.71        18.5 0.18                           128 115 
 631  0Z IP   2   10 5 10.17  120                         41    0.83 3  155 148 
 631  0N ES   2   10 5 28.83                              41    1.09 3  155 148 
 631  0N  IAML    10 5 30.82        14.2 0.13                           155 148 
 632  0Z IP   4   10 5 14.26  118                         41    1.71 0  181 127 
 632  0N ES   4   10 5 35.99                              41    2.70 0  181 127 
 632  0E  IAML    10 5 37.29         8.6 0.16                           181 127 
                                                                                
 2017  412 1507  0.0 L  71.492 129.570  7.7  SLT  6 0.4 0.9LSLT 1.6CSLT        1
 GAP=297        0.46       3.1    12.5  2.7 -0.4804E+01 -0.1750E+02  0.6775E+00E
 ACTION:UP  20-12-23 19:18 OP:elen STATUS:               ID:20170412150615     I
 OLDACT:REG 20-12-21 22:40 OP:elen STATUS:               ID:20170412150615     3
 2017-04-12-1506-15M.NSN___039                                                 6
 STAT SP IPHASW D HRMM SECON CODA AMPLIT PERI AZIMU VELO AIN AR TRES W  DIS CAZ7
 632  0Z IP   0   15 7  4.64   45                        111    0.0110 19.9 298 
 632  0N ES   0   15 7  8.05                             111    0.0410 19.9 298 
 632  0E  IAML    15 7  8.99        28.2 0.08                          19.9 298 
 630  0Z IP   0   15 7 14.54   43                         66   -0.05 9 78.2 327 
 630  0E ES   1   15 7 25.17                              66   -0.07 7 78.2 327 
 630  0E  IAML    15 7 25.98         2.1 0.16                          78.2 327 
 631  0Z IP   1   15 7 15.68   55                         66   -0.12 6 83.2 264 
 631  0E ES   2   15 7 27.10                              66   -0.24 4 83.2 264 
 631  0N  IAML    15 7 28.47         3.1 0.24                          83.2 264 
 628  0Z IP   2   15 7 22.26   45                         44   -0.44 3  132 322 
 628  0N ES   4   15 7 38.50                              44   -0.77 0  132 322 
 628  0N  IAML    15 7 40.00         1.0 0.15                           132 322 
 626  0Z IP   2   15 7 23.77   43                         44    0.89 3  132 291 
 626  0N ES   3   15 7 41.09                              44    1.50 2  132 291 
 626  0N  IAML    15 7 41.90         1.7 0.18                           132 291 
 625  0Z IP   3   15 7 25.58   45                         37    1.19 2  143 304 
 625  0N ES   4   15 7 44.16                              37    1.96 0  143 304 
 625  0N  IAML    15 7 46.35         2.0 0.22                           143 304 
                                                                                
