 2017  323 1612 48.6 L  72.455 125.123 10.9  SLT  6 0.2 0.6LSLT 0.6CSLT        1
 GAP=135        0.51       1.2     3.2  2.1  0.9037E+00  0.1273E+01  0.7042E-01E
 ACTION:ARG 20-12-21 03:09 OP:mn   STATUS:               ID:20170323161125     I
 2017-03-23-1611-25M.a_____039                                                 6
 STAT SP IPHASW D HRMM SECON CODA AMPLIT PERI AZIMU VELO AIN AR TRES W  DIS CAZ7
 622  0Z IP   0 C 1612 51.41   22                        146    0.2110 6.58 103 
 622  0E ES   0   1612 52.97                             146   -0.1210 6.58 103 
 622  0Z  IAML    1612 53.39        63.5 0.21                          6.58 103 
 623  0Z IP   0 D 1612 54.32   36                         97    0.2310 25.9 123 
 623  0E ES   0   1612 58.05                              97   -0.0510 25.9 123 
 623  0Z  IAML    1612 59.14         5.2 0.24                          25.9 123 
 621  0Z IP   0 D 1612 55.02   23                         93    0.1210 31.3 195 
 621  0E ES   0   1612 59.28                              93   -0.2110 31.3 195 
 621  0Z  IAML    1613  1.01         3.2 0.17                          31.3 195 
 620  0Z IP   0 D 1612 55.59   21                         92    0.1510 34.2 311 
 620  0N ES   0   1613  0.20                              92   -0.2210 34.2 311 
 620  0Z  IAML    1613  1.52         5.5 0.15                          34.2 311 
 624  0Z IP   1 D 1612 56.50   21                         91    0.26 7 38.8  86 
 624  0N ES   0   1613  1.64                              91   -0.1710 38.8  86 
 624  0Z  IAML    1613  2.27         5.5 0.14                          38.8  86 
 628  0Z IP   0 C 1613  1.10   26                         90    0.05 9 68.5  94 
 628  0N ES   1   1613  9.81                              90   -0.32 7 68.5  94 
 628  0Z  IAML    1613 11.19         2.5 0.25                          68.5  94 
                                                                                
 2017  326 0836 32.9 L  71.974 127.689 19.2  SLT  7 0.3 1.7LSLT 1.0CSLT        1
 GAP=119        0.62       1.8     4.3  3.3  0.5695E-01  0.5957E+00  0.1604E+01E
 ACTION:ARG 20-12-21 03:09 OP:mn   STATUS:               ID:20170326083527     I
 2017-03-26-0835-27M.a_____039                                                 6
 STAT SP IPHASW D HRMM SECON CODA AMPLIT PERI AZIMU VELO AIN AR TRES W  DIS CAZ7
 629  0Z IP   1 C  836 37.77   15                        139    0.43 7 13.9 249 
 629  0N ES   0    836 40.52                             139   -0.0310 13.9 249 
 629  0Z  IAML     836 40.82       360.6 0.20                          13.9 249 
 630  0Z IP   1 D  836 38.91   22                        119    0.31 7 24.6  62 
 630  0E ES   0    836 42.54                             119   -0.1910 24.6  62 
 630  0Z  IAML     836 43.12       190.9 0.17                          24.6  62 
 627  0Z IP   0 C  836 39.40   35                        113    0.1510 29.1 304 
 627  0N ES   2    836 43.30                             113   -0.55 5 29.1 304 
 627  0Z  IAML     836 43.48        88.3 0.34                          29.1 304 
 626  0Z IP   1 D  836 43.96   29                         95    0.26 7 58.0 261 
 626  0N ES   1    836 51.25                              95   -0.29 7 58.0 261 
 626  0Z  IAML     836 51.63        35.8 0.21                          58.0 261 
 625  0Z IP   1 D  836 44.17   34                         95    0.24 7 58.8 293 
 625  0E ES   1    836 51.55                              95   -0.40 7 58.8 293 
 625  0Z  IAML     836 51.71        10.9 0.18                          58.8 293 
 632  0Z IP   0 D  836 45.56   41                         94   -0.00 9 65.7 132 
 632  0E ES   2    836 54.09                              94   -0.68 5 65.7 132 
 632  0Z  IAML     836 55.46        17.7 0.12                          65.7 132 
 631  0Z IP   1 D  836 45.76   37                         94    0.35 7 66.0 194 
 631  0E ES   0    836 54.35                              94   -0.15 9 66.0 194 
 631  0Z  IAML     836 54.70        21.7 0.11                          66.0 194 
                                                                                
 2017  4 2 0422  0.6 L  72.715 125.651 19.0  SLT 10 0.3 1.3LSLT 1.7CSLT        1
 GAP=223        0.49       2.1     3.9  3.1  0.1875E+01 -0.8146E+00 -0.1346E+01E
 ACTION:UP  20-12-20 22:46 OP:elen STATUS:               ID:20170402042039     I
 OLDACT:UP  20-12-20 00:44 OP:elen STATUS:               ID:20170402042039     3
 OLDACT:UP  20-12-16 20:09 OP:elen STATUS:               ID:20170402042039     3
 OLDACT:UP  20-12-16 14:06 OP:elen STATUS:               ID:20170402042039     3
 OLDACT:REG 20-12-12 10:59 OP:elen STATUS:               ID:20170402042039     3
 2017-04-02-0420-39M.NSN___039                                                 6
 STAT SP IPHASW D HRMM SECON CODA AMPLIT PERI AZIMU VELO AIN AR TRES W  DIS CAZ7
 622  0Z IP   1    422  7.79   47                        108    0.28 7 32.4 201 
 622  0N ES   1    422 12.79                             108    0.21 7 32.4 201 
 622  0N  IAML     422 13.69        13.8 0.15                          32.4 201 
 624  0Z IP   0    422  7.79   50                        107    0.1610 33.8 142 
 624  0N ES   0    422 12.83                             107    0.0410 33.8 142 
 624  0N  IAML     422 13.96        16.4 0.13                          33.8 142 
 623  0Z IP   0    422  9.41   48                         99    0.1810 43.5 175 
 623  0N ES   0    422 15.58                              99    0.0110 43.5 175 
 623  0E  IAML     422 17.17         7.4 0.15                          43.5 175 
 620  0Z IP   0    422  9.30   52                         99    0.0910 43.9 262 
 620  0N ES   1    422 15.36                              99   -0.16 7 43.9 262 
 620  0N  IAML     422 15.71        31.6 0.15                          43.9 262 
 628  0Z IP   0    422 11.53   56                         94   -0.1010 61.1 124 
 628  0N ES   0    422 19.37                              94   -0.3410 61.1 124 
 628  0N  IAML     422 19.92        27.0 0.25                          61.1 124 
 621  0Z IP   0    422 12.50   48                         94    0.04 9 64.5 204 
 621  0N ES   0    422 20.98                              94   -0.17 9 64.5 204 
 621  0E  IAML     422 21.82         5.2 0.18                          64.5 204 
 626  0Z IP   1    422 16.65   47                         92   -0.26 6 93.1 172 
 626  0N ES   2    422 28.16                              92   -0.69 4 93.1 172 
 626  0E  IAML     422 28.49         3.2 0.21                          93.1 172 
 630  0Z IP   2    422 19.71   62                         56   -0.35 4  115 127 
 630  0N ES   4    422 33.47                              56   -0.82 0  115 127 
 630  0E  IAML     422 34.42         8.4 0.10                           115 127 
 631  0Z IP   2    422 26.15   76                         45    0.76 3  157 159 
 631  0N ES   3    422 44.66                              45    1.14 1  157 159 
 631  0E  IAML     422 45.70         6.6 0.23                           157 159 
 632  0Z IP   3    422 28.64   56                         45    1.21 1  173 136 
 632  0N ES   4    422 49.00                              45    1.95 0  173 136 
 632  0E  IAML     422 50.12         7.9 0.31                           173 136 
                                                                                
 2017  4 2 0636 36.9 L  72.715 125.658 22.3  SLT  6 0.2 0.8LSLT 1.0CSLT        1
 GAP=223        0.46       2.5     4.6  2.7  0.5518E+01 -0.6409E+01 -0.3535E+01E
 ACTION:UP  20-12-20 23:02 OP:elen STATUS:               ID:20170402063515     I
 OLDACT:UP  20-12-20 01:04 OP:elen STATUS:               ID:20170402063515     3
 OLDACT:UP  20-12-16 20:09 OP:elen STATUS:               ID:20170402063515     3
 OLDACT:UP  20-12-16 14:40 OP:elen STATUS:               ID:20170402063515     3
 OLDACT:REG 20-12-13 12:49 OP:elen STATUS:               ID:20170402063515     3
 2017-04-02-0635-15M.NSN___039                                                 6
 STAT SP IPHASW D HRMM SECON CODA AMPLIT PERI AZIMU VELO AIN AR TRES W  DIS CAZ7
 622  0Z IP   0    636 44.23   26                        116    0.2110 32.5 201 
 622  0N ES   0    636 49.17                             116   -0.0810 32.5 201 
 622  0N  IAML     636 49.75         5.2 0.13                          32.5 201 
 624  0Z IP   0    636 44.24   35                        115    0.1410 33.7 142 
 624  0N ES   0    636 49.26                             115   -0.1210 33.7 142 
 624  0N  IAML     636 50.35         4.8 0.12                          33.7 142 
 623  0Z IP   0    636 45.86   32                        107    0.2110 43.5 175 
 623  0N ES   0    636 52.09                             107    0.0210 43.5 175 
 623  0N  IAML     636 53.45         1.8 0.12                          43.5 175 
 620  0Z IP   0    636 45.67   27                        107    0.0110 44.1 262 
 620  0N ES   1    636 51.73                             107   -0.36 7 44.1 262 
 620  0E  IAML     636 52.00        13.3 0.19                          44.1 262 
 628  0Z IP   0    636 48.00   37                        100    0.0410 61.0 124 
 628  0N ES   1    636 55.72                             100   -0.35 7 61.0 124 
 628  0N  IAML     636 56.52         6.7 0.26                          61.0 124 
 630  0Z IP   0    636 56.14   36                         56    0.10 7  115 127 
 630  0N ES   0    637  9.86                              56   -0.18 7  115 127 
 630  0E  IAML     637 10.75         2.9 0.16                           115 127 
                                                                                
 2017  4 4 2347 35.6 L  72.742 124.487 20.3  SLT  6 0.2 0.5LSLT 0.7CSLT        1
 GAP=270        0.46       2.6     6.7  2.1  0.1341E+01 -0.7877E+01  0.5083E+00E
 ACTION:UP  20-12-20 23:43 OP:elen STATUS:               ID:20170404234610     I
 OLDACT:UP  20-12-20 01:25 OP:elen STATUS:               ID:20170404234610     3
 OLDACT:UP  20-12-16 20:10 OP:elen STATUS:               ID:20170404234610     3
 OLDACT:UP  20-12-16 20:08 OP:elen STATUS:               ID:20170404234610     3
 OLDACT:UP  20-12-16 17:32 OP:elen STATUS:               ID:20170404234610     3
 OLDACT:REG 20-12-13 13:04 OP:elen STATUS:               ID:20170404234610     3
 2017-04-04-2346-10M.NSN___039                                                 6
 STAT SP IPHASW D HRMM SECON CODA AMPLIT PERI AZIMU VELO AIN AR TRES W  DIS CAZ7
 620  0Z IP   0   2347 39.84   19                        148    0.0110 10.8 205 
 620  0N ES   0   2347 43.11                             148    0.1810 10.8 205 
 620  0E  IAML    2347 43.29         8.1 0.10                          10.8 205 
 622  0Z IP   0   2347 44.09   31                        103   -0.1910 43.4 140 
 622  0N ES   0   2347 50.57                             103   -0.0610 43.4 140 
 622  0E  IAML    2347 51.34         2.7 0.22                          43.4 140 
 623  0Z IP   0   2347 47.36   23                         96   -0.03 9 63.0 137 
 623  0N ES   1   2347 56.30                              96    0.29 7 63.0 137 
 623  0N  IAML    2347 56.80         2.3 0.16                          63.0 137 
 621  0Z IP   1   2347 47.09   25                         96   -0.29 7 63.7 168 
 621  0N ES   0   2347 55.83                              96   -0.15 9 63.7 168 
 621  0E  IAML    2347 56.45         3.1 0.20                          63.7 168 
 624  0Z IP   0   2347 47.77   28                         95   -0.11 9 66.6 116 
 624  0N ES   0   2347 56.93                              95    0.09 9 66.6 116 
 624  0E  IAML    2347 57.42         2.4 0.21                          66.6 116 
 626  0Z IP   0   2347 54.21                              56    0.14 8  109 150 
 626  0N ES   1   2348  8.02                              56    0.47 6  109 150 
 626  0E  IAML    2348  8.57         1.1 0.21                           109 150 
                                                                                
 2017  4 5 0307 35.4 L  71.676 128.775  7.6  SLT 11 0.3 1.1LSLT 1.7CSLT        1
 GAP=157        0.43       1.0     5.8  2.0  0.2788E+01  0.9069E+01  0.3800E+00E
 ACTION:UP  20-12-21 00:10 OP:elen STATUS:               ID:20170405030618     I
 OLDACT:UP  20-12-20 01:44 OP:elen STATUS:               ID:20170405030618     3
 OLDACT:UP  20-12-16 21:32 OP:elen STATUS:               ID:20170405030618     3
 OLDACT:REG 20-12-13 13:11 OP:elen STATUS:               ID:20170405030618     3
 2017-04-05-0306-18M.NSN___039                                                 6
 STAT SP IPHASW D HRMM SECON CODA AMPLIT PERI AZIMU VELO AIN AR TRES W  DIS CAZ7
 632  0Z IP   0    3 7 39.22   48                        116   -0.0110 15.4 137 
 632  0N ES   0    3 7 42.07                             116    0.0210 15.4 137 
 632  0N  IAML     3 7 42.69        27.1 0.05                          15.4 137 
 630  0Z IP   0    3 7 44.47   65                         99    0.0210 47.2 341 
 630  0N ES   0    3 7 50.96                              99   -0.1110 47.2 341 
 630  0E  IAML     3 7 51.40         6.5 0.12                          47.2 341 
 629  0Z IP   1    3 7 46.88   48                         66    0.28 7 58.3 300 
 629  0N ES   1    3 7 55.19                              66    0.40 7 58.3 300 
 629  0E  IAML     3 7 56.96         2.5 0.13                          58.3 300 
 631  0Z IP   0    3 7 47.53   58                         66   -0.0410 62.3 241 
 631  0N ES   1    3 7 56.26                              66   -0.21 7 62.3 241 
 631  0N  IAML     3 7 56.72         6.8 0.14                          62.3 241 
 627  0Z IP   0    3 7 50.25   43                         66    0.09 9 79.3 309 
 627  0N ES   0    3 8  1.00                              66    0.05 9 79.3 309 
 627  0E  IAML     3 8  1.36         3.5 0.22                          79.3 309 
 628  0Z IP   1    3 7 52.64   55                         58   -0.46 6 98.3 326 
 628  0N ES   3    3 8  5.23                              58   -0.81 2 98.3 326 
 628  0E  IAML     3 8  7.84         6.4 0.21                          98.3 326 
 626  0Z IP   0    3 7 53.31   55                         58    0.01 8 98.5 285 
 626  0N ES   0    3 8  6.21                              58   -0.18 8 98.5 285 
 626  0E  IAML     3 8  9.71         7.5 0.24                          98.5 285 
 624  0Z IP   0    3 7 57.38   55                         44   -0.03 7  124 317 
 624  0N ES   0    3 8 13.29                              44   -0.20 7  124 317 
 624  0N  IAML     3 8 15.76         6.6 0.19                           124 317 
 623  0Z IP   0    3 7 57.86   54                         44   -0.02 7  127 306 
 623  0N ES   1    3 8 14.04                              44   -0.28 5  127 306 
 623  0E  IAML     3 8 17.30         2.9 0.24                           127 306 
 621  0Z IP   2    3 8  0.75   54                         37    0.57 3  146 295 
 621  0N ES   3    3 8 19.13                              37    0.84 2  146 295 
 621  0E  IAML     3 8 21.93         2.3 0.14                           146 295 
 622  0Z IP   1    3 8  0.73   57                         37    0.36 5  147 307 
 622  0N ES   1    3 8 19.09                              37    0.48 5  147 307 
 622  0N  IAML     3 8 21.09         5.1 0.20                           147 307 
                                                                                
 2017  4 5 0307 35.4 L  71.672 128.774  7.6  SLT 10 0.3 1.1LSLT 1.9CSLT        1
 GAP=170        0.44       1.7     6.4  3.1  0.4582E+00  0.1478E+02 -0.2539E+01E
 ACTION:UP  20-12-21 00:33 OP:elen STATUS:               ID:20170405030650     I
 OLDACT:UP  20-12-20 02:02 OP:elen STATUS:               ID:20170405030650     3
 OLDACT:UP  20-12-16 23:26 OP:elen STATUS:               ID:20170405030650     3
 OLDACT:REG 20-12-13 13:16 OP:elen STATUS:               ID:20170405030650     3
 2017-04-05-0306-50M.NSN___039                                                 6
 STAT SP IPHASW D HRMM SECON CODA AMPLIT PERI AZIMU VELO AIN AR TRES W  DIS CAZ7
 632  0Z IP   0    3 7 39.21   74                        116   -0.0210 15.2 136 
 632  0N ES   0    3 7 42.08                             116    0.0710 15.2 136 
 632  0N  IAML     3 7 42.69        26.9 0.04                          15.2 136 
 629  0Z IP   0    3 7 46.83   63                         66    0.1510 58.4 300 
 629  0N ES   1    3 7 55.19                              66    0.30 7 58.4 300 
 629  0E  IAML     3 7 56.96         2.5 0.14                          58.4 300 
 631  0Z IP   0    3 7 47.53   78                         66   -0.0410 62.0 241 
 631  0N ES   1    3 7 56.25                              66   -0.19 7 62.0 241 
 631  0N  IAML     3 7 56.72         6.9 0.15                          62.0 241 
 627  0Z IP   0    3 7 50.24   59                         66   -0.01 9 79.5 309 
 627  0N ES   0    3 8  1.01                              66   -0.06 9 79.5 309 
 627  0E  IAML     3 8  1.36         3.5 0.22                          79.5 309 
 626  0Z IP   0    3 7 53.30   55                         58   -0.06 8 98.5 285 
 626  0N ES   0    3 8  6.38                              58   -0.07 8 98.5 285 
 626  0E  IAML     3 8  9.71         7.4 0.23                          98.5 285 
 628  0Z IP   1    3 7 52.64   64                         58   -0.57 6 98.6 326 
 628  0N ES   3    3 8  5.21                              58   -0.98 2 98.6 326 
 628  0E  IAML     3 8  7.84         6.3 0.23                          98.6 326 
 624  0Z IP   0    3 7 57.28   56                         44   -0.22 7  124 317 
 624  0N ES   1    3 8 13.30                              44   -0.31 5  124 317 
 624  0N  IAML     3 8 15.76         6.6 0.21                           124 317 
 623  0Z IP   0    3 7 58.00   61                         44    0.04 7  127 306 
 623  0N ES   0    3 8 14.60                              44    0.18 7  127 306 
 623  0E  IAML     3 8 17.30         3.0 0.25                           127 306 
 621  0Z IP   1    3 8  0.61   76                         37    0.36 5  146 295 
 621  0N ES   2    3 8 19.05                              37    0.68 3  146 295 
 621  0E  IAML     3 8 21.93         2.4 0.14                           146 295 
 622  0Z IP   1    3 8  0.73   76                         37    0.29 5  147 307 
 622  0N ES   2    3 8 19.30                              37    0.60 3  147 307 
 622  0N  IAML     3 8 21.09         5.1 0.19                           147 307 
                                                                                
