 2016  818 1613  8.9 L  72.977 124.927 16.8  SLT  6 0.1 1.2LSLT 1.0CSLT        1
 GAP=292        0.36       3.0     4.8  5.8 -0.2202E+01 -0.5370E+01  0.1256E+02E
 ACTION:ARG 20-05-11 21:31 OP:mn   STATUS:               ID:20160818161147     I
 2016-08-18-1611-47M.arct__039                                                 6
 STAT SP IPHASW D HRMM SECON CODA AMPLIT PERI AZIMU VELO AIN AR TRES W  DIS CAZ7
 620  0Z IP   0 C 1613 16.96                              68   -0.0910 40.8 208 
 620  0E ES   0   1613 23.16                              68    0.1610 40.8 208 
 620  0Z  IAML    1613 24.06       191.9 0.08                          40.8 208 
 622  0Z IP   0 D 1613 20.44   30                         68    0.0710 61.0 168 
 622  0E ES   0   1613 28.63                              68   -0.1110 61.0 168 
 622  0Z  IAML    1613 29.83         3.6 0.20                          61.0 168 
 624  0Z IP   0 C 1613 22.00   23                         68    0.04 9 71.6 141 
 624  0E ES   0   1613 31.70                              68    0.20 9 71.6 141 
 624  0Z  IAML    1613 32.34         9.1 0.30                          71.6 141 
 623  0Z IP   0 D 1613 22.97   30                         68   -0.07 9 77.7 159 
 623  0N ES   0   1613 33.18                              68   -0.18 9 77.7 159 
 623  0Z  IAML    1613 34.86         4.9 0.65                          77.7 159 
 621  0Z IP   0 C 1613 24.61   39                         68   -0.03 8 88.5 181 
 621  0E ES   0   1613 36.08                              68   -0.05 8 88.5 181 
 621  0Z  IAML    1613 36.41         5.9 0.35                          88.5 181 
 626  0Z IP   0 C 1613 30.03   39                         50   -0.09 7  127 162 
 626  0E ES   1   1613 45.87                              50    0.27 5  127 162 
 626  0Z  IAML    1613 47.36         3.0 0.23                           127 162 
                                                                                
 2016  818 1613  8.6 L  72.991 124.907 16.7  SLT  6 0.1 1.5LSLT 1.1CSLT        1
 GAP=295        0.26       1.5     5.8  1.9 -0.2330E+01 -0.8907E+01  0.7621E+00E
 ACTION:ARG 20-05-11 21:31 OP:mn   STATUS:               ID:20160818161218     I
 2016-08-18-1612-18M.arct__039                                                 6
 STAT SP IPHASW D HRMM SECON CODA AMPLIT PERI AZIMU VELO AIN AR TRES W  DIS CAZ7
 620  0Z IP   0 C 1613 16.96   50                        106   -0.0110 41.9 206 
 620  0E ES   0   1613 23.10                             106    0.0510 41.9 206 
 620  0Z  IAML    1613 24.06       187.0 0.08                          41.9 206 
 622  0Z IP   0 C 1613 20.42   40                         68    0.03 9 62.7 167 
 622  0E ES   0   1613 28.96                              68    0.01 9 62.7 167 
 622  0Z  IAML    1613 30.04       165.3 0.08                          62.7 167 
 624  0Z IP   0 C 1613 22.04   32                         68    0.07 9 73.2 141 
 624  0E ES   0   1613 31.71                              68    0.01 9 73.2 141 
 624  0Z  IAML    1613 32.34         8.6 0.33                          73.2 141 
 623  0Z IP   0 D 1613 22.98   31                         68   -0.08 9 79.4 159 
 623  0E ES   0   1613 33.55                              68   -0.04 9 79.4 159 
 623  0Z  IAML    1613 34.86         4.7 0.64                          79.4 159 
 621  0Z IP   0 D 1613 24.62   27                         68   -0.02 8 90.0 180 
 621  0N ES   0   1613 36.22                              68   -0.09 8 90.0 180 
 621  0Z  IAML    1613 36.41         5.9 0.35                          90.0 180 
 626  0Z IP   0 C 1613 30.01   33                         45   -0.08 7  129 162 
 626  0E ES   0   1613 45.90                              45    0.15 7  129 162 
 626  0Z  IAML    1613 47.01         3.6 0.19                           129 162 
                                                                                
 2016  819 0959 26.8 L  71.890 129.575  7.5  SLT 13 0.2 4.1LSLT                1
 GAP=261        0.39       1.1     7.2  1.4  0.2706E+01  0.1742E+01 -0.5469E+00E
 ACTION:REG 25-04-10 18:57 OP:mn   STATUS:               ID:20160819095900     I
 2016_08_19T09-59-00.mseed                                                     6
 STAT SP IPHASW D HRMM SECON CODA AMPLIT PERI AZIMU VELO AIN AR TRES W  DIS CAZ7
 632  0E IP   0    959 35.00                             101    0.0110 39.4 207 
 632  0N ES   0    959 40.95                             101   -0.0110 39.4 207 
 632  0Z  IAML     959 42.18      3428.0 0.50                          39.4 207 
 630  0Z IP   0    959 35.80                              99   -0.2010 47.9 296 
 630  0N ES   1    959 42.95                              99    0.24 7 47.9 296 
 630  0Z  IAML     959 46.27      6335.7 0.50                          47.9 296 
 629  0Z IP   0    959 41.61                              66    0.06 9 78.6 274 
 629  0N ES   1    959 52.54                              66    0.24 7 78.6 274 
 629  0Z  IAML     959 54.21      5389.1 0.68                          78.6 274 
 627  0Z IP   0    959 43.92                              58   -0.02 8 93.0 287 
 627  0N ES   1    959 56.12                              58   -0.33 6 93.0 287 
 627  0Z  IAML     959 57.55      6763.1 0.60                          93.0 287 
 631  0Z IP   0    959 45.27                              58    0.09 8 98.5 237 
 631  0N ES   1    959 58.28                              58   -0.32 6 98.5 237 
 631  0Z  IAML    10 0  1.30      2476.7 0.62                          98.5 237 
 628  0Z IP   0    959 44.91                              58   -0.02 8  101 306 
 628  0N ES   2    959 57.57                              58   -0.59 4  101 306 
 628  0Z  IAML     959 57.77     13247.3 0.30                           101 306 
 626  0Z IP   0    959 48.58                              48    0.02 7  123 272 
 626  0N ES   0   10 0  4.52                              48    0.08 7  123 272 
 626  0Z  IAML    10 0 10.31      1874.4 0.66                           123 272 
 625  0Z IP   0    959 48.89                              44    0.11 7  124 287 
 625  0N ES   0   10 0  4.75                              44   -0.08 7  124 287 
 624  0Z IP   2    959 49.30                              44   -0.40 3  130 302 
 624  0N ES   4   10 0  5.26                              44   -1.16 0  130 302 
 624  0Z  IAML    10 0  8.14      5848.4 0.52                           130 302 
 623  0Z IP   0    959 51.25                              41    0.24 6  140 292 
 623  0N ES   1   10 0  9.06                              41    0.39 5  140 292 
 623  0Z  IAML    10 0 14.10      3316.0 0.94                           140 292 
 622  0Z  IAML    10 0 18.96      1930.7 0.68                           158 295 
 621  0Z IP   4    959 55.04                              37    1.29 0  165 284 
 621  0N ES   4   10 0 15.56                              37    2.14 0  165 284 
 621  0Z  IAML    10 0 16.65      3575.6 0.48                           165 284 
 620  0Z IP   3    959 58.46                              37    0.98 1  197 298 
 620  0N ES   4   10 0 21.35                              37    1.48 0  197 298 
 620  0Z  IAML    10 0 30.78      4656.0 8.67                           197 298 
                                                                                
 2016  820 1506 15.1 L  71.907 129.617  6.7  SLT  9 0.3 1.5LSLT 1.6CSLT        1
 GAP=267        0.48       1.7    11.6  1.8  0.9547E+01 -0.1617E+01 -0.1393E+01E
 ACTION:ARG 20-05-11 21:31 OP:mn   STATUS:               ID:20160820150518     I
 2016-08-20-1505-18M.arct__039                                                 6
 STAT SP IPHASW D HRMM SECON CODA AMPLIT PERI AZIMU VELO AIN AR TRES W  DIS CAZ7
 632  0Z IP   1 C 15 6 23.53   49                         99   -0.22 7 41.8 207 
 632  0N ES   0   15 6 30.12                              99    0.1010 41.8 207 
 632  0Z  IAML    15 6 31.02        32.4 0.08                          41.8 207 
 630  0Z IP   0 C 15 6 24.19   55                         98   -0.2210 48.4 293 
 630  0N ES   1   15 6 31.47                              98    0.30 7 48.4 293 
 630  0Z  IAML    15 6 34.99        14.1 0.08                          48.4 293 
 627  0Z IP   0 D 15 6 32.55   41                         58    0.06 8 93.8 286 
 627  0N ES   1   15 6 44.86                              58   -0.30 6 93.8 286 
 627  0Z  IAML    15 6 45.43        10.4 0.14                          93.8 286 
 625  0Z  IAML    15 6 53.90         9.9 0.22                           124 285 
 626  0Z IP   0 D 15 6 37.20   50                         44   -0.00 7  124 271 
 626  0N ES   0   15 6 53.15                              44   -0.15 7  124 271 
 626  0Z  IAML    15 6 56.02        10.3 0.26                           124 271 
 625  0Z IP   0 D 15 6 37.63   46                         44    0.28 7  124 285 
 625  0N ES   1   15 6 53.28                              44   -0.27 5  124 285 
 624  0Z IP   2 C 15 6 37.56   41                         44   -0.62 3  131 301 
 624  0N ES   4   15 6 53.82                              44   -1.18 0  131 301 
 624  0Z  IAML    15 6 57.73        12.9 0.17                           131 301 
 623  0Z IP   1 D 15 6 39.94   52                         41    0.40 5  140 291 
 623  0N ES   0   15 6 57.35                              41    0.01 6  140 291 
 623  0Z  IAML    15 7  1.67         8.8 0.62                           140 291 
 622  0Z IP   2 C 15 6 42.27   56                         37    0.61 3  159 294 
 622  0E ES   1   15 7  1.51                              37    0.50 4  159 294 
 622  0Z  IAML    15 7  4.89         5.2 0.19                           159 294 
 621  0Z IP   4 C 15 6 43.48   47                         37    1.16 0  166 283 
 621  0N ES   4   15 7  4.13                              37    1.97 0  166 283 
 621  0Z  IAML    15 7  5.78         9.4 0.32                           166 283 
                                                                                
 2016  822 1318 48.6 L  72.361 127.048 19.2  SLT  8 0.3 0.7LSLT 1.2CSLT        1
 GAP=101        0.59       1.7     4.9  2.8  0.2590E+01  0.5431E+01  0.1919E+01E
 ACTION:UP  21-01-08 22:12 OP:elen STATUS:               ID:20160822131743     I
 OLDACT:REG 21-01-08 15:24 OP:elen STATUS:               ID:20160822131743     3
 2016-08-22-1317-43M.arct__039                                                 6
 STAT SP IPHASW D HRMM SECON CODA AMPLIT PERI AZIMU VELO AIN AR TRES W  DIS CAZ7
 628  0Z IP   1   1318 52.33   40                        162    0.31 7 5.49  38 
 628  0N ES   0   1318 54.47                             162   -0.0210 5.49  38 
 628  0N  IAML    1318 54.58        79.2 0.14                          5.49  38 
 627  0Z IP   0   1318 54.86   31                        115    0.2010 27.3 185 
 627  0E ES   0   1318 58.85                             115   -0.2210 27.3 185 
 627  0E  IAML    1318 59.21        13.9 0.14                          27.3 185 
 624  0Z IP   1   1318 55.20   43                        113    0.21 7 29.0 297 
 624  0N ES   0   1318 59.45                             113   -0.1810 29.0 297 
 624  0N  IAML    1319  0.17         9.4 0.19                          29.0 297 
 625  0Z IP   1   1318 56.77   43                        103    0.42 7 38.2 237 
 625  0N ES   0   1319  2.17                             103    0.1810 38.2 237 
 625  0E  IAML    1319  5.64         3.4 0.36                          38.2 237 
 623  0Z IP   0   1318 57.42   36                         99    0.0710 43.8 265 
 623  0E ES   1   1319  3.30                              99   -0.41 7 43.8 265 
 623  0E  IAML    1319  3.64         2.5 0.18                          43.8 265 
 630  0Z IP   0   1318 58.72   48                         96   -0.0910 54.0 126 
 630  0E ES   2   1319  5.54                              96   -0.70 5 54.0 126 
 630  0E  IAML    1319  6.59         4.5 0.17                          54.0 126 
 622  0Z IP   0   1318 59.79   39                         95   -0.0110 59.3 280 
 622  0N ES   2   1319  7.38                              95   -0.59 5 59.3 280 
 622  0N  IAML    1319  8.26         2.5 0.11                          59.3 280 
 626  0Z IP   1   1319  0.46   48                         94    0.27 7 63.1 214 
 626  0N ES   0   1319  8.56                              94   -0.07 9 63.1 214 
 626  0N  IAML    1319 10.91         1.7 0.06                          63.1 214 
                                                                                
 2016  9 6 1514 38.7 L  72.502 125.662 13.8  SLT  6 0.2 0.9LSLT-0.2CSLT        1
 GAP=166        0.54       1.5     3.6  3.1  0.9561E+00  0.1259E+01 -0.1502E+00E
 ACTION:ARG 20-04-02 17:38 OP:mn   STATUS:               ID:20160906151318     I
 2016-09-06-1513-18M.SIOLA_039                                                 6
 STAT SP IPHASW D HRMM SECON CODA AMPLIT PERI AZIMU VELO AIN AR TRES W  DIS CAZ7
 622  0Z IP   1 C 1514 42.78    7                        132    0.30 7 13.5 241 
 622  0N ES   0   1514 45.31                             132    0.0810 13.5 241 
 622  0Z  IAML    1514 45.95        16.0 0.13                          13.5 241 
 623  0Z IP   0 D 1514 43.56                             119    0.1810 19.9 170 
 623  0E ES   1   1514 46.57                             119   -0.22 7 19.9 170 
 623  0Z  IAML    1514 46.77        26.6 0.14                          19.9 170 
 624  0Z IP   0 C 1514 43.55    4                        118    0.1210 20.8  98 
 624  0N ES   0   1514 46.71                             118   -0.1710 20.8  98 
 624  0Z  IAML    1514 46.87       161.8 0.17                          20.8  98 
 625  0Z IP   0 C 1514 46.57   25                        101    0.0910 39.5 157 
 625  0E ES   0   1514 51.99                             101   -0.1710 39.5 157 
 625  0Z  IAML    1514 53.15         6.1 0.55                          39.5 157 
 621  0Z IP   1 D 1514 47.54   15                         99    0.29 7 44.1 217 
 621  0N ES   0   1514 53.37                              99   -0.1210 44.1 217 
 621  0Z  IAML    1514 54.45         6.5 0.39                          44.1 217 
 620  0Z IP   0 C 1514 47.89   21                         98    0.0710 47.1 292 
 620  0N ES   1   1514 53.95                              98   -0.52 7 47.1 292 
 620  0Z  IAML    1514 54.31        10.0 0.36                          47.1 292 
                                                                                
 2016 10 4 0841 50.8 L  72.818 125.002 14.9  SLT  6 0.2 0.3LSLT 0.2CSLT        1
 GAP=252        0.50       2.8     5.7  2.4  0.2055E+01 -0.7516E+01 -0.5382E+00E
 ACTION:ARG 20-04-11 14:12 OP:mn   STATUS:               ID:20161004084031     I
 2016-10-04-0840-31M.SIOLA_039                                                 6
 STAT SP IPHASW D HRMM SECON CODA AMPLIT PERI AZIMU VELO AIN AR TRES W  DIS CAZ7
 620  0Z IP   0 C  841 56.88   18                        111    0.1010 28.4 230 
 620  0N ES   1    842  0.82                             111   -0.34 7 28.4 230 
 620  0Z  IAML     842  3.26         1.0 0.06                          28.4 230 
 622  0Z IP   1 D  841 59.60   19                        101    0.28 7 43.2 166 
 622  0N ES   0    842  5.58                             101    0.0210 43.2 166 
 622  0Z  IAML     842  6.03         2.3 0.23                          43.2 166 
 624  0Z IP   0 D  842  1.64   14                         97    0.0510 57.0 131 
 624  0E ES   1    842  9.23                              97   -0.26 7 57.0 131 
 624  0Z  IAML     842  9.78         2.7 0.17                          57.0 131 
 623  0Z IP   0 D  842  2.47   13                         68    0.2110 60.4 155 
 623  0N ES   1    842 11.04                              68    0.39 7 60.4 155 
 623  0Z  IAML     842 11.77         1.5 0.22                          60.4 155 
 628  0Z IP   0 D  842  5.79   16                         68   -0.05 9 85.4 122 
 628  0N ES   0    842 16.69                              68   -0.16 9 85.4 122 
 628  0Z  IAML     842 18.57         1.0 0.08                          85.4 122 
 626  0Z IP   0 D  842  9.64   20                         54   -0.18 8  109 161 
 626  0E ES   0    842 23.50                              54   -0.22 8  109 161 
 626  0Z  IAML     842 25.73         0.5 0.13                           109 161 
                                                                                
 2016 10 5 1619 46.6 L  72.845 125.049 14.2  SLT  9 0.2 1.1LSLT 0.5CSLT        1
 GAP=257        0.35       1.6     3.2  1.5  0.4409E+00 -0.2013E+01 -0.6302E+00E
 ACTION:ARG 20-04-11 14:12 OP:mn   STATUS:               ID:20161005161823     I
 2016-10-05-1618-23M.SIOLA_039                                                 6
 STAT SP IPHASW D HRMM SECON CODA AMPLIT PERI AZIMU VELO AIN AR TRES W  DIS CAZ7
 620  0Z IP   0 C 1619 53.22   14                        107    0.1110 31.6 228 
 620  0E ES   0   1619 57.77                             107   -0.0810 31.6 228 
 620  0Z  IAML    1619 58.27        10.0 0.26                          31.6 228 
 622  0Z IP   0 C 1619 55.67   24                         99    0.0610 45.9 169 
 622  0N ES   0   1620  2.15                              99   -0.0210 45.9 169 
 622  0Z  IAML    1620  2.41        12.4 0.26                          45.9 169 
 624  0Z IP   0 C 1619 57.78   12                         96    0.1810 58.0 135 
 624  0E ES   0   1620  5.66                              96    0.0510 58.0 135 
 624  0Z  IAML    1620  6.07        13.9 0.20                          58.0 135 
 623  0Z IP   0 D 1619 58.49   14                         95    0.00 9 62.6 157 
 623  0E ES   0   1620  7.08                              95   -0.07 9 62.6 157 
 623  0Z  IAML    1620  8.02         7.1 0.21                          62.6 157 
 621  0Z IP   0 D 1620  0.03   18                         68   -0.18 9 74.0 184 
 621  0N ES   0   1620 10.27                              68    0.14 9 74.0 184 
 621  0Z  IAML    1620 10.74         9.1 0.26                          74.0 184 
 628  0Z IP   0 D 1620  1.57   24                         68   -0.24 9 85.8 124 
 628  0E ES   0   1620 12.86                              68   -0.04 9 85.8 124 
 628  0Z  IAML    1620 13.38         4.9 0.14                          85.8 124 
 627  0Z IP   0 D 1620  4.99   37                         68    0.01 8  104 140 
 627  0E ES   2   1620 17.78                              68   -0.60 4  104 140 
 627  0Z  IAML    1620 18.01         3.3 0.70                           104 140 
 629  0Z IP   0 D 1620  8.38   25                         50    0.02 7  128 142 
 629  0E ES   1   1620 24.46                              50    0.24 5  128 142 
 629  0Z  IAML    1620 25.99         5.6 0.17                           128 142 
 630  0Z IP   0 D 1620  9.67   29                         41   -0.08 6  140 126 
 630  0E ES   1   1620 26.89                              41    0.25 5  140 126 
 630  0Z  IAML    1620 27.89         4.1 0.22                           140 126 
                                                                                
