 2017  414 0459 17.9 L  72.259 127.367 23.3  SLT  7 0.2 0.7LSLT 0.5CSLT        1
 GAP=147        0.53       1.3     4.9  1.7  0.1430E+01  0.1320E+01  0.4951E+00E
 ACTION:UP  20-12-23 23:35 OP:elen STATUS:               ID:20170414045811     I
 OLDACT:REG 20-12-21 23:05 OP:elen STATUS:               ID:20170414045811     3
 2017-04-14-0458-11M.NSN___039                                                 6
 STAT SP IPHASW D HRMM SECON CODA AMPLIT PERI AZIMU VELO AIN AR TRES W  DIS CAZ7
 628  0Z IP   0    459 23.05   21                        139    0.1810 17.4 335 
 628  0N ES   0    459 26.28                             139   -0.1910 17.4 335 
 628  0N  IAML     459 26.45        23.3 0.08                          17.4 335 
 627  0Z IP   1    459 23.80   19                        134    0.33 7 20.6 220 
 627  0N ES   0    459 27.53                             134    0.0310 20.6 220 
 627  0N  IAML     459 28.15         7.8 0.21                          20.6 220 
 629  0Z IP   0    459 25.93   20                        114    0.2110 36.8 183 
 629  0N ES   0    459 31.21                             114   -0.1910 36.8 183 
 629  0N  IAML     459 31.83         2.1 0.37                          36.8 183 
 630  0Z IP   0    459 26.00   20                        113    0.0910 38.6 122 
 630  0N ES   1    459 31.33                             113   -0.39 7 38.6 122 
 630  0E  IAML     459 31.56         2.7 0.16                          38.6 122 
 626  0Z IP   1    459 29.62   24                        101    0.26 7 61.7 229 
 626  0E ES   0    459 37.59                             101   -0.1010 61.7 229 
 626  0N  IAML     459 37.71         1.9 0.21                          61.7 229 
 622  0Z IP   0    459 31.28   26                         70    0.05 9 72.5 287 
 622  0E ES   1    459 40.52                              70   -0.41 7 72.5 287 
 622  0E  IAML     459 41.08         1.3 0.14                          72.5 287 
 631  0Z IP   1    459 35.11                              62    0.26 6 96.0 183 
 631  0N ES   0    459 47.07                              62   -0.12 8 96.0 183 
 631  0E  IAML     459 47.29         3.2 0.19                          96.0 183 
                                                                                
 2017  414 1656 22.5 L  72.180 127.380 18.5  SLT  6 0.2 0.4LSLT 1.0CSLT        1
 GAP=127        0.53       1.3     4.0  2.9  0.2985E+00  0.5877E+00  0.7100E-01E
 ACTION:UP  20-12-24 19:41 OP:elen STATUS:               ID:20170414165510     I
 OLDACT:REG 20-12-22 00:00 OP:elen STATUS:               ID:20170414165510     3
 2017-04-14-1655-10M.NSN___039                                                 6
 STAT SP IPHASW D HRMM SECON CODA AMPLIT PERI AZIMU VELO AIN AR TRES W  DIS CAZ7
 627  0Z IP   1   1656 27.22   26                        134    0.30 7 15.3 243 
 627  0N ES   0   1656 30.13                             134    0.0110 15.3 243 
 627  0E  IAML    1656 30.77        22.6 0.16                          15.3 243 
 628  0Z IP   0   1656 28.27   30                        115    0.2210 25.8 342 
 628  0N ES   0   1656 31.94                             115   -0.1410 25.8 342 
 628  0E  IAML    1656 32.81         5.0 0.14                          25.8 342 
 630  0Z IP   0   1656 29.67   39                        104    0.0610 34.4 109 
 630  0N ES   1   1656 34.38                             104   -0.39 7 34.4 109 
 630  0E  IAML    1656 34.60         4.9 0.10                          34.4 109 
 625  0Z IP   0   1656 31.21   34                         97    0.1310 43.5 270 
 625  0N ES   1   1656 37.05                              97   -0.27 7 43.5 270 
 625  0E  IAML    1656 37.41         1.1 0.27                          43.5 270 
 624  0Z IP   0   1656 32.30   31                         95    0.1710 49.9 312 
 624  0N ES   0   1656 38.94                              95   -0.2010 49.9 312 
 624  0N  IAML    1656 39.46         1.5 0.38                          49.9 312 
 626  0Z IP   0   1656 33.22   41                         93    0.1710 56.6 235 
 626  0N ES   0   1656 40.52                              93   -0.2010 56.6 235 
 626  0N  IAML    1656 44.59         0.7 0.20                          56.6 235 
                                                                                
 2017  414 1753 31.8 L  72.322 130.493 11.0  SLT  6 0.4 0.9LSLT 1.7CSLT        1
 GAP=292        0.51       4.4    14.7  4.7  0.1107E+02 -0.1573E+02 -0.7375E+01E
 ACTION:UP  20-12-25 00:29 OP:elen STATUS:               ID:20170414175245     I
 OLDACT:REG 20-12-24 20:01 OP:elen STATUS:               ID:20170414175245     3
 2017-04-14-1752-45M.NSN___039                                                 6
 STAT SP IPHASW D HRMM SECON CODA AMPLIT PERI AZIMU VELO AIN AR TRES W  DIS CAZ7
 630  0Z IP   1   1753 46.50   51                         91    0.22 8 79.0 251 
 630  0N ES   1   1753 56.89                              91    0.02 8 79.0 251 
 630  0N  IAML    1753 58.21         2.2 0.36                          79.0 251 
 632  0Z IP   0   1753 49.72   43                         68   -0.0410 96.9 211 
 632  0N ES   2   1754  2.47                              68   -0.42 5 96.9 211 
 632  0E  IAML    1754  4.35         2.6 0.14                          96.9 211 
 628  0Z IP   1   1753 51.18   52                         68   -0.43 7  114 276 
 628  0N ES   3   1754  4.96                              68   -1.13 2  114 276 
 628  0N  IAML    1754  6.54         1.4 0.14                           114 276 
 627  0Z IP   1   1753 53.43   48                         50    0.41 7  122 261 
 627  0E ES   1   1754  8.88                              50    0.35 7  122 261 
 627  0N  IAML    1754 10.98         2.1 0.29                           122 261 
 624  0Z IP   0   1753 55.63   45                         41   -0.18 8  143 279 
 624  0N ES   2   1754 12.72                              41   -0.64 4  143 279 
 624  0N  IAML    1754 14.34         2.8 0.27                           143 279 
 626  0Z IP   2   1753 58.42   51                         41    0.83 3  160 255 
 626  0N ES   3   1754 17.52                              41    1.09 2  160 255 
 626  0E  IAML    1754 19.87         1.1 0.32                           160 255 
                                                                                
 2017  416 0523 40.9 L  71.950 127.091 21.0  SLT 13 0.3 1.7LSLT 2.2CSLT        1
 GAP= 85        0.57       1.2     3.5  2.2  0.9088E+00  0.1613E+01  0.4044E-02E
 ACTION:UP  20-12-26 19:23 OP:elen STATUS:               ID:20170416052232     I
 OLDACT:REG 20-12-24 20:31 OP:elen STATUS:               ID:20170416052232     3
 2017-04-16-0522-32M.NSN___039                                                 6
 STAT SP IPHASW D HRMM SECON CODA AMPLIT PERI AZIMU VELO AIN AR TRES W  DIS CAZ7
 629  0Z IP   2    523 45.45   82                        157    0.41 5 8.04 107 
 629  0N ES   0    523 48.09                             157    0.0210 8.04 107 
 629  0N  IAML     523 48.18       179.5 0.06                          8.04 107 
 627  0Z IP   1    523 46.35   83                        132    0.35 7 19.0 349 
 627  0N ES   0    523 49.70                             132   -0.0210 19.0 349 
 627  0E  IAML     523 49.90       231.5 0.18                          19.0 349 
 626  0Z IP   1    523 48.77   80                        109    0.33 7 37.2 260 
 626  0N ES   0    523 53.87                             109   -0.0710 37.2 260 
 626  0N  IAML     523 53.97        63.4 0.13                          37.2 260 
 625  0Z IP   0    523 49.48   82                        106    0.1810 42.1 307 
 625  0N ES   1    523 55.09                             106   -0.34 7 42.1 307 
 625  0N  IAML     523 55.32        56.1 0.21                          42.1 307 
 630  0Z IP   1    523 49.98   86                        104    0.30 7 44.8  71 
 630  0N ES   0    523 55.91                             104   -0.1810 44.8  71 
 630  0E  IAML     523 56.36        36.3 0.12                          44.8  71 
 628  0Z IP   0    523 50.46   78                        101    0.1710 50.3   2 
 628  0N ES   1    523 56.76                             101   -0.38 7 50.3   2 
 628  0E  IAML     523 57.87        59.4 0.22                          50.3   2 
 631  0Z IP   0    523 52.69   91                         98   -0.0210 61.7 175 
 631  0N ES   2    524  0.61                              98   -0.72 5 61.7 175 
 631  0E  IAML     524  0.91       108.1 0.18                          61.7 175 
 623  0Z IP   0    523 52.70   88                         97    0.1510 61.9 313 
 623  0N ES   1    524  0.64                              97   -0.40 7 61.9 313 
 623  0E  IAML     524  0.98        12.3 0.17                          61.9 313 
 624  0Z IP   0    523 53.19   87                         97    0.26 9 65.0 335 
 624  0N ES   1    524  1.53                              97   -0.19 7 65.0 335 
 624  0E  IAML     524  3.80        21.0 0.28                          65.0 335 
 621  0Z IP   0    523 55.38   86                         95    0.07 9 80.1 290 
 621  0N ES   2    524  5.30                              95   -0.52 4 80.1 290 
 621  0N  IAML     524 10.84        11.6 0.16                          80.1 290 
 632  0Z IP   0    523 55.75   95                         95   -0.22 9 80.9 120 
 632  0N ES   3    524  5.91                              95   -1.05 2 80.9 120 
 632  0E  IAML     524  8.88        12.0 0.12                          80.9 120 
 622  0Z IP   0    523 55.88   87                         95    0.17 9 81.8 313 
 622  0E ES   1    524  6.15                              95   -0.37 7 81.8 313 
 622  0E  IAML     524 12.01        20.7 0.15                          81.8 313 
 620  0Z IP   3    524  2.06  120                         56    0.87 2  122 311 
 620  0N ES   3    524 16.86                              56    0.86 2  122 311 
 620  0E  IAML     524 20.08        17.2 0.19                           122 311 
                                                                                
 2017  416 1220 14.0 L  72.924 124.605 12.9  SLT 11 0.2 1.1LSLT 1.7CSLT        1
 GAP=288        0.41       1.9     6.4  2.0 -0.2065E+00 -0.8001E+01 -0.1046E+01E
 ACTION:UP  20-12-26 21:48 OP:elen STATUS:               ID:20170416121850     I
 OLDACT:REG 20-12-24 20:45 OP:elen STATUS:               ID:20170416121850     3
 2017-04-16-1218-50M.NSN___039                                                 6
 STAT SP IPHASW D HRMM SECON CODA AMPLIT PERI AZIMU VELO AIN AR TRES W  DIS CAZ7
 620  0Z IP   0   1220 20.39   51                        103    0.0310 31.3 196 
 620  0E ES   0   1220 25.17                             103    0.1510 31.3 196 
 620  0E  IAML    1220 25.58        31.0 0.21                          31.3 196 
 622  0Z IP   0   1220 25.06   52                         94   -0.0810 58.7 156 
 622  0N ES   0   1220 33.21                              94   -0.0910 58.7 156 
 622  0N  IAML    1220 35.37         6.5 0.26                          58.7 156 
 624  0Z IP   0   1220 27.87   67                         68    0.09 9 74.7 131 
 624  0N ES   0   1220 38.08                              68    0.22 9 74.7 131 
 624  0E  IAML    1220 38.84         6.0 0.17                          74.7 131 
 623  0Z IP   0   1220 28.16   54                         68   -0.09 9 77.1 149 
 623  0N ES   0   1220 38.59                              68   -0.09 9 77.1 149 
 623  0N  IAML    1220 40.17         9.0 0.14                          77.1 149 
 621  0Z IP   0   1220 28.93   52                         68   -0.17 9 83.1 173 
 621  0N ES   1   1220 39.92                              68   -0.24 7 83.1 173 
 621  0N  IAML    1220 40.81         7.4 0.14                          83.1 173 
 625  0Z IP   0   1220 31.65   57                         68    0.22 8 97.7 148 
 625  0N ES   1   1220 44.60                              68    0.43 6 97.7 148 
 625  0N  IAML    1220 45.44         1.3 0.14                          97.7 148 
 628  0Z IP   0   1220 31.80   70                         68   -0.16 8  103 123 
 628  0N ES   1   1220 44.85                              68   -0.25 6  103 123 
 628  0N  IAML    1220 45.59         3.2 0.18                           103 123 
 627  0Z IP   0   1220 34.62   66                         50   -0.17 7  120 137 
 627  0N ES   1   1220 49.76                              50   -0.23 5  120 137 
 627  0N  IAML    1220 50.58         2.0 0.34                           120 137 
 626  0Z IP   0   1220 35.26   65                         50   -0.11 7  125 157 
 626  0N ES   0   1220 50.87                              50   -0.13 7  125 157 
 626  0E  IAML    1220 51.61        11.4 0.22                           125 157 
 629  0Z IP   1   1220 38.18   65                         41    0.38 5  144 139 
 629  0E ES   2   1220 55.91                              41    0.71 3  144 139 
 629  0E  IAML    1220 56.69         1.9 0.25                           144 139 
 630  0Z IP   0   1220 39.31   72                         41    0.11 6  157 125 
 630  0E ES   0   1220 57.85                              41    0.22 6  157 125 
 630  0E  IAML    1221  0.14         1.9 0.10                           157 125 
                                                                                
 2017  416 1821  5.2 L  72.840 125.023 15.8  SLT 13 0.2 1.5LSLT 2.2CSLT        1
 GAP=256        0.35       1.7     4.6  1.8  0.2263E+00 -0.6420E+01  0.2277E-01E
 ACTION:UP  20-12-27 00:47 OP:elen STATUS:               ID:20170416181941     I
 OLDACT:REG 20-12-24 20:59 OP:elen STATUS:               ID:20170416181941     3
 2017-04-16-1819-41M.NSN___039                                                 6
 STAT SP IPHASW D HRMM SECON CODA AMPLIT PERI AZIMU VELO AIN AR TRES W  DIS CAZ7
 620  0Z IP   0   1821 11.60   79                        112   -0.0010 30.5 228 
 620  0E ES   0   1821 16.27                             112   -0.0110 30.5 228 
 620  0E  IAML    1821 18.35        20.2 0.16                          30.5 228 
 622  0Z IP   0   1821 14.23   83                        102    0.0810 45.4 168 
 622  0E ES   1   1821 20.81                             102    0.11 7 45.4 168 
 622  0N  IAML    1821 20.82        23.1 0.27                          45.4 168 
 624  0Z IP   0   1821 16.12   90                         68   -0.0510 58.2 134 
 624  0N ES   0   1821 24.11                              68   -0.0810 58.2 134 
 624  0N  IAML    1821 24.84        18.5 0.25                          58.2 134 
 623  0Z IP   0   1821 17.07   85                         68    0.13 9 62.4 156 
 623  0E ES   1   1821 25.73                              68    0.22 7 62.4 156 
 623  0E  IAML    1821 26.39        16.1 0.19                          62.4 156 
 621  0Z IP   1   1821 18.44   78                         68   -0.12 7 73.3 184 
 621  0N ES   1   1821 28.05                              68   -0.27 7 73.3 184 
 621  0E  IAML    1821 29.12        15.1 0.21                          73.3 184 
 625  0Z IP   0   1821 19.96   85                         68   -0.11 9 82.7 153 
 625  0N ES   0   1821 30.82                              68   -0.11 9 82.7 153 
 625  0N  IAML    1821 32.15         4.3 0.38                          82.7 153 
 628  0Z IP   1   1821 20.12   85                         68   -0.21 6 86.2 124 
 628  0N ES   1   1821 31.05                              68   -0.33 6 86.2 124 
 628  0N  IAML    1821 32.39        16.4 0.29                          86.2 124 
 627  0Z IP   0   1821 23.51   88                         68    0.06 8  104 140 
 627  0E ES   0   1821 36.89                              68    0.11 8  104 140 
 627  0E  IAML    1821 38.22         4.4 0.21                           104 140 
 626  0Z IP   1   1821 24.38   87                         54   -0.07 6  112 162 
 626  0N ES   1   1821 38.38                              54   -0.12 6  112 162 
 626  0E  IAML    1821 38.73        21.4 0.23                           112 162 
 629  0Z IP   0   1821 26.93   76                         50    0.18 7  128 142 
 629  0E ES   0   1821 42.83                              50    0.34 7  128 142 
 629  0E  IAML    1821 47.02         3.3 0.46                           128 142 
 630  0Z IP   1   1821 28.17   78                         41    0.02 5  140 126 
 630  0E ES   1   1821 45.06                              41    0.15 5  140 126 
 630  0E  IAML    1821 46.35        10.8 0.24                           140 126 
 631  0Z IP   4   1821 34.15   89                         41    1.34 0  178 154 
 631  0N ES   4   1821 55.38                              41    2.41 0  178 154 
 631  0E  IAML    1821 56.98         8.3 0.23                           178 154 
 632  0Z IP   4   1821 36.81   87                         41    1.57 0  198 134 
 632  0N ES   4   1822  0.00                              41    2.82 0  198 134 
 632  0E  IAML    1822  3.02         4.0 0.37                           198 134 
                                                                                
