 2016 1125 0556  1.0 L  72.707 124.952 15.0  SLT  6 0.3 0.4LSLT 0.8CSLT        1
 GAP=220        0.54       3.8    10.4  4.2  0.3060E+02 -0.3737E+02 -0.1071E+02E
 ACTION:REG 18-11-22 15:21 OP:art  STATUS:               ID:20161125055436     I
 2016-11-25-0554-36M.arct__039                                                 6
 STAT SP IPHASW D HRMM SECON CODA AMPLIT PERI AZIMU VELO AIN AR TRES W  DIS CAZ7
 620  0Z IP   0    556  5.82   21                        121   -0.0210 20.9 254 
 620  0N ES   1    556  9.22                             121   -0.17 7 20.9 254 
 620  0Z  IAML     556  9.74         4.4 0.13                          20.9 254 
 622  0Z IP   0    556  7.71   26                        108    0.0610 31.9 158 
 622  0N ES   0    556 12.46                             108   -0.0510 31.9 158 
 622  0Z  IAML     556 12.54         3.2 0.16                          31.9 158 
 623  0Z IP   2    556 11.41                              99    0.65 5 50.4 147 
 623  0E ES   0    556 17.98                              99    0.0810 50.4 147 
 623  0Z  IAML     556 19.34         1.0 0.41                          50.4 147 
 624  0Z IP   1    556 11.24   28                         99    0.44 7 51.1 120 
 624  0E ES   1    556 17.74                              99   -0.23 7 51.1 120 
 624  0Z  IAML     556 18.16         3.5 0.23                          51.1 120 
 628  0Z IP   1    556 15.17   35                         68   -0.18 7 81.0 114 
 628  0E ES   1    556 25.48                              68   -0.37 7 81.0 114 
 628  0Z  IAML     556 26.04         1.5 0.52                          81.0 114 
 626  0Z IP   3    556 19.43   32                         68    1.12 2 98.5 158 
 626  0N ES   1    556 30.76                              68   -0.20 6 98.5 158 
 626  0Z  IAML     556 32.73         0.8 0.15                          98.5 158 
                                                                                
 2017  117 0846 48.1 L  72.202 127.340 23.3  SLT  6 0.2 0.4LSLT 0.2CSLT        1
 GAP=129        0.53       1.5     4.5  3.1  0.4863E+00  0.1249E+00  0.7116E+00E
 ACTION:ARG 20-09-30 09:42 OP:mn   STATUS:               ID:20170117084544     I
 2017-01-17-0845-44M.a_____039                                                 6
 STAT SP IPHASW D HRMM SECON CODA AMPLIT PERI AZIMU VELO AIN AR TRES W  DIS CAZ7
 627  0Z IP   1 D  846 53.34   16                        143    0.31 7 15.5 232 
 627  0N ES   0    846 56.65                             143   -0.0110 15.5 232 
 627  0Z  IAML     846 56.82         5.9 0.18                          15.5 232 
 628  0Z IP   1 D  846 53.86   16                        130    0.25 7 23.0 344 
 628  0N ES   0    846 57.60                             130   -0.0710 23.0 344 
 628  0Z  IAML     846 57.84        14.0 0.17                          23.0 344 
 629  0Z IP   1 D  846 55.24   18                        120    0.32 7 30.5 182 
 629  0Z  IAML     846 59.97         1.1 0.10                          30.5 182 
 629  0E ES   0    847  0.04                             120    0.1010 30.5 182 
 630  0Z IP   0 C  846 55.71   14                        114    0.0010 36.6 112 
 630  0N ES   1    847  0.86                             114   -0.44 7 36.6 112 
 630  0Z  IAML     847  0.98         3.0 0.19                          36.6 112 
 625  0Z IP   0 C  846 56.67   17                        110    0.0810 42.2 266 
 625  0N ES   1    847  2.52                             110   -0.29 7 42.2 266 
 625  0Z  IAML     847  2.83         1.8 0.19                          42.2 266 
 626  0Z IP   0 C  846 58.73   23                        103    0.0010 57.0 233 
 626  0E ES   1    847  6.16                             103   -0.36 7 57.0 233 
 626  0Z  IAML     847  6.61         1.9 0.17                          57.0 233 
                                                                                
 2017  122 1614 26.2 L  71.949 128.057 15.0  SLT  6 0.3 1.1LSLT 1.0CSLT        1
 GAP=106        0.61       1.9     4.8  2.9  0.2186E+01  0.5275E+01  0.3259E+01E
 ACTION:ARG 20-09-30 09:42 OP:mn   STATUS:               ID:20170122161342     I
 2017-01-22-1613-42M.a_____039                                                 6
 STAT SP IPHASW D HRMM SECON CODA AMPLIT PERI AZIMU VELO AIN AR TRES W  DIS CAZ7
 630  0Z IP   1 C 1614 30.75   14                        128    0.39 7 16.8  33 
 630  0E ES   0   1614 33.21                             128   -0.2110 16.8  33 
 630  0Z  IAML    1614 33.46       104.3 0.12                          16.8  33 
 629  0Z IP   1 D 1614 32.13   30                        114    0.34 7 25.8 265 
 629  0E ES   0   1614 35.84                             114   -0.0510 25.8 265 
 629  0Z  IAML    1614 36.23        18.5 0.10                          25.8 265 
 627  0Z IP   1 C 1614 34.55   30                        102    0.26 7 41.5 297 
 627  0N ES   1   1614 39.89                             102   -0.32 7 41.5 297 
 627  0Z  IAML    1614 40.61        14.7 0.22                          41.5 297 
 632  0Z IP   0 C 1614 37.17   34                         98    0.0510 54.8 139 
 632  0E ES   2   1614 44.47                              98   -0.64 5 54.8 139 
 632  0Z  IAML    1614 44.94         8.0 0.10                          54.8 139 
 631  0Z IP   1 D 1614 39.26   55                         68    0.25 7 67.6 205 
 631  0E ES   0   1614 48.25                              68   -0.14 9 67.6 205 
 631  0Z  IAML    1614 50.83         5.8 0.32                          67.6 205 
 625  0Z IP   0 D 1614 39.55   29                         68    0.22 9 71.6 291 
 625  0E ES   1   1614 48.51                              68   -0.42 7 71.6 291 
 625  0Z  IAML    1614 51.05         2.4 0.27                          71.6 291 
                                                                                
 2017  125 2243 59.5 L  72.430 126.006 13.5  SLT  6 0.2 1.0LSLT 0.8CSLT        1
 GAP=146        0.45       1.3     3.0  1.8 -0.3532E+00 -0.3787E+00  0.1387E+01E
 ACTION:ARG 20-09-30 09:42 OP:mn   STATUS:               ID:20170125224241     I
 2017-01-25-2242-41M.a_____039                                                 6
 STAT SP IPHASW D HRMM SECON CODA AMPLIT PERI AZIMU VELO AIN AR TRES W  DIS CAZ7
 624  0Z IP   0 D 2244  2.91   25                        139    0.1910 10.4  60 
 624  0E ES   0   2244  4.95                             139   -0.1610 10.4  60 
 624  0Z  IAML    2244  5.20       124.5 0.16                          10.4  60 
 622  0Z IP   0 C 2244  4.78   25                        113    0.1310 23.4 274 
 622  0E ES   0   2244  8.28                             113   -0.1610 23.4 274 
 622  0Z  IAML    2244  9.10        14.6 0.20                          23.4 274 
 625  0Z IP   1 C 2244  5.66   21                        107    0.26 7 28.7 173 
 625  0N ES   0   2244  9.88                             107    0.1410 28.7 173 
 625  0Z  IAML    2244 10.97         6.7 0.21                          28.7 173 
 628  0Z IP   0 D 2244  6.90   31                        100    0.1210 38.6  94 
 628  0E ES   0   2244 11.99                             100   -0.1310 38.6  94 
 628  0Z  IAML    2244 12.68         7.1 0.16                          38.6  94 
 626  0Z IP   0 C 2244 10.68   36                         95   -0.0210 60.4 179 
 626  0N ES   1   2244 18.54                              95   -0.36 7 60.4 179 
 626  0Z  IAML    2244 20.43         3.8 0.33                          60.4 179 
 631  0Z IP   0 D 2244 20.79   35                         50   -0.12 7  123 159 
 631  0N ES   0   2244 36.54                              50   -0.03 7  123 159 
 631  0Z  IAML    2244 39.67         1.7 0.16                           123 159 
                                                                                
 2017  3 2 1359 58.4 L  72.651 124.949  7.3  SLT  7 0.2 0.7LSLT 0.6CSLT        1
 GAP=198        0.47       1.6     3.3  2.0  0.1736E+01 -0.2674E+01  0.3597E-01E
 ACTION:ARG 20-12-21 03:09 OP:mn   STATUS:               ID:20170302140000     I
 2017-03-02-1400-00M.a_____039                                                 6
 STAT SP IPHASW D HRMM SECON CODA AMPLIT PERI AZIMU VELO AIN AR TRES W  DIS CAZ7
 620  0Z IP   0 C 14 0  2.62   12                        110    0.0410 20.1 271 
 620  0N ES   0   14 0  5.48                             110   -0.1410 20.1 271 
 620  0Z  IAML    14 0  6.17        11.7 0.22                          20.1 271 
 623  0Z IP   2 C 14 0  7.90   23                         99    0.60 5 45.3 143 
 623  0E ES   0   14 0 13.91                              99    0.1310 45.3 143 
 623  0Z  IAML    14 0 16.05         2.6 0.31                          45.3 143 
 624  0Z IP   0 C 14 0  7.90   21                         98    0.1110 48.4 113 
 624  0N ES   0   14 0 14.45                              98   -0.1810 48.4 113 
 624  0Z  IAML    14 0 14.90         4.1 0.20                          48.4 113 
 621  0Z IP   0 D 14 0  8.53   18                         98    0.0810 52.1 182 
 621  0E ES   0   14 0 15.65                              98   -0.1210 52.1 182 
 621  0Z  IAML    14 0 15.67         1.7 0.16                          52.1 182 
 628  0Z IP   0 C 14 0 12.90   19                         66    0.01 9 78.8 110 
 628  0Z  IAML    14 0 22.84         2.9 0.36                          78.8 110 
 628  0N ES   1   14 0 23.10                              66   -0.35 7 78.8 110 
 626  0Z IP   0 D 14 0 15.66   34                         58    0.19 8 92.8 156 
 626  0N ES   1   14 0 27.55                              58   -0.35 6 92.8 156 
 626  0Z  IAML    14 0 28.04         1.5 0.25                          92.8 156 
 631  0Z IP   3 C 14 0 26.12   35                         37    0.87 1  161 149 
 631  0N ES   1   14 0 45.20                              37    0.37 4  161 149 
 631  0Z  IAML    14 0 47.10         2.3 0.16                           161 149 
                                                                                
 2017  3 4 2135  2.2 L  72.676 124.995  9.7  SLT  7 0.4 1.5LSLT 0.9CSLT        1
 GAP=208        0.61       4.0    11.2  4.5  0.2320E+02 -0.3992E+02 -0.2750E+01E
 ACTION:ARG 20-12-21 03:09 OP:mn   STATUS:               ID:20170304213342     I
 2017-03-04-2133-42M.a_____039                                                 6
 STAT SP IPHASW D HRMM SECON CODA AMPLIT PERI AZIMU VELO AIN AR TRES W  DIS CAZ7
 620  0Z IP   0 C 2135  6.89   22                        114    0.1010 21.7 264 
 620  0N ES   1   2135  9.93                             114   -0.22 7 21.7 264 
 620  0Z  IAML    2135 10.05        86.0 0.13                          21.7 264 
 622  0Z IP   2 C 2135  8.63   25                        109    0.62 5 28.2 158 
 622  0E ES   2   2135 12.74                             109    0.47 5 28.2 158 
 622  0Z  IAML    2135 12.96        43.3 0.27                          28.2 158 
 623  0Z IP   0 D 2135 11.57   25                         66    0.2510 46.7 146 
 623  0E ES   0   2135 17.74                              66   -0.2610 46.7 146 
 623  0Z  IAML    2135 18.46        11.2 0.28                          46.7 146 
 625  0Z IP   1 C 2135 14.52   28                         66   -0.25 7 67.4 146 
 625  0N ES   3   2135 23.03                              66   -0.94 2 67.4 146 
 625  0Z  IAML    2135 24.79         5.7 0.30                          67.4 146 
 628  0Z IP   0 D 2135 16.21   34                         66   -0.18 9 78.4 112 
 628  0E ES   2   2135 26.07                              66   -0.69 4 78.4 112 
 628  0Z  IAML    2135 27.53        11.0 0.31                          78.4 112 
 630  0Z IP   2 C 2135 25.48   35                         44    0.69 3  131 119 
 630  0E ES   2   2135 41.91                              44    0.61 3  131 119 
 630  0Z  IAML    2135 43.85        28.1 0.25                           131 119 
 631  0Z IP   3 C 2135 29.65   45                         37    0.83 1  162 150 
 631  0N ES   2   2135 48.84                              37    0.57 3  162 150 
 631  0Z  IAML    2135 50.49         7.9 0.16                           162 150 
                                                                                
 2017  3 7 0447 20.2 L  72.693 125.008  9.3  SLT 10 0.3 1.8LSLT 1.4CSLT        1
 GAP=214        0.51       2.6     6.6  2.7  0.9081E+01 -0.1405E+02 -0.2288E+01E
 ACTION:ARG 20-12-21 03:09 OP:mn   STATUS:               ID:20170307044601     I
 2017-03-07-0446-01M.a_____039                                                 6
 STAT SP IPHASW D HRMM SECON CODA AMPLIT PERI AZIMU VELO AIN AR TRES W  DIS CAZ7
 620  0Z IP   0 C  447 25.10   28                        112    0.1510 22.4 259 
 620  0N ES   1    447 28.18                             112   -0.21 7 22.4 259 
 620  0Z  IAML     447 28.45       381.6 0.12                          22.4 259 
 622  0Z IP   1 D  447 26.62   34                        107    0.27 7 29.8 160 
 622  0E ES   1    447 30.86                             107    0.05 7 29.8 160 
 622  0Z  IAML     447 31.27        70.8 0.22                          29.8 160 
 623  0Z IP   0 D  447 29.64   30                         66   -0.0310 48.1 148 
 623  0E ES   0    447 36.57                              66    0.0310 48.1 148 
 623  0Z  IAML     447 37.13        23.8 0.25                          48.1 148 
 624  0Z IP   0 D  447 29.73   35                         66    0.0410 48.8 119 
 624  0E ES   0    447 36.78                              66    0.1910 48.8 119 
 624  0Z  IAML     447 37.43        56.6 0.20                          48.8 119 
 625  0Z IP   0 C  447 32.96   49                         66   -0.16 9 68.8 147 
 625  0N ES   3    447 41.46                              66   -1.05 2 68.8 147 
 625  0Z  IAML     447 42.87        11.5 0.26                          68.8 147 
 628  0Z IP   1 D  447 34.30   39                         66   -0.26 7 78.7 114 
 628  0E ES   1    447 44.74                              66   -0.26 7 78.7 114 
 628  0Z  IAML     447 45.61        24.7 0.35                          78.7 114 
 627  0Z IP   1 D  447 36.70   44                         58   -0.44 6 92.6 133 
 627  0N ES   2    447 48.67                              58   -0.80 4 92.6 133 
 627  0Z  IAML     447 48.90        10.6 0.36                          92.6 133 
 630  0Z IP   0 C  447 43.03   38                         44    0.03 7  132 120 
 630  0N ES   1    448  0.14                              44    0.53 5  132 120 
 630  0Z  IAML     448  1.93        78.9 0.21                           132 120 
 631  0Z IP   1 D  447 47.59   48                         37    0.46 4  164 151 
 631  0E ES   1    448  7.03                              37    0.28 4  164 151 
 631  0Z  IAML     448  9.42        22.3 0.20                           164 151 
 632  0Z IP   3 D  447 51.04   71                         37    1.06 1  187 130 
 632  0N ES   4    448 13.95                              37    2.27 0  187 130 
 632  0Z  IAML     448 14.76        14.6 0.48                           187 130 
                                                                                
 2017  3 7 2016 50.1 L  72.673 124.937 15.3  SLT  6 0.1 1.2LSLT 0.9CSLT        1
 GAP=207        0.38       1.7     3.8  1.8  0.3312E+01 -0.3997E+01 -0.5531E+00E
 ACTION:ARG 20-12-21 03:09 OP:mn   STATUS:               ID:20170307201532     I
 2017-03-07-2015-32M.a_____039                                                 6
 STAT SP IPHASW D HRMM SECON CODA AMPLIT PERI AZIMU VELO AIN AR TRES W  DIS CAZ7
 620  0Z IP   0 D 2016 54.89   27                        123    0.1110 19.7 264 
 620  0N ES   0   2016 58.01                             123   -0.2110 19.7 264 
 620  0Z  IAML    2016 58.22        65.2 0.16                          19.7 264 
 622  0Z IP   0 D 2016 56.37   24                        112    0.1310 28.7 154 
 622  0E ES   0   2017  0.78                             112    0.0410 28.7 154 
 622  0Z  IAML    2017  0.95        37.3 0.29                          28.7 154 
 623  0Z IP   0 D 2016 59.49   30                        100    0.1010 47.6 144 
 623  0E ES   0   2017  6.12                             100   -0.0710 47.6 144 
 623  0Z  IAML    2017  7.13         6.9 0.23                          47.6 144 
 624  0Z IP   0 C 2016 59.78   34                        100    0.0910 49.9 116 
 624  0N ES   0   2017  6.58                             100   -0.1210 49.9 116 
 624  0Z  IAML    2017  7.53        13.6 0.15                          49.9 116 
 628  0Z IP   0 D 2017  4.31   28                         68    0.03 9 80.1 111 
 628  0E ES   0   2017 14.48                              68   -0.17 9 80.1 111 
 628  0Z  IAML    2017 14.92         9.4 0.24                          80.1 111 
 626  0Z IP   1 D 2017  7.15   41                         68    0.28 6 95.2 156 
 626  0E ES   0   2017 19.03                              68   -0.11 8 95.2 156 
 626  0Z  IAML    2017 19.78         3.2 0.39                          95.2 156 
                                                                                
 2017  3 9 1454  0.3 L  72.663 124.934 13.5  SLT  6 0.2 0.4LSLT 0.7CSLT        1
 GAP=203        0.50       2.2     4.8  2.9  0.4246E+01 -0.9439E+01 -0.1477E+01E
 ACTION:ARG 20-12-21 03:09 OP:mn   STATUS:               ID:20170309145250     I
 2017-03-09-1452-50M.a_____039                                                 6
 STAT SP IPHASW D HRMM SECON CODA AMPLIT PERI AZIMU VELO AIN AR TRES W  DIS CAZ7
 620  0Z IP   0 C 1454  4.93   13                        119    0.1210 19.6 267 
 620  0N ES   0   1454  7.99                             119   -0.1210 19.6 267 
 620  0Z  IAML    1454  8.42        17.6 0.33                          19.6 267 
 622  0Z IP   1 D 1454  6.51   27                        108    0.31 7 27.8 153 
 622  0E ES   1   1454 10.77                             108    0.26 7 27.8 153 
 622  0Z  IAML    1454 10.95         3.1 0.27                          27.8 153 
 624  0Z IP   0 D 1454  9.81   35                         96    0.0210 49.5 114 
 624  0E ES   0   1454 16.64                              96   -0.0810 49.5 114 
 624  0Z  IAML    1454 17.03         1.7 0.11                          49.5 114 
 621  0Z IP   0 D 1454 10.38   25                         96   -0.0710 53.5 182 
 621  0E ES   1   1454 17.66                              96   -0.22 7 53.5 182 
 621  0Z  IAML    1454 20.23         0.7 0.09                          53.5 182 
 628  0Z IP   0 D 1454 14.39   32                         68   -0.17 9 79.8 111 
 628  0E ES   1   1454 24.62                              68   -0.36 7 79.8 111 
 628  0Z  IAML    1454 25.78         1.0 0.14                          79.8 111 
 630  0Z IP   0 C 1454 22.92   32                         45    0.31 7  132 118 
 630  0E ES   2   1454 39.65                              45    0.74 3  132 118 
 630  0Z  IAML    1454 41.77         3.0 0.22                           132 118 
                                                                                
