 2017  4 5 1410 52.8 L  71.562 128.672  0.0  SLT 10 0.6 1.8LSLT 2.2CSLT        1
 GAP=280        0.95       3.4    13.2  4.7 -0.1332E+02  0.4523E+01 -0.6483E+01E
 ACTION:UP  20-12-21 00:57 OP:elen STATUS:               ID:20170405140956     I
 OLDACT:UP  20-12-20 03:02 OP:elen STATUS:               ID:20170405140956     3
 OLDACT:UP  20-12-17 00:06 OP:elen STATUS:               ID:20170405140956     3
 OLDACT:REG 20-12-13 13:22 OP:elen STATUS:               ID:20170405140956     3
 2017-04-05-1409-56M.NSN___039                                                 6
 STAT SP IPHASW D HRMM SECON CODA AMPLIT PERI AZIMU VELO AIN AR TRES W  DIS CAZ7
 631  0Z IP   0   1411  3.23   94                         65   -0.1810 53.7 251 
 631  0E ES   0   1411 11.26                              65    0.1310 53.7 251 
 631  0N  IAML    1411 12.28        28.6 0.17                          53.7 251 
 629  0Z IP   0   1411  4.71   96                         65   -0.1310 62.7 311 
 629  0N ES   0   1411 13.77                              65    0.1810 62.7 311 
 629  0N  IAML    1411 16.28         9.9 0.21                          62.7 311 
 626  0Z IP   1   1411 11.13  106                         65   -0.43 8 99.2 293 
 626  0N ES   1   1411 24.81                              65   -0.40 8 99.2 293 
 626  0N  IAML    1411 29.66        16.6 0.18                          99.2 293 
 628  0Z IP   1   1411 12.40   82                         50   -0.38 8  107 331 
 628  0N ES   1   1411 26.97                              50   -0.35 8  107 331 
 628  0N  IAML    1411 32.64        11.3 0.18                           107 331 
 625  0Z IP   0   1411 13.83   87                         50   -0.03 8  112 309 
 625  0N ES   0   1411 29.36                              50    0.16 8  112 309 
 625  0N  IAML    1411 33.02        22.4 0.21                           112 309 
 624  0Z IP   0   1411 16.80   72                         39   -0.08 7  131 322 
 624  0N ES   0   1411 34.63                              39    0.21 7  131 322 
 624  0N  IAML    1411 37.41        30.9 0.20                           131 322 
 623  0Z IP   1   1411 16.69   81                         39   -0.37 7  132 312 
 623  0N ES   0   1411 34.51                              39   -0.23 7  132 312 
 623  0N  IAML    1411 37.18        10.9 0.20                           132 312 
 621  0Z IP   0   1411 19.20   95                         33    0.11 6  149 300 
 621  0N ES   1   1411 38.62                              33    0.37 6  149 300 
 621  0E  IAML    1411 40.83        12.2 0.14                           149 300 
 622  0Z IP   0   1411 19.68   86                         33    0.10 6  152 312 
 622  0N ES   1   1411 39.50                              33    0.40 6  152 312 
 622  0N  IAML    1411 41.87        19.3 0.17                           152 312 
 620  0Z IP   4   1411 25.49   90                         33    1.43 4  192 311 
 620  0N ES   4   1411 49.48                              33    2.63 4  192 311 
 620  0E  IAML    1411 50.64         9.1 0.34                           192 311 
                                                                                
 2017  4 6 0838 42.2 L  72.354 129.368 10.9  SLT 10 0.6 1.1LSLT 2.0CSLT        1
 GAP=268        1.32       4.7    17.8  5.5  0.3715E+02 -0.9385E+01 -0.1255E+01E
 ACTION:UP  20-12-21 11:42 OP:elen STATUS:               ID:20170406083758     I
 OLDACT:UP  20-12-20 10:20 OP:elen STATUS:               ID:20170406083758     3
 OLDACT:UP  20-12-17 00:35 OP:elen STATUS:               ID:20170406083758     3
 OLDACT:REG 20-12-13 13:33 OP:elen STATUS:               ID:20170406083758     3
 2017-04-06-0837-58M.NSN___039                                                 6
 STAT SP IPHASW D HRMM SECON CODA AMPLIT PERI AZIMU VELO AIN AR TRES W  DIS CAZ7
 630  0Z IP   1    838 51.70   57                         91    0.4410 47.3 229 
 630  0N ES   1    838 58.20                              91    0.3510 47.3 229 
 630  0E  IAML     838 59.08         4.6 0.32                          47.3 229 
 628  0Z IP   0    838 55.91   54                         90    0.05 9 75.3 275 
 628  0N ES   1    839  5.39                              90   -0.40 9 75.3 275 
 628  0N  IAML     839  6.74         7.1 0.22                          75.3 275 
 629  0Z IP   1    838 58.08   72                         68    0.25 9 84.8 237 
 629  0N ES   0    839  9.14                              68   -0.06 9 84.8 237 
 629  0N  IAML     839 10.76         1.9 0.30                          84.8 237 
 627  0Z IP   1    838 58.22   59                         68    0.37 9 85.5 253 
 627  0N ES   0    839  9.43                              68    0.19 9 85.5 253 
 627  0E  IAML     839 10.65         5.5 0.18                          85.5 253 
 632  0Z IP   1    838 58.38   81                         68   -0.37 8 87.6 187 
 632  0N ES   4    839  9.68                              68   -1.12 8 87.6 187 
 632  0E  IAML     839 11.80         4.6 0.32                          87.6 187 
 624  0Z IP   1    839  0.59   77                         68   -0.49 8  105 279 
 624  0N ES   4    839 13.56                              68   -1.26 8  105 279 
 624  0N  IAML     839 14.48        13.0 0.22                           105 279 
 626  0Z IP   1    839  4.21   83                         50    0.31 7  125 247 
 626  0N ES   0    839 19.89                              50    0.19 7  125 247 
 626  0N  IAML     839 21.55         3.0 0.36                           125 247 
 631  0Z IP   1    839  5.19   85                         50    0.32 7  130 216 
 631  0N ES   0    839 21.50                              50    0.11 7  130 216 
 631  0E  IAML     839 23.21         3.0 0.23                           130 216 
 622  0Z IP   0    839  5.45   70                         45   -0.22 6  137 276 
 622  0N ES   2    839 22.04                              45   -0.73 6  137 276 
 622  0E  IAML     839 24.42         1.8 0.17                           137 276 
 621  0Z IP   4    839  8.64   76                         41    1.23 6  153 265 
 621  0N ES   4    839 27.55                              41    1.78 6  153 265 
 621  0N  IAML     839 30.04         2.0 0.17                           153 265 
                                                                                
 2017  4 6 1728  0.6 L  72.713 125.663 17.0  SLT 10 0.5 1.0LSLT 1.8CSLT        1
 GAP=222        1.03       3.6     7.5  3.8  0.7265E+01 -0.1099E+02 -0.2987E+01E
 ACTION:UP  20-12-21 12:27 OP:elen STATUS:               ID:20170406172639     I
 OLDACT:UP  20-12-20 10:56 OP:elen STATUS:               ID:20170406172639     3
 OLDACT:UP  20-12-17 22:23 OP:elen STATUS:               ID:20170406172639     3
 OLDACT:REG 20-12-15 19:37 OP:elen STATUS:               ID:20170406172639     3
 2017-04-06-1726-39M.NSN___039                                                 6
 STAT SP IPHASW D HRMM SECON CODA AMPLIT PERI AZIMU VELO AIN AR TRES W  DIS CAZ7
 622  0Z IP   1   1728  7.84   49                        112    0.3410 32.4 201 
 622  0N ES   0   1728 12.73                             112    0.2110 32.4 201 
 622  0E  IAML    1728 14.00        10.3 0.41                          32.4 201 
 624  0Z IP   0   1728  7.81   52                         68    0.2410 33.4 142 
 624  0N ES   0   1728 12.77                              68    0.1310 33.4 142 
 624  0N  IAML    1728 13.91         6.5 0.11                          33.4 142 
 623  0Z IP   0   1728  9.42   62                         68    0.1810 43.3 176 
 623  0N ES   0   1728 15.48                              68   -0.0510 43.3 176 
 623  0E  IAML    1728 17.38         3.3 0.15                          43.3 176 
 620  0Z IP   0   1728  9.28   53                         68   -0.0210 44.2 262 
 620  0N ES   1   1728 15.28                              68   -0.3610 44.2 262 
 620  0E  IAML    1728 15.49        25.5 0.18                          44.2 262 
 628  0Z IP   0   1728 11.58   47                         68   -0.0310 60.7 124 
 628  0N ES   1   1728 19.31                              68   -0.3310 60.7 124 
 628  0N  IAML    1728 19.87        12.7 0.25                          60.7 124 
 621  0Z IP   0   1728 12.54   57                         68    0.03 9 64.5 204 
 621  0N ES   0   1728 21.02                              68   -0.17 9 64.5 204 
 621  0E  IAML    1728 21.75         2.5 0.16                          64.5 204 
 626  0Z IP   0   1728 16.77   51                         68   -0.17 8 92.9 172 
 626  0E ES   2   1728 28.24                              68   -0.61 8 92.9 172 
 626  0N  IAML    1728 29.14         1.6 0.15                          92.9 172 
 630  0Z IP   2   1728 19.73   74                         50   -0.52 7  115 127 
 630  0N ES   4   1728 33.53                              50   -1.05 7  115 127 
 630  0E  IAML    1728 34.32         3.9 0.15                           115 127 
 631  0Z IP   2   1728 26.31   93                         41    0.66 6  156 159 
 631  0N ES   3   1728 44.89                              41    0.97 6  156 159 
 631  0E  IAML    1728 46.34         3.2 0.16                           156 159 
 632  0Z IP   3   1728 28.58   90                         41    0.90 5  173 136 
 632  0N ES   4   1728 48.98                              41    1.55 5  173 136 
 632  0E  IAML    1728 50.06         4.5 0.31                           173 136 
                                                                                
 2017  4 8 1004 44.2 L  72.600 124.986 12.9  SLT 12 0.5 1.6LSLT 2.3CSLT        1
 GAP=180        1.03       3.7     8.8  3.0  0.2010E+02 -0.1034E+02 -0.1422E+01E
 ACTION:UP  20-12-21 14:32 OP:elen STATUS:               ID:20170408100319     I
 OLDACT:UP  20-12-20 16:21 OP:elen STATUS:               ID:20170408100319     3
 OLDACT:UP  20-12-19 02:06 OP:elen STATUS:               ID:20170408100319     3
 OLDACT:REG 20-12-15 20:09 OP:elen STATUS:               ID:20170408100319     3
 2017-04-08-1003-19M.NSN___039                                                 6
 STAT SP IPHASW D HRMM SECON CODA AMPLIT PERI AZIMU VELO AIN AR TRES W  DIS CAZ7
 622  0Z IP   1   10 4 49.30   86                        115    0.3610 20.8 148 
 622  0N ES   1   10 4 52.82                             115    0.4210 20.8 148 
 622  0E  IAML    10 4 53.10        74.9 0.37                          20.8 148 
 620  0Z IP   0   10 4 49.10   78                        113    0.0310 22.1 286 
 620  0N ES   0   10 4 52.40                             113   -0.2310 22.1 286 
 620  0E  IAML    10 4 52.80       171.2 0.15                          22.1 286 
 623  0Z IP   0   10 4 52.26   80                         98    0.0810 40.2 139 
 623  0N ES   0   10 4 58.11                              98    0.1110 40.2 139 
 623  0N  IAML    10 4 59.03        75.1 0.25                          40.2 139 
 624  0Z IP   0   10 4 53.11   93                         96    0.1310 45.3 107 
 624  0N ES   0   10 4 59.48                              96    0.1010 45.3 107 
 624  0N  IAML    10 5  1.03        27.4 0.11                          45.3 107 
 625  0Z IP   0   10 4 55.37  106                         94   -0.2410 60.8 141 
 625  0N ES   1   10 5  3.50                              94   -0.4410 60.8 141 
 625  0N  IAML    10 5  3.88         8.5 0.32                          60.8 141 
 628  0Z IP   1   10 4 57.62  104                         68   -0.27 9 75.9 106 
 628  0N ES   1   10 5  7.40                              68   -0.48 9 75.9 106 
 628  0E  IAML    10 5  8.95        21.9 0.21                          75.9 106 
 627  0Z IP   0   10 4 59.88  107                         68    0.06 9 86.4 128 
 627  0N ES   0   10 5 11.19                              68   -0.04 9 86.4 128 
 627  0N  IAML    10 5 12.24         8.1 0.25                          86.4 128 
 626  0Z IP   1   10 4 59.53   99                         68   -0.33 9 87.2 155 
 626  0E ES   2   10 5 10.66                              68   -0.63 9 87.2 155 
 626  0E  IAML    10 5 11.00         8.5 0.17                          87.2 155 
 629  0Z IP   0   10 5  3.50   89                         68   -0.01 8  109 132 
 629  0N ES   0   10 5 17.47                              68   -0.14 8  109 132 
 629  0E  IAML    10 5 18.54         6.7 0.21                           109 132 
 630  0Z IP   0   10 5  5.80   97                         50   -0.16 7  127 116 
 630  0N ES   1   10 5 21.43                              50   -0.42 7  127 116 
 630  0E  IAML    10 5 25.71        18.6 0.18                           127 116 
 631  0Z IP   2   10 5 10.15  104                         41    0.54 6  155 149 
 631  0E ES   2   10 5 28.84                              41    0.68 6  155 149 
 631  0N  IAML    10 5 30.82        14.2 0.13                           155 149 
 632  0Z IP   4   10 5 14.26  104                         41    1.50 5  181 127 
 632  0N ES   4   10 5 35.96                              41    2.35 5  181 127 
 632  0E  IAML    10 5 36.82        10.4 0.35                           181 127 
                                                                                
 2017  4 8 1004 44.2 L  72.593 124.975 12.8  SLT 13 0.5 1.6LSLT 2.5CSLT        1
 GAP=177        1.03       2.7     7.2  2.9  0.8419E+01 -0.8836E+01 -0.7857E+00E
 ACTION:UP  20-12-21 15:15 OP:elen STATUS:               ID:20170408100354     I
 OLDACT:UP  20-12-20 16:45 OP:elen STATUS:               ID:20170408100354     3
 OLDACT:UP  20-12-19 13:04 OP:elen STATUS:               ID:20170408100354     3
 OLDACT:REG 20-12-19 09:34 OP:elen STATUS:               ID:20170408100354     3
 2017-04-08-1003-54M.NSN___039                                                 6
 STAT SP IPHASW D HRMM SECON CODA AMPLIT PERI AZIMU VELO AIN AR TRES W  DIS CAZ7
 622  0Z IP   1   10 4 49.31  112                        115    0.4310 20.2 146 
 622  0N ES   2   10 4 52.78                             115    0.5110 20.2 146 
 622  0E  IAML    10 4 53.18        75.7 0.20                          20.2 146 
 620  0Z IP   0   10 4 49.12   92                        113    0.0410 22.0 288 
 620  0N ES   0   10 4 52.40                             113   -0.2310 22.0 288 
 620  0E  IAML    10 4 52.80       170.6 0.15                          22.0 288 
 623  0Z IP   0   10 4 52.27  100                         98    0.1410 39.8 138 
 623  0N ES   0   10 4 58.13                              98    0.2210 39.8 138 
 623  0N  IAML    10 4 59.15        73.9 0.30                          39.8 138 
 624  0Z IP   0   10 4 53.13  119                         96    0.1110 45.4 106 
 624  0N ES   0   10 4 59.48                              96    0.0410 45.4 106 
 624  0N  IAML    10 5  1.02        33.6 0.15                          45.4 106 
 621  0Z IP   0   10 4 52.92   98                         96   -0.1110 45.7 184 
 621  0N ES   1   10 4 59.20                              96   -0.2610 45.7 184 
 621  0E  IAML    10 5  1.72        20.3 0.22                          45.7 184 
 625  0Z IP   0   10 4 55.33  121                         94   -0.2310 60.4 140 
 625  0N ES   2   10 5  3.31                              94   -0.5310 60.4 140 
 625  0N  IAML    10 5  3.88         8.4 0.32                          60.4 140 
 628  0Z IP   1   10 4 57.63  111                         68   -0.32 9 76.0 105 
 628  0N ES   2   10 5  7.38                              68   -0.58 9 76.0 105 
 628  0E  IAML    10 5  8.94        21.7 0.19                          76.0 105 
 627  0Z IP   0   10 4 59.89  107                         68    0.07 9 86.2 127 
 627  0N ES   0   10 5 11.08                              68   -0.12 9 86.2 127 
 627  0N  IAML    10 5 12.24         8.1 0.25                          86.2 127 
 626  0Z IP   0   10 4 59.78  122                         68   -0.01 9 86.5 155 
 626  0N ES   1   10 5 10.85                              68   -0.31 9 86.5 155 
 626  0E  IAML    10 5 11.00         8.5 0.18                          86.5 155 
 629  0Z IP   0   10 5  3.42  112                         68   -0.07 8  109 132 
 629  0N ES   1   10 5 17.26                              68   -0.30 8  109 132 
 629  0E  IAML    10 5 18.54         6.7 0.20                           109 132 
 630  0Z IP   0   10 5  5.81  123                         50   -0.19 7  127 115 
 630  0N ES   1   10 5 21.44                              50   -0.45 7  127 115 
 630  0E  IAML    10 5 25.71        18.5 0.18                           127 115 
 631  0Z IP   2   10 5 10.17  120                         41    0.58 6  155 148 
 631  0N ES   2   10 5 28.83                              41    0.73 6  155 148 
 631  0N  IAML    10 5 30.82        14.2 0.13                           155 148 
 632  0Z IP   4   10 5 14.26  118                         41    1.48 5  181 127 
 632  0N ES   4   10 5 35.99                              41    2.37 5  181 127 
 632  0E  IAML    10 5 37.29         8.6 0.16                           181 127 
                                                                                
 2017  412 1506 60.0 L  71.497 129.586  5.5  SLT  6 0.7 0.9LSLT 1.6CSLT        1
 GAP=297        1.36       6.4    24.4  5.0 -0.4057E+02 -0.3816E+02  0.1957E+01E
 ACTION:UP  20-12-23 19:18 OP:elen STATUS:               ID:20170412150615     I
 OLDACT:REG 20-12-21 22:40 OP:elen STATUS:               ID:20170412150615     3
 2017-04-12-1506-15M.NSN___039                                                 6
 STAT SP IPHASW D HRMM SECON CODA AMPLIT PERI AZIMU VELO AIN AR TRES W  DIS CAZ7
 632  0Z IP   0   15 7  4.64   45                        105    0.1410 20.1 296 
 632  0N ES   0   15 7  8.05                             105    0.2310 20.1 296 
 632  0E  IAML    15 7  8.99        28.2 0.08                          20.1 296 
 630  0Z IP   0   15 7 14.54   43                         66   -0.14 9 78.1 326 
 630  0E ES   1   15 7 25.17                              66   -0.27 9 78.1 326 
 630  0E  IAML    15 7 25.98         2.1 0.16                          78.1 326 
 631  0Z IP   1   15 7 15.68   55                         66   -0.35 9 83.8 264 
 631  0E ES   2   15 7 27.10                              66   -0.67 9 83.8 264 
 631  0N  IAML    15 7 28.47         3.1 0.24                          83.8 264 
 628  0Z IP   2   15 7 22.26   45                         44   -0.69 7  131 321 
 628  0N ES   4   15 7 38.50                              44   -1.24 7  131 321 
 628  0N  IAML    15 7 40.00         1.0 0.15                           131 321 
 626  0Z IP   2   15 7 23.77   43                         44    0.59 7  132 291 
 626  0N ES   3   15 7 41.09                              44    0.95 7  132 291 
 626  0N  IAML    15 7 41.90         1.7 0.18                           132 291 
 625  0Z IP   3   15 7 25.58   45                         41    0.88 6  143 304 
 625  0N ES   4   15 7 44.16                              41    1.39 6  143 304 
 625  0N  IAML    15 7 46.35         2.0 0.22                           143 304 
                                                                                
