 2017  414 0459 17.9 L  72.260 127.373 23.5  SLT  7 0.2 0.7LSLT 0.5CSLT        1
 GAP=148        0.62       1.6     5.5  1.8  0.3171E+01  0.3957E+01  0.8840E+00E
 ACTION:UP  20-12-23 23:35 OP:elen STATUS:               ID:20170414045811     I
 OLDACT:REG 20-12-21 23:05 OP:elen STATUS:               ID:20170414045811     3
 2017-04-14-0458-11M.NSN___039                                                 6
 STAT SP IPHASW D HRMM SECON CODA AMPLIT PERI AZIMU VELO AIN AR TRES W  DIS CAZ7
 628  0Z IP   0    459 23.05   21                        139    0.2010 17.3 334 
 628  0N ES   0    459 26.28                             139   -0.1810 17.3 334 
 628  0N  IAML     459 26.45        23.3 0.08                          17.3 334 
 627  0Z IP   1    459 23.80   19                        134    0.3210 20.8 220 
 627  0N ES   0    459 27.53                             134   -0.0210 20.8 220 
 627  0N  IAML     459 28.15         7.8 0.21                          20.8 220 
 629  0Z IP   0    459 25.93   20                        115    0.2010 37.0 183 
 629  0N ES   0    459 31.21                             115   -0.2210 37.0 183 
 629  0N  IAML     459 31.83         2.1 0.37                          37.0 183 
 630  0Z IP   0    459 26.00   20                        113    0.1310 38.6 122 
 630  0N ES   1    459 31.33                             113   -0.3510 38.6 122 
 630  0E  IAML     459 31.56         2.7 0.16                          38.6 122 
 626  0Z IP   1    459 29.62   24                         70    0.2510 61.9 229 
 626  0E ES   0    459 37.59                              70   -0.1510 61.9 229 
 626  0N  IAML     459 37.71         1.9 0.21                          61.9 229 
 622  0Z IP   0    459 31.28   26                         70    0.07 9 72.6 287 
 622  0E ES   1    459 40.52                              70   -0.40 9 72.6 287 
 622  0E  IAML     459 41.08         1.3 0.14                          72.6 287 
 631  0Z IP   1    459 35.11                              62    0.28 8 96.2 183 
 631  0N ES   0    459 47.07                              62   -0.11 8 96.2 183 
 631  0E  IAML     459 47.29         3.2 0.19                          96.2 183 
                                                                                
 2017  414 1656 22.5 L  72.180 127.385 18.7  SLT  6 0.2 0.4LSLT 1.0CSLT        1
 GAP=128        0.59       1.4     3.9  3.3  0.6667E+00  0.1036E+01  0.1784E-01E
 ACTION:UP  20-12-24 19:41 OP:elen STATUS:               ID:20170414165510     I
 OLDACT:REG 20-12-22 00:00 OP:elen STATUS:               ID:20170414165510     3
 2017-04-14-1655-10M.NSN___039                                                 6
 STAT SP IPHASW D HRMM SECON CODA AMPLIT PERI AZIMU VELO AIN AR TRES W  DIS CAZ7
 627  0Z IP   1   1656 27.22   26                        134    0.3010 15.5 243 
 627  0N ES   0   1656 30.13                             134   -0.0210 15.5 243 
 627  0E  IAML    1656 30.77        22.6 0.16                          15.5 243 
 628  0Z IP   0   1656 28.27   30                        116    0.2310 25.9 342 
 628  0N ES   0   1656 31.94                             116   -0.1510 25.9 342 
 628  0E  IAML    1656 32.81         5.0 0.14                          25.9 342 
 630  0Z IP   0   1656 29.67   39                        105    0.1210 34.3 109 
 630  0N ES   1   1656 34.38                             105   -0.3210 34.3 109 
 630  0E  IAML    1656 34.60         4.9 0.10                          34.3 109 
 625  0Z IP   0   1656 31.21   34                         98    0.1410 43.7 270 
 625  0N ES   1   1656 37.05                              98   -0.2810 43.7 270 
 625  0E  IAML    1656 37.41         1.1 0.27                          43.7 270 
 624  0Z IP   0   1656 32.30   31                         95    0.1810 50.1 312 
 624  0N ES   0   1656 38.94                              95   -0.2010 50.1 312 
 624  0N  IAML    1656 39.46         1.5 0.38                          50.1 312 
 626  0Z IP   0   1656 33.22   41                         94    0.1910 56.7 236 
 626  0N ES   0   1656 40.52                              94   -0.1910 56.7 236 
 626  0N  IAML    1656 44.59         0.7 0.20                          56.7 236 
                                                                                
 2017  414 1753 31.9 L  72.328 130.427  9.5  SLT  6 0.5 0.9LSLT 1.7CSLT        1
 GAP=291        1.04       5.2    22.0  7.8  0.2420E+02  0.5107E+02 -0.2714E+01E
 ACTION:UP  20-12-25 00:29 OP:elen STATUS:               ID:20170414175245     I
 OLDACT:REG 20-12-24 20:01 OP:elen STATUS:               ID:20170414175245     3
 2017-04-14-1752-45M.NSN___039                                                 6
 STAT SP IPHASW D HRMM SECON CODA AMPLIT PERI AZIMU VELO AIN AR TRES W  DIS CAZ7
 630  0Z IP   1   1753 46.50   51                         66    0.3610 77.1 250 
 630  0N ES   1   1753 56.89                              66    0.3510 77.1 250 
 630  0N  IAML    1753 58.21         2.2 0.36                          77.1 250 
 632  0Z IP   0   1753 49.72   43                         58   -0.19 9 96.3 210 
 632  0N ES   2   1754  2.47                              58   -0.59 9 96.3 210 
 632  0E  IAML    1754  4.35         2.6 0.14                          96.3 210 
 628  0Z IP   1   1753 51.18   52                         58   -0.30 8  111 276 
 628  0N ES   3   1754  4.96                              58   -0.83 8  111 276 
 628  0N  IAML    1754  6.54         1.4 0.14                           111 276 
 627  0Z IP   1   1753 53.43   48                         48    0.40 8  120 260 
 627  0E ES   1   1754  8.88                              48    0.41 8  120 260 
 627  0N  IAML    1754 10.98         2.1 0.29                           120 260 
 624  0Z IP   0   1753 55.63   45                         37   -0.24 7  141 279 
 624  0N ES   2   1754 12.72                              37   -0.67 7  141 279 
 624  0N  IAML    1754 14.34         2.8 0.27                           141 279 
 626  0Z IP   2   1753 58.42   51                         37    0.73 6  158 254 
 626  0N ES   3   1754 17.52                              37    0.99 6  158 254 
 626  0E  IAML    1754 19.87         1.1 0.32                           158 254 
                                                                                
 2017  416 0523 40.9 L  71.945 127.094 20.7  SLT 13 0.4 1.7LSLT 2.2CSLT        1
 GAP= 86        0.99       1.7     5.1  3.0  0.2965E+01  0.3598E+01  0.1062E+00E
 ACTION:UP  20-12-26 19:23 OP:elen STATUS:               ID:20170416052232     I
 OLDACT:REG 20-12-24 20:31 OP:elen STATUS:               ID:20170416052232     3
 2017-04-16-0522-32M.NSN___039                                                 6
 STAT SP IPHASW D HRMM SECON CODA AMPLIT PERI AZIMU VELO AIN AR TRES W  DIS CAZ7
 629  0Z IP   2    523 45.45   82                        157    0.5310 7.80 103 
 629  0N ES   0    523 48.09                             157    0.2010 7.80 103 
 629  0N  IAML     523 48.18       179.5 0.06                          7.80 103 
 627  0Z IP   1    523 46.35   83                        130    0.3810 19.6 349 
 627  0N ES   0    523 49.70                             130   -0.0110 19.6 349 
 627  0E  IAML     523 49.90       231.5 0.18                          19.6 349 
 626  0Z IP   1    523 48.77   80                        108    0.4010 37.2 261 
 626  0N ES   0    523 53.87                             108    0.0110 37.2 261 
 626  0N  IAML     523 53.97        63.4 0.13                          37.2 261 
 625  0Z IP   0    523 49.48   82                        104    0.1810 42.5 307 
 625  0N ES   1    523 55.09                             104   -0.3810 42.5 307 
 625  0N  IAML     523 55.32        56.1 0.21                          42.5 307 
 630  0Z IP   1    523 49.98   86                        103    0.3510 44.9  71 
 630  0N ES   0    523 55.91                             103   -0.1310 44.9  71 
 630  0E  IAML     523 56.36        36.3 0.12                          44.9  71 
 628  0Z IP   0    523 50.46   78                        100    0.1510 50.8   2 
 628  0N ES   1    523 56.76                             100   -0.4610 50.8   2 
 628  0E  IAML     523 57.87        59.4 0.22                          50.8   2 
 631  0Z IP   0    523 52.69   91                         97    0.1310 61.2 175 
 631  0N ES   2    524  0.61                              97   -0.5010 61.2 175 
 631  0E  IAML     524  0.91       108.1 0.18                          61.2 175 
 623  0Z IP   0    523 52.70   88                         97    0.14 9 62.4 314 
 623  0N ES   1    524  0.64                              97   -0.47 9 62.4 314 
 623  0E  IAML     524  0.98        12.3 0.17                          62.4 314 
 624  0Z IP   0    523 53.19   87                         96    0.23 9 65.5 335 
 624  0N ES   1    524  1.53                              96   -0.27 9 65.5 335 
 624  0E  IAML     524  3.80        21.0 0.28                          65.5 335 
 621  0Z IP   0    523 55.38   86                         94    0.08 9 80.4 290 
 621  0N ES   2    524  5.30                              94   -0.54 9 80.4 290 
 621  0N  IAML     524 10.84        11.6 0.16                          80.4 290 
 632  0Z IP   0    523 55.75   95                         94   -0.10 9 80.6 120 
 632  0N ES   3    524  5.91                              94   -0.90 9 80.6 120 
 632  0E  IAML     524  8.88        12.0 0.12                          80.6 120 
 622  0Z IP   0    523 55.88   87                         94    0.15 9 82.3 313 
 622  0E ES   1    524  6.15                              94   -0.44 9 82.3 313 
 622  0E  IAML     524 12.01        20.7 0.15                          82.3 313 
 620  0Z IP   3    524  2.06  120                         56    0.83 7  122 312 
 620  0N ES   3    524 16.86                              56    0.75 7  122 312 
 620  0E  IAML     524 20.08        17.2 0.19                           122 312 
                                                                                
 2017  416 1220 14.0 L  72.924 124.609 12.6  SLT 11 0.2 1.1LSLT 1.7CSLT        1
 GAP=287        0.51       2.2     6.1  1.9 -0.1660E+01 -0.4222E+01 -0.8170E+00E
 ACTION:UP  20-12-26 21:48 OP:elen STATUS:               ID:20170416121850     I
 OLDACT:REG 20-12-24 20:45 OP:elen STATUS:               ID:20170416121850     3
 2017-04-16-1218-50M.NSN___039                                                 6
 STAT SP IPHASW D HRMM SECON CODA AMPLIT PERI AZIMU VELO AIN AR TRES W  DIS CAZ7
 620  0Z IP   0   1220 20.39   51                        102    0.0410 31.3 196 
 620  0E ES   0   1220 25.17                             102    0.1610 31.3 196 
 620  0E  IAML    1220 25.58        31.0 0.21                          31.3 196 
 622  0Z IP   0   1220 25.06   52                         93   -0.0710 58.6 156 
 622  0N ES   0   1220 33.21                              93   -0.0610 58.6 156 
 622  0N  IAML    1220 35.37         6.5 0.26                          58.6 156 
 624  0Z IP   0   1220 27.87   67                         92    0.08 9 74.5 131 
 624  0N ES   0   1220 38.08                              92    0.21 9 74.5 131 
 624  0E  IAML    1220 38.84         6.0 0.17                          74.5 131 
 623  0Z IP   0   1220 28.16   54                         68   -0.10 9 76.9 150 
 623  0N ES   0   1220 38.59                              68   -0.10 9 76.9 150 
 623  0N  IAML    1220 40.17         9.0 0.14                          76.9 150 
 621  0Z IP   0   1220 28.93   52                         68   -0.19 9 83.1 173 
 621  0N ES   1   1220 39.92                              68   -0.26 9 83.1 173 
 621  0N  IAML    1220 40.81         7.4 0.14                          83.1 173 
 625  0Z IP   0   1220 31.65   57                         68    0.21 8 97.5 148 
 625  0N ES   1   1220 44.60                              68    0.41 8 97.5 148 
 625  0N  IAML    1220 45.44         1.3 0.14                          97.5 148 
 628  0Z IP   0   1220 31.80   70                         68   -0.17 8  103 123 
 628  0N ES   1   1220 44.85                              68   -0.26 8  103 123 
 628  0N  IAML    1220 45.59         3.2 0.18                           103 123 
 627  0Z IP   0   1220 34.62   66                         50   -0.20 7  120 137 
 627  0N ES   1   1220 49.76                              50   -0.28 7  120 137 
 627  0N  IAML    1220 50.58         2.0 0.34                           120 137 
 626  0Z IP   0   1220 35.26   65                         50   -0.15 7  125 157 
 626  0N ES   0   1220 50.87                              50   -0.18 7  125 157 
 626  0E  IAML    1220 51.61        11.4 0.22                           125 157 
 629  0Z IP   1   1220 38.18   65                         41    0.34 6  144 139 
 629  0E ES   2   1220 55.91                              41    0.65 6  144 139 
 629  0E  IAML    1220 56.69         1.9 0.25                           144 139 
 630  0Z IP   0   1220 39.31   72                         41    0.07 6  157 125 
 630  0E ES   0   1220 57.85                              41    0.17 6  157 125 
 630  0E  IAML    1221  0.14         1.9 0.10                           157 125 
                                                                                
 2017  416 1821  5.3 L  72.833 125.047 13.6  SLT 13 0.6 1.4LSLT 2.2CSLT        1
 GAP=254        1.00       3.9     8.4  3.2  0.3086E+01 -0.1173E+02 -0.2145E+01E
 ACTION:UP  20-12-27 00:47 OP:elen STATUS:               ID:20170416181941     I
 OLDACT:REG 20-12-24 20:59 OP:elen STATUS:               ID:20170416181941     3
 2017-04-16-1819-41M.NSN___039                                                 6
 STAT SP IPHASW D HRMM SECON CODA AMPLIT PERI AZIMU VELO AIN AR TRES W  DIS CAZ7
 620  0Z IP   0   1821 11.60   79                        106   -0.0310 30.6 230 
 620  0E ES   0   1821 16.27                             106    0.0410 30.6 230 
 620  0E  IAML    1821 18.35        20.2 0.16                          30.6 230 
 622  0Z IP   0   1821 14.23   83                         98    0.1610 44.5 168 
 622  0E ES   1   1821 20.81                              98    0.3510 44.5 168 
 622  0N  IAML    1821 20.82        23.1 0.27                          44.5 168 
 624  0Z IP   0   1821 16.12   90                         95   -0.0210 57.1 134 
 624  0N ES   0   1821 24.11                              95    0.0710 57.1 134 
 624  0N  IAML    1821 24.84        18.5 0.25                          57.1 134 
 623  0Z IP   0   1821 17.07   85                         95    0.0910 61.4 157 
 623  0E ES   1   1821 25.73                              95    0.2510 61.4 157 
 623  0E  IAML    1821 26.39        16.1 0.19                          61.4 157 
 621  0Z IP   1   1821 18.44   78                         68   -0.30 9 72.6 184 
 621  0N ES   1   1821 28.05                              68   -0.47 9 72.6 184 
 621  0E  IAML    1821 29.12        15.1 0.21                          72.6 184 
 625  0Z IP   0   1821 19.96   85                         68   -0.23 9 81.7 154 
 625  0N ES   0   1821 30.82                              68   -0.22 9 81.7 154 
 625  0N  IAML    1821 32.15         4.3 0.38                          81.7 154 
 628  0Z IP   1   1821 20.12   85                         68   -0.32 9 85.1 124 
 628  0N ES   1   1821 31.05                              68   -0.43 9 85.1 124 
 628  0N  IAML    1821 32.39        16.4 0.29                          85.1 124 
 627  0Z IP   0   1821 23.51   88                         68   -0.05 8  103 140 
 627  0E ES   0   1821 36.89                              68    0.01 8  103 140 
 627  0E  IAML    1821 38.22         4.4 0.21                           103 140 
 626  0Z IP   1   1821 24.38   87                         54   -0.29 8  111 162 
 626  0N ES   1   1821 38.38                              54   -0.42 8  111 162 
 626  0E  IAML    1821 38.73        21.4 0.23                           111 162 
 629  0Z IP   0   1821 26.93   76                         50   -0.06 7  127 142 
 629  0E ES   0   1821 42.83                              50    0.02 7  127 142 
 629  0E  IAML    1821 47.02         3.3 0.46                           127 142 
 630  0Z IP   1   1821 28.17   78                         41   -0.28 6  139 126 
 630  0E ES   1   1821 45.06                              41   -0.28 6  139 126 
 630  0E  IAML    1821 46.35        10.8 0.24                           139 126 
 631  0Z IP   4   1821 34.15   89                         41    1.03 5  177 154 
 631  0N ES   4   1821 55.38                              41    1.97 5  177 154 
 631  0E  IAML    1821 56.98         8.3 0.23                           177 154 
 632  0Z IP   4   1821 36.81   87                         41    1.27 4  196 134 
 632  0N ES   4   1822  0.00                              41    2.40 4  196 134 
 632  0E  IAML    1822  3.02         4.0 0.37                           196 134 
                                                                                
