 2017  323 1612 48.6 L  72.455 125.124 10.9  SLT  6 0.2 0.6LSLT 0.6CSLT        1
 GAP=135        0.55       1.3     3.3  2.2  0.8726E+00  0.1022E+01 -0.2052E-02E
 ACTION:ARG 20-12-21 03:09 OP:mn   STATUS:               ID:20170323161125     I
 2017-03-23-1611-25M.a_____039                                                 6
 STAT SP IPHASW D HRMM SECON CODA AMPLIT PERI AZIMU VELO AIN AR TRES W  DIS CAZ7
 622  0Z IP   0 C 1612 51.41   22                        146    0.2110 6.53 103 
 622  0E ES   0   1612 52.97                             146   -0.1210 6.53 103 
 622  0Z  IAML    1612 53.39        63.5 0.21                          6.53 103 
 623  0Z IP   0 D 1612 54.32   36                         97    0.2310 25.9 124 
 623  0E ES   0   1612 58.05                              97   -0.0410 25.9 124 
 623  0Z  IAML    1612 59.14         5.2 0.24                          25.9 124 
 621  0Z IP   0 D 1612 55.02   23                         93    0.1210 31.3 195 
 621  0E ES   0   1612 59.28                              93   -0.2110 31.3 195 
 621  0Z  IAML    1613  1.01         3.2 0.17                          31.3 195 
 620  0Z IP   0 D 1612 55.59   21                         92    0.1410 34.2 311 
 620  0N ES   0   1613  0.20                              92   -0.2410 34.2 311 
 620  0Z  IAML    1613  1.52         5.5 0.15                          34.2 311 
 624  0Z IP   1 D 1612 56.50   21                         91    0.2710 38.8  86 
 624  0N ES   0   1613  1.64                              91   -0.1510 38.8  86 
 624  0Z  IAML    1613  2.27         5.5 0.14                          38.8  86 
 628  0Z IP   0 C 1613  1.10   26                         90    0.06 9 68.5  94 
 628  0N ES   1   1613  9.81                              90   -0.31 9 68.5  94 
 628  0Z  IAML    1613 11.19         2.5 0.25                          68.5  94 
                                                                                
 2017  326 0836 32.9 L  71.975 127.690 19.4  SLT  7 0.3 1.7LSLT 1.0CSLT        1
 GAP=119        0.90       2.3     5.1  4.3  0.2585E+01  0.1846E+01  0.3114E+01E
 ACTION:ARG 20-12-21 03:09 OP:mn   STATUS:               ID:20170326083527     I
 2017-03-26-0835-27M.a_____039                                                 6
 STAT SP IPHASW D HRMM SECON CODA AMPLIT PERI AZIMU VELO AIN AR TRES W  DIS CAZ7
 629  0Z IP   1 C  836 37.77   15                        139    0.4510 14.0 249 
 629  0N ES   0    836 40.52                             139   -0.0210 14.0 249 
 629  0Z  IAML     836 40.82       360.6 0.20                          14.0 249 
 630  0Z IP   1 D  836 38.91   22                        119    0.3510 24.6  63 
 630  0E ES   0    836 42.54                             119   -0.1510 24.6  63 
 630  0Z  IAML     836 43.12       190.9 0.17                          24.6  63 
 627  0Z IP   0 C  836 39.40   35                        113    0.2010 29.1 303 
 627  0N ES   2    836 43.30                             113   -0.5110 29.1 303 
 627  0Z  IAML     836 43.48        88.3 0.34                          29.1 303 
 626  0Z IP   1 D  836 43.96   29                         95    0.3110 58.1 261 
 626  0N ES   1    836 51.25                              95   -0.2610 58.1 261 
 626  0Z  IAML     836 51.63        35.8 0.21                          58.1 261 
 625  0Z IP   1 D  836 44.17   34                         95    0.2910 58.8 293 
 625  0E ES   1    836 51.55                              95   -0.3510 58.8 293 
 625  0Z  IAML     836 51.71        10.9 0.18                          58.8 293 
 632  0Z IP   0 D  836 45.56   41                         94    0.04 9 65.8 132 
 632  0E ES   2    836 54.09                              94   -0.65 9 65.8 132 
 632  0Z  IAML     836 55.46        17.7 0.12                          65.8 132 
 631  0Z IP   1 D  836 45.76   37                         94    0.39 9 66.1 194 
 631  0E ES   0    836 54.35                              94   -0.13 9 66.1 194 
 631  0Z  IAML     836 54.70        21.7 0.11                          66.1 194 
                                                                                
 2017  4 2 0422  0.6 L  72.714 125.666 17.0  SLT 10 0.5 1.3LSLT 1.7CSLT        1
 GAP=223        1.03       3.6     6.9  2.9  0.5413E+01 -0.1535E+01 -0.2162E+01E
 ACTION:UP  20-12-20 22:46 OP:elen STATUS:               ID:20170402042039     I
 OLDACT:UP  20-12-20 00:44 OP:elen STATUS:               ID:20170402042039     3
 OLDACT:UP  20-12-16 20:09 OP:elen STATUS:               ID:20170402042039     3
 OLDACT:UP  20-12-16 14:06 OP:elen STATUS:               ID:20170402042039     3
 OLDACT:REG 20-12-12 10:59 OP:elen STATUS:               ID:20170402042039     3
 2017-04-02-0420-39M.NSN___039                                                 6
 STAT SP IPHASW D HRMM SECON CODA AMPLIT PERI AZIMU VELO AIN AR TRES W  DIS CAZ7
 622  0Z IP   1    422  7.79   47                         68    0.2910 32.6 201 
 622  0N ES   1    422 12.79                              68    0.2610 32.6 201 
 622  0N  IAML     422 13.69        13.8 0.15                          32.6 201 
 624  0Z IP   0    422  7.79   50                         68    0.2410 33.5 142 
 624  0N ES   0    422 12.83                              68    0.2110 33.5 142 
 624  0N  IAML     422 13.96        16.4 0.13                          33.5 142 
 623  0Z IP   0    422  9.41   48                         68    0.1810 43.4 176 
 623  0N ES   0    422 15.58                              68    0.0410 43.4 176 
 623  0E  IAML     422 17.17         7.4 0.15                          43.4 176 
 620  0Z IP   0    422  9.30   52                         68    0.0010 44.3 262 
 620  0N ES   1    422 15.36                              68   -0.2910 44.3 262 
 620  0N  IAML     422 15.71        31.6 0.15                          44.3 262 
 628  0Z IP   0    422 11.53   56                         68   -0.0610 60.7 125 
 628  0N ES   0    422 19.37                              68   -0.2410 60.7 125 
 628  0N  IAML     422 19.92        27.0 0.25                          60.7 125 
 621  0Z IP   0    422 12.50   48                         68   -0.01 9 64.7 204 
 621  0N ES   0    422 20.98                              68   -0.23 9 64.7 204 
 621  0E  IAML     422 21.82         5.2 0.18                          64.7 204 
 626  0Z IP   1    422 16.65   47                         68   -0.28 8 93.1 172 
 626  0N ES   2    422 28.16                              68   -0.69 8 93.1 172 
 626  0E  IAML     422 28.49         3.2 0.21                          93.1 172 
 630  0Z IP   2    422 19.71   62                         50   -0.51 7  115 127 
 630  0N ES   4    422 33.47                              50   -1.08 7  115 127 
 630  0E  IAML     422 34.42         8.4 0.10                           115 127 
 631  0Z IP   2    422 26.15   76                         41    0.52 6  157 159 
 631  0N ES   3    422 44.66                              41    0.76 6  157 159 
 631  0E  IAML     422 45.70         6.6 0.23                           157 159 
 632  0Z IP   3    422 28.64   56                         41    0.99 5  173 136 
 632  0N ES   4    422 49.00                              41    1.59 5  173 136 
 632  0E  IAML     422 50.12         7.9 0.31                           173 136 
                                                                                
 2017  4 2 0636 36.8 L  72.717 125.658 22.1  SLT  6 0.2 0.8LSLT 1.0CSLT        1
 GAP=223        0.52       2.7     4.7  3.0  0.6889E+01 -0.7478E+01 -0.4292E+01E
 ACTION:UP  20-12-20 23:02 OP:elen STATUS:               ID:20170402063515     I
 OLDACT:UP  20-12-20 01:04 OP:elen STATUS:               ID:20170402063515     3
 OLDACT:UP  20-12-16 20:09 OP:elen STATUS:               ID:20170402063515     3
 OLDACT:UP  20-12-16 14:40 OP:elen STATUS:               ID:20170402063515     3
 OLDACT:REG 20-12-13 12:49 OP:elen STATUS:               ID:20170402063515     3
 2017-04-02-0635-15M.NSN___039                                                 6
 STAT SP IPHASW D HRMM SECON CODA AMPLIT PERI AZIMU VELO AIN AR TRES W  DIS CAZ7
 622  0Z IP   0    636 44.23   26                        116    0.2410 32.8 201 
 622  0N ES   0    636 49.17                             116   -0.0710 32.8 201 
 622  0N  IAML     636 49.75         5.2 0.13                          32.8 201 
 624  0Z IP   0    636 44.24   35                        115    0.1810 33.9 142 
 624  0N ES   0    636 49.26                             115   -0.0910 33.9 142 
 624  0N  IAML     636 50.35         4.8 0.12                          33.9 142 
 623  0Z IP   0    636 45.86   32                        107    0.2310 43.7 175 
 623  0N ES   0    636 52.09                             107    0.0210 43.7 175 
 623  0N  IAML     636 53.45         1.8 0.12                          43.7 175 
 620  0Z IP   0    636 45.67   27                        107    0.0610 44.1 261 
 620  0N ES   1    636 51.73                             107   -0.3110 44.1 261 
 620  0E  IAML     636 52.00        13.3 0.19                          44.1 261 
 628  0Z IP   0    636 48.00   37                         99    0.0710 61.1 125 
 628  0N ES   1    636 55.72                              99   -0.3210 61.1 125 
 628  0N  IAML     636 56.52         6.7 0.26                          61.1 125 
 630  0Z IP   0    636 56.14   36                         56    0.12 7  115 127 
 630  0N ES   0    637  9.86                              56   -0.19 7  115 127 
 630  0E  IAML     637 10.75         2.9 0.16                           115 127 
                                                                                
 2017  4 4 2347 35.6 L  72.744 124.483 20.1  SLT  6 0.2 0.5LSLT 0.7CSLT        1
 GAP=271        0.52       2.9     7.2  2.2  0.1835E+01 -0.8141E+01  0.7892E+00E
 ACTION:UP  20-12-20 23:43 OP:elen STATUS:               ID:20170404234610     I
 OLDACT:UP  20-12-20 01:25 OP:elen STATUS:               ID:20170404234610     3
 OLDACT:UP  20-12-16 20:10 OP:elen STATUS:               ID:20170404234610     3
 OLDACT:UP  20-12-16 20:08 OP:elen STATUS:               ID:20170404234610     3
 OLDACT:UP  20-12-16 17:32 OP:elen STATUS:               ID:20170404234610     3
 OLDACT:REG 20-12-13 13:04 OP:elen STATUS:               ID:20170404234610     3
 2017-04-04-2346-10M.NSN___039                                                 6
 STAT SP IPHASW D HRMM SECON CODA AMPLIT PERI AZIMU VELO AIN AR TRES W  DIS CAZ7
 620  0Z IP   0   2347 39.84   19                        148    0.0510 11.0 204 
 620  0N ES   0   2347 43.11                             148    0.2310 11.0 204 
 620  0E  IAML    2347 43.29         8.1 0.10                          11.0 204 
 622  0Z IP   0   2347 44.09   31                        102   -0.2010 43.6 140 
 622  0N ES   0   2347 50.57                             102   -0.0910 43.6 140 
 622  0E  IAML    2347 51.34         2.7 0.22                          43.6 140 
 623  0Z IP   0   2347 47.36   23                         96   -0.04 9 63.3 137 
 623  0N ES   1   2347 56.30                              96    0.25 9 63.3 137 
 623  0N  IAML    2347 56.80         2.3 0.16                          63.3 137 
 621  0Z IP   1   2347 47.09   25                         96   -0.30 9 64.0 167 
 621  0N ES   0   2347 55.83                              96   -0.19 9 64.0 167 
 621  0E  IAML    2347 56.45         3.1 0.20                          64.0 167 
 624  0Z IP   0   2347 47.77   28                         95   -0.11 9 66.9 116 
 624  0N ES   0   2347 56.93                              95    0.06 9 66.9 116 
 624  0E  IAML    2347 57.42         2.4 0.21                          66.9 116 
 626  0Z IP   0   2347 54.21                              56    0.12 8  109 150 
 626  0N ES   1   2348  8.02                              56    0.41 8  109 150 
 626  0E  IAML    2348  8.57         1.1 0.21                           109 150 
                                                                                
 2017  4 5 0307 35.4 L  71.679 128.783  7.6  SLT 11 0.3 1.1LSLT 1.7CSLT        1
 GAP=158        0.71       1.5     6.4  2.0  0.3983E+01  0.6966E+01  0.8587E-01E
 ACTION:UP  20-12-21 00:10 OP:elen STATUS:               ID:20170405030618     I
 OLDACT:UP  20-12-20 01:44 OP:elen STATUS:               ID:20170405030618     3
 OLDACT:UP  20-12-16 21:32 OP:elen STATUS:               ID:20170405030618     3
 OLDACT:REG 20-12-13 13:11 OP:elen STATUS:               ID:20170405030618     3
 2017-04-05-0306-18M.NSN___039                                                 6
 STAT SP IPHASW D HRMM SECON CODA AMPLIT PERI AZIMU VELO AIN AR TRES W  DIS CAZ7
 632  0Z IP   0    3 7 39.22   48                        116   -0.0110 15.5 139 
 632  0N ES   0    3 7 42.07                             116    0.0210 15.5 139 
 632  0N  IAML     3 7 42.69        27.1 0.05                          15.5 139 
 630  0Z IP   0    3 7 44.47   65                         99    0.0710 47.0 340 
 630  0N ES   0    3 7 50.96                              99   -0.0410 47.0 340 
 630  0E  IAML     3 7 51.40         6.5 0.12                          47.0 340 
 629  0Z IP   1    3 7 46.88   48                         97    0.2710 58.4 299 
 629  0N ES   1    3 7 55.19                              97    0.3810 58.4 299 
 629  0E  IAML     3 7 56.96         2.5 0.13                          58.4 299 
 631  0Z IP   0    3 7 47.53   58                         66   -0.10 9 62.6 241 
 631  0N ES   1    3 7 56.26                              66   -0.32 9 62.6 241 
 631  0N  IAML     3 7 56.72         6.8 0.14                          62.6 241 
 627  0Z IP   0    3 7 50.25   43                         66    0.09 9 79.3 309 
 627  0N ES   0    3 8  1.00                              66    0.05 9 79.3 309 
 627  0E  IAML     3 8  1.36         3.5 0.22                          79.3 309 
 628  0Z IP   1    3 7 52.64   55                         58   -0.44 8 98.2 326 
 628  0N ES   3    3 8  5.23                              58   -0.78 8 98.2 326 
 628  0E  IAML     3 8  7.84         6.4 0.21                          98.2 326 
 626  0Z IP   0    3 7 53.31   55                         58   -0.02 8 98.7 285 
 626  0N ES   0    3 8  6.21                              58   -0.22 8 98.7 285 
 626  0E  IAML     3 8  9.71         7.5 0.24                          98.7 285 
 624  0Z IP   0    3 7 57.38   55                         44   -0.02 7  124 317 
 624  0N ES   0    3 8 13.29                              44   -0.19 7  124 317 
 624  0N  IAML     3 8 15.76         6.6 0.19                           124 317 
 623  0Z IP   0    3 7 57.86   54                         44   -0.03 7  127 306 
 623  0N ES   1    3 8 14.04                              44   -0.28 7  127 306 
 623  0E  IAML     3 8 17.30         2.9 0.24                           127 306 
 621  0Z IP   2    3 8  0.75   54                         37    0.56 6  146 295 
 621  0N ES   3    3 8 19.13                              37    0.81 6  146 295 
 621  0E  IAML     3 8 21.93         2.3 0.14                           146 295 
 622  0Z IP   1    3 8  0.73   57                         37    0.36 6  147 307 
 622  0N ES   1    3 8 19.09                              37    0.48 6  147 307 
 622  0N  IAML     3 8 21.09         5.1 0.20                           147 307 
                                                                                
 2017  4 5 0307 35.4 L  71.678 128.781  7.3  SLT 10 0.3 1.1LSLT 1.9CSLT        1
 GAP=173        0.74       2.1     6.7  2.4  0.5829E+01  0.6306E+01 -0.1389E+01E
 ACTION:UP  20-12-21 00:33 OP:elen STATUS:               ID:20170405030650     I
 OLDACT:UP  20-12-20 02:02 OP:elen STATUS:               ID:20170405030650     3
 OLDACT:UP  20-12-16 23:26 OP:elen STATUS:               ID:20170405030650     3
 OLDACT:REG 20-12-13 13:16 OP:elen STATUS:               ID:20170405030650     3
 2017-04-05-0306-50M.NSN___039                                                 6
 STAT SP IPHASW D HRMM SECON CODA AMPLIT PERI AZIMU VELO AIN AR TRES W  DIS CAZ7
 632  0Z IP   0    3 7 39.21   74                        115   -0.0110 15.5 138 
 632  0N ES   0    3 7 42.08                             115    0.0610 15.5 138 
 632  0N  IAML     3 7 42.69        26.9 0.04                          15.5 138 
 629  0Z IP   0    3 7 46.83   63                         97    0.2210 58.3 299 
 629  0N ES   1    3 7 55.19                              97    0.3910 58.3 299 
 629  0E  IAML     3 7 56.96         2.5 0.14                          58.3 299 
 631  0Z IP   0    3 7 47.53   78                         66   -0.11 9 62.5 241 
 631  0N ES   1    3 7 56.25                              66   -0.34 9 62.5 241 
 631  0N  IAML     3 7 56.72         6.9 0.15                          62.5 241 
 627  0Z IP   0    3 7 50.24   59                         66    0.06 9 79.3 309 
 627  0N ES   0    3 8  1.01                              66    0.02 9 79.3 309 
 627  0E  IAML     3 8  1.36         3.5 0.22                          79.3 309 
 628  0Z IP   1    3 7 52.64   64                         58   -0.48 8 98.2 326 
 628  0N ES   3    3 8  5.21                              58   -0.86 8 98.2 326 
 628  0E  IAML     3 8  7.84         6.3 0.23                          98.2 326 
 626  0Z IP   0    3 7 53.30   55                         58   -0.05 8 98.6 285 
 626  0N ES   0    3 8  6.38                              58   -0.09 8 98.6 285 
 626  0E  IAML     3 8  9.71         7.4 0.23                          98.6 285 
 624  0Z IP   0    3 7 57.28   56                         44   -0.16 7  124 317 
 624  0N ES   1    3 8 13.30                              44   -0.25 7  124 317 
 624  0N  IAML     3 8 15.76         6.6 0.21                           124 317 
 623  0Z IP   0    3 7 58.00   61                         44    0.07 7  127 306 
 623  0N ES   0    3 8 14.60                              44    0.21 7  127 306 
 623  0E  IAML     3 8 17.30         3.0 0.25                           127 306 
 621  0Z IP   1    3 8  0.61   76                         37    0.37 6  146 295 
 621  0N ES   2    3 8 19.05                              37    0.67 6  146 295 
 621  0E  IAML     3 8 21.93         2.4 0.14                           146 295 
 622  0Z IP   1    3 8  0.73   76                         37    0.32 6  147 307 
 622  0N ES   2    3 8 19.30                              37    0.62 6  147 307 
 622  0N  IAML     3 8 21.09         5.1 0.19                           147 307 
                                                                                
