 2016  818 1613  9.3 L  72.991 124.878 22.8  BER  6 0.1 1.1LBER 1.0CBER        1
 GAP=295        0.28       2.0     5.0  1.9  0.1492E+01 -0.3156E+01 -0.1002E+01E
 ACTION:ARG 20-05-11 21:31 OP:mn   STATUS:               ID:20160818161147     I
 2016-08-18-1611-47M.arct__039                                                 6
 STAT SP IPHASW D HRMM SECON CODA AMPLIT PERI AZIMU VELO AIN AR TRES W  DIS CAZ7
 620  0Z IP     C 1613 16.96                             117   -0.1610 41.5 205 
 620  0E ES       1613 23.16                             117    0.1110 41.5 205 
 620  0Z  IAML    1613 24.06       191.9 0.08                          41.5 205 
 622  0Z IP     D 1613 20.44   30                        108    0.11 9 62.9 167 
 622  0E ES       1613 28.63                             108   -0.06 9 62.9 167 
 622  0Z  IAML    1613 29.83         3.6 0.20                          62.9 167 
 624  0Z IP     C 1613 22.00   23                        105   -0.00 9 73.8 140 
 624  0E ES       1613 31.70                             105    0.06 9 73.8 140 
 624  0Z  IAML    1613 32.34         9.1 0.30                          73.8 140 
 623  0Z IP     D 1613 22.97   30                        104    0.03 9 79.8 158 
 623  0N ES       1613 33.18                             104   -0.11 9 79.8 158 
 623  0Z  IAML    1613 34.86         4.9 0.65                          79.8 158 
 621  0Z IP     C 1613 24.61   39                        102    0.06 8 90.0 180 
 621  0E ES       1613 36.08                             102   -0.04 8 90.0 180 
 621  0Z  IAML    1613 36.41         5.9 0.35                          90.0 180 
 626  0Z IP     C 1613 30.03   39                         58   -0.03 7  129 162 
 626  0E ES       1613 45.87                              58    0.04 7  129 162 
 626  0Z  IAML    1613 47.36         3.0 0.23                           129 162 

 2016  818 1613  9.1 L  73.003 124.857 23.1  BER  6 0.1 1.4LBER 1.2CBER        1
 GAP=297        0.25       1.9     4.7  1.7  0.1242E+01 -0.2705E+01 -0.8853E+00E
 ACTION:ARG 20-05-11 21:31 OP:mn   STATUS:               ID:20160818161218     I
 2016-08-18-1612-18M.arct__039                                                 6
 STAT SP IPHASW D HRMM SECON CODA AMPLIT PERI AZIMU VELO AIN AR TRES W  DIS CAZ7
 620  0Z IP     C 1613 16.96   50                        117   -0.0910 42.4 204 
 620  0E ES       1613 23.10                             117    0.0010 42.4 204 
 620  0Z  IAML    1613 24.06       187.0 0.08                          42.4 204 
 622  0Z IP     C 1613 20.42   40                        108    0.08 9 64.4 166 
 622  0E ES       1613 28.96                             108    0.08 9 64.4 166 
 622  0Z  IAML    1613 30.04       165.3 0.08                          64.4 166 
 624  0Z IP     C 1613 22.04   32                        105    0.02 9 75.3 141 
 624  0E ES       1613 31.71                             105   -0.13 9 75.3 141 
 624  0Z  IAML    1613 32.34         8.6 0.33                          75.3 141 
 623  0Z IP     D 1613 22.98   31                        104    0.02 8 81.3 158 
 623  0E ES       1613 33.55                             104    0.05 8 81.3 158 
 623  0Z  IAML    1613 34.86         4.7 0.64                          81.3 158 
 621  0Z IP     D 1613 24.62   27                        102    0.07 8 91.4 179 
 621  0N ES       1613 36.22                             102   -0.07 8 91.4 179 
 621  0Z  IAML    1613 36.41         5.9 0.35                          91.4 179 
 626  0Z IP     C 1613 30.01   33                         58   -0.01 7  131 162 
 626  0E ES       1613 45.90                              58   -0.03 7  131 162 
 626  0Z  IAML    1613 47.01         3.6 0.19                           131 162 

 2016  819 0959 27.3 L  71.923 129.765 12.1  BER 13 0.4 4.0LBER                1
 GAP=270        0.60       2.2    11.1  5.5  0.1093E+02 -0.9963E+01 -0.3864E+01E
 ACTION:REG 25-04-10 18:57 OP:mn   STATUS:               ID:20160819095900     I
 2016_08_19T09-59-00.mseed                                                     6
 STAT SP IPHASW D HRMM SECON CODA AMPLIT PERI AZIMU VELO AIN AR TRES W  DIS CAZ7
 632  0E IP        959 35.00                             101   -0.2010 45.9 212 
 632  0N ES        959 40.95                             101   -0.2510 45.9 212 
 632  0Z  IAML     959 42.18      3428.0 0.50                          45.9 212 
 630  0Z IP        959 35.80                              99   -0.4510 52.5 289 
 630  0N ES        959 42.95                              99   -0.0910 52.5 289 
 630  0Z  IAML     959 46.27      6335.7 0.50                          52.5 289 
 629  0Z IP        959 41.61                              95    0.17 8 84.9 272 
 629  0N ES        959 52.54                              95    0.36 8 84.9 272 
 629  0Z  IAML     959 54.21      5389.1 0.68                          84.9 272 
 627  0Z IP        959 43.92                              95    0.33 8 98.3 284 
 627  0N ES        959 56.12                              95    0.15 8 98.3 284 
 627  0Z  IAML     959 57.55      6763.1 0.60                          98.3 284 
 628  0Z IP        959 44.91                              94    0.39 8  104 302 
 628  0N ES        959 57.57                              94   -0.04 8  104 302 
 628  0Z  IAML     959 57.77     13247.3 0.30                           104 302 
 631  0Z IP        959 45.27                              94    0.44 8  106 238 
 631  0N ES        959 58.28                              94    0.13 8  106 238 
 631  0Z  IAML    10 0  1.30      2476.7 0.62                           106 238 
 625  0Z IP        959 48.89                              93    0.37 7  129 284 
 625  0N ES       10 0  4.75                              93    0.11 7  129 284 
 626  0Z IP        959 48.58                              93   -0.00 7  129 270 
 626  0N ES       10 0  4.52                              93   -0.24 7  129 270 
 626  0Z  IAML    10 0 10.31      1874.4 0.66                           129 270 
 624  0Z IP        959 49.30                              93   -0.05 7  134 299 
 624  0N ES       10 0  5.26                              93   -0.85 7  134 299 
 624  0Z  IAML    10 0  8.14      5848.4 0.52                           134 299 
 623  0Z IP        959 51.25                              93    0.24 6  144 290 
 623  0N ES       10 0  9.06                              93    0.04 6  144 290 
 623  0Z  IAML    10 0 14.10      3316.0 0.94                           144 290 
 622  0Z  IAML    10 0 18.96      1930.7 0.68                           163 293 
 621  0Z IP        959 55.04                              58    0.45 5  170 282 
 621  0N ES       10 0 15.56                              58    0.24 5  170 282 
 621  0Z  IAML    10 0 16.65      3575.6 0.48                           170 282 
 620  0Z IP        959 58.46                              58   -0.37 4  201 296 
 620  0N ES       10 0 21.35                              58   -1.45 4  201 296 
 620  0Z  IAML    10 0 30.78      4656.0 8.67                           201 296 

 2016  820 1506 15.7 L  71.938 129.795 11.0  BER  9 0.4 1.5LBER 1.6CBER        1
 GAP=274        0.63       2.9    14.3  5.5  0.2417E+02 -0.1514E+02 -0.5696E+01E
 ACTION:ARG 20-05-11 21:31 OP:mn   STATUS:               ID:20160820150518     I
 2016-08-20-1505-18M.arct__039                                                 6
 STAT SP IPHASW D HRMM SECON CODA AMPLIT PERI AZIMU VELO AIN AR TRES W  DIS CAZ7
 632  0Z IP     C 15 6 23.53   49                         99   -0.3110 47.8 212 
 632  0N ES       15 6 30.12                              99    0.0710 47.8 212 
 632  0Z  IAML    15 6 31.02        32.4 0.08                          47.8 212 
 630  0Z IP     C 15 6 24.19   55                         98   -0.4610 52.9 287 
 630  0N ES       15 6 31.47                              98   -0.0110 52.9 287 
 630  0Z  IAML    15 6 34.99        14.1 0.08                          52.9 287 
 627  0Z IP     D 15 6 32.55   41                         94    0.52 8 98.9 283 
 627  0N ES       15 6 44.86                              94    0.39 8 98.9 283 
 627  0Z  IAML    15 6 45.43        10.4 0.14                          98.9 283 
 625  0Z  IAML    15 6 53.90         9.9 0.22                           130 283 
 626  0Z IP     D 15 6 37.20   50                         93    0.10 7  130 269 
 626  0N ES       15 6 53.15                              93   -0.24 7  130 269 
 626  0Z  IAML    15 6 56.02        10.3 0.26                           130 269 
 625  0Z IP     D 15 6 37.63   46                         93    0.67 7  130 283 
 625  0N ES       15 6 53.28                              93    0.13 7  130 283 
 624  0Z IP     C 15 6 37.56   41                         93   -0.16 7  134 298 
 624  0N ES       15 6 53.82                              93   -0.66 7  134 298 
 624  0Z  IAML    15 6 57.73        12.9 0.17                           134 298 
 623  0Z IP     D 15 6 39.94   52                         93    0.52 6  145 289 
 623  0N ES       15 6 57.35                              93   -0.13 6  145 289 
 623  0Z  IAML    15 7  1.67         8.8 0.62                           145 289 
 622  0Z IP     C 15 6 42.27   56                         58    0.22 5  163 292 
 622  0E ES       15 7  1.51                              58   -0.60 5  163 292 
 622  0Z  IAML    15 7  4.89         5.2 0.19                           163 292 
 621  0Z IP     C 15 6 43.48   47                         58    0.35 5  171 282 
 621  0N ES       15 7  4.13                              58    0.13 5  171 282 
 621  0Z  IAML    15 7  5.78         9.4 0.32                           171 282 

 2016  822 1318 49.5 L  72.365 127.084 16.5  BER  8 0.1 0.6LBER 1.4CBER        1
 GAP= 98        0.34       1.0     2.7  1.8  0.1007E+01  0.1707E+01  0.7603E+00E
 ACTION:UP  21-01-08 22:12 OP:elen STATUS:               ID:20160822131743     I
 OLDACT:REG 21-01-08 15:24 OP:elen STATUS:               ID:20160822131743     3
 2016-08-22-1317-43M.arct__039                                                 6
 STAT SP IPHASW D HRMM SECON CODA AMPLIT PERI AZIMU VELO AIN AR TRES W  DIS CAZ7
 628  0Z IP       1318 52.33   40                        164    0.0210 4.47  28 
 628  0N ES       1318 54.47                             164    0.0110 4.47  28 
 628  0N  IAML    1318 54.58        79.2 0.14                          4.47  28 
 627  0Z IP       1318 54.86   31                        118    0.02 9 27.9 187 
 627  0E ES       1318 58.85                             118   -0.08 9 27.9 187 
 627  0E  IAML    1318 59.21        13.9 0.14                          27.9 187 
 624  0Z IP       1318 55.20   43                        116    0.06 9 30.0 295 
 624  0N ES       1318 59.45                             116   -0.01 9 30.0 295 
 624  0N  IAML    1319  0.17         9.4 0.19                          30.0 295 
 625  0Z IP       1318 56.77   43                        110    0.22 9 39.4 238 
 625  0N ES       1319  2.17                             110    0.24 9 39.4 238 
 625  0E  IAML    1319  5.64         3.4 0.36                          39.4 238 
 623  0Z IP       1318 57.42   36                        107    0.02 9 45.0 265 
 623  0E ES       1319  3.30                             107   -0.14 9 45.0 265 
 623  0E  IAML    1319  3.64         2.5 0.18                          45.0 265 
 630  0Z IP       1318 58.72   48                        105    0.04 8 53.3 127 
 630  0E ES       1319  5.54                             105   -0.14 8 53.3 127 
 630  0E  IAML    1319  6.59         4.5 0.17                          53.3 127 
 622  0Z IP       1318 59.79   39                        103   -0.01 8 60.4 279 
 622  0N ES       1319  7.38                             103   -0.27 8 60.4 279 
 622  0N  IAML    1319  8.26         2.5 0.11                          60.4 279 
 626  0Z IP       1319  0.46   48                        102    0.07 8 64.2 215 
 626  0N ES       1319  8.56                             102   -0.14 8 64.2 215 
 626  0N  IAML    1319 10.91         1.7 0.06                          64.2 215 

 2016  9 6 1514 39.7 L  72.508 125.684 12.1  BER  6 0.1 0.9LBER-0.4CBER        1
 GAP=169        0.29       0.9     2.1  2.1  0.4338E+00  0.4279E+00 -0.2841E+00E
 ACTION:ARG 20-04-02 17:38 OP:mn   STATUS:               ID:20160906151318     I
 2016-09-06-1513-18M.SIOLA_039                                                 6
 STAT SP IPHASW D HRMM SECON CODA AMPLIT PERI AZIMU VELO AIN AR TRES W  DIS CAZ7
 622  0Z IP     C 1514 42.78    7                        127   -0.0510 14.5 240 
 622  0N ES       1514 45.31                             127    0.0710 14.5 240 
 622  0Z  IAML    1514 45.95        16.0 0.13                          14.5 240 
 624  0Z IP     C 1514 43.55    4                        118   -0.0610 20.2 100 
 624  0N ES       1514 46.71                             118    0.1010 20.2 100 
 624  0Z  IAML    1514 46.87       161.8 0.17                          20.2 100 
 623  0Z IP     D 1514 43.56                             117   -0.0910 20.5 173 
 623  0E ES       1514 46.57                             117   -0.1210 20.5 173 
 623  0Z  IAML    1514 46.77        26.6 0.14                          20.5 173 
 625  0Z IP     C 1514 46.57   25                        103   -0.05 9 39.9 159 
 625  0E ES       1514 51.99                             103    0.08 9 39.9 159 
 625  0Z  IAML    1514 53.15         6.1 0.55                          39.9 159 
 621  0Z IP     D 1514 47.54   15                        101    0.11 9 45.1 217 
 621  0N ES       1514 53.37                             101    0.04 9 45.1 217 
 621  0Z  IAML    1514 54.45         6.5 0.39                          45.1 217 
 620  0Z IP     C 1514 47.89   21                        101    0.07 9 47.5 291 
 620  0N ES       1514 53.95                             101   -0.07 9 47.5 291 
 620  0Z  IAML    1514 54.31        10.0 0.36                          47.5 291 

 2016 10 4 0841 51.2 L  72.848 124.964 15.6  BER  6 0.3 0.2LBER 0.1CBER        1
 GAP=260        0.71       5.4    11.9 17.5  0.3034E+02 -0.1633E+03 -0.5096E+02E
 ACTION:ARG 20-04-11 14:12 OP:mn   STATUS:               ID:20161004084031     I
 2016-10-04-0840-31M.SIOLA_039                                                 6
 STAT SP IPHASW D HRMM SECON CODA AMPLIT PERI AZIMU VELO AIN AR TRES W  DIS CAZ7
 620  0Z IP     C  841 56.88   18                        115    0.0710 29.7 224 
 620  0N ES        842  0.82                             115   -0.2310 29.7 224 
 620  0Z  IAML     842  3.26         1.0 0.06                          29.7 224 
 622  0Z IP     D  841 59.60   19                        106    0.21 9 46.7 165 
 622  0N ES        842  5.58                             106   -0.01 9 46.7 165 
 622  0Z  IAML     842  6.03         2.3 0.23                          46.7 165 
 624  0Z IP     D  842  1.64   14                        102    0.14 9 60.2 133 
 624  0E ES        842  9.23                             102   -0.08 9 60.2 133 
 624  0Z  IAML     842  9.78         2.7 0.17                          60.2 133 
 623  0Z IP     D  842  2.47   13                        101    0.37 9 64.0 155 
 623  0N ES        842 11.04                             101    0.67 9 64.0 155 
 623  0Z  IAML     842 11.77         1.5 0.22                          64.0 155 
 628  0Z IP     D  842  5.79   16                         98   -0.18 8 88.3 123 
 628  0N ES        842 16.69                              98   -0.48 8 88.3 123 
 628  0Z  IAML     842 18.57         1.0 0.08                          88.3 123 
 626  0Z IP     D  842  9.64   20                         96   -0.30 7  113 161 
 626  0E ES        842 23.50                              96   -0.65 7  113 161 
 626  0Z  IAML     842 25.73         0.5 0.13                           113 161 

 2016 10 5 1619 46.9 L  72.877 125.015 19.0  BER  9 0.2 1.0LBER 0.4CBER        1
 GAP=264        0.50       3.0     5.9  3.0  0.3465E+01 -0.9131E+01 -0.3363E+01E
 ACTION:ARG 20-04-11 14:12 OP:mn   STATUS:               ID:20161005161823     I
 2016-10-05-1618-23M.SIOLA_039                                                 6
 STAT SP IPHASW D HRMM SECON CODA AMPLIT PERI AZIMU VELO AIN AR TRES W  DIS CAZ7
 620  0Z IP     C 1619 53.22   14                        118   -0.0110 33.3 222 
 620  0E ES       1619 57.77                             118   -0.2810 33.3 222 
 620  0Z  IAML    1619 58.27        10.0 0.26                          33.3 222 
 622  0Z IP     C 1619 55.67   24                        109    0.03 9 49.5 168 
 622  0N ES       1620  2.15                             109   -0.15 9 49.5 168 
 622  0Z  IAML    1620  2.41        12.4 0.26                          49.5 168 
 624  0Z IP     C 1619 57.78   12                        105    0.32 9 61.3 136 
 624  0E ES       1620  5.66                             105    0.17 9 61.3 136 
 624  0Z  IAML    1620  6.07        13.9 0.20                          61.3 136 
 623  0Z IP     D 1619 58.49   14                        104    0.25 9 66.3 158 
 623  0E ES       1620  7.08                             104    0.20 9 66.3 158 
 623  0Z  IAML    1620  8.02         7.1 0.21                          66.3 158 
 621  0Z IP     D 1620  0.03   18                        102    0.04 8 77.4 183 
 621  0N ES       1620 10.27                             102    0.31 8 77.4 183 
 621  0Z  IAML    1620 10.74         9.1 0.26                          77.4 183 
 628  0Z IP     D 1620  1.57   24                        100   -0.21 8 88.7 126 
 628  0E ES       1620 12.86                             100   -0.25 8 88.7 126 
 628  0Z  IAML    1620 13.38         4.9 0.14                          88.7 126 
 627  0Z IP     D 1620  4.99   37                         98    0.22 7  107 141 
 627  0E ES       1620 17.78                              98   -0.58 7  107 141 
 627  0Z  IAML    1620 18.01         3.3 0.70                           107 141 
 629  0Z IP     D 1620  8.38   25                         58    0.15 6  131 143 
 629  0E ES       1620 24.46                              58    0.01 6  131 143 
 629  0Z  IAML    1620 25.99         5.6 0.17                           131 143 
 630  0Z IP     D 1620  9.67   29                         58   -0.15 6  143 127 
 630  0E ES       1620 26.89                              58   -0.36 6  143 127 
 630  0Z  IAML    1620 27.89         4.1 0.22                           143 127 

