 2016 10 6 0156 55.9 L  72.874 125.016 13.9  BER  7 0.1 1.0LBER 0.8CBER        1
 GAP=263        0.34       2.3     4.1  3.7  0.2089E+01 -0.7223E+01 -0.2593E+01E
 ACTION:ARG 20-04-11 14:12 OP:mn   STATUS:               ID:20161006015532     I
 2016-10-06-0155-32M.SIOLA_039                                                 6
 STAT SP IPHASW D HRMM SECON CODA AMPLIT PERI AZIMU VELO AIN AR TRES W  DIS CAZ7
 620  0Z IP     C  157  1.78   21                        110   -0.0610 33.1 222 
 620  0N ES        157  6.32                             110   -0.0610 33.1 222 
 620  0Z  IAML     157  6.94         7.4 0.28                          33.1 222 
 622  0Z IP     C  157  4.35   18                        103   -0.00 9 49.3 168 
 622  0N ES        157 10.75                             103   -0.05 9 49.3 168 
 622  0Z  IAML     157 10.80        14.9 0.26                          49.3 168 
 624  0Z IP     D  157  6.38   32                        100    0.16 9 61.1 136 
 624  0E ES        157 14.22                             100    0.13 9 61.1 136 
 624  0Z  IAML     157 14.72        11.1 0.18                          61.1 136 
 623  0Z IP     D  157  7.18   36                         99    0.17 9 66.1 158 
 623  0E ES        157 15.67                              99    0.18 9 66.1 158 
 623  0Z  IAML     157 16.76         6.4 0.18                          66.1 158 
 628  0Z IP     D  157 10.53   30                         96   -0.08 8 88.6 126 
 628  0E ES        157 21.50                              96   -0.33 8 88.6 126 
 628  0Z  IAML     157 22.62         8.0 0.20                          88.6 126 
 627  0Z IP     C  157 13.67   29                         95    0.06 7  107 141 
 627  0Z  IAML     157 26.49         3.7 0.63                           107 141 
 627  0E ES        157 26.93                              95   -0.17 7  107 141 
 631  0Z IP     C  157 24.68   34                         58    0.14 4  181 154 
 631  0E ES        157 46.16                              58   -0.18 4  181 154 
 631  0Z  IAML     157 48.38         5.3 0.29                           181 154 

 2016 10 9 0036 44.9 L  72.858 124.961 18.6  BER  7 0.3 1.2LBER 1.3CBER        1
 GAP=264        0.56       4.3    12.1  4.3  0.2650E+02 -0.4143E+02 -0.1033E+02E
 ACTION:ARG 20-04-11 14:12 OP:mn   STATUS:               ID:20161009003502     I
 2016-10-09-0035-02M.SIOLA_039                                                 6
 STAT SP IPHASW D HRMM SECON CODA AMPLIT PERI AZIMU VELO AIN AR TRES W  DIS CAZ7
 620  0Z IP     C  036 50.84   32                        119   -0.0310 30.5 222 
 620  0N ES        036 55.38                             119    0.0210 30.5 222 
 620  0Z  IAML     036 56.58        16.7 0.10                          30.5 222 
 622  0Z IP     C  036 53.50   32                        109    0.07 9 47.9 166 
 622  0N ES        036 59.75                             109   -0.13 9 47.9 166 
 622  0Z  IAML     036 59.81        24.2 0.25                          47.9 166 
 623  0Z IP     C  036 56.35   38                        104    0.25 9 65.1 155 
 623  0E ES        037  4.77                             104    0.20 9 65.1 155 
 623  0Z  IAML     037  5.81         6.2 0.14                          65.1 155 
 621  0Z IP     D  036 57.60   35                        102   -0.10 8 75.2 182 
 621  0E ES        037  7.10                             102   -0.28 8 75.2 182 
 621  0Z  IAML     037  8.38        15.3 0.24                          75.2 182 
 629  0Z IP     C  037  6.43   45                         58    0.18 6  131 141 
 629  0N ES        037 22.76                              58    0.33 6  131 141 
 629  0Z  IAML     037 23.64         7.5 0.18                           131 141 
 630  0Z IP     C  037  7.41   51                         58   -0.53 6  143 126 
 630  0E ES        037 24.61                              58   -0.80 6  143 126 
 630  0Z  IAML     037 26.45         6.3 0.14                           143 126 
 631  0Z IP     D  037 13.60   46                         58    0.50 4  181 153 
 631  0E ES        037 35.16                              58    0.66 4  181 153 
 631  0Z  IAML     037 37.16         4.4 0.15                           181 153 

 2016 10 9 0036 44.7 L  72.872 124.993 17.2  BER  8 0.3 1.3LBER 1.4CBER        1
 GAP=264        0.54       3.5     7.7  3.6  0.5444E+01 -0.1727E+02 -0.4751E+01E
 ACTION:ARG 20-04-11 14:12 OP:mn   STATUS:               ID:20161009003553     I
 2016-10-09-0035-53M.SIOLA_039                                                 6
 STAT SP IPHASW D HRMM SECON CODA AMPLIT PERI AZIMU VELO AIN AR TRES W  DIS CAZ7
 620  0Z IP     C  036 50.84   52                        116    0.0310 32.4 222 
 620  0N ES        036 55.36                             116   -0.0710 32.4 222 
 620  0Z  IAML     036 56.58        17.0 0.10                          32.4 222 
 622  0Z IP     D  036 53.46   45                        107    0.13 9 49.1 167 
 622  0N ES        036 59.76                             107   -0.12 9 49.1 167 
 622  0Z  IAML     037  0.06        25.9 0.26                          49.1 167 
 623  0Z IP     C  036 56.30   31                        102    0.32 9 66.1 157 
 623  0N ES        037  4.89                             102    0.35 9 66.1 157 
 623  0Z  IAML     037  5.81         6.2 0.16                          66.1 157 
 621  0Z IP     C  036 57.58   30                        100   -0.10 8 76.9 183 
 621  0N ES        037  7.24                             100   -0.29 8 76.9 183 
 621  0Z  IAML     037  8.38        14.7 0.25                          76.9 183 
 628  0Z IP     C  036 59.56   41                         99   -0.06 8 89.0 125 
 628  0E ES        037 10.72                              99   -0.22 8 89.0 125 
 628  0Z  IAML     037 11.62        12.3 0.18                          89.0 125 
 629  0Z IP     C  037  6.49   34                         58    0.27 6  131 142 
 629  0N ES        037 23.04                              58    0.48 6  131 142 
 629  0Z  IAML     037 23.64         7.5 0.18                           131 142 
 630  0Z IP     C  037  7.39   41                         58   -0.46 6  143 127 
 630  0E ES        037 24.67                              58   -0.75 6  143 127 
 630  0Z  IAML     037 26.44         5.9 0.13                           143 127 
 632  0Z IP     C  037 15.92   58                         58    0.17 4  201 134 
 632  0E ES        037 39.74                              58    0.41 4  201 134 
 632  0Z  IAML     037 40.61         5.6 0.22                           201 134 

 2016 1012 0800 22.1 L  72.738 126.039 18.5  BER  7 0.2 0.8LBER 0.9CBER        1
 GAP=254        0.41       2.3     5.2  2.8  0.6340E+01 -0.4047E+01 -0.2018E+01E
 ACTION:ARG 20-04-11 14:12 OP:mn   STATUS:               ID:20161012080000     I
 2016-10-12-0800-00M.SIOLA_039                                                 6
 STAT SP IPHASW D HRMM SECON CODA AMPLIT PERI AZIMU VELO AIN AR TRES W  DIS CAZ7
 624  0Z IP        8 0 27.95   30                        119   -0.0110 30.3 165 
 624  0E ES        8 0 32.38                             119   -0.0410 30.3 165 
 624  0Z  IAML     8 0 32.42        56.4 0.15                          30.3 165 
 622  0Z IP     C  8 0 29.57   25                        112    0.0610 41.0 217 
 622  0Z  IAML     8 0 34.95         5.9 0.11                          41.0 217 
 622  0N ES        8 0 35.15                             112   -0.0110 41.0 217 
 623  0Z IP     C  8 0 30.65   19                        109    0.24 9 46.9 192 
 623  0N ES        8 0 37.07                             109    0.33 9 46.9 192 
 623  0Z  IAML     8 0 37.41         3.8 0.08                          46.9 192 
 620  0Z IP     D  8 0 31.90   23                        106   -0.05 9 57.0 261 
 620  0N ES        8 0 39.36                             106   -0.10 9 57.0 261 
 620  0Z  IAML     8 0 39.78         3.5 0.14                          57.0 261 
 621  0Z IP     D  8 0 34.41   30                        102   -0.05 8 72.9 213 
 621  0N ES        8 0 43.65                             102   -0.22 8 72.9 213 
 621  0Z  IAML     8 0 44.87         4.4 0.19                          72.9 213 
 627  0Z IP     C  8 0 34.98   36                        101   -0.00 8 76.3 155 
 627  0E ES        8 0 44.45                             101   -0.34 8 76.3 155 
 627  0Z  IAML     8 0 44.79         2.0 0.23                          76.3 155 
 631  0Z IP     C  8 0 47.07   47                         58    0.32 5  155 164 
 631  0E ES        8 1  5.36                              58   -0.13 5  155 164 
 631  0Z  IAML     8 1  7.14         4.7 0.69                           155 164 

 2016 1015 1013 36.5 L  72.040 126.998 11.2  BER  7 0.2 0.7LBER 0.9CBER        1
 GAP=247        0.38       1.3     6.1  2.5 -0.1646E+01  0.8858E+01  0.2857E-01E
 ACTION:ARG 20-04-11 14:12 OP:mn   STATUS:               ID:20161015101225     I
 2016-10-15-1012-25M.SIOLA_039                                                 6
 STAT SP IPHASW D HRMM SECON CODA AMPLIT PERI AZIMU VELO AIN AR TRES W  DIS CAZ7
 627  0Z IP     C 1013 38.86   33                        141   -0.0010 8.57 356 
 627  0N ES       1013 40.66                             141   -0.0110 8.57 356 
 627  0Z  IAML    1013 40.89        30.3 0.08                          8.57 356 
 625  0Z IP     D 1013 42.35   27                        104   -0.12 9 34.0 296 
 625  0E ES       1013 46.96                             104   -0.07 9 34.0 296 
 625  0Z  IAML    1013 46.96        15.8 0.13                          34.0 296 
 626  0Z IP     D 1013 42.99   25                        103   -0.01 9 37.3 243 
 626  0N ES       1013 47.98                             103    0.03 9 37.3 243 
 626  0Z  IAML    1013 48.27        16.6 0.41                          37.3 243 
 623  0Z IP     D 1013 45.75   25                         98    0.27 8 53.0 308 
 623  0E ES       1013 52.67                              98    0.36 8 53.0 308 
 623  0Z  IAML    1013 54.07         1.9 0.09                          53.0 308 
 624  0Z IP     D 1013 45.77   24                         98    0.05 8 54.5 334 
 624  0E ES       1013 52.73                              98   -0.01 8 54.5 334 
 624  0Z  IAML    1013 53.80        10.3 0.20                          54.5 334 
 622  0Z IP     D 1013 48.55   32                         96   -0.10 8 72.8 309 
 622  0Z  IAML    1013 57.77         4.3 0.21                          72.8 309 
 622  0N ES       1013 57.77                              96   -0.14 8 72.8 309 
 620  0Z IP     C 1013 54.94   42                         93   -0.16 6  113 309 
 620  0N ES       1014  8.98                              93   -0.27 6  113 309 
 620  0Z  IAML    1014  9.97         1.8 0.09                           113 309 

 2016 1021 0507 33.3 L  72.575 124.782 10.1  BER  6 0.2 0.8LBER 1.2CBER        1
 GAP=160        0.43       1.6     4.4  5.5  0.2672E+01 -0.1187E+02  0.1541E+01E
 ACTION:ARG 20-04-11 14:12 OP:mn   STATUS:               ID:20161021050606     I
 2016-10-21-0506-06M.SIOLA_039                                                 6
 STAT SP IPHASW D HRMM SECON CODA AMPLIT PERI AZIMU VELO AIN AR TRES W  DIS CAZ7
 620  0Z IP     C  5 7 36.69   23                        117    0.0110 17.0 301 
 620  0N ES        5 7 39.21                             117   -0.0110 17.0 301 
 620  0Z  IAML     5 7 39.68        28.7 0.19                          17.0 301 
 622  0Z IP     C  5 7 37.45   38                        109   -0.1610 23.2 130 
 622  0E ES        5 7 40.86                             109    0.0110 23.2 130 
 622  0Z  IAML     5 7 41.16        28.4 0.28                          23.2 130 
 623  0Z IP     C  5 7 40.84   38                         99    0.11 9 43.1 130 
 623  0E ES        5 7 46.60                              99    0.25 9 43.1 130 
 623  0Z  IAML     5 7 48.07         7.4 0.13                          43.1 130 
 621  0Z IP     C  5 7 40.90   38                         99    0.05 9 43.8 175 
 621  0E ES        5 7 46.42                              99   -0.13 9 43.8 175 
 621  0Z  IAML     5 7 49.01         3.2 0.22                          43.8 175 
 624  0Z IP     C  5 7 42.28   37                         97    0.24 9 51.2 102 
 624  0E ES        5 7 48.73                              97    0.08 9 51.2 102 
 624  0Z  IAML     5 7 50.52        11.5 0.15                          51.2 102 
 628  0Z IP     C  5 7 46.83   39                         94   -0.12 8 81.8 103 
 628  0N ES        5 7 56.85                              94   -0.44 8 81.8 103 
 628  0Z  IAML     5 7 58.61         3.8 0.14                          81.8 103 

 2016 1125 0156 34.1 L  72.742 124.929 14.5  BER  7 0.2 0.6LBER 1.3CBER        1
 GAP=233        0.47       2.4     5.6  6.0  0.2432E+01 -0.2356E+02 -0.1492E+01E
 ACTION:REG 18-11-20 15:40 OP:art  STATUS:               ID:20161125015508     I
 2016-11-25-0155-08M.arct__039                                                 6
 STAT SP IPHASW D HRMM SECON CODA AMPLIT PERI AZIMU VELO AIN AR TRES W  DIS CAZ7
 620  0Z IP        156 38.31                             121   -0.1910 21.7 243 
 620  0N ES        156 42.09                             121    0.2810 21.7 243 
 620  0Z  IAML     156 43.32         7.2 0.50                          21.7 243 
 622  0Z IP        156 40.36                             109   -0.22 9 35.9 159 
 622  0E ES        156 45.42                             109   -0.05 9 35.9 159 
 622  0Z  IAML     156 47.11         3.5 0.15                          35.9 159 
 624  0Z IP        156 43.31   41                        102   -0.07 9 53.8 123 
 624  0E ES        156 50.63                             102    0.23 9 53.8 123 
 624  0Z  IAML     156 50.79         6.7 0.19                          53.8 123 
 621  0Z IP        156 44.79   36                        100    0.07 9 62.3 181 
 621  0N ES        156 52.50                             100   -0.25 9 62.3 181 
 621  0Z  IAML     156 54.72         2.3 0.42                          62.3 181 
 628  0Z IP        156 47.80                              97   -0.29 8 83.4 116 
 628  0N ES        156 58.61                              97   -0.07 8 83.4 116 
 628  0Z  IAML     156 58.74         3.3 0.20                          83.4 116 
 626  0Z IP        156 51.26   45                         96    0.13 7  102 158 
 626  0E ES        157  4.29                              96    0.25 7  102 158 
 626  0Z  IAML     157  4.57         1.4 0.44                           102 158 
 630  0Z IP        156 57.01   38                         58    0.39 6  137 121 
 630  0N ES        157 13.89                              58    0.18 6  137 121 
 630  0Z  IAML     157 15.36         5.6 0.19                           137 121 

 2016 1125 0517 25.9 L  72.765 124.947 13.5  BER  6 0.2 1.6LBER 1.0CBER        1
 GAP=240        0.55       3.0     6.9  8.3  0.3557E+01 -0.3968E+02 -0.2877E+01E
 ACTION:REG 18-11-22 12:44 OP:art  STATUS:               ID:20161125051714     I
 2016-11-25-0517-14M.arct__039                                                 6
 STAT SP IPHASW D HRMM SECON CODA AMPLIT PERI AZIMU VELO AIN AR TRES W  DIS CAZ7
 620  0Z IP        517 30.42   34                        117    0.0410 23.4 238 
 620  0N ES        517 33.71                             117   -0.1010 23.4 238 
 620  0Z  IAML     517 34.59       119.4 0.24                          23.4 238 
 622  0Z IP        517 32.38   33                        106   -0.20 9 38.0 161 
 622  0E ES        517 37.98                             106    0.30 9 38.0 161 
 622  0Z  IAML     517 38.18        66.7 0.69                          38.0 161 
 624  0Z IP        517 35.40   32                        101    0.20 9 54.8 125 
 624  0E ES        517 42.50                             101    0.19 9 54.8 125 
 624  0Z  IAML     517 43.14        32.8 0.24                          54.8 125 
 621  0Z IP        517 37.11   36                         99    0.31 8 64.8 182 
 621  0N ES        517 44.80                              99   -0.33 8 64.8 182 
 621  0Z  IAML     517 47.45        45.5 0.66                          64.8 182 
 628  0Z IP        517 39.72   26                         97   -0.15 8 84.0 118 
 628  0N ES        517 50.03                              97   -0.50 8 84.0 118 
 628  0Z  IAML     517 50.56        33.4 0.49                          84.0 118 
 626  0Z IP        517 43.39   26                         95    0.22 7  105 159 
 626  0E ES        517 56.25                              95   -0.08 7  105 159 
 626  0Z  IAML     517 56.73        22.4 0.41                           105 159 

 2016 1125 0525 15.9 L  72.774 124.950 11.6  BER  6 0.3 0.8LBER 1.3CBER        1
 GAP=242        0.66       3.6     8.4 12.3  0.4803E+01 -0.7412E+02 -0.5774E+01E
 ACTION:REG 18-11-22 13:29 OP:art  STATUS:               ID:20161125052350     I
 2016-11-25-0523-50M.arct__039                                                 6
 STAT SP IPHASW D HRMM SECON CODA AMPLIT PERI AZIMU VELO AIN AR TRES W  DIS CAZ7
 620  0Z IP        525 20.47                             112    0.1110 24.1 236 
 620  0N ES        525 23.76                             112   -0.0210 24.1 236 
 620  0Z  IAML     525 24.62        14.7 0.17                          24.1 236 
 622  0Z IP        525 22.38                             103   -0.29 9 39.0 162 
 622  0Z  IAML     525 27.15         7.5 0.23                          39.0 162 
 622  0E ES        525 27.94                             103    0.11 9 39.0 162 
 624  0Z IP        525 25.31   35                         98    0.05 9 55.3 126 
 624  0N ES        525 32.71                              98    0.32 9 55.3 126 
 624  0Z  IAML     525 32.74        12.9 0.25                          55.3 126 
 621  0Z IP        525 26.90   40                         97   -0.05 8 65.9 182 
 621  0N ES        525 34.94                              97   -0.43 8 65.9 182 
 621  0Z  IAML     525 37.48         5.6 0.65                          65.9 182 
 628  0Z IP        525 29.78   36                         95   -0.15 8 84.5 119 
 628  0N ES        525 40.09                              95   -0.52 8 84.5 119 
 628  0Z  IAML     525 40.84         5.1 0.47                          84.5 119 
 626  0Z IP        525 33.97   39                         94    0.66 7  106 159 
 626  0Z  IAML     525 46.74         3.0 0.27                           106 159 
 626  0E ES        525 46.99                              94    0.42 7  106 159 

