 2016  818 1613  8.9 L  72.977 124.926 16.7  SLT  6 0.1 1.2LSLT 1.0CSLT        1
 GAP=293        0.37       2.3     8.7  3.0 -0.6673E+01 -0.2175E+02  0.2463E+01E
 ACTION:ARG 20-05-11 21:31 OP:mn   STATUS:               ID:20160818161147     I
 2016-08-18-1611-47M.arct__039                                                 6
 STAT SP IPHASW D HRMM SECON CODA AMPLIT PERI AZIMU VELO AIN AR TRES W  DIS CAZ7
 620  0Z IP   0 C 1613 16.96                             106   -0.0910 40.8 208 
 620  0E ES   0   1613 23.16                             106    0.1610 40.8 208 
 620  0Z  IAML    1613 24.06       191.9 0.08                          40.8 208 
 622  0Z IP   0 D 1613 20.44   30                         68    0.0710 61.1 168 
 622  0E ES   0   1613 28.63                              68   -0.1210 61.1 168 
 622  0Z  IAML    1613 29.83         3.6 0.20                          61.1 168 
 624  0Z IP   0 C 1613 22.00   23                         68    0.03 9 71.6 141 
 624  0E ES   0   1613 31.70                              68    0.19 9 71.6 141 
 624  0Z  IAML    1613 32.34         9.1 0.30                          71.6 141 
 623  0Z IP   0 D 1613 22.97   30                         68   -0.08 9 77.8 159 
 623  0N ES   0   1613 33.18                              68   -0.20 9 77.8 159 
 623  0Z  IAML    1613 34.86         4.9 0.65                          77.8 159 
 621  0Z IP   0 C 1613 24.61   39                         68   -0.03 8 88.5 181 
 621  0E ES   0   1613 36.08                              68   -0.06 8 88.5 181 
 621  0Z  IAML    1613 36.41         5.9 0.35                          88.5 181 
 626  0Z IP   0 C 1613 30.03   39                         50   -0.09 7  127 162 
 626  0E ES   1   1613 45.87                              50    0.25 7  127 162 
 626  0Z  IAML    1613 47.36         3.0 0.23                           127 162 
                                                                                
 2016  818 1613  8.6 L  72.991 124.907 16.7  SLT  6 0.1 1.5LSLT 1.1CSLT        1
 GAP=295        0.26       1.5     5.8  1.9 -0.2330E+01 -0.8907E+01  0.7621E+00E
 ACTION:ARG 20-05-11 21:31 OP:mn   STATUS:               ID:20160818161218     I
 2016-08-18-1612-18M.arct__039                                                 6
 STAT SP IPHASW D HRMM SECON CODA AMPLIT PERI AZIMU VELO AIN AR TRES W  DIS CAZ7
 620  0Z IP   0 C 1613 16.96   50                        106   -0.0110 41.9 206 
 620  0E ES   0   1613 23.10                             106    0.0510 41.9 206 
 620  0Z  IAML    1613 24.06       187.0 0.08                          41.9 206 
 622  0Z IP   0 C 1613 20.42   40                         68    0.03 9 62.7 167 
 622  0E ES   0   1613 28.96                              68    0.01 9 62.7 167 
 622  0Z  IAML    1613 30.04       165.3 0.08                          62.7 167 
 624  0Z IP   0 C 1613 22.04   32                         68    0.07 9 73.2 141 
 624  0E ES   0   1613 31.71                              68    0.01 9 73.2 141 
 624  0Z  IAML    1613 32.34         8.6 0.33                          73.2 141 
 623  0Z IP   0 D 1613 22.98   31                         68   -0.08 9 79.4 159 
 623  0E ES   0   1613 33.55                              68   -0.04 9 79.4 159 
 623  0Z  IAML    1613 34.86         4.7 0.64                          79.4 159 
 621  0Z IP   0 D 1613 24.62   27                         68   -0.02 8 90.0 180 
 621  0N ES   0   1613 36.22                              68   -0.09 8 90.0 180 
 621  0Z  IAML    1613 36.41         5.9 0.35                          90.0 180 
 626  0Z IP   0 C 1613 30.01   33                         45   -0.08 7  129 162 
 626  0E ES   0   1613 45.90                              45    0.15 7  129 162 
 626  0Z  IAML    1613 47.01         3.6 0.19                           129 162 
                                                                                
 2016  819 0959 26.9 L  71.892 129.552  6.8  SLT 13 0.6 4.1LSLT                1
 GAP=260        1.07       2.7    15.3  3.2  0.1594E+02  0.3166E+01 -0.2796E+01E
 ACTION:REG 25-04-10 18:57 OP:mn   STATUS:               ID:20160819095900     I
 2016_08_19T09-59-00.mseed                                                     6
 STAT SP IPHASW D HRMM SECON CODA AMPLIT PERI AZIMU VELO AIN AR TRES W  DIS CAZ7
 632  0E IP   0    959 35.00                             100   -0.0510 39.2 206 
 632  0N ES   0    959 40.95                             100   -0.0210 39.2 206 
 632  0Z  IAML     959 42.18      3428.0 0.50                          39.2 206 
 630  0Z IP   0    959 35.80                              98   -0.1510 47.1 296 
 630  0N ES   1    959 42.95                              98    0.4110 47.1 296 
 630  0Z  IAML     959 46.27      6335.7 0.50                          47.1 296 
 629  0Z IP   0    959 41.61                              66    0.04 9 77.7 274 
 629  0N ES   1    959 52.54                              66    0.27 9 77.7 274 
 629  0Z  IAML     959 54.21      5389.1 0.68                          77.7 274 
 627  0Z IP   0    959 43.92                              66   -0.07 8 92.1 287 
 627  0N ES   1    959 56.12                              66   -0.32 8 92.1 287 
 627  0Z  IAML     959 57.55      6763.1 0.60                          92.1 287 
 631  0Z IP   0    959 45.27                              58   -0.01 8 97.9 237 
 631  0N ES   1    959 58.28                              58   -0.39 8 97.9 237 
 631  0Z  IAML    10 0  1.30      2476.7 0.62                          97.9 237 
 628  0Z IP   0    959 44.91                              58   -0.09 8100.0 306 
 628  0N ES   2    959 57.57                              58   -0.62 8100.0 306 
 628  0Z  IAML     959 57.77     13247.3 0.30                         100.0 306 
 626  0Z IP   0    959 48.58                              48   -0.07 7  122 271 
 626  0N ES   0   10 0  4.52                              48    0.00 7  122 271 
 626  0Z  IAML    10 0 10.31      1874.4 0.66                           122 271 
 625  0Z IP   0    959 48.89                              48    0.01 7  123 287 
 625  0N ES   0   10 0  4.75                              48   -0.15 7  123 287 
 624  0Z IP   2    959 49.30                              44   -0.51 7  130 302 
 624  0N ES   4   10 0  5.26                              44   -1.26 7  130 302 
 624  0Z  IAML    10 0  8.14      5848.4 0.52                           130 302 
 623  0Z IP   0    959 51.25                              41    0.13 6  139 292 
 623  0N ES   1   10 0  9.06                              41    0.27 6  139 292 
 623  0Z  IAML    10 0 14.10      3316.0 0.94                           139 292 
 622  0Z  IAML    10 0 18.96      1930.7 0.68                           157 295 
 621  0Z IP   4    959 55.04                              37    1.16 5  164 284 
 621  0N ES   4   10 0 15.56                              37    2.01 5  164 284 
 621  0Z  IAML    10 0 16.65      3575.6 0.48                           164 284 
 620  0Z IP   3    959 58.46                              37    0.85 4  196 298 
 620  0N ES   4   10 0 21.35                              37    1.34 4  196 298 
 620  0Z  IAML    10 0 30.78      4656.0 8.67                           196 298 
                                                                                
 2016  820 1506 15.2 L  71.909 129.606  6.2  SLT  9 0.6 1.5LSLT 1.6CSLT        1
 GAP=266        1.10       3.7    19.8  3.6  0.3946E+02 -0.1252E+02 -0.6334E+01E
 ACTION:ARG 20-05-11 21:31 OP:mn   STATUS:               ID:20160820150518     I
 2016-08-20-1505-18M.arct__039                                                 6
 STAT SP IPHASW D HRMM SECON CODA AMPLIT PERI AZIMU VELO AIN AR TRES W  DIS CAZ7
 632  0Z IP   1 C 15 6 23.53   49                         98   -0.2510 41.8 207 
 632  0N ES   0   15 6 30.12                              98    0.0710 41.8 207 
 632  0Z  IAML    15 6 31.02        32.4 0.08                          41.8 207 
 630  0Z IP   0 C 15 6 24.19   55                         97   -0.1910 48.0 293 
 630  0N ES   1   15 6 31.47                              97    0.3910 48.0 293 
 630  0Z  IAML    15 6 34.99        14.1 0.08                          48.0 293 
 627  0Z IP   0 D 15 6 32.55   41                         66    0.02 8 93.4 286 
 627  0N ES   1   15 6 44.86                              66   -0.31 8 93.4 286 
 627  0Z  IAML    15 6 45.43        10.4 0.14                          93.4 286 
 625  0Z IP   0 D 15 6 37.63   46                         48    0.23 7  124 285 
 625  0N ES   1   15 6 53.28                              48   -0.33 7  124 285 
 626  0Z IP   0 D 15 6 37.20   50                         48   -0.06 7  124 271 
 626  0N ES   0   15 6 53.15                              48   -0.22 7  124 271 
 626  0Z  IAML    15 6 56.02        10.3 0.26                           124 271 
 625  0Z  IAML    15 6 53.90         9.9 0.22                           124 285 
 624  0Z IP   2 C 15 6 37.56   41                         44   -0.69 7  130 301 
 624  0N ES   4   15 6 53.82                              44   -1.25 7  130 301 
 624  0Z  IAML    15 6 57.73        12.9 0.17                           130 301 
 623  0Z IP   1 D 15 6 39.94   52                         41    0.33 6  140 291 
 623  0N ES   0   15 6 57.35                              41   -0.08 6  140 291 
 623  0Z  IAML    15 7  1.67         8.8 0.62                           140 291 
 622  0Z IP   2 C 15 6 42.27   56                         37    0.54 6  158 294 
 622  0E ES   1   15 7  1.51                              37    0.41 6  158 294 
 622  0Z  IAML    15 7  4.89         5.2 0.19                           158 294 
 621  0Z IP   4 C 15 6 43.48   47                         37    1.08 5  165 283 
 621  0N ES   4   15 7  4.13                              37    1.88 5  165 283 
 621  0Z  IAML    15 7  5.78         9.4 0.32                           165 283 
                                                                                
 2016  822 1318 48.5 L  72.362 127.056 20.0  SLT  8 0.3 0.7LSLT 1.2CSLT        1
 GAP=100        0.83       2.3     5.6  3.7  0.4986E+01  0.7311E+01  0.3412E+01E
 ACTION:UP  21-01-08 22:12 OP:elen STATUS:               ID:20160822131743     I
 OLDACT:REG 21-01-08 15:24 OP:elen STATUS:               ID:20160822131743     3
 2016-08-22-1317-43M.arct__039                                                 6
 STAT SP IPHASW D HRMM SECON CODA AMPLIT PERI AZIMU VELO AIN AR TRES W  DIS CAZ7
 628  0Z IP   1   1318 52.33   40                        164    0.3310 5.22  36 
 628  0N ES   0   1318 54.47                             164   -0.0810 5.22  36 
 628  0N  IAML    1318 54.58        79.2 0.14                          5.22  36 
 627  0Z IP   0   1318 54.86   31                        117    0.2410 27.5 185 
 627  0E ES   0   1318 58.85                             117   -0.2310 27.5 185 
 627  0E  IAML    1318 59.21        13.9 0.14                          27.5 185 
 624  0Z IP   1   1318 55.20   43                        115    0.2610 29.2 296 
 624  0N ES   0   1318 59.45                             115   -0.1910 29.2 296 
 624  0N  IAML    1319  0.17         9.4 0.19                          29.2 296 
 625  0Z IP   1   1318 56.77   43                        105    0.4610 38.5 237 
 625  0N ES   0   1319  2.17                             105    0.1710 38.5 237 
 625  0E  IAML    1319  5.64         3.4 0.36                          38.5 237 
 623  0Z IP   0   1318 57.42   36                        102    0.1310 44.1 265 
 623  0E ES   1   1319  3.30                             102   -0.4110 44.1 265 
 623  0E  IAML    1319  3.64         2.5 0.18                          44.1 265 
 630  0Z IP   0   1318 58.72   48                         97    0.0410 53.8 126 
 630  0E ES   2   1319  5.54                              97   -0.5710 53.8 126 
 630  0E  IAML    1319  6.59         4.5 0.17                          53.8 126 
 622  0Z IP   0   1318 59.79   39                         96    0.0610 59.5 279 
 622  0N ES   2   1319  7.38                              96   -0.5510 59.5 279 
 622  0N  IAML    1319  8.26         2.5 0.11                          59.5 279 
 626  0Z IP   1   1319  0.46   48                         95    0.34 9 63.4 214 
 626  0N ES   0   1319  8.56                              95   -0.04 9 63.4 214 
 626  0N  IAML    1319 10.91         1.7 0.06                          63.4 214 
                                                                                
 2016  9 6 1514 38.7 L  72.503 125.660 13.8  SLT  6 0.2 0.9LSLT-0.2CSLT        1
 GAP=166        0.64       1.7     4.1  3.5  0.1859E+01  0.2063E+01 -0.5381E+00E
 ACTION:ARG 20-04-02 17:38 OP:mn   STATUS:               ID:20160906151318     I
 2016-09-06-1513-18M.SIOLA_039                                                 6
 STAT SP IPHASW D HRMM SECON CODA AMPLIT PERI AZIMU VELO AIN AR TRES W  DIS CAZ7
 622  0Z IP   1 C 1514 42.78    7                        132    0.3210 13.5 240 
 622  0N ES   0   1514 45.31                             132    0.0910 13.5 240 
 622  0Z  IAML    1514 45.95        16.0 0.13                          13.5 240 
 623  0Z IP   0 D 1514 43.56                             119    0.1810 20.0 170 
 623  0E ES   1   1514 46.57                             119   -0.2510 20.0 170 
 623  0Z  IAML    1514 46.77        26.6 0.14                          20.0 170 
 624  0Z IP   0 C 1514 43.55    4                        118    0.1310 20.9  98 
 624  0N ES   0   1514 46.71                             118   -0.1710 20.9  98 
 624  0Z  IAML    1514 46.87       161.8 0.17                          20.9  98 
 625  0Z IP   0 C 1514 46.57   25                        100    0.0810 39.7 157 
 625  0E ES   0   1514 51.99                             100   -0.2010 39.7 157 
 625  0Z  IAML    1514 53.15         6.1 0.55                          39.7 157 
 621  0Z IP   1 D 1514 47.54   15                         99    0.2910 44.2 217 
 621  0N ES   0   1514 53.37                              99   -0.1310 44.2 217 
 621  0Z  IAML    1514 54.45         6.5 0.39                          44.2 217 
 620  0Z IP   0 C 1514 47.89   21                         98    0.1210 47.0 292 
 620  0N ES   1   1514 53.95                              98   -0.4610 47.0 292 
 620  0Z  IAML    1514 54.31        10.0 0.36                          47.0 292 
                                                                                
 2016 10 4 0841 50.7 L  72.819 124.996 15.0  SLT  6 0.2 0.3LSLT 0.2CSLT        1
 GAP=252        0.59       3.2     8.2  3.4  0.4338E+01 -0.2227E+02 -0.1583E+01E
 ACTION:ARG 20-04-11 14:12 OP:mn   STATUS:               ID:20161004084031     I
 2016-10-04-0840-31M.SIOLA_039                                                 6
 STAT SP IPHASW D HRMM SECON CODA AMPLIT PERI AZIMU VELO AIN AR TRES W  DIS CAZ7
 620  0Z IP   0 C  841 56.88   18                        112    0.1410 28.3 230 
 620  0N ES   1    842  0.82                             112   -0.3010 28.3 230 
 620  0Z  IAML     842  3.26         1.0 0.06                          28.3 230 
 622  0Z IP   1 D  841 59.60   19                        102    0.2810 43.4 166 
 622  0N ES   0    842  5.58                             102   -0.0110 43.4 166 
 622  0Z  IAML     842  6.03         2.3 0.23                          43.4 166 
 624  0Z IP   0 D  842  1.64   14                         97    0.0410 57.3 131 
 624  0E ES   1    842  9.23                              97   -0.3010 57.3 131 
 624  0Z  IAML     842  9.78         2.7 0.17                          57.3 131 
 623  0Z IP   0 D  842  2.47   13                         68    0.2210 60.7 155 
 623  0N ES   1    842 11.04                              68    0.3710 60.7 155 
 623  0Z  IAML     842 11.77         1.5 0.22                          60.7 155 
 628  0Z IP   0 D  842  5.79   16                         68   -0.05 9 85.7 122 
 628  0N ES   0    842 16.69                              68   -0.19 9 85.7 122 
 628  0Z  IAML     842 18.57         1.0 0.08                          85.7 122 
 626  0Z IP   0 D  842  9.64   20                         54   -0.16 8  110 161 
 626  0E ES   0    842 23.50                              54   -0.23 8  110 161 
 626  0Z  IAML     842 25.73         0.5 0.13                           110 161 
                                                                                
 2016 10 5 1619 46.7 L  72.843 125.053 14.3  SLT  9 0.2 1.1LSLT 0.5CSLT        1
 GAP=256        0.45       1.9     3.9  1.7  0.8090E+00 -0.3120E+01 -0.8350E+00E
 ACTION:ARG 20-04-11 14:12 OP:mn   STATUS:               ID:20161005161823     I
 2016-10-05-1618-23M.SIOLA_039                                                 6
 STAT SP IPHASW D HRMM SECON CODA AMPLIT PERI AZIMU VELO AIN AR TRES W  DIS CAZ7
 620  0Z IP   0 C 1619 53.22   14                        107    0.0810 31.5 228 
 620  0E ES   0   1619 57.77                             107   -0.1010 31.5 228 
 620  0Z  IAML    1619 58.27        10.0 0.26                          31.5 228 
 622  0Z IP   0 C 1619 55.67   24                         99    0.0710 45.6 169 
 622  0N ES   0   1620  2.15                              99    0.0210 45.6 169 
 622  0Z  IAML    1620  2.41        12.4 0.26                          45.6 169 
 624  0Z IP   0 C 1619 57.78   12                         96    0.1910 57.7 135 
 624  0E ES   0   1620  5.66                              96    0.0810 57.7 135 
 624  0Z  IAML    1620  6.07        13.9 0.20                          57.7 135 
 623  0Z IP   0 D 1619 58.49   14                         95    0.0110 62.4 157 
 623  0E ES   0   1620  7.08                              95   -0.0310 62.4 157 
 623  0Z  IAML    1620  8.02         7.1 0.21                          62.4 157 
 621  0Z IP   0 D 1620  0.03   18                         68   -0.18 9 73.8 184 
 621  0N ES   0   1620 10.27                              68    0.17 9 73.8 184 
 621  0Z  IAML    1620 10.74         9.1 0.26                          73.8 184 
 628  0Z IP   0 D 1620  1.57   24                         68   -0.24 9 85.6 124 
 628  0E ES   0   1620 12.86                              68   -0.00 9 85.6 124 
 628  0Z  IAML    1620 13.38         4.9 0.14                          85.6 124 
 627  0Z IP   0 D 1620  4.99   37                         68    0.02 8  104 140 
 627  0E ES   2   1620 17.78                              68   -0.56 8  104 140 
 627  0Z  IAML    1620 18.01         3.3 0.70                           104 140 
 629  0Z IP   0 D 1620  8.38   25                         50    0.03 7  127 142 
 629  0E ES   1   1620 24.46                              50    0.27 7  127 142 
 629  0Z  IAML    1620 25.99         5.6 0.17                           127 142 
 630  0Z IP   0 D 1620  9.67   29                         41   -0.09 6  140 126 
 630  0E ES   1   1620 26.89                              41    0.27 6  140 126 
 630  0Z  IAML    1620 27.89         4.1 0.22                           140 126 
                                                                                
