 2016 10 6 0156 55.4 L  72.840 125.117  7.3  SLT  7 0.4 1.2LSLT 0.8CSLT        1
 GAP=254        0.80       3.8     6.9  3.2  0.4707E+01 -0.1145E+02 -0.2290E+01E
 ACTION:ARG 20-04-11 14:12 OP:mn   STATUS:               ID:20161006015532     I
 2016-10-06-0155-32M.SIOLA_039                                                 6
 STAT SP IPHASW D HRMM SECON CODA AMPLIT PERI AZIMU VELO AIN AR TRES W  DIS CAZ7
 620  0Z IP   0 C  157  1.78   21                        102   -0.0510 32.9 231 
 620  0N ES   0    157  6.32                             102   -0.2410 32.9 231 
 620  0Z  IAML     157  6.94         7.4 0.28                          32.9 231 
 622  0Z IP   0 C  157  4.35   18                         99    0.2110 44.8 172 
 622  0N ES   0    157 10.75                              99    0.2010 44.8 172 
 622  0Z  IAML     157 10.80        14.9 0.26                          44.8 172 
 624  0Z IP   1 D  157  6.38   32                         97    0.2610 56.0 136 
 624  0E ES   0    157 14.22                              97    0.2410 56.0 136 
 624  0Z  IAML     157 14.72        11.1 0.18                          56.0 136 
 623  0Z IP   0 D  157  7.18   36                         66   -0.0110 61.2 159 
 623  0E ES   0    157 15.67                              66   -0.1510 61.2 159 
 623  0Z  IAML     157 16.76         6.4 0.18                          61.2 159 
 628  0Z IP   0 D  157 10.53   30                         66   -0.12 9 83.6 125 
 628  0E ES   1    157 21.50                              66   -0.32 9 83.6 125 
 628  0Z  IAML     157 22.62         8.0 0.20                          83.6 125 
 627  0Z IP   1 C  157 13.67   29                         58   -0.30 8  102 141 
 627  0Z  IAML     157 26.49         3.7 0.63                           102 141 
 627  0E ES   2    157 26.93                              58   -0.63 8  102 141 
 631  0Z IP   2 C  157 24.68   34                         37    0.68 5  177 155 
 631  0E ES   4    157 46.16                              37    1.25 5  177 155 
 631  0Z  IAML     157 48.38         5.3 0.29                           177 155 
                                                                                
 2016 10 9 0036 44.6 L  72.829 125.057  9.9  SLT  7 0.5 1.3LSLT 1.2CSLT        1
 GAP=255        1.04       4.9    24.5  8.7 -0.2553E+02 -0.1963E+03  0.1089E+02E
 ACTION:ARG 20-04-11 14:12 OP:mn   STATUS:               ID:20161009003502     I
 2016-10-09-0035-02M.SIOLA_039                                                 6
 STAT SP IPHASW D HRMM SECON CODA AMPLIT PERI AZIMU VELO AIN AR TRES W  DIS CAZ7
 620  0Z IP   0 C  036 50.84   32                        108    0.0710 30.6 231 
 620  0N ES   0    036 55.38                             108    0.0910 30.6 231 
 620  0Z  IAML     036 56.58        16.7 0.10                          30.6 231 
 622  0Z IP   1 C  036 53.50   32                         66    0.2610 44.0 169 
 622  0N ES   0    036 59.75                              66    0.1810 44.0 169 
 622  0Z  IAML     036 59.81        24.2 0.25                          44.0 169 
 623  0Z IP   0 C  036 56.35   38                         66    0.2010 60.8 157 
 623  0E ES   0    037  4.77                              66    0.1710 60.8 157 
 623  0Z  IAML     037  5.81         6.2 0.14                          60.8 157 
 621  0Z IP   1 D  036 57.60   35                         66   -0.40 9 72.2 185 
 621  0E ES   2    037  7.10                              66   -0.69 9 72.2 185 
 621  0Z  IAML     037  8.38        15.3 0.24                          72.2 185 
 629  0Z IP   0 C  037  6.43   45                         44   -0.17 7  126 142 
 629  0N ES   0    037 22.76                              44    0.08 7  126 142 
 629  0Z  IAML     037 23.64         7.5 0.18                           126 142 
 630  0Z IP   2 C  037  7.41   51                         41   -0.73 6  138 126 
 630  0E ES   2    037 24.61                              41   -0.72 6  138 126 
 630  0Z  IAML     037 26.45         6.3 0.14                           138 126 
 631  0Z IP   3 D  037 13.60   46                         37    0.79 5  176 154 
 631  0E ES   4    037 35.16                              37    1.74 5  176 154 
 631  0Z  IAML     037 37.16         4.4 0.15                           176 154 
                                                                                
 2016 10 9 0036 44.4 L  72.834 125.066  9.5  SLT  8 0.5 1.4LSLT 1.4CSLT        1
 GAP=254        0.97       4.5    15.0  6.3 -0.2446E+02 -0.8155E+02  0.1059E+02E
 ACTION:ARG 20-04-11 14:12 OP:mn   STATUS:               ID:20161009003553     I
 2016-10-09-0035-53M.SIOLA_039                                                 6
 STAT SP IPHASW D HRMM SECON CODA AMPLIT PERI AZIMU VELO AIN AR TRES W  DIS CAZ7
 620  0Z IP   0 C  036 50.84   52                        107    0.1210 31.1 230 
 620  0N ES   0    036 55.36                             107    0.0610 31.1 230 
 620  0Z  IAML     036 56.58        17.0 0.10                          31.1 230 
 622  0Z IP   1 D  036 53.46   45                         66    0.2510 44.5 169 
 622  0N ES   0    036 59.76                              66    0.1510 44.5 169 
 622  0Z  IAML     037  0.06        25.9 0.26                          44.5 169 
 623  0Z IP   0 C  036 56.30   31                         66    0.1910 61.2 157 
 623  0N ES   1    037  4.89                              66    0.2710 61.2 157 
 623  0Z  IAML     037  5.81         6.2 0.16                          61.2 157 
 621  0Z IP   1 C  036 57.58   30                         66   -0.40 9 72.7 185 
 621  0N ES   2    037  7.24                              66   -0.62 9 72.7 185 
 621  0Z  IAML     037  8.38        14.7 0.25                          72.7 185 
 628  0Z IP   0 C  036 59.56   41                         66   -0.18 9 84.6 124 
 628  0E ES   0    037 10.72                              66   -0.19 9 84.6 124 
 628  0Z  IAML     037 11.62        12.3 0.18                          84.6 124 
 629  0Z IP   0 C  037  6.49   34                         44   -0.05 7  126 142 
 629  0N ES   1    037 23.04                              44    0.36 7  126 142 
 629  0Z  IAML     037 23.64         7.5 0.18                           126 142 
 630  0Z IP   2 C  037  7.39   41                         41   -0.67 6  139 126 
 630  0E ES   2    037 24.67                              41   -0.62 6  139 126 
 630  0Z  IAML     037 26.44         5.9 0.13                           139 126 
 632  0Z IP   3 C  037 15.92   58                         37    0.76 4  196 134 
 632  0E ES   4    037 39.74                              37    2.15 4  196 134 
 632  0Z  IAML     037 40.61         5.6 0.22                           196 134 
                                                                                
 2016 1012 0800 21.6 L  72.720 125.977 16.8  SLT  7 0.3 0.9LSLT 0.9CSLT        1
 GAP=250        0.76       3.2     7.2  2.4  0.1081E+02  0.1078E+01 -0.1005E+01E
 ACTION:ARG 20-04-11 14:12 OP:mn   STATUS:               ID:20161012080000     I
 2016-10-12-0800-00M.SIOLA_039                                                 6
 STAT SP IPHASW D HRMM SECON CODA AMPLIT PERI AZIMU VELO AIN AR TRES W  DIS CAZ7
 624  0Z IP   0    8 0 27.95   30                        115    0.0910 28.9 160 
 624  0E ES   0    8 0 32.38                             115   -0.0210 28.9 160 
 624  0Z  IAML     8 0 32.42        56.4 0.15                          28.9 160 
 622  0Z IP   0 C  8 0 29.57   25                        108    0.1410 38.1 216 
 622  0Z  IAML     8 0 34.95         5.9 0.11                          38.1 216 
 622  0N ES   0    8 0 35.15                             108    0.0410 38.1 216 
 623  0Z IP   0 C  8 0 30.65   19                         68    0.1910 44.5 190 
 623  0N ES   0    8 0 37.07                              68    0.1710 44.5 190 
 623  0Z  IAML     8 0 37.41         3.8 0.08                          44.5 190 
 620  0Z IP   0 D  8 0 31.90   23                         68   -0.1010 54.7 263 
 620  0N ES   0    8 0 39.36                              68   -0.2110 54.7 263 
 620  0Z  IAML     8 0 39.78         3.5 0.14                          54.7 263 
 621  0Z IP   0 D  8 0 34.41   30                         68   -0.02 9 70.1 212 
 621  0N ES   0    8 0 43.65                              68   -0.12 9 70.1 212 
 621  0Z  IAML     8 0 44.87         4.4 0.19                          70.1 212 
 627  0Z IP   0 C  8 0 34.98   36                         68   -0.24 9 75.3 153 
 627  0E ES   2    8 0 44.45                              68   -0.69 9 75.3 153 
 627  0Z  IAML     8 0 44.79         2.0 0.23                          75.3 153 
 631  0Z IP   2 C  8 0 47.07   47                         41    0.69 6  154 163 
 631  0E ES   3    8 1  5.36                              41    0.93 6  154 163 
 631  0Z  IAML     8 1  7.14         4.7 0.69                           154 163 
                                                                                
 2016 1015 1013 35.7 L  72.060 126.945 15.2  SLT  7 0.2 0.8LSLT 0.9CSLT        1
 GAP=228        0.57       1.6     6.9  1.8 -0.2698E+01  0.6283E+01 -0.7154E+00E
 ACTION:ARG 20-04-11 14:12 OP:mn   STATUS:               ID:20161015101225     I
 2016-10-15-1012-25M.SIOLA_039                                                 6
 STAT SP IPHASW D HRMM SECON CODA AMPLIT PERI AZIMU VELO AIN AR TRES W  DIS CAZ7
 627  0Z IP   0 C 1013 38.86   33                        155    0.1210 6.52  11 
 627  0N ES   1   1013 40.66                             155   -0.3310 6.52  11 
 627  0Z  IAML    1013 40.89        30.3 0.08                          6.52  11 
 625  0Z IP   0 D 1013 42.35   27                        109    0.2110 31.4 294 
 625  0E ES   0   1013 46.96                             109    0.0810 31.4 294 
 625  0Z  IAML    1013 46.96        15.8 0.13                          31.4 294 
 626  0Z IP   0 D 1013 42.99   25                        105    0.0810 36.8 239 
 626  0N ES   0   1013 47.98                             105   -0.2210 36.8 239 
 626  0Z  IAML    1013 48.27        16.6 0.41                          36.8 239 
 623  0Z IP   1 D 1013 45.75   25                         99    0.3310 50.2 307 
 623  0E ES   0   1013 52.67                              99    0.1310 50.2 307 
 623  0Z  IAML    1013 54.07         1.9 0.09                          50.2 307 
 624  0Z IP   0 D 1013 45.77   24                         99    0.1810 51.7 334 
 624  0E ES   0   1013 52.73                              99   -0.1110 51.7 334 
 624  0Z  IAML    1013 53.80        10.3 0.20                          51.7 334 
 622  0Z IP   0 D 1013 48.55   32                         68   -0.13 9 70.0 308 
 622  0Z  IAML    1013 57.77         4.3 0.21                          70.0 308 
 622  0N ES   1   1013 57.77                              68   -0.41 9 70.0 308 
 620  0Z IP   0 C 1013 54.94   42                         54   -0.00 8  110 308 
 620  0N ES   0   1014  8.98                              54   -0.03 8  110 308 
 620  0Z  IAML    1014  9.97         1.8 0.09                           110 308 
                                                                                
 2016 1021 0507 32.2 L  72.570 124.802 13.3  SLT  6 0.3 0.9LSLT 1.1CSLT        1
 GAP=159        0.73       2.1     6.3  3.9  0.5691E+01 -0.1319E+02 -0.5329E+00E
 ACTION:ARG 20-04-11 14:12 OP:mn   STATUS:               ID:20161021050606     I
 2016-10-21-0506-06M.SIOLA_039                                                 6
 STAT SP IPHASW D HRMM SECON CODA AMPLIT PERI AZIMU VELO AIN AR TRES W  DIS CAZ7
 620  0Z IP   0 C  5 7 36.69   23                        121    0.2010 17.9 302 
 620  0N ES   1    5 7 39.21                             121   -0.3810 17.9 302 
 620  0Z  IAML     5 7 39.68        28.7 0.19                          17.9 302 
 622  0Z IP   0 C  5 7 37.45   38                        114    0.2010 22.3 129 
 622  0E ES   0    5 7 40.86                             114   -0.0510 22.3 129 
 622  0Z  IAML     5 7 41.16        28.4 0.28                          22.3 129 
 623  0Z IP   1 C  5 7 40.84   38                         98    0.2610 42.2 130 
 623  0E ES   0    5 7 46.60                              98   -0.0610 42.2 130 
 623  0Z  IAML     5 7 48.07         7.4 0.13                          42.2 130 
 621  0Z IP   1 C  5 7 40.90   38                         98    0.2810 43.1 176 
 621  0E ES   1    5 7 46.42                              98   -0.3210 43.1 176 
 621  0Z  IAML     5 7 49.01         3.2 0.22                          43.1 176 
 624  0Z IP   1 C  5 7 42.28   37                         96    0.3710 50.5 101 
 624  0E ES   0    5 7 48.73                              96   -0.2410 50.5 101 
 624  0Z  IAML     5 7 50.52        11.5 0.15                          50.5 101 
 628  0Z IP   0 C  5 7 46.83   39                         68    0.10 9 81.0 102 
 628  0N ES   1    5 7 56.85                              68   -0.46 9 81.0 102 
 628  0Z  IAML     5 7 58.61         3.8 0.14                          81.0 102 
                                                                                
 2016 1125 0156 33.7 L  72.712 124.979 10.3  SLT  7 0.3 0.7LSLT 1.2CSLT        1
 GAP=221        0.68       3.8    10.2  5.9 -0.2447E+02 -0.5462E+02  0.1702E+02E
 ACTION:REG 18-11-20 15:40 OP:art  STATUS:               ID:20161125015508     I
 2016-11-25-0155-08M.arct__039                                                 6
 STAT SP IPHASW D HRMM SECON CODA AMPLIT PERI AZIMU VELO AIN AR TRES W  DIS CAZ7
 620  0Z IP   0    156 38.31                             115   -0.1210 22.0 253 
 620  0N ES   0    156 42.09                             115    0.2210 22.0 253 
 620  0Z  IAML     156 43.32         7.2 0.50                          22.0 253 
 622  0Z IP   0    156 40.36                              66    0.0710 32.1 159 
 622  0E ES   1    156 45.42                              66    0.3410 32.1 159 
 622  0Z  IAML     156 47.11         3.5 0.15                          32.1 159 
 624  0Z IP   0    156 43.31   41                         66   -0.1010 50.6 121 
 624  0E ES   0    156 50.63                              66    0.1510 50.6 121 
 624  0Z  IAML     156 50.79         6.7 0.19                          50.6 121 
 621  0Z IP   0    156 44.79   36                         66   -0.0310 58.9 183 
 621  0N ES   1    156 52.50                              66   -0.4110 58.9 183 
 621  0Z  IAML     156 54.72         2.3 0.42                          58.9 183 
 628  0Z IP   1    156 47.80                              66   -0.45 9 80.4 115 
 628  0N ES   0    156 58.61                              66   -0.24 9 80.4 115 
 628  0Z  IAML     156 58.74         3.3 0.20                          80.4 115 
 626  0Z IP   0    156 51.26   45                         58   -0.14 8 98.6 158 
 626  0E ES   0    157  4.29                              58   -0.01 8 98.6 158 
 626  0Z  IAML     157  4.57         1.4 0.44                          98.6 158 
 630  0Z IP   1    156 57.01   38                         44    0.43 7  133 121 
 630  0N ES   2    157 13.89                              44    0.62 7  133 121 
 630  0Z  IAML     157 15.36         5.6 0.19                           133 121 
                                                                                
 2016 1125 0517 25.2 L  72.740 124.956 15.5  SLT  6 0.3 1.8LSLT 0.9CSLT        1
 GAP=231        0.68       3.1     5.6  2.7  0.5955E+00 -0.6559E+01  0.2065E+01E
 ACTION:REG 18-11-22 12:44 OP:art  STATUS:               ID:20161125051714     I
 2016-11-25-0517-14M.arct__039                                                 6
 STAT SP IPHASW D HRMM SECON CODA AMPLIT PERI AZIMU VELO AIN AR TRES W  DIS CAZ7
 620  0Z IP   0    517 30.42   34                        120    0.1410 22.4 245 
 620  0N ES   1    517 33.71                             120   -0.3010 22.4 245 
 620  0Z  IAML     517 34.59       119.4 0.24                          22.4 245 
 622  0Z IP   0    517 32.38   33                        107   -0.0410 35.3 160 
 622  0E ES   1    517 37.98                             107    0.2610 35.3 160 
 622  0Z  IAML     517 38.18        66.7 0.69                          35.3 160 
 624  0Z IP   0    517 35.40   32                         99    0.0910 53.0 123 
 624  0E ES   0    517 42.50                              99   -0.2210 53.0 123 
 624  0Z  IAML     517 43.14        32.8 0.24                          53.0 123 
 621  0Z IP   1    517 37.11   36                         68    0.3610 62.1 182 
 621  0N ES   1    517 44.80                              68   -0.4210 62.1 182 
 621  0Z  IAML     517 47.45        45.5 0.66                          62.1 182 
 628  0Z IP   0    517 39.72   26                         68   -0.01 9 82.5 116 
 628  0N ES   1    517 50.03                              68   -0.34 9 82.5 116 
 628  0Z  IAML     517 50.56        33.4 0.49                          82.5 116 
 626  0Z IP   1    517 43.39   26                         68    0.39 8  102 158 
 626  0E ES   0    517 56.25                              68    0.22 8  102 158 
 626  0Z  IAML     517 56.73        22.4 0.41                           102 158 
                                                                                
 2016 1125 0525 15.2 L  72.746 124.956 14.8  SLT  6 0.4 1.0LSLT 1.2CSLT        1
 GAP=233        0.89       4.1     7.3  3.7  0.6208E+00 -0.1200E+02  0.3546E+01E
 ACTION:REG 18-11-22 13:29 OP:art  STATUS:               ID:20161125052350     I
 2016-11-25-0523-50M.arct__039                                                 6
 STAT SP IPHASW D HRMM SECON CODA AMPLIT PERI AZIMU VELO AIN AR TRES W  DIS CAZ7
 620  0Z IP   0    525 20.47                             118    0.2110 22.7 243 
 620  0N ES   0    525 23.76                             118   -0.2210 22.7 243 
 620  0Z  IAML     525 24.62        14.7 0.17                          22.7 243 
 622  0Z IP   0    525 22.38                             105   -0.1010 35.9 160 
 622  0Z  IAML     525 27.15         7.5 0.23                          35.9 160 
 622  0E ES   0    525 27.94                             105    0.1110 35.9 160 
 624  0Z IP   0    525 25.31   35                         98   -0.0310 53.3 124 
 624  0N ES   0    525 32.71                              98   -0.0710 53.3 124 
 624  0Z  IAML     525 32.74        12.9 0.25                          53.3 124 
 621  0Z IP   0    525 26.90   40                         68   -0.01 9 62.7 182 
 621  0N ES   2    525 34.94                              68   -0.54 9 62.7 182 
 621  0Z  IAML     525 37.48         5.6 0.65                          62.7 182 
 628  0Z IP   0    525 29.78   36                         68   -0.05 9 82.8 117 
 628  0N ES   1    525 40.09                              68   -0.45 9 82.8 117 
 628  0Z  IAML     525 40.84         5.1 0.47                          82.8 117 
 626  0Z IP   3    525 33.97   39                         68    0.82 8  102 159 
 626  0Z  IAML     525 46.74         3.0 0.27                           102 159 
 626  0E ES   2    525 46.99                              68    0.71 8  102 159 
                                                                                
