 2017  4 5 1410 53.2 L  71.510 128.909  9.3  BER 10 0.4 1.7LBER 2.5CBER        1
 GAP=290        0.69       3.2    14.6  5.4 -0.7933E+01 -0.1042E+02 -0.1622E+01E
 ACTION:UP  20-12-21 00:57 OP:elen STATUS:               ID:20170405140956     I
 OLDACT:UP  20-12-20 03:02 OP:elen STATUS:               ID:20170405140956     3
 OLDACT:UP  20-12-17 00:06 OP:elen STATUS:               ID:20170405140956     3
 OLDACT:REG 20-12-13 13:22 OP:elen STATUS:               ID:20170405140956     3
 2017-04-05-1409-56M.NSN___039                                                 6
 STAT SP IPHASW D HRMM SECON CODA AMPLIT PERI AZIMU VELO AIN AR TRES W  DIS CAZ7
 631  0Z IP       1411  3.23   94                         95   -0.1210 60.3 259 
 631  0E ES       1411 11.26                              95    0.2010 60.3 259 
 631  0N  IAML    1411 12.28        28.6 0.17                          60.3 259 
 629  0Z IP       1411  4.71   96                         94   -0.65 9 72.8 311 
 629  0N ES       1411 13.77                              94   -0.83 9 72.8 311 
 629  0N  IAML    1411 16.28         9.9 0.21                          72.8 311 
 626  0Z IP       1411 11.13  106                         93   -0.09 8  109 294 
 626  0N ES       1411 24.81                              93   -0.09 8  109 294 
 626  0N  IAML    1411 29.66        16.6 0.18                           109 294 
 628  0Z IP       1411 12.40   82                         92    0.01 8  116 329 
 628  0N ES       1411 26.97                              92    0.00 8  116 329 
 628  0N  IAML    1411 32.64        11.3 0.18                           116 329 
 625  0Z IP       1411 13.83   87                         92    0.48 7  122 309 
 625  0N ES       1411 29.36                              92    0.70 7  122 309 
 625  0N  IAML    1411 33.02        22.4 0.21                           122 309 
 624  0Z IP       1411 16.80   72                         92    0.46 7  141 321 
 624  0N ES       1411 34.63                              92    0.71 7  141 321 
 624  0N  IAML    1411 37.41        30.9 0.20                           141 321 
 623  0Z IP       1411 16.69   81                         92    0.17 7  142 311 
 623  0N ES       1411 34.51                              92    0.28 7  142 311 
 623  0N  IAML    1411 37.18        10.9 0.20                           142 311 
 621  0Z IP       1411 19.20   95                         58    0.04 6  159 300 
 621  0N ES       1411 38.62                              58   -0.25 6  159 300 
 621  0E  IAML    1411 40.83        12.2 0.14                           159 300 
 622  0Z IP       1411 19.68   86                         58    0.08 6  162 312 
 622  0N ES       1411 39.50                              58   -0.15 6  162 312 
 622  0N  IAML    1411 41.87        19.3 0.17                           162 312 
 620  0Z IP       1411 25.49   90                         58    0.40 4  202 311 
 620  0N ES       1411 49.48                              58    0.17 4  202 311 
 620  0E  IAML    1411 50.64         9.1 0.34                           202 311 

 2017  4 6 0838 43.2 L  72.385 129.385 15.5  BER 10 0.4 0.9LBER 2.1CBER        1
 GAP=270        0.63       2.9    10.6  3.5  0.1523E+02 -0.7180E+01 -0.2783E+01E
 ACTION:UP  20-12-21 11:42 OP:elen STATUS:               ID:20170406083758     I
 OLDACT:UP  20-12-20 10:20 OP:elen STATUS:               ID:20170406083758     3
 OLDACT:UP  20-12-17 00:35 OP:elen STATUS:               ID:20170406083758     3
 OLDACT:REG 20-12-13 13:33 OP:elen STATUS:               ID:20170406083758     3
 2017-04-06-0837-58M.NSN___039                                                 6
 STAT SP IPHASW D HRMM SECON CODA AMPLIT PERI AZIMU VELO AIN AR TRES W  DIS CAZ7
 630  0Z IP        838 51.70   57                        104   -0.1710 50.0 227 
 630  0N ES        838 58.20                             104   -0.2610 50.0 227 
 630  0E  IAML     838 59.08         4.6 0.32                          50.0 227 
 628  0Z IP        838 55.91   54                         99   -0.01 9 75.6 272 
 628  0N ES        839  5.39                              99   -0.20 9 75.6 272 
 628  0N  IAML     839  6.74         7.1 0.22                          75.6 272 
 627  0Z IP        838 58.22   59                         98    0.47 9 87.1 251 
 627  0N ES        839  9.43                              98    0.62 9 87.1 251 
 627  0E  IAML     839 10.65         5.5 0.18                          87.1 251 
 629  0Z IP        838 58.08   72                         98    0.30 9 87.2 235 
 629  0N ES        839  9.14                              98    0.29 9 87.2 235 
 629  0N  IAML     839 10.76         1.9 0.30                          87.2 235 
 632  0Z IP        838 58.38   81                         97   -0.01 8 91.1 187 
 632  0N ES        839  9.68                              97   -0.25 8 91.1 187 
 632  0E  IAML     839 11.80         4.6 0.32                          91.1 187 
 624  0Z IP        839  0.59   77                         96   -0.08 8  105 277 
 624  0N ES        839 13.56                              96   -0.39 8  105 277 
 624  0N  IAML     839 14.48        13.0 0.22                           105 277 
 626  0Z IP        839  4.21   83                         95   -0.00 7  127 246 
 626  0N ES        839 19.89                              95   -0.29 7  127 246 
 626  0N  IAML     839 21.55         3.0 0.36                           127 246 
 631  0Z IP        839  5.19   85                         58    0.14 7  133 215 
 631  0N ES        839 21.50                              58   -0.15 7  133 215 
 631  0E  IAML     839 23.21         3.0 0.23                           133 215 
 622  0Z IP        839  5.45   70                         58   -0.27 6  138 275 
 622  0N ES        839 22.04                              58   -0.79 6  138 275 
 622  0E  IAML     839 24.42         1.8 0.17                           138 275 
 621  0Z IP        839  8.64   76                         58    0.61 6  154 264 
 621  0N ES        839 27.55                              58    0.66 6  154 264 
 621  0N  IAML     839 30.04         2.0 0.17                           154 264 

 2017  4 6 1728  1.0 L  72.723 125.692 21.3  BER 10 0.3 0.9LBER 1.9CBER        1
 GAP=225        0.61       2.8     5.6  2.6  0.4997E+01 -0.6165E+01 -0.1972E+01E
 ACTION:UP  20-12-21 12:27 OP:elen STATUS:               ID:20170406172639     I
 OLDACT:UP  20-12-20 10:56 OP:elen STATUS:               ID:20170406172639     3
 OLDACT:UP  20-12-17 22:23 OP:elen STATUS:               ID:20170406172639     3
 OLDACT:REG 20-12-15 19:37 OP:elen STATUS:               ID:20170406172639     3
 2017-04-06-1726-39M.NSN___039                                                 6
 STAT SP IPHASW D HRMM SECON CODA AMPLIT PERI AZIMU VELO AIN AR TRES W  DIS CAZ7
 624  0Z IP       1728  7.81   52                        121    0.1710 33.8 145 
 624  0N ES       1728 12.77                             121    0.1210 33.8 145 
 624  0N  IAML    1728 13.91         6.5 0.11                          33.8 145 
 622  0Z IP       1728  7.84   49                        121    0.1910 33.9 202 
 622  0N ES       1728 12.73                             121    0.0610 33.9 202 
 622  0E  IAML    1728 14.00        10.3 0.41                          33.9 202 
 623  0Z IP       1728  9.42   62                        114    0.2510 44.4 177 
 623  0N ES       1728 15.48                             114    0.1410 44.4 177 
 623  0E  IAML    1728 17.38         3.3 0.15                          44.4 177 
 620  0Z IP       1728  9.28   53                        113   -0.0310 45.4 261 
 620  0N ES       1728 15.28                             113   -0.3110 45.4 261 
 620  0E  IAML    1728 15.49        25.5 0.18                          45.4 261 
 628  0Z IP       1728 11.58   47                        107   -0.04 9 60.6 126 
 628  0N ES       1728 19.31                             107   -0.34 9 60.6 126 
 628  0N  IAML    1728 19.87        12.7 0.25                          60.6 126 
 621  0Z IP       1728 12.54   57                        106    0.09 9 66.0 205 
 621  0N ES       1728 21.02                             106   -0.09 9 66.0 205 
 621  0E  IAML    1728 21.75         2.5 0.16                          66.0 205 
 626  0Z IP       1728 16.77   51                        101   -0.07 8 94.0 173 
 626  0E ES       1728 28.24                             101   -0.60 8 94.0 173 
 626  0N  IAML    1728 29.14         1.6 0.15                          94.0 173 
 630  0Z IP       1728 19.73   74                         58   -0.20 7  115 128 
 630  0N ES       1728 33.53                              58   -0.75 7  115 128 
 630  0E  IAML    1728 34.32         3.9 0.15                           115 128 
 631  0Z IP       1728 26.31   93                         58    0.55 5  157 159 
 631  0N ES       1728 44.89                              58    0.35 5  157 159 
 631  0E  IAML    1728 46.34         3.2 0.16                           157 159 
 632  0Z IP       1728 28.58   90                         58    0.69 5  173 136 
 632  0N ES       1728 48.98                              58    0.70 5  173 136 
 632  0E  IAML    1728 50.06         4.5 0.31                           173 136 

 2017  4 8 1004 44.9 L  72.613 124.950 15.2  BER 12 0.3 1.5LBER 2.6CBER        1
 GAP=184        0.54       2.4     5.6  2.8  0.8413E+01 -0.5357E+01 -0.1883E+00E
 ACTION:UP  20-12-21 14:32 OP:elen STATUS:               ID:20170408100319     I
 OLDACT:UP  20-12-20 16:21 OP:elen STATUS:               ID:20170408100319     3
 OLDACT:UP  20-12-19 02:06 OP:elen STATUS:               ID:20170408100319     3
 OLDACT:REG 20-12-15 20:09 OP:elen STATUS:               ID:20170408100319     3
 2017-04-08-1003-19M.NSN___039                                                 6
 STAT SP IPHASW D HRMM SECON CODA AMPLIT PERI AZIMU VELO AIN AR TRES W  DIS CAZ7
 620  0Z IP       10 4 49.10   78                        124   -0.0210 20.6 283 
 620  0N ES       10 4 52.40                             124    0.0410 20.6 283 
 620  0E  IAML    10 4 52.80       171.2 0.15                          20.6 283 
 622  0Z IP       10 4 49.30   86                        121   -0.0910 22.6 147 
 622  0N ES       10 4 52.82                             121   -0.0210 22.6 147 
 622  0E  IAML    10 4 53.10        74.9 0.37                          22.6 147 
 623  0Z IP       10 4 52.26   80                        107   -0.01 9 42.0 139 
 623  0N ES       10 4 58.11                             107    0.21 9 42.0 139 
 623  0N  IAML    10 4 59.03        75.1 0.25                          42.0 139 
 624  0Z IP       10 4 53.11   93                        105    0.09 9 46.9 108 
 624  0N ES       10 4 59.48                             105    0.25 9 46.9 108 
 624  0N  IAML    10 5  1.03        27.4 0.11                          46.9 108 
 625  0Z IP       10 4 55.37  106                        101   -0.13 8 62.6 141 
 625  0N ES       10 5  3.50                             101   -0.09 8 62.6 141 
 625  0N  IAML    10 5  3.88         8.5 0.32                          62.6 141 
 628  0Z IP       10 4 57.62  104                         99   -0.23 8 77.5 107 
 628  0N ES       10 5  7.40                              99   -0.33 8 77.5 107 
 628  0E  IAML    10 5  8.95        21.9 0.21                          77.5 107 
 627  0Z IP       10 4 59.88  107                         97    0.31 8 88.2 128 
 627  0N ES       10 5 11.19                              97    0.43 8 88.2 128 
 627  0N  IAML    10 5 12.24         8.1 0.25                          88.2 128 
 626  0Z IP       10 4 59.53   99                         97   -0.16 8 88.9 155 
 626  0E ES       10 5 10.66                              97   -0.30 8 88.9 155 
 626  0E  IAML    10 5 11.00         8.5 0.17                          88.9 155 
 629  0Z IP       10 5  3.50   89                         96    0.31 7  111 132 
 629  0N ES       10 5 17.47                              96    0.35 7  111 132 
 629  0E  IAML    10 5 18.54         6.7 0.21                           111 132 
 630  0Z IP       10 5  5.80   97                         95   -0.32 6  129 116 
 630  0N ES       10 5 21.43                              95   -0.86 6  129 116 
 630  0E  IAML    10 5 25.71        18.6 0.18                           129 116 
 631  0Z IP       10 5 10.15  104                         58    0.10 5  157 149 
 631  0E ES       10 5 28.84                              58   -0.36 5  157 149 
 631  0N  IAML    10 5 30.82        14.2 0.13                           157 149 
 632  0Z IP       10 5 14.26  104                         58    0.65 4  183 127 
 632  0N ES       10 5 35.96                              58    0.49 4  183 127 
 632  0E  IAML    10 5 36.82        10.4 0.35                           183 127 

 2017  4 8 1004 44.9 L  72.607 124.944 15.0  BER 13 0.3 1.4LBER 2.8CBER        1
 GAP=181        0.52       1.8     4.4  2.6  0.3423E+01 -0.4030E+01  0.1362E+00E
 ACTION:UP  20-12-21 15:15 OP:elen STATUS:               ID:20170408100354     I
 OLDACT:UP  20-12-20 16:45 OP:elen STATUS:               ID:20170408100354     3
 OLDACT:UP  20-12-19 13:04 OP:elen STATUS:               ID:20170408100354     3
 OLDACT:REG 20-12-19 09:34 OP:elen STATUS:               ID:20170408100354     3
 2017-04-08-1003-54M.NSN___039                                                 6
 STAT SP IPHASW D HRMM SECON CODA AMPLIT PERI AZIMU VELO AIN AR TRES W  DIS CAZ7
 620  0Z IP       10 4 49.12   92                        124   -0.0110 20.6 285 
 620  0N ES       10 4 52.40                             124    0.0410 20.6 285 
 620  0E  IAML    10 4 52.80       170.6 0.15                          20.6 285 
 622  0Z IP       10 4 49.31  112                        122   -0.0410 22.2 146 
 622  0N ES       10 4 52.78                             122    0.0310 22.2 146 
 622  0E  IAML    10 4 53.18        75.7 0.20                          22.2 146 
 623  0Z IP       10 4 52.27  100                        107    0.03 9 41.7 138 
 623  0N ES       10 4 58.13                             107    0.30 9 41.7 138 
 623  0N  IAML    10 4 59.15        73.9 0.30                          41.7 138 
 624  0Z IP       10 4 53.13  119                        105    0.08 9 46.9 108 
 624  0N ES       10 4 59.48                             105    0.22 9 46.9 108 
 624  0N  IAML    10 5  1.02        33.6 0.15                          46.9 108 
 621  0Z IP       10 4 52.92   98                        105   -0.18 9 47.2 182 
 621  0N ES       10 4 59.20                             105   -0.15 9 47.2 182 
 621  0E  IAML    10 5  1.72        20.3 0.22                          47.2 182 
 625  0Z IP       10 4 55.33  121                        101   -0.14 9 62.3 140 
 625  0N ES       10 5  3.31                             101   -0.20 9 62.3 140 
 625  0N  IAML    10 5  3.88         8.4 0.32                          62.3 140 
 628  0Z IP       10 4 57.63  111                         98   -0.26 8 77.5 106 
 628  0N ES       10 5  7.38                              98   -0.39 8 77.5 106 
 628  0E  IAML    10 5  8.94        21.7 0.19                          77.5 106 
 627  0Z IP       10 4 59.89  107                         97    0.32 8 88.0 127 
 627  0N ES       10 5 11.08                              97    0.35 8 88.0 127 
 627  0N  IAML    10 5 12.24         8.1 0.25                          88.0 127 
 626  0Z IP       10 4 59.78  122                         97    0.14 8 88.4 155 
 626  0N ES       10 5 10.85                              97    0.00 8 88.4 155 
 626  0E  IAML    10 5 11.00         8.5 0.18                          88.4 155 
 629  0Z IP       10 5  3.42  112                         96    0.24 7  111 132 
 629  0N ES       10 5 17.26                              96    0.18 7  111 132 
 629  0E  IAML    10 5 18.54         6.7 0.20                           111 132 
 630  0Z IP       10 5  5.81  123                         95   -0.33 6  129 116 
 630  0N ES       10 5 21.44                              95   -0.86 6  129 116 
 630  0E  IAML    10 5 25.71        18.5 0.18                           129 116 
 631  0Z IP       10 5 10.17  120                         58    0.13 5  156 148 
 631  0N ES       10 5 28.83                              58   -0.32 5  156 148 
 631  0N  IAML    10 5 30.82        14.2 0.13                           156 148 
 632  0Z IP       10 5 14.26  118                         58    0.63 4  183 127 
 632  0N ES       10 5 35.99                              58    0.52 4  183 127 
 632  0E  IAML    10 5 37.29         8.6 0.16                           183 127 

 2017  412 1507  0.6 L  71.507 129.720  0.0  BER  6 0.5 0.7LBER 1.5CBER        1
 GAP=300        0.92       5.4    18.5  7.5 -0.1888E+02 -0.3945E+01 -0.9758E+01E
 ACTION:UP  20-12-23 19:18 OP:elen STATUS:               ID:20170412150615     I
 OLDACT:REG 20-12-21 22:40 OP:elen STATUS:               ID:20170412150615     3
 2017-04-12-1506-15M.NSN___039                                                 6
 STAT SP IPHASW D HRMM SECON CODA AMPLIT PERI AZIMU VELO AIN AR TRES W  DIS CAZ7
 632  0Z IP       15 7  4.64   45                         90   -0.2910 24.0 288 
 632  0N ES       15 7  8.05                              90   -0.1510 24.0 288 
 632  0E  IAML    15 7  8.99        28.2 0.08                          24.0 288 
 630  0Z IP       15 7 14.54   43                         65    0.25 8 79.9 323 
 630  0E ES       15 7 25.17                              65    0.51 8 79.9 323 
 630  0E  IAML    15 7 25.98         2.1 0.16                          79.9 323 
 631  0Z IP       15 7 15.68   55                         65   -0.02 8 88.6 263 
 631  0E ES       15 7 27.10                              65   -0.05 8 88.6 263 
 631  0N  IAML    15 7 28.47         3.1 0.24                          88.6 263 
 628  0Z IP       15 7 22.26   45                         65   -0.69 6  134 319 
 628  0N ES       15 7 38.50                              65   -1.40 6  134 319 
 628  0N  IAML    15 7 40.00         1.0 0.15                           134 319 
 626  0Z IP       15 7 23.77   43                         65    0.44 6  136 290 
 626  0N ES       15 7 41.09                              65    0.51 6  136 290 
 626  0N  IAML    15 7 41.90         1.7 0.18                           136 290 
 625  0Z IP       15 7 25.58   45                         65    0.62 6  146 302 
 625  0N ES       15 7 44.16                              65    0.71 6  146 302 
 625  0N  IAML    15 7 46.35         2.0 0.22                           146 302 

