 2016 1125 0556  2.0 L  72.735 124.975  5.7  BER  6 0.4 0.2LBER 0.8CBER        1
 GAP=229        0.83       4.3     9.7  7.4  0.1477E+02 -0.5251E+02 -0.5553E+01E
 ACTION:REG 18-11-22 15:21 OP:art  STATUS:               ID:20161125055436     I
 2016-11-25-0554-36M.arct__039                                                 6
 STAT SP IPHASW D HRMM SECON CODA AMPLIT PERI AZIMU VELO AIN AR TRES W  DIS CAZ7
 620  0Z IP        556  5.82   21                         93   -0.2810 22.7 247 
 620  0N ES        556  9.22                              93    0.0410 22.7 247 
 620  0Z  IAML     556  9.74         4.4 0.13                          22.7 247 
 622  0Z IP        556  7.71   26                         92   -0.3010 34.6 161 
 622  0N ES        556 12.46                              92   -0.0910 34.6 161 
 622  0Z  IAML     556 12.54         3.2 0.16                          34.6 161 
 624  0Z IP        556 11.24   28                         91    0.40 9 52.1 123 
 624  0E ES        556 17.74                              91    0.22 9 52.1 123 
 624  0Z  IAML     556 18.16         3.5 0.23                          52.1 123 
 623  0Z IP        556 11.41                              91    0.48 9 52.7 150 
 623  0E ES        556 17.98                              91    0.30 9 52.7 150 
 623  0Z  IAML     556 19.34         1.0 0.41                          52.7 150 
 628  0Z IP        556 15.17   35                         91   -0.44 8 81.7 116 
 628  0E ES        556 25.48                              91   -0.44 8 81.7 116 
 628  0Z  IAML     556 26.04         1.5 0.52                          81.7 116 
 626  0Z IP        556 19.43   32                         90    0.69 7  101 159 
 626  0N ES        556 30.76                              90   -0.68 7  101 159 
 626  0Z  IAML     556 32.73         0.8 0.15                           101 159 

 2017  117 0846 48.6 L  72.213 127.347 22.0  BER  6 0.2 0.3LBER 0.2CBER        1
 GAP=132        0.46       1.3     3.8  3.0  0.3461E+00 -0.9174E-01  0.6118E+00E
 ACTION:ARG 20-09-30 09:42 OP:mn   STATUS:               ID:20170117084544     I
 2017-01-17-0845-44M.a_____039                                                 6
 STAT SP IPHASW D HRMM SECON CODA AMPLIT PERI AZIMU VELO AIN AR TRES W  DIS CAZ7
 627  0Z IP     D  846 53.34   16                        142    0.1510 16.5 229 
 627  0N ES        846 56.65                             142    0.0110 16.5 229 
 627  0Z  IAML     846 56.82         5.9 0.18                          16.5 229 
 628  0Z IP     D  846 53.86   16                        134    0.0810 21.9 342 
 628  0N ES        846 57.60                             134   -0.0810 21.9 342 
 628  0Z  IAML     846 57.84        14.0 0.17                          21.9 342 
 629  0Z IP     D  846 55.24   18                        123    0.22 9 31.7 182 
 629  0Z  IAML     846 59.97         1.1 0.10                          31.7 182 
 629  0E ES        847  0.04                             123    0.18 9 31.7 182 
 630  0Z IP     C  846 55.71   14                        119   -0.02 9 36.9 114 
 630  0N ES        847  0.86                             119   -0.25 9 36.9 114 
 630  0Z  IAML     847  0.98         3.0 0.19                          36.9 114 
 625  0Z IP     C  846 56.67   17                        116    0.13 9 42.6 265 
 625  0N ES        847  2.52                             116   -0.02 9 42.6 265 
 625  0Z  IAML     847  2.83         1.8 0.19                          42.6 265 
 626  0Z IP     C  846 58.73   23                        109   -0.11 9 57.9 232 
 626  0E ES        847  6.16                             109   -0.42 9 57.9 232 
 626  0Z  IAML     847  6.61         1.9 0.17                          57.9 232 

 2017  122 1614 27.6 L  71.967 128.047 10.3  BER  6 0.1 0.9LBER 0.9CBER        1
 GAP=103        0.29       0.9     2.2  3.5  0.7142E+00  0.3562E+01  0.2106E+01E
 ACTION:ARG 20-09-30 09:42 OP:mn   STATUS:               ID:20170122161342     I
 2017-01-22-1613-42M.a_____039                                                 6
 STAT SP IPHASW D HRMM SECON CODA AMPLIT PERI AZIMU VELO AIN AR TRES W  DIS CAZ7
 630  0Z IP     C 1614 30.75   14                        120   -0.0210 15.3  38 
 630  0E ES       1614 33.21                             120    0.0610 15.3  38 
 630  0Z  IAML    1614 33.46       104.3 0.12                          15.3  38 
 629  0Z IP     D 1614 32.13   30                        107   -0.1910 25.8 261 
 629  0E ES       1614 35.84                             107   -0.0310 25.8 261 
 629  0Z  IAML    1614 36.23        18.5 0.10                          25.8 261 
 627  0Z IP     C 1614 34.55   30                        100   -0.05 9 40.3 295 
 627  0N ES       1614 39.89                             100    0.00 9 40.3 295 
 627  0Z  IAML    1614 40.61        14.7 0.22                          40.3 295 
 632  0Z IP     C 1614 37.17   34                         96   -0.05 9 56.7 140 
 632  0E ES       1614 44.47                              96   -0.02 9 56.7 140 
 632  0Z  IAML    1614 44.94         8.0 0.10                          56.7 140 
 631  0Z IP     D 1614 39.26   55                         95    0.01 8 69.4 204 
 631  0E ES       1614 48.25                              95    0.17 8 69.4 204 
 631  0Z  IAML    1614 50.83         5.8 0.32                          69.4 204 
 625  0Z IP     D 1614 39.55   29                         95    0.10 8 70.5 290 
 625  0E ES       1614 48.51                              95    0.10 8 70.5 290 
 625  0Z  IAML    1614 51.05         2.4 0.27                          70.5 290 

 2017  125 2244  0.2 L  72.444 126.025 13.1  BER  6 0.1 0.8LBER 0.9CBER        1
 GAP=157        0.30       1.1     2.4  2.1 -0.1727E-01  0.3363E+00  0.1359E+01E
 ACTION:ARG 20-09-30 09:42 OP:mn   STATUS:               ID:20170125224241     I
 2017-01-25-2242-41M.a_____039                                                 6
 STAT SP IPHASW D HRMM SECON CODA AMPLIT PERI AZIMU VELO AIN AR TRES W  DIS CAZ7
 624  0Z IP     D 2244  2.91   25                        144    0.0210 9.15  67 
 624  0E ES       2244  4.95                             144    0.0210 9.15  67 
 624  0Z  IAML    2244  5.20       124.5 0.16                          9.15  67 
 622  0Z IP     C 2244  4.78   25                        115   -0.01 9 24.0 270 
 622  0E ES       2244  8.28                             115    0.02 9 24.0 270 
 622  0Z  IAML    2244  9.10        14.6 0.20                          24.0 270 
 625  0Z IP     C 2244  5.66   21                        110   -0.06 9 30.2 175 
 625  0N ES       2244  9.88                             110   -0.02 9 30.2 175 
 625  0Z  IAML    2244 10.97         6.7 0.21                          30.2 175 
 628  0Z IP     D 2244  6.90   31                        105   -0.03 9 38.1  97 
 628  0E ES       2244 11.99                             105   -0.05 9 38.1  97 
 628  0Z  IAML    2244 12.68         7.1 0.16                          38.1  97 
 626  0Z IP     C 2244 10.68   36                         99   -0.02 8 62.0 180 
 626  0N ES       2244 18.54                              99   -0.13 8 62.0 180 
 626  0Z  IAML    2244 20.43         3.8 0.33                          62.0 180 
 631  0Z IP     D 2244 20.79   35                         94    0.14 6  124 159 
 631  0N ES       2244 36.54                              94    0.36 6  124 159 
 631  0Z  IAML    2244 39.67         1.7 0.16                           124 159 

 2017  3 2 1359 59.1 L  72.683 124.890 11.5  BER  7 0.2 0.5LBER 0.5CBER        1
 GAP=211        0.49       2.4     4.8  4.4  0.1869E+01 -0.1131E+02  0.2421E+01E
 ACTION:ARG 20-12-21 03:09 OP:mn   STATUS:               ID:20170302140000     I
 2017-03-02-1400-00M.a_____039                                                 6
 STAT SP IPHASW D HRMM SECON CODA AMPLIT PERI AZIMU VELO AIN AR TRES W  DIS CAZ7
 620  0Z IP     C 14 0  2.62   12                        119   -0.1610 18.3 260 
 620  0N ES       14 0  5.48                             119   -0.0710 18.3 260 
 620  0Z  IAML    14 0  6.17        11.7 0.22                          18.3 260 
 623  0Z IP     C 14 0  7.90   23                         99    0.33 9 49.4 143 
 623  0E ES       14 0 13.91                              99   -0.07 9 49.4 143 
 623  0Z  IAML    14 0 16.05         2.6 0.31                          49.4 143 
 624  0Z IP     C 14 0  7.90   21                         99   -0.05 9 51.7 116 
 624  0N ES       14 0 14.45                              99   -0.19 9 51.7 116 
 624  0Z  IAML    14 0 14.90         4.1 0.20                          51.7 116 
 621  0Z IP     D 14 0  8.53   18                         98   -0.04 9 55.7 180 
 621  0E ES       14 0 15.65                              98   -0.09 9 55.7 180 
 621  0Z  IAML    14 0 15.67         1.7 0.16                          55.7 180 
 628  0Z IP     C 14 0 12.90   19                         95    0.12 8 81.9 112 
 628  0Z  IAML    14 0 22.84         2.9 0.36                          81.9 112 
 628  0N ES       14 0 23.10                              95   -0.05 8 81.9 112 
 626  0Z IP     D 14 0 15.66   34                         94    0.48 7 96.8 156 
 626  0N ES       14 0 27.55                              94    0.17 7 96.8 156 
 626  0Z  IAML    14 0 28.04         1.5 0.25                          96.8 156 
 631  0Z IP     C 14 0 26.12   35                         58    0.41 5  165 149 
 631  0N ES       14 0 45.20                              58   -0.70 5  165 149 
 631  0Z  IAML    14 0 47.10         2.3 0.16                           165 149 

 2017  3 4 2135  2.9 L  72.688 124.942 13.4  BER  7 0.3 1.3LBER 0.9CBER        1
 GAP=213        0.61       3.8     7.9  4.9  0.1884E+02 -0.2365E+02 -0.4721E+01E
 ACTION:ARG 20-12-21 03:09 OP:mn   STATUS:               ID:20170304213342     I
 2017-03-04-2133-42M.a_____039                                                 6
 STAT SP IPHASW D HRMM SECON CODA AMPLIT PERI AZIMU VELO AIN AR TRES W  DIS CAZ7
 620  0Z IP     C 2135  6.89   22                        121   -0.0710 20.1 260 
 620  0N ES       2135  9.93                             121   -0.1110 20.1 260 
 620  0Z  IAML    2135 10.05        86.0 0.13                          20.1 260 
 622  0Z IP     C 2135  8.63   25                        111    0.2210 30.1 155 
 622  0E ES       2135 12.74                             111    0.1510 30.1 155 
 622  0Z  IAML    2135 12.96        43.3 0.27                          30.1 155 
 623  0Z IP     D 2135 11.57   25                        102    0.26 9 48.8 145 
 623  0E ES       2135 17.74                             102    0.04 9 48.8 145 
 623  0Z  IAML    2135 18.46        11.2 0.28                          48.8 145 
 625  0Z IP     C 2135 14.52   28                         98   -0.08 8 69.5 145 
 625  0N ES       2135 23.03                              98   -0.45 8 69.5 145 
 625  0Z  IAML    2135 24.79         5.7 0.30                          69.5 145 
 628  0Z IP     D 2135 16.21   34                         97   -0.16 8 80.5 112 
 628  0E ES       2135 26.07                              97   -0.52 8 80.5 112 
 628  0Z  IAML    2135 27.53        11.0 0.31                          80.5 112 
 630  0Z IP     C 2135 25.48   35                         94    0.66 6  133 119 
 630  0E ES       2135 41.91                              94    0.43 6  133 119 
 630  0Z  IAML    2135 43.85        28.1 0.25                           133 119 
 631  0Z IP     C 2135 29.65   45                         58    0.39 5  164 150 
 631  0N ES       2135 48.84                              58   -0.44 5  164 150 
 631  0Z  IAML    2135 50.49         7.9 0.16                           164 150 

 2017  3 7 0447 21.0 L  72.694 124.924 14.2  BER 10 0.2 1.7LBER 1.4CBER        1
 GAP=216        0.48       2.7     5.2  3.1  0.7479E+01 -0.8698E+01 -0.1596E+01E
 ACTION:ARG 20-12-21 03:09 OP:mn   STATUS:               ID:20170307044601     I
 2017-03-07-0446-01M.a_____039                                                 6
 STAT SP IPHASW D HRMM SECON CODA AMPLIT PERI AZIMU VELO AIN AR TRES W  DIS CAZ7
 620  0Z IP     C  447 25.10   28                        123    0.0310 19.7 257 
 620  0N ES        447 28.18                             123    0.0310 19.7 257 
 620  0Z  IAML     447 28.45       381.6 0.12                          19.7 257 
 622  0Z IP     D  447 26.62   34                        112   -0.0710 31.0 155 
 622  0E ES        447 30.86                             112   -0.1510 31.0 155 
 622  0Z  IAML     447 31.27        70.8 0.22                          31.0 155 
 623  0Z IP     D  447 29.64   30                        103    0.05 9 49.7 145 
 623  0E ES        447 36.57                             103    0.47 9 49.7 145 
 623  0Z  IAML     447 37.13        23.8 0.25                          49.7 145 
 624  0Z IP     D  447 29.73   35                        102   -0.10 9 51.3 118 
 624  0E ES        447 36.78                             102    0.25 9 51.3 118 
 624  0Z  IAML     447 37.43        56.6 0.20                          51.3 118 
 625  0Z IP     C  447 32.96   49                         99    0.10 8 70.4 145 
 625  0N ES        447 41.46                              99   -0.41 8 70.4 145 
 625  0Z  IAML     447 42.87        11.5 0.26                          70.4 145 
 628  0Z IP     D  447 34.30   39                         97   -0.31 8 81.3 113 
 628  0E ES        447 44.74                              97   -0.21 8 81.3 113 
 628  0Z  IAML     447 45.61        24.7 0.35                          81.3 113 
 627  0Z IP     D  447 36.70   44                         96   -0.05 7 94.7 132 
 627  0N ES        447 48.67                              96   -0.04 7 94.7 132 
 627  0Z  IAML     447 48.90        10.6 0.36                          94.7 132 
 630  0Z IP     C  447 43.03   38                         94   -0.04 6  134 119 
 630  0N ES        448  0.14                              94    0.30 6  134 119 
 630  0Z  IAML     448  1.93        78.9 0.21                           134 119 
 631  0Z IP     D  447 47.59   48                         58    0.17 5  165 150 
 631  0E ES        448  7.03                              58   -0.47 5  165 150 
 631  0Z  IAML     448  9.42        22.3 0.20                           165 150 
 632  0Z IP     D  447 51.04   71                         58    0.32 4  189 129 
 632  0N ES        448 13.95                              58    0.65 4  189 129 
 632  0Z  IAML     448 14.76        14.6 0.48                           189 129 

 2017  3 7 2016 50.8 L  72.691 124.915 15.3  BER  6 0.2 1.1LBER 1.0CBER        1
 GAP=214        0.40       2.3     5.6  4.8  0.6988E+01 -0.1939E+02 -0.3214E+01E
 ACTION:ARG 20-12-21 03:09 OP:mn   STATUS:               ID:20170307201532     I
 2017-03-07-2015-32M.a_____039                                                 6
 STAT SP IPHASW D HRMM SECON CODA AMPLIT PERI AZIMU VELO AIN AR TRES W  DIS CAZ7
 620  0Z IP     D 2016 54.89   27                        126   -0.0110 19.3 258 
 620  0N ES       2016 58.01                             126   -0.0110 19.3 258 
 620  0Z  IAML    2016 58.22        65.2 0.16                          19.3 258 
 622  0Z IP     D 2016 56.37   24                        114   -0.1310 30.8 154 
 622  0E ES       2017  0.78                             114   -0.0610 30.8 154 
 622  0Z  IAML    2017  0.95        37.3 0.29                          30.8 154 
 623  0Z IP     D 2016 59.49   30                        104    0.11 9 49.6 145 
 623  0E ES       2017  6.12                             104    0.21 9 49.6 145 
 623  0Z  IAML    2017  7.13         6.9 0.23                          49.6 145 
 624  0Z IP     C 2016 59.78   34                        104    0.12 9 51.4 117 
 624  0N ES       2017  6.58                             104    0.18 9 51.4 117 
 624  0Z  IAML    2017  7.53        13.6 0.15                          51.4 117 
 628  0Z IP     D 2017  4.31   28                         98   -0.12 8 81.5 112 
 628  0E ES       2017 14.48                              98   -0.32 8 81.5 112 
 628  0Z  IAML    2017 14.92         9.4 0.24                          81.5 112 
 626  0Z IP     D 2017  7.15   41                         97    0.18 7 97.3 156 
 626  0E ES       2017 19.03                              97   -0.23 7 97.3 156 
 626  0Z  IAML    2017 19.78         3.2 0.39                          97.3 156 

 2017  3 9 1454  0.8 L  72.683 124.904 15.6  BER  6 0.1 0.3LBER 0.7CBER        1
 GAP=211        0.30       1.5     3.1  1.9  0.1456E+01 -0.3649E+01 -0.4505E+00E
 ACTION:ARG 20-12-21 03:09 OP:mn   STATUS:               ID:20170309145250     I
 2017-03-09-1452-50M.a_____039                                                 6
 STAT SP IPHASW D HRMM SECON CODA AMPLIT PERI AZIMU VELO AIN AR TRES W  DIS CAZ7
 620  0Z IP     C 1454  4.93   13                        128    0.0210 18.8 260 
 620  0N ES       1454  7.99                             128   -0.0210 18.8 260 
 620  0Z  IAML    1454  8.42        17.6 0.33                          18.8 260 
 622  0Z IP     D 1454  6.51   27                        115    0.0210 30.2 153 
 622  0E ES       1454 10.77                             115   -0.0110 30.2 153 
 622  0Z  IAML    1454 10.95         3.1 0.27                          30.2 153 
 624  0Z IP     D 1454  9.81   35                        104    0.09 9 51.3 116 
 624  0E ES       1454 16.64                             104    0.18 9 51.3 116 
 624  0Z  IAML    1454 17.03         1.7 0.11                          51.3 116 
 621  0Z IP     D 1454 10.38   25                        103   -0.02 9 55.7 181 
 621  0E ES       1454 17.66                             103   -0.01 9 55.7 181 
 621  0Z  IAML    1454 20.23         0.7 0.09                          55.7 181 
 628  0Z IP     D 1454 14.39   32                         98   -0.11 8 81.5 112 
 628  0E ES       1454 24.62                              98   -0.26 8 81.5 112 
 628  0Z  IAML    1454 25.78         1.0 0.14                          81.5 112 
 630  0Z IP     C 1454 22.92   32                         58    0.04 6  134 119 
 630  0E ES       1454 39.65                              58    0.03 6  134 119 
 630  0Z  IAML    1454 41.77         3.0 0.22                           134 119 

