 2017  418 1500 13.1 L  72.712 124.618 17.3  SLT 12 0.3 1.4LSLT 1.8CSLT        1
 GAP=237        0.76       3.1     7.8  2.5  0.3044E+01 -0.1127E+02  0.3784E+00E
 ACTION:UP  20-12-29 20:35 OP:elen STATUS:               ID:20170418150000     I
 OLDACT:REG 20-12-27 21:06 OP:elen STATUS:               ID:20170418150000     3
 2017-04-18-1500-00M.NSN___039                                                 6
 STAT SP IPHASW D HRMM SECON CODA AMPLIT PERI AZIMU VELO AIN AR TRES W  DIS CAZ7
 620  0Z IP   0   15 0 17.01   45                        142    0.0110 11.1 234 
 620  0N ES   1   15 0 20.21                             142    0.3910 11.1 234 
 620  0E  IAML    15 0 20.40        46.0 0.06                          11.1 234 
 622  0Z IP   0   15 0 20.82   62                         93   -0.0810 38.0 142 
 622  0E ES   1   15 0 26.88                              93    0.3010 38.0 142 
 622  0E  IAML    15 0 27.41        11.0 0.25                          38.0 142 
 623  0Z IP   0   15 0 23.95   64                         91   -0.0810 57.6 138 
 623  0N ES   1   15 0 32.25                              91    0.2510 57.6 138 
 623  0N  IAML    15 0 32.59        15.2 0.23                          57.6 138 
 621  0Z IP   1   15 0 23.90   61                         91   -0.3310 59.6 171 
 621  0N ES   0   15 0 32.11                              91   -0.2310 59.6 171 
 621  0N  IAML    15 0 32.91         5.1 0.16                          59.6 171 
 624  0Z IP   0   15 0 24.31   72                         91   -0.2210 61.3 115 
 624  0N ES   0   15 0 32.87                              91    0.0210 61.3 115 
 624  0E  IAML    15 0 33.70        15.7 0.13                          61.3 115 
 625  0Z IP   0   15 0 27.09   68                         90   -0.12 9 78.2 139 
 625  0E ES   0   15 0 37.66                              90    0.17 9 78.2 139 
 625  0E  IAML    15 0 42.86         5.3 0.15                          78.2 139 
 628  0Z IP   1   15 0 28.73   62                         90   -0.31 8 91.5 111 
 628  0N ES   0   15 0 40.56                              90   -0.10 8 91.5 111 
 628  0N  IAML    15 0 42.58         9.3 0.32                          91.5 111 
 626  0N ES   2   15 0 43.79                              62   -0.50 8  104 152 
 627  0Z IP   1   15 0 30.88   70                         62   -0.34 8  104 129 
 626  0Z IP   2   15 0 30.64   66                         62   -0.50 8  104 152 
 626  0E  IAML    15 0 46.76        15.3 0.29                           104 152 
 627  0N ES   0   15 0 44.21                              62   -0.22 8  104 129 
 627  0E  IAML    15 0 46.27         8.7 0.18                           104 129 
 629  0Z IP   0   15 0 34.49   63                         56    0.14 7  126 132 
 629  0N ES   2   15 0 50.51                              56    0.66 7  126 132 
 629  0E  IAML    15 0 51.67        10.5 0.26                           126 132 
 630  0Z IP   1   15 0 36.66   69                         45    0.32 6  144 118 
 630  0E ES   3   15 0 54.25                              45    0.97 6  144 118 
 630  0E  IAML    15 0 55.69        10.5 0.13                           144 118 
 631  0Z IP   0   15 0 40.10   68                         45    0.19 5  172 147 
 631  0N ES   2   15 1  0.17                              45    0.72 5  172 147 
 631  0E  IAML    15 1  2.92         5.5 0.22                           172 147 
                                                                                
 2017  420 1302 35.4 L  72.624 128.981 14.3  SLT 11 0.5 1.1LSLT 1.5CSLT        1
 GAP=298        1.02       4.3    16.2  6.5  0.2182E+02  0.3884E+02  0.3726E+01E
 ACTION:UP  20-12-30 20:06 OP:elen STATUS:               ID:20170420130148     I
 OLDACT:REG 20-12-27 21:23 OP:elen STATUS:               ID:20170420130148     3
 2017-04-20-1301-48M.NSN___039                                                 6
 STAT SP IPHASW D HRMM SECON CODA AMPLIT PERI AZIMU VELO AIN AR TRES W  DIS CAZ7
 630  0Z IP   0   13 2 47.72   48                         68    0.1410 65.2 200 
 630  0E ES   1   13 2 56.70                              68    0.2610 65.2 200 
 630  0E  IAML    13 2 57.62         4.2 0.12                          65.2 200 
 628  0Z IP   2   13 2 48.04   43                         68    0.5110 66.4 249 
 628  0N ES   3   13 2 57.25                              68    0.9010 66.4 249 
 628  0N  IAML    13 2 59.12         8.4 0.12                          66.4 249 
 627  0Z IP   0   13 2 51.30   41                         68    0.04 9 88.2 231 
 627  0N ES   0   13 3  2.84                              68    0.04 9 88.2 231 
 627  0N  IAML    13 3  3.72         3.6 0.20                          88.2 231 
 624  0Z IP   0   13 2 51.72   56                         68   -0.23 9 92.1 261 
 624  0N ES   1   13 3  3.60                              68   -0.41 9 92.1 261 
 624  0E  IAML    13 3  6.29        11.1 0.17                          92.1 261 
 629  0Z IP   1   13 2 52.13   45                         68   -0.47 9 96.1 217 
 629  0N ES   3   13 3  4.30                              68   -0.83 9 96.1 217 
 629  0N  IAML    13 3  7.12         1.6 0.12                          96.1 217 
 625  0Z IP   0   13 2 54.58   56                         54   -0.07 8  109 244 
 625  0N ES   0   13 3  8.54                              54   -0.12 8  109 244 
 625  0N  IAML    13 3 12.64         2.7 0.28                           109 244 
 623  0Z IP   1   13 2 54.92   53                         54   -0.41 8  113 254 
 623  0N ES   2   13 3  9.14                              54   -0.71 8  113 254 
 623  0N  IAML    13 3 13.97         1.9 0.31                           113 254 
 622  0Z IP   1   13 2 56.57   62                         50   -0.27 7  125 262 
 622  0E ES   1   13 3 11.98                              50   -0.48 7  125 262 
 622  0N  IAML    13 3 16.58         2.0 0.17                           125 262 
 626  0Z IP   0   13 2 57.46   55                         50    0.20 7  130 232 
 626  0N ES   1   13 3 13.50                              50    0.32 7  130 232 
 626  0N  IAML    13 3 15.11         3.2 0.16                           130 232 
 621  0Z IP   2   13 3  0.04   50                         41    0.66 7  147 252 
 621  0N ES   4   13 3 17.92                              41    1.07 7  147 252 
 621  0N  IAML    13 3 19.43         3.5 0.20                           147 252 
 631  0Z IP   0   13 2 59.88   53                         41   -0.12 6  149 204 
 631  0N ES   1   13 3 17.65                              41   -0.27 6  149 204 
 631  0E  IAML    13 3 18.76         4.9 0.32                           149 204 
                                                                                
 2017  423 1455 44.1 L  72.805 124.617 12.2  SLT  8 0.3 0.6LSLT 1.3CSLT        1
 GAP=269        0.58       2.7     6.3  2.6 -0.1154E+00 -0.8432E+01 -0.2331E+01E
 ACTION:UP  20-12-31 12:43 OP:elen STATUS:               ID:20170423145418     I
 OLDACT:REG 20-12-30 23:54 OP:elen STATUS:               ID:20170423145418     3
 2017-04-23-1454-18M.NSN___036                                                 6
 STAT SP IPHASW D HRMM SECON CODA AMPLIT PERI AZIMU VELO AIN AR TRES W  DIS CAZ7
 620  0Z IP   0   1455 48.50   35                        115    0.0210 19.1 208 
 620  0N ES   1   1455 51.91                             115    0.2510 19.1 208 
 620  0N  IAML    1455 52.17         7.5 0.26                          19.1 208 
 622  0Z IP   0   1455 53.26   37                         94    0.0410 46.7 150 
 622  0N ES   1   1456  0.15                              94    0.2910 46.7 150 
 622  0N  IAML    1456  0.80         2.6 0.14                          46.7 150 
 623  0Z IP   0   1455 56.38   39                         92   -0.13 9 65.7 144 
 623  0N ES   0   1456  5.47                              92   -0.08 9 65.7 144 
 623  0N  IAML    1456  7.34         2.3 0.20                          65.7 144 
 624  0Z IP   0   1455 56.49   45                         92   -0.03 9 66.3 123 
 624  0N ES   0   1456  5.67                              92    0.10 9 66.3 123 
 624  0N  IAML    1456  7.60         2.5 0.13                          66.3 123 
 621  0Z IP   1   1455 56.84   32                         92   -0.27 9 69.9 172 
 621  0E  IAML    1456  6.32         1.9 0.18                          69.9 172 
 621  0N ES   1   1456  6.34                              92   -0.25 9 69.9 172 
 628  0Z IP   0   1456  0.83   54                         68   -0.22 8 95.8 117 
 628  0N ES   0   1456 13.28                              68   -0.12 8 95.8 117 
 628  0E  IAML    1456 14.87         2.2 0.23                          95.8 117 
 626  0Z IP   1   1456  3.70   45                         54   -0.26 7  113 154 
 626  0N ES   0   1456 18.27                              54   -0.16 7  113 154 
 626  0E  IAML    1456 18.75         1.2 0.25                           113 154 
 630  0Z IP   1   1456  8.91   56                         41    0.33 6  149 121 
 630  0N ES   3   1456 27.27                              41    0.83 6  149 121 
 630  0E  IAML    1456 28.26         3.0 0.26                           149 121 
                                                                                
 2017  423 2313 41.5 L  72.586 124.903 18.3  SLT 12 0.3 1.5LSLT 2.1CSLT        1
 GAP=172        0.77       2.2     5.9  2.5  0.4752E+01 -0.5026E+01  0.3629E+00E
 ACTION:UP  21-01-01 14:08 OP:elen STATUS:               ID:20170423231216     I
 OLDACT:REG 20-12-30 23:59 OP:elen STATUS:               ID:20170423231216     3
 2017-04-23-2312-16M.NSN___036                                                 6
 STAT SP IPHASW D HRMM SECON CODA AMPLIT PERI AZIMU VELO AIN AR TRES W  DIS CAZ7
 620  0Z IP   0   2313 46.48   80                        124   -0.0310 20.0 293 
 620  0N ES   0   2313 50.18                             124   -0.0010 20.0 293 
 620  0E  IAML    2313 50.37        79.3 0.10                          20.0 293 
 622  0Z IP   1   2313 47.05   83                        122    0.3210 21.1 139 
 622  0N ES   2   2313 51.23                             122    0.6610 21.1 139 
 622  0N  IAML    2313 52.56        48.0 0.16                          21.1 139 
 623  0Z IP   0   2313 49.73   80                         98    0.0110 40.9 135 
 623  0N ES   0   2313 55.88                              98    0.1410 40.9 135 
 623  0E  IAML    2313 56.62        82.7 0.25                          40.9 135 
 621  0Z IP   0   2313 50.11   78                         96   -0.1110 44.8 181 
 621  0N ES   0   2313 56.52                              96   -0.0910 44.8 181 
 621  0E  IAML    2313 56.54        16.1 0.14                          44.8 181 
 624  0Z IP   0   2313 50.63   84                         95   -0.0610 47.6 104 
 624  0N ES   0   2313 57.40                              95   -0.0210 47.6 104 
 624  0E  IAML    2313 58.06        49.5 0.19                          47.6 104 
 625  0Z IP   0   2313 52.86   87                         93   -0.0110 61.4 138 
 625  0E ES   0   2314  1.25                              93    0.0710 61.4 138 
 625  0N  IAML    2314  3.61         7.8 0.27                          61.4 138 
 628  0Z IP   1   2313 54.98   89                         92   -0.28 9 78.2 104 
 628  0N ES   1   2314  4.93                              92   -0.40 9 78.2 104 
 628  0N  IAML    2314  6.54        12.5 0.19                          78.2 104 
 626  0Z IP   1   2313 56.45   85                         91   -0.38 9 86.9 153 
 626  0N ES   2   2314  7.49                              91   -0.54 9 86.9 153 
 626  0E  IAML    2314  8.44        13.9 0.16                          86.9 153 
 627  0Z IP   0   2313 56.83   83                         91   -0.20 8 87.7 126 
 627  0E ES   0   2314  8.15                              91   -0.24 8 87.7 126 
 627  0E  IAML    2314  9.54         4.7 0.16                          87.7 126 
 629  0Z IP   0   2314  0.22   88                         56   -0.22 8  110 131 
 629  0N ES   1   2314 14.02                              56   -0.27 8  110 131 
 629  0E  IAML    2314 16.94         4.7 0.22                           110 131 
 630  0Z IP   1   2314  3.25   84                         50    0.37 7  129 115 
 630  0N ES   3   2314 19.30                              50    0.80 7  129 115 
 630  0E  IAML    2314 20.72         6.7 0.13                           129 115 
 631  0Z IP   1   2314  6.59   87                         45    0.38 6  155 147 
 631  0N ES   3   2314 25.05                              45    0.78 6  155 147 
 631  0E  IAML    2314 26.89        13.4 0.18                           155 147 
                                                                                
 2017  425 0652 22.2 L  71.952 128.026 10.2  SLT  9 0.4 1.4LSLT 1.8CSLT        1
 GAP=167        0.89       1.8     7.1  2.6 -0.2219E+01  0.1010E+02 -0.3724E+00E
 ACTION:UP  21-01-02 01:38 OP:elen STATUS:               ID:20170425065114     I
 OLDACT:REG 20-12-31 19:06 OP:elen STATUS:               ID:20170425065114     3
 2017-04-25-0651-14M.NSN___027                                                 6
 STAT SP IPHASW D HRMM SECON CODA AMPLIT PERI AZIMU VELO AIN AR TRES W  DIS CAZ7
 630  0Z IP   0    652 26.18   85                        121    0.1410 17.2  37 
 630  0E ES   0    652 28.80                             121   -0.0310 17.2  37 
 630  0E  IAML     652 29.11       220.3 0.20                          17.2  37 
 629  0Z IP   0    652 27.55   63                        112    0.1310 24.8 264 
 629  0N ES   0    652 31.16                             112   -0.0410 24.8 264 
 629  0E  IAML     652 31.82        95.0 0.25                          24.8 264 
 627  0Z IP   0    652 30.04   64                         66   -0.0310 40.4 298 
 627  0N ES   1    652 35.52                              66   -0.2810 40.4 298 
 627  0E  IAML     652 38.27        30.9 0.53                          40.4 298 
 628  0Z IP   0    652 32.83   74                         66   -0.1010 58.3 329 
 628  0N ES   1    652 40.31                              66   -0.4310 58.3 329 
 628  0N  IAML     652 47.06        11.6 0.14                          58.3 329 
 631  0Z IP   0    652 35.05   90                         66   -0.07 9 67.5 204 
 631  0N ES   1    652 44.17                              66   -0.37 9 67.5 204 
 631  0N  IAML     652 44.52        10.0 0.33                          67.5 204 
 625  0Z IP   0    652 35.26   67                         66   -0.06 9 70.5 291 
 625  0N ES   1    652 44.57                              66   -0.31 9 70.5 291 
 625  0N  IAML     652 48.33         6.8 0.40                          70.5 291 
 624  0Z IP   0    652 37.49   63                         66   -0.12 9 83.6 315 
 624  0N ES   1    652 48.42                              66   -0.43 9 83.6 315 
 624  0N  IAML     652 50.56        18.4 0.21                          83.6 315 
 623  0Z IP   2    652 39.13   64                         58    0.67 8 88.1 299 
 623  0E ES   3    652 51.26                              58    0.95 8 88.1 299 
 623  0N  IAML     652 57.27         5.5 0.26                          88.1 299 
 621  0Z IP   1    652 42.42   59                         58    0.43 8  111 285 
 621  0N ES   2    652 56.94                              58    0.52 8  111 285 
 621  0E  IAML     653  0.65         5.5 0.17                           111 285 
                                                                                
 2017  426 0051 22.7 L  71.974 127.987  9.9  SLT  6 0.1 0.8LSLT 1.3CSLT        1
 GAP=212        0.37       2.3     5.0  2.1 -0.9215E+01  0.9136E+01 -0.4011E+01E
 ACTION:UP  21-01-02 02:12 OP:elen STATUS:               ID:20170426005020     I
 OLDACT:REG 20-12-31 20:00 OP:elen STATUS:               ID:20170426005020     3
 2017-04-26-0050-20M.NSN___024                                                 6
 STAT SP IPHASW D HRMM SECON CODA AMPLIT PERI AZIMU VELO AIN AR TRES W  DIS CAZ7
 630  0Z IP   0    051 26.31   61                        121   -0.0010 16.2  46 
 630  0N ES   0    051 28.86                             121   -0.1010 16.2  46 
 630  0E  IAML     051 29.11        42.2 0.12                          16.2  46 
 629  0Z IP   0    051 27.74   39                        112    0.0610 23.8 258 
 629  0N ES   0    051 31.32                             112   -0.0110 23.8 258 
 629  0N  IAML     051 31.60        14.4 0.16                          23.8 258 
 627  0Z IP   0    051 30.25   40                         66    0.0910 38.1 295 
 627  0N ES   0    051 35.67                              66    0.0510 38.1 295 
 627  0N  IAML     051 37.67         5.0 0.29                          38.1 295 
 628  0Z IP   0    051 33.09   50                         66    0.1710 55.5 329 
 628  0E ES   0    051 40.58                              66    0.1810 55.5 329 
 628  0E  IAML     051 42.07         5.1 0.19                          55.5 329 
 625  0Z IP   0    051 35.39   44                         66   -0.04 9 68.4 290 
 625  0N ES   0    051 44.54                              66   -0.20 9 68.4 290 
 625  0E  IAML     051 46.78         1.4 0.60                          68.4 290 
 624  0Z IP   0    051 37.58   39                         66   -0.05 9 80.9 315 
 624  0N ES   0    051 48.33                              66   -0.22 9 80.9 315 
 624  0E  IAML     051 50.50         4.2 0.26                          80.9 315 
                                                                                
 2017  426 1425 20.5 L  72.075 127.247 22.3  SLT  6 0.3 0.3LSLT 0.6CSLT        1
 GAP=114        0.72       2.2     5.5  3.8  0.4770E+01 -0.3296E+01 -0.4038E+01E
 ACTION:UP  21-01-02 19:21 OP:elen STATUS:               ID:20170426142409     I
 OLDACT:REG 21-01-02 11:34 OP:elen STATUS:               ID:20170426142409     3
 2017-04-26-1424-09M.NSN___024                                                 6
 STAT SP IPHASW D HRMM SECON CODA AMPLIT PERI AZIMU VELO AIN AR TRES W  DIS CAZ7
 627  0Z IP   1   1425 25.19   24                        153    0.3110 10.3 298 
 627  0N ES   0   1425 28.15                             153    0.0610 10.3 298 
 627  0N  IAML    1425 28.30         9.4 0.08                          10.3 298 
 629  0Z IP   0   1425 25.70   24                        139    0.1810 16.4 172 
 629  0N ES   0   1425 29.01                             139   -0.1810 16.4 172 
 629  0E  IAML    1425 29.36         1.7 0.10                          16.4 172 
 628  0Z IP   1   1425 28.19   21                        113    0.3710 36.5 355 
 628  0N ES   0   1425 33.32                             113    0.1510 36.5 355 
 628  0N  IAML    1425 33.55         1.7 0.10                          36.5 355 
 630  0Z IP   0   1425 28.22   24                        112    0.0710 37.0  89 
 630  0N ES   1   1425 33.37                             112   -0.3710 37.0  89 
 630  0N  IAML    1425 33.67         4.8 0.16                          37.0  89 
 625  0Z IP   0   1425 28.87   22                        109    0.1410 40.6 286 
 625  0N ES   1   1425 34.49                             109   -0.2510 40.6 286 
 625  0N  IAML    1425 35.27         1.7 0.23                          40.6 286 
 624  0Z IP   0   1425 31.08   24                        102    0.0010 55.7 324 
 624  0N ES   2   1425 38.30                             102   -0.5110 55.7 324 
 624  0E  IAML    1425 38.99         1.1 0.28                          55.7 324 
                                                                                
