 2017  323 1612 49.7 L  72.453 125.112  8.3  BER  6 0.1 0.5LBER 0.7CBER        1
 GAP=134        0.31       0.9     2.3  1.8  0.4060E+00  0.7866E+00 -0.1659E-02E
 ACTION:ARG 20-12-21 03:09 OP:mn   STATUS:               ID:20170323161125     I
 2017-03-23-1611-25M.a_____039                                                 6
 STAT SP IPHASW D HRMM SECON CODA AMPLIT PERI AZIMU VELO AIN AR TRES W  DIS CAZ7
 622  0Z IP     C 1612 51.41   22                        137   -0.1410 6.88 100 
 622  0E ES       1612 52.97                             137    0.0210 6.88 100 
 622  0Z  IAML    1612 53.39        63.5 0.21                          6.88 100 
 623  0Z IP     D 1612 54.32   36                        101   -0.02 9 26.1 123 
 623  0E ES       1612 58.05                             101    0.18 9 26.1 123 
 623  0Z  IAML    1612 59.14         5.2 0.24                          26.1 123 
 621  0Z IP     D 1612 55.02   23                         99   -0.10 9 30.9 194 
 621  0E ES       1612 59.28                              99    0.04 9 30.9 194 
 621  0Z  IAML    1613  1.01         3.2 0.17                          30.9 194 
 620  0Z IP     D 1612 55.59   21                         98   -0.02 9 34.0 312 
 620  0N ES       1613  0.20                              98    0.10 9 34.0 312 
 620  0Z  IAML    1613  1.52         5.5 0.15                          34.0 312 
 624  0Z IP     D 1612 56.50   21                         96    0.06 9 39.2  86 
 624  0N ES       1613  1.64                              96    0.08 9 39.2  86 
 624  0Z  IAML    1613  2.27         5.5 0.14                          39.2  86 
 628  0Z IP     C 1613  1.10   26                         93   -0.10 8 68.8  94 
 628  0N ES       1613  9.81                              93   -0.14 8 68.8  94 
 628  0Z  IAML    1613 11.19         2.5 0.25                          68.8  94 

 2017  326 0836 34.1 L  71.993 127.676 16.1  BER  7 0.1 1.5LBER 0.9CBER        1
 GAP=127        0.35       1.0     2.3  2.2  0.3496E+00 -0.2820E-01  0.4866E+00E
 ACTION:ARG 20-12-21 03:09 OP:mn   STATUS:               ID:20170326083527     I
 2017-03-26-0835-27M.a_____039                                                 6
 STAT SP IPHASW D HRMM SECON CODA AMPLIT PERI AZIMU VELO AIN AR TRES W  DIS CAZ7
 629  0Z IP     C  836 37.77   15                        137    0.0810 14.4 240 
 629  0N ES        836 40.52                             137    0.0910 14.4 240 
 629  0Z  IAML     836 40.82       360.6 0.20                          14.4 240 
 630  0Z IP     D  836 38.91   22                        122    0.0010 24.1  67 
 630  0E ES        836 42.54                             122   -0.0410 24.1  67 
 630  0Z  IAML     836 43.12       190.9 0.17                          24.1  67 
 627  0Z IP     C  836 39.40   35                        118    0.0110 27.6 300 
 627  0N ES        836 43.30                             118   -0.1310 27.6 300 
 627  0Z  IAML     836 43.48        88.3 0.34                          27.6 300 
 625  0Z IP     D  836 44.17   34                        103    0.22 8 57.5 291 
 625  0E ES        836 51.55                             103    0.09 8 57.5 291 
 625  0Z  IAML     836 51.71        10.9 0.18                          57.5 291 
 626  0Z IP     D  836 43.96   29                        103   -0.06 8 58.0 259 
 626  0N ES        836 51.25                             103   -0.32 8 58.0 259 
 626  0Z  IAML     836 51.63        35.8 0.21                          58.0 259 
 632  0Z IP     D  836 45.56   41                        101    0.03 8 67.6 133 
 632  0E ES        836 54.09                             101   -0.15 8 67.6 133 
 632  0Z  IAML     836 55.46        17.7 0.12                          67.6 133 
 631  0Z IP     D  836 45.76   37                        101    0.16 8 68.0 193 
 631  0E ES        836 54.35                             101   -0.01 8 68.0 193 
 631  0Z  IAML     836 54.70        21.7 0.11                          68.0 193 

 2017  4 2 0422  1.0 L  72.722 125.690 21.9  BER 10 0.3 1.2LBER 1.8CBER        1
 GAP=225        0.62       2.8     5.7  2.6  0.5114E+01 -0.6218E+01 -0.1958E+01E
 ACTION:UP  20-12-20 22:46 OP:elen STATUS:               ID:20170402042039     I
 OLDACT:UP  20-12-20 00:44 OP:elen STATUS:               ID:20170402042039     3
 OLDACT:UP  20-12-16 20:09 OP:elen STATUS:               ID:20170402042039     3
 OLDACT:UP  20-12-16 14:06 OP:elen STATUS:               ID:20170402042039     3
 OLDACT:REG 20-12-12 10:59 OP:elen STATUS:               ID:20170402042039     3
 2017-04-02-0420-39M.NSN___039                                                 6
 STAT SP IPHASW D HRMM SECON CODA AMPLIT PERI AZIMU VELO AIN AR TRES W  DIS CAZ7
 622  0Z IP        422  7.79   47                        121    0.1310 33.7 202 
 622  0N ES        422 12.79                             121    0.0910 33.7 202 
 624  0Z IP        422  7.79   50                        121    0.1310 33.7 144 
 624  0N ES        422 12.83                             121    0.1310 33.7 144 
 624  0N  IAML     422 13.96        16.4 0.13                          33.7 144 
 622  0N  IAML     422 13.69        13.8 0.15                          33.7 202 
 623  0Z IP        422  9.41   48                        115    0.2410 44.3 177 
 623  0N ES        422 15.58                             115    0.2310 44.3 177 
 623  0E  IAML     422 17.17         7.4 0.15                          44.3 177 
 620  0Z IP        422  9.30   52                        114   -0.0210 45.3 261 
 620  0N ES        422 15.36                             114   -0.2510 45.3 261 
 620  0N  IAML     422 15.71        31.6 0.15                          45.3 261 
 628  0Z IP        422 11.53   56                        108   -0.09 9 60.6 126 
 628  0N ES        422 19.37                             108   -0.30 9 60.6 126 
 628  0N  IAML     422 19.92        27.0 0.25                          60.6 126 
 621  0Z IP        422 12.50   48                        106    0.07 9 65.8 205 
 621  0N ES        422 20.98                             106   -0.12 9 65.8 205 
 621  0E  IAML     422 21.82         5.2 0.18                          65.8 205 
 626  0Z IP        422 16.65   47                        101   -0.17 8 93.8 173 
 626  0N ES        422 28.16                             101   -0.66 8 93.8 173 
 626  0E  IAML     422 28.49         3.2 0.21                          93.8 173 
 630  0Z IP        422 19.71   62                         58   -0.15 7  115 128 
 630  0N ES        422 33.47                              58   -0.69 7  115 128 
 630  0E  IAML     422 34.42         8.4 0.10                           115 128 
 631  0Z IP        422 26.15   76                         58    0.48 5  157 159 
 631  0N ES        422 44.66                              58    0.26 5  157 159 
 631  0E  IAML     422 45.70         6.6 0.23                           157 159 
 632  0Z IP        422 28.64   56                         58    0.83 5  173 136 
 632  0N ES        422 49.00                              58    0.84 5  173 136 
 632  0E  IAML     422 50.12         7.9 0.31                           173 136 

 2017  4 2 0636 37.2 L  72.731 125.693 23.5  BER  6 0.2 0.7LBER 1.0CBER        1
 GAP=227        0.50       3.3     5.7  3.1  0.1027E+02 -0.9330E+01 -0.5335E+01E
 ACTION:UP  20-12-20 23:02 OP:elen STATUS:               ID:20170402063515     I
 OLDACT:UP  20-12-20 01:04 OP:elen STATUS:               ID:20170402063515     3
 OLDACT:UP  20-12-16 20:09 OP:elen STATUS:               ID:20170402063515     3
 OLDACT:UP  20-12-16 14:40 OP:elen STATUS:               ID:20170402063515     3
 OLDACT:REG 20-12-13 12:49 OP:elen STATUS:               ID:20170402063515     3
 2017-04-02-0635-15M.NSN___039                                                 6
 STAT SP IPHASW D HRMM SECON CODA AMPLIT PERI AZIMU VELO AIN AR TRES W  DIS CAZ7
 624  0Z IP        636 44.24   35                        123    0.1910 34.5 145 
 624  0N ES        636 49.26                             123   -0.0110 34.5 145 
 624  0N  IAML     636 50.35         4.8 0.12                          34.5 145 
 622  0Z IP        636 44.23   26                        123    0.1510 34.7 202 
 622  0N ES        636 49.17                             123   -0.1510 34.7 202 
 622  0N  IAML     636 49.75         5.2 0.13                          34.7 202 
 623  0Z IP        636 45.86   32                        116    0.2810 45.3 177 
 623  0N ES        636 52.09                             116    0.1410 45.3 177 
 623  0N  IAML     636 53.45         1.8 0.12                          45.3 177 
 620  0Z IP        636 45.67   27                        116    0.0510 45.5 260 
 620  0N ES        636 51.73                             116   -0.2910 45.5 260 
 620  0E  IAML     636 52.00        13.3 0.19                          45.5 260 
 628  0Z IP        636 48.00   37                        109    0.07 9 61.1 127 
 628  0N ES        636 55.72                             109   -0.38 9 61.1 127 
 628  0N  IAML     636 56.52         6.7 0.26                          61.1 127 
 630  0Z IP        636 56.14   36                         58    0.19 7  115 128 
 630  0N ES        637  9.86                              58   -0.35 7  115 128 
 630  0E  IAML     637 10.75         2.9 0.16                           115 128 

 2017  4 4 2347 35.7 L  72.758 124.389 22.6  BER  6 0.1 0.5LBER 0.7CBER        1
 GAP=289        0.35       2.3     5.9  1.5  0.2595E+01 -0.3336E+01  0.2031E+00E
 ACTION:UP  20-12-20 23:43 OP:elen STATUS:               ID:20170404234610     I
 OLDACT:UP  20-12-20 01:25 OP:elen STATUS:               ID:20170404234610     3
 OLDACT:UP  20-12-16 20:10 OP:elen STATUS:               ID:20170404234610     3
 OLDACT:UP  20-12-16 20:08 OP:elen STATUS:               ID:20170404234610     3
 OLDACT:UP  20-12-16 17:32 OP:elen STATUS:               ID:20170404234610     3
 OLDACT:REG 20-12-13 13:04 OP:elen STATUS:               ID:20170404234610     3
 2017-04-04-2346-10M.NSN___039                                                 6
 STAT SP IPHASW D HRMM SECON CODA AMPLIT PERI AZIMU VELO AIN AR TRES W  DIS CAZ7
 620  0Z IP       2347 39.84   19                        152   -0.0210 11.7 187 
 620  0N ES       2347 43.11                             152    0.0610 11.7 187 
 620  0E  IAML    2347 43.29         8.1 0.10                          11.7 187 
 622  0Z IP       2347 44.09   31                        114   -0.13 9 46.8 138 
 622  0N ES       2347 50.57                             114   -0.16 9 46.8 138 
 622  0E  IAML    2347 51.34         2.7 0.22                          46.8 138 
 621  0Z IP       2347 47.09   25                        107   -0.07 8 66.2 165 
 621  0N ES       2347 55.83                             107   -0.06 8 66.2 165 
 621  0E  IAML    2347 56.45         3.1 0.20                          66.2 165 
 623  0Z IP       2347 47.36   23                        107    0.15 8 66.6 136 
 623  0N ES       2347 56.30                             107    0.31 8 66.6 136 
 623  0N  IAML    2347 56.80         2.3 0.16                          66.6 136 
 624  0Z IP       2347 47.77   28                        106   -0.02 8 70.3 116 
 624  0N ES       2347 56.93                             106   -0.08 8 70.3 116 
 624  0E  IAML    2347 57.42         2.4 0.21                          70.3 116 
 626  0Z IP       2347 54.21                              58    0.13 7  112 149 
 626  0N ES       2348  8.02                              58   -0.05 7  112 149 
 626  0E  IAML    2348  8.57         1.1 0.21                           112 149 

 2017  4 5 0307 36.1 L  71.684 128.950 14.9  BER 11 0.2 1.0LBER 1.8CBER        1
 GAP=187        0.38       1.1     5.0  2.1  0.1579E+01  0.5184E+01 -0.7574E+00E
 ACTION:UP  20-12-21 00:10 OP:elen STATUS:               ID:20170405030618     I
 OLDACT:UP  20-12-20 01:44 OP:elen STATUS:               ID:20170405030618     3
 OLDACT:UP  20-12-16 21:32 OP:elen STATUS:               ID:20170405030618     3
 OLDACT:REG 20-12-13 13:11 OP:elen STATUS:               ID:20170405030618     3
 2017-04-05-0306-18M.NSN___039                                                 6
 STAT SP IPHASW D HRMM SECON CODA AMPLIT PERI AZIMU VELO AIN AR TRES W  DIS CAZ7
 632  0Z IP        3 7 39.22   48                        137   -0.1810 13.0 161 
 632  0N ES        3 7 42.07                             137    0.1610 13.0 161 
 632  0N  IAML     3 7 42.69        27.1 0.05                          13.0 161 
 630  0Z IP        3 7 44.47   65                        104   -0.08 9 48.8 334 
 630  0N ES        3 7 50.96                             104   -0.01 9 48.8 334 
 630  0E  IAML     3 7 51.40         6.5 0.12                          48.8 334 
 629  0Z IP        3 7 46.88   48                        100    0.04 8 63.3 296 
 629  0N ES        3 7 55.19                             100    0.18 8 63.3 296 
 629  0E  IAML     3 7 56.96         2.5 0.13                          63.3 296 
 631  0Z IP        3 7 47.53   58                        100   -0.07 8 68.1 243 
 631  0N ES        3 7 56.26                             100   -0.08 8 68.1 243 
 631  0N  IAML     3 7 56.72         6.8 0.14                          68.1 243 
 627  0Z IP        3 7 50.25   43                         98    0.16 8 83.6 306 
 627  0N ES        3 8  1.00                              98    0.29 8 83.6 306 
 627  0E  IAML     3 8  1.36         3.5 0.22                          83.6 306 
 628  0Z IP        3 7 52.64   55                         96   -0.26 7  101 323 
 628  0N ES        3 8  5.23                              96   -0.43 7  101 323 
 628  0E  IAML     3 8  7.84         6.4 0.21                           101 323 
 626  0Z IP        3 7 53.31   55                         96   -0.07 7  104 284 
 626  0N ES        3 8  6.21                              96   -0.30 7  104 284 
 626  0E  IAML     3 8  9.71         7.5 0.24                           104 284 
 624  0Z IP        3 7 57.38   55                         95    0.26 6  128 315 
 624  0N ES        3 8 13.29                              95    0.20 6  128 315 
 624  0N  IAML     3 8 15.76         6.6 0.19                           128 315 
 623  0Z IP        3 7 57.86   54                         95    0.13 6  131 305 
 623  0N ES        3 8 14.04                              95   -0.13 6  131 305 
 623  0E  IAML     3 8 17.30         2.9 0.24                           131 305 
 621  0Z IP        3 8  0.75   54                         58    0.20 5  151 294 
 621  0N ES        3 8 19.13                              58   -0.01 5  151 294 
 621  0E  IAML     3 8 21.93         2.3 0.14                           151 294 
 622  0Z IP        3 8  0.73   57                         58    0.22 5  151 306 
 622  0N ES        3 8 19.09                              58    0.03 5  151 306 
 622  0N  IAML     3 8 21.09         5.1 0.20                           151 306 

 2017  4 5 0307 36.1 L  71.681 128.957 15.3  BER 10 0.2 1.0LBER 2.0CBER        1
 GAP=198        0.41       1.5     5.8  2.4  0.3283E+01  0.5423E+01 -0.1463E+01E
 ACTION:UP  20-12-21 00:33 OP:elen STATUS:               ID:20170405030650     I
 OLDACT:UP  20-12-20 02:02 OP:elen STATUS:               ID:20170405030650     3
 OLDACT:UP  20-12-16 23:26 OP:elen STATUS:               ID:20170405030650     3
 OLDACT:REG 20-12-13 13:16 OP:elen STATUS:               ID:20170405030650     3
 2017-04-05-0306-50M.NSN___039                                                 6
 STAT SP IPHASW D HRMM SECON CODA AMPLIT PERI AZIMU VELO AIN AR TRES W  DIS CAZ7
 632  0Z IP        3 7 39.21   74                        139   -0.1710 12.6 161 
 632  0N ES        3 7 42.08                             139    0.1810 12.6 161 
 632  0N  IAML     3 7 42.69        26.9 0.04                          12.6 161 
 629  0Z IP        3 7 46.83   63                        101   -0.05 8 63.6 297 
 629  0N ES        3 7 55.19                             101    0.10 8 63.6 297 
 629  0E  IAML     3 7 56.96         2.5 0.14                          63.6 297 
 631  0Z IP        3 7 47.53   78                        100   -0.07 8 68.2 243 
 631  0N ES        3 7 56.25                             100   -0.11 8 68.2 243 
 631  0N  IAML     3 7 56.72         6.9 0.15                          68.2 243 
 627  0Z IP        3 7 50.24   59                         98    0.12 8 84.0 306 
 627  0N ES        3 8  1.01                              98    0.21 8 84.0 306 
 627  0E  IAML     3 8  1.36         3.5 0.22                          84.0 306 
 628  0Z IP        3 7 52.64   64                         96   -0.29 7  102 323 
 628  0N ES        3 8  5.21                              96   -0.53 7  102 323 
 628  0E  IAML     3 8  7.84         6.3 0.23                           102 323 
 626  0Z IP        3 7 53.30   55                         96   -0.11 7  105 284 
 626  0N ES        3 8  6.38                              96   -0.20 7  105 284 
 626  0E  IAML     3 8  9.71         7.4 0.23                           105 284 
 624  0Z IP        3 7 57.28   56                         95    0.13 6  128 315 
 624  0N ES        3 8 13.30                              95    0.12 6  128 315 
 624  0N  IAML     3 8 15.76         6.6 0.21                           128 315 
 623  0Z IP        3 7 58.00   61                         95    0.24 6  132 305 
 623  0N ES        3 8 14.60                              95    0.35 6  132 305 
 623  0E  IAML     3 8 17.30         3.0 0.25                           132 305 
 622  0Z IP        3 8  0.73   76                         58    0.23 5  151 306 
 622  0N ES        3 8 19.30                              58    0.24 5  151 306 
 622  0N  IAML     3 8 21.09         5.1 0.19                           151 306 
 621  0Z IP        3 8  0.61   76                         58    0.08 5  152 294 
 621  0N ES        3 8 19.05                              58   -0.08 5  152 294 
 621  0E  IAML     3 8 21.93         2.4 0.14                           152 294 

