 2017  311 0430 55.4 L  72.313 126.509 24.5  BER  6 0.1 0.3LBER 0.3CBER        1
 GAP=134        0.33       1.1     3.2  2.2 -0.1112E+01  0.6409E-01  0.8122E+00E
 ACTION:ARG 20-12-21 03:09 OP:mn   STATUS:               ID:20170311042943     I
 2017-03-11-0429-43M.a_____039                                                 6
 STAT SP IPHASW D HRMM SECON CODA AMPLIT PERI AZIMU VELO AIN AR TRES W  DIS CAZ7
 624  0Z IP     D  431  0.62   19                        140    0.0510 19.8 337 
 624  0E ES        431  4.51                             140   -0.0110 19.8 337 
 624  0Z  IAML     431  4.88         9.8 0.22                          19.8 337 
 625  0Z IP     D  431  0.81   19                        139    0.1510 20.7 222 
 625  0N ES        431  4.79                             139    0.1210 20.7 222 
 625  0Z  IAML     431  5.71         3.1 0.25                          20.7 222 
 628  0Z IP     C  431  0.99   16                        135    0.0010 23.7  65 
 628  0N ES        431  5.13                             135   -0.1210 23.7  65 
 628  0Z  IAML     431  5.32         5.8 0.25                          23.7  65 
 623  0Z IP     D  431  1.28   19                        133    0.0910 25.4 274 
 623  0N ES        431  5.59                             133   -0.0210 25.4 274 
 623  0Z  IAML     431  5.87         3.5 0.19                          25.4 274 
 626  0Z IP     D  431  4.59   20                        114    0.04 9 50.1 199 
 626  0N ES        431 11.37                             114   -0.14 9 50.1 199 
 626  0Z  IAML     431 11.76         1.9 0.36                          50.1 199 
 621  0Z IP     D  431  5.57   18                        112    0.00 9 57.0 256 
 621  0N ES        431 13.07                             112   -0.24 9 57.0 256 
 621  0Z  IAML     431 13.26         1.6 0.15                          57.0 256 

 2017  312 0416 39.2 L  71.924 128.080  3.4  BER  6 0.3 2.1LBER 1.2CBER        1
 GAP=241        0.58       3.5     8.4  3.6 -0.2219E+02  0.1962E+02 -0.5219E+01E
 ACTION:ARG 20-12-21 03:09 OP:mn   STATUS:               ID:20170312041535     I
 2017-03-12-0415-35M.a_____039                                                 6
 STAT SP IPHASW D HRMM SECON CODA AMPLIT PERI AZIMU VELO AIN AR TRES W  DIS CAZ7
 630  0Z IP     C  416 42.73   34                        100    0.0710 18.8  27 
 630  0E ES        416 45.16                             100   -0.0910 18.8  27 
 630  0Z  IAML     416 45.63       961.8 0.21                          18.8  27 
 629  0Z IP     D  416 44.08   33                         97    0.0610 26.6 271 
 629  0N ES        416 47.68                              97    0.0210 26.6 271 
 629  0Z  IAML     416 48.29       473.4 0.26                          26.6 271 
 627  0Z IP     D  416 46.46   33                         65   -0.31 9 43.5 300 
 627  0N ES        416 52.16                              65   -0.33 9 43.5 300 
 627  0Z  IAML     416 52.49       259.9 0.19                          43.5 300 
 626  0Z IP     C  416 51.21   43                         65    0.01 8 71.0 268 
 626  0N ES        417  0.49                              65    0.20 8 71.0 268 
 626  0Z  IAML     417  4.29        69.8 0.25                          71.0 268 
 625  0Z IP     C  416 51.47   37                         65   -0.12 8 73.4 293 
 625  0E ES        417  0.73                              65   -0.24 8 73.4 293 
 625  0Z  IAML     417  2.22        59.7 0.28                          73.4 293 
 624  0Z IP     D  416 54.19   39                         65    0.39 8 87.1 316 
 624  0N ES        417  5.48                              65    0.62 8 87.1 316 
 624  0Z  IAML     417  8.11        61.3 0.20                          87.1 316 

 2017  313 0553 59.1 L  72.698 124.923 15.1  BER  9 0.2 1.0LBER 1.4CBER        1
 GAP=217        0.48       2.2     4.6  2.6  0.3595E+01 -0.6467E+01 -0.8871E+00E
 ACTION:ARG 20-12-21 03:09 OP:mn   STATUS:               ID:20170313055233     I
 2017-03-13-0552-33M.a_____039                                                 6
 STAT SP IPHASW D HRMM SECON CODA AMPLIT PERI AZIMU VELO AIN AR TRES W  DIS CAZ7
 620  0Z IP     C  554  3.31   33                        125    0.0210 19.8 256 
 620  0N ES        554  6.41                             125   -0.0310 19.8 256 
 620  0Z  IAML     554  6.63        51.0 0.11                          19.8 256 
 622  0Z IP     D  554  4.88   42                        113   -0.0510 31.4 155 
 622  0E ES        554  9.34                             113    0.0110 31.4 155 
 622  0Z  IAML     554  9.50        13.0 0.16                          31.4 155 
 623  0Z IP     D  554  8.18   38                        104    0.38 9 50.1 145 
 623  0E ES        554 14.89                             104    0.50 9 50.1 145 
 623  0Z  IAML     554 16.90         6.3 0.22                          50.1 145 
 624  0Z IP     D  554  8.08   38                        103    0.05 9 51.5 118 
 624  0N ES        554 14.63                             103   -0.15 9 51.5 118 
 624  0Z  IAML     554 16.07        11.1 0.14                          51.5 118 
 621  0Z IP     C  554  8.88   33                        102   -0.06 9 57.3 181 
 621  0E ES        554 16.03                             102   -0.36 9 57.3 181 
 621  0Z  IAML     554 16.67         4.6 0.19                          57.3 181 
 628  0Z IP     D  554 12.56   44                         98   -0.23 8 81.5 113 
 628  0N ES        554 22.87                              98   -0.29 8 81.5 113 
 628  0Z  IAML     554 24.27         6.2 0.16                          81.5 113 
 627  0Z IP     D  554 15.02   50                         97    0.08 7 95.0 132 
 627  0N ES        554 26.90                              97   -0.05 7 95.0 132 
 627  0Z  IAML     554 31.39         2.7 0.14                          95.0 132 
 630  0Z IP     D  554 21.36   40                         58    0.11 6  134 120 
 630  0N ES        554 37.94                              58   -0.11 6  134 120 
 630  0Z  IAML     554 40.24        17.6 0.22                           134 120 
 631  0Z IP     D  554 25.86   55                         58    0.34 5  165 150 
 631  0E ES        554 45.43                              58   -0.14 5  165 150 
 631  0Z  IAML     554 47.39         5.4 0.37                           165 150 

 2017  313 0809  5.6 L  72.450 125.088 14.9  BER  7 0.1 1.2LBER 1.3CBER        1
 GAP=132        0.28       0.7     2.2  3.0  0.4656E+00 -0.1236E+01 -0.2307E+00E
 ACTION:ARG 20-12-21 03:09 OP:mn   STATUS:               ID:20170313080741     I
 2017-03-13-0807-41M.a_____039                                                 6
 STAT SP IPHASW D HRMM SECON CODA AMPLIT PERI AZIMU VELO AIN AR TRES W  DIS CAZ7
 623  0Z IP     D  8 9 10.61   38                        117   -0.1010 26.6 121 
 623  0E ES        8 9 14.56                             117   -0.0110 26.6 121 
 623  0Z  IAML     8 9 15.47        41.9 0.23                          26.6 121 
 621  0Z IP     D  8 9 11.20   33                        113   -0.0810 30.5 193 
 621  0E ES        8 9 15.58                             113    0.0110 30.5 193 
 621  0Z  IAML     8 9 17.34        23.5 0.15                          30.5 193 
 620  0Z IP     D  8 9 11.72   34                        111   -0.0410 33.7 313 
 620  0N ES        8 9 16.45                             111    0.0410 33.7 313 
 620  0Z  IAML     8 9 17.87        44.7 0.14                          33.7 313 
 624  0Z IP     D  8 9 12.75   25                        107    0.0210 40.0  85 
 624  0N ES        8 9 18.26                             107    0.1410 40.0  85 
 624  0Z  IAML     8 9 18.61        42.4 0.14                          40.0  85 
 625  0Z IP     C  8 9 13.68   53                        105   -0.02 9 46.3 131 
 625  0N ES        8 9 19.84                             105    0.01 9 46.3 131 
 625  0Z  IAML     8 9 21.34        10.0 0.26                          46.3 131 
 628  0Z IP     D  8 9 17.39   42                         99    0.01 8 69.6  94 
 628  0N ES        8 9 26.13                              99   -0.18 8 69.6  94 
 628  0Z  IAML     8 9 27.51        18.6 0.24                          69.6  94 
 626  0Z IP     D  8 9 17.71   45                         99    0.17 8 70.6 152 
 626  0E ES        8 9 26.64                              99    0.06 8 70.6 152 
 626  0Z  IAML     8 9 26.87         6.5 0.21                          70.6 152 

 2017  317 1007 14.1 L  72.235 125.988  3.9  BER  7 0.2 0.5LBER 0.9CBER        1
 GAP=113        0.51       1.1     3.2  1.6  0.1304E+01 -0.7183E+00 -0.5991E+00E
 ACTION:ARG 20-12-21 03:09 OP:mn   STATUS:               ID:20170317100556     I
 2017-03-17-1005-56M.a_____039                                                 6
 STAT SP IPHASW D HRMM SECON CODA AMPLIT PERI AZIMU VELO AIN AR TRES W  DIS CAZ7
 625  0Z IP     C 10 7 15.52   28                        116   -0.1410 7.94 149 
 625  0E ES       10 7 17.05                             116    0.1910 7.94 149 
 625  0Z  IAML    10 7 17.31        20.4 0.18                          7.94 149 
 623  0Z IP     D 10 7 16.27   23                        107   -0.2010 12.8 323 
 623  0E ES       10 7 18.51                             107    0.2310 12.8 323 
 623  0Z  IAML    10 7 19.03        21.6 0.25                          12.8 323 
 624  0Z IP     C 10 7 19.09   37                         65   -0.07 9 28.6  20 
 624  0E ES       10 7 23.21                              65    0.19 9 28.6  20 
 624  0Z  IAML    10 7 23.77         9.2 0.17                          28.6  20 
 622  0Z IP     D 10 7 19.65   28                         65   -0.14 9 32.5 316 
 622  0E ES       10 7 24.34                              65    0.21 9 32.5 316 
 622  0Z  IAML    10 7 28.80         4.3 0.60                          32.5 316 
 621  0Z IP     C 10 7 20.43   28                         65   -0.24 9 37.9 262 
 621  0N ES       10 7 25.73                              65    0.06 9 37.9 262 
 621  0Z  IAML    10 7 27.08         9.0 0.28                          37.9 262 
 628  0Z IP     D 10 7 21.20   28                         65   -0.35 9 43.4  64 
 628  0N ES       10 7 27.17                              65   -0.06 9 43.4  64 
 628  0Z  IAML    10 7 28.42         8.2 0.15                          43.4  64 
 629  0Z IP     D 10 7 23.73   40                         65    0.00 8 56.9 126 
 629  0E ES       10 7 31.37                              65    0.31 8 56.9 126 
 629  0Z  IAML    10 7 32.24         3.3 0.27                          56.9 126 

 2017  320 0711 14.6 L  72.125 127.222 16.8  BER  6 0.1 0.9LBER 1.2CBER        1
 GAP=211        0.30       1.3     4.8  1.7  0.4336E+01  0.1702E+00 -0.7062E+00E
 ACTION:ARG 20-12-21 03:09 OP:mn   STATUS:               ID:20170320071005     I
 2017-03-20-0710-05M.a_____039                                                 6
 STAT SP IPHASW D HRMM SECON CODA AMPLIT PERI AZIMU VELO AIN AR TRES W  DIS CAZ7
 627  0Z IP     C  711 17.58   30                        153   -0.1310 8.26 264 
 627  0E ES        711 20.11                             153    0.0410 8.26 264 
 627  0Z  IAML     711 20.41        85.9 0.31                          8.26 264 
 629  0Z IP     C  711 19.14   35                        125   -0.0610 22.0 172 
 629  0N ES        711 22.77                             125    0.0710 22.0 172 
 629  0Z  IAML     711 22.85        62.5 0.20                          22.0 172 
 625  0Z IP     C  711 21.49   37                        111   -0.07 9 38.5 279 
 625  0N ES        711 26.93                             111    0.07 9 38.5 279 
 625  0Z  IAML     711 27.17         8.9 0.29                          38.5 279 
 624  0Z IP     D  711 23.48   34                        106    0.05 9 50.7 321 
 624  0N ES        711 30.20                             106    0.06 9 50.7 321 
 624  0Z  IAML     711 32.73         6.2 0.17                          50.7 321 
 623  0Z IP     D  711 24.02   45                        104   -0.02 8 54.7 295 
 623  0E ES        711 31.14                             104   -0.08 8 54.7 295 
 623  0Z  IAML     711 32.00         5.3 0.23                          54.7 295 
 621  0Z IP     C  711 28.28   43                         99    0.22 8 80.1 276 
 621  0N ES        711 38.20                              99   -0.09 8 80.1 276 
 621  0Z  IAML     711 38.53         3.6 0.09                          80.1 276 

 2017  320 0853 56.4 L  72.709 124.970  5.1  BER  6 0.1 0.4LBER 1.1CBER        1
 GAP=221        0.35       1.8     4.3  2.8  0.3530E+01 -0.9101E+01 -0.1276E+01E
 ACTION:ARG 20-12-21 03:09 OP:mn   STATUS:               ID:20170320085230     I
 2017-03-20-0852-30M.a_____039                                                 6
 STAT SP IPHASW D HRMM SECON CODA AMPLIT PERI AZIMU VELO AIN AR TRES W  DIS CAZ7
 620  0Z IP     C  854  0.19   26                         91   -0.0910 21.6 254 
 620  0N ES        854  3.23                              91    0.0210 21.6 254 
 620  0Z  IAML     854  3.55        22.9 0.12                          21.6 254 
 622  0Z IP     C  854  1.92   46                         90   -0.0210 31.9 159 
 622  0E ES        854  6.13                              90   -0.0210 31.9 159 
 622  0Z  IAML     854  6.65         3.0 0.16                          31.9 159 
 623  0Z IP     C  854  4.99   28                         90    0.08 9 50.3 148 
 623  0N ES        854 11.60                              90    0.24 9 50.3 148 
 623  0Z  IAML     854 13.65         2.0 0.15                          50.3 148 
 624  0Z IP     D  854  4.87   38                         90   -0.11 9 50.8 120 
 624  0E ES        854 11.41                              90   -0.09 9 50.8 120 
 624  0Z  IAML     854 12.91         2.8 0.16                          50.8 120 
 628  0Z IP     D  854 10.02   31                         90    0.22 8 80.6 114 
 628  0E ES        854 19.93                              90   -0.04 8 80.6 114 
 628  0Z  IAML     854 21.05         1.9 0.17                          80.6 114 
 626  0Z IP     C  854 12.78   29                         90    0.10 7 98.5 158 
 626  0E ES        854 24.76                              90   -0.29 7 98.5 158 
 626  0Z  IAML     854 25.16         1.2 0.14                          98.5 158 

 2017  320 1900 34.3 L  72.415 126.129 18.0  BER  7 0.1 0.6LBER 0.5CBER        1
 GAP=119        0.38       1.2     2.8  2.0 -0.5913E+00 -0.8801E-01  0.9422E+00E
 ACTION:ARG 20-12-21 03:09 OP:mn   STATUS:               ID:20170320190000     I
 2017-03-20-1900-00M.a_____039                                                 6
 STAT SP IPHASW D HRMM SECON CODA AMPLIT PERI AZIMU VELO AIN AR TRES W  DIS CAZ7
 624  0Z IP     D 19 0 37.68   22                        154    0.1210 8.41  36 
 624  0E ES       19 0 40.10                             154    0.0410 8.41  36 
 624  0Z  IAML    19 0 40.49        27.4 0.14                          8.41  36 
 623  0Z IP     C 19 0 38.40   17                        137    0.1510 15.9 232 
 623  0N ES       19 0 41.37                             137    0.0910 15.9 232 
 623  0Z  IAML    19 0 41.66        25.9 0.19                          15.9 232 
 625  0Z IP     D 19 0 39.68   20                        122    0.05 9 26.9 182 
 625  0N ES       19 0 43.66                             122   -0.04 9 26.9 182 
 625  0Z  IAML    19 0 44.10         2.9 0.17                          26.9 182 
 622  0Z IP     C 19 0 39.71   25                        121   -0.02 9 27.7 277 
 622  0N ES       19 0 43.71                             121   -0.18 9 27.7 277 
 622  0Z  IAML    19 0 44.04         5.4 0.12                          27.7 277 
 628  0Z IP     D 19 0 40.69   25                        115   -0.00 9 34.4  92 
 628  0N ES       19 0 45.33                             115   -0.25 9 34.4  92 
 628  0Z  IAML    19 0 46.85         8.3 0.26                          34.4  92 
 621  0Z IP     D 19 0 43.02   27                        108    0.08 9 49.3 239 
 621  0N ES       19 0 49.31                             108   -0.22 9 49.3 239 
 621  0Z  IAML    19 0 49.89         2.7 0.30                          49.3 239 
 626  0Z IP     C 19 0 44.66   24                        105    0.24 8 58.9 183 
 626  0N ES       19 0 52.05                             105   -0.09 8 58.9 183 
 626  0Z  IAML    19 0 52.41         4.2 0.32                          58.9 183 

 2017  323 0519 24.6 L  71.647 129.186  5.2  BER  6 0.3 1.2LBER 1.0CBER        1
 GAP=238        0.72       2.9    15.3 16.6 -0.8680E+01  0.1038E+03 -0.3939E+02E
 ACTION:ARG 20-12-21 03:09 OP:mn   STATUS:               ID:20170323051802     I
 2017-03-23-0518-02M.a_____039                                                 6
 STAT SP IPHASW D HRMM SECON CODA AMPLIT PERI AZIMU VELO AIN AR TRES W  DIS CAZ7
 632  0Z IP     D  519 26.42   27                        107    0.0010 9.11 206 
 632  0N ES        519 27.84                             107    0.0110 9.11 206 
 632  0Z  IAML     519 28.20       519.2 0.27                          9.11 206 
 630  0Z IP     D  519 33.73   30                         90   -0.29 8 56.3 328 
 630  0N ES        519 40.67                              90   -0.54 8 56.3 328 
 630  0Z  IAML     519 46.31         5.1 0.09                          56.3 328 
 629  0Z IP     C  519 36.53   32                         90   -0.10 8 72.5 297 
 629  0N ES        519 45.52                              90   -0.29 8 72.5 297 
 629  0Z  IAML     519 47.82        16.5 0.39                          72.5 297 
 631  0Z IP     D  519 36.84   27                         90   -0.03 8 74.0 249 
 631  0N ES        519 46.07                              90   -0.16 8 74.0 249 
 631  0Z  IAML     519 47.41        20.5 0.53                          74.0 249 
 627  0Z IP     D  519 40.51   36                         90    0.62 7 92.7 305 
 627  0N ES        519 52.19                              90    0.64 7 92.7 305 
 627  0Z  IAML     519 55.05         6.6 0.34                          92.7 305 
 628  0Z IP     D  519 43.08   38                         90    0.48 7  109 321 
 628  0N ES        519 56.51                              90    0.20 7  109 321 
 628  0Z  IAML     519 59.34         5.1 0.12                           109 321 

