 2017  311 0430 54.9 L  72.315 126.458 24.9  SLT  6 0.1 0.5LSLT 0.3CSLT        1
 GAP=129        0.40       1.2     3.4  2.2 -0.1025E+01  0.5808E+00  0.1254E+01E
 ACTION:ARG 20-12-21 03:09 OP:mn   STATUS:               ID:20170311042943     I
 2017-03-11-0429-43M.a_____039                                                 6
 STAT SP IPHASW D HRMM SECON CODA AMPLIT PERI AZIMU VELO AIN AR TRES W  DIS CAZ7
 624  0Z IP   0 D  431  0.62   19                        135    0.0910 19.0 341 
 624  0E ES   0    431  4.51                             135   -0.1010 19.0 341 
 624  0Z  IAML     431  4.88         9.8 0.22                          19.0 341 
 625  0Z IP   0 D  431  0.81   19                        134    0.2210 19.8 217 
 625  0N ES   0    431  4.79                             134    0.0810 19.8 217 
 625  0Z  IAML     431  5.71         3.1 0.25                          19.8 217 
 623  0Z IP   0 D  431  1.28   19                        127    0.1310 23.7 273 
 623  0N ES   0    431  5.59                             127   -0.1010 23.7 273 
 623  0Z  IAML     431  5.87         3.5 0.19                          23.7 273 
 628  0Z IP   0 C  431  0.99   16                        125    0.0710 25.1  68 
 628  0N ES   0    431  5.13                             125   -0.1610 25.1  68 
 628  0Z  IAML     431  5.32         5.8 0.25                          25.1  68 
 626  0Z IP   0 D  431  4.59   20                         96    0.0410 49.8 197 
 626  0N ES   0    431 11.37                              96   -0.2010 49.8 197 
 626  0Z  IAML     431 11.76         1.9 0.36                          49.8 197 
 621  0Z IP   0 D  431  5.57   18                         94    0.0710 55.4 255 
 621  0N ES   0    431 13.07                              94   -0.1410 55.4 255 
 621  0Z  IAML     431 13.26         1.6 0.15                          55.4 255 
                                                                                
 2017  312 0416 38.7 L  71.953 128.014 10.6  SLT  6 0.2 2.2LSLT 1.1CSLT        1
 GAP=226        0.58       2.5     7.7  9.5 -0.7634E+01  0.5901E+02 -0.2143E+01E
 ACTION:ARG 20-12-21 03:09 OP:mn   STATUS:               ID:20170312041535     I
 2017-03-12-0415-35M.a_____039                                                 6
 STAT SP IPHASW D HRMM SECON CODA AMPLIT PERI AZIMU VELO AIN AR TRES W  DIS CAZ7
 630  0Z IP   0 C  416 42.73   34                        112    0.1710 17.3  38 
 630  0E ES   0    416 45.16                             112   -0.2310 17.3  38 
 630  0Z  IAML     416 45.63       961.8 0.21                          17.3  38 
 629  0Z IP   1 D  416 44.08   33                         96    0.2610 24.4 264 
 629  0N ES   0    416 47.68                              96    0.1010 24.4 264 
 629  0Z  IAML     416 48.29       473.4 0.26                          24.4 264 
 627  0Z IP   0 D  416 46.46   33                         90    0.0310 40.0 298 
 627  0N ES   0    416 52.16                              90    0.0610 40.0 298 
 627  0Z  IAML     416 52.49       259.9 0.19                          40.0 298 
 626  0Z IP   0 C  416 51.21   43                         90   -0.15 9 68.9 265 
 626  0N ES   0    417  0.49                              90   -0.13 9 68.9 265 
 626  0Z  IAML     417  4.29        69.8 0.25                          68.9 265 
 625  0Z IP   0 C  416 51.47   37                         90   -0.21 9 70.1 292 
 625  0E ES   1    417  0.73                              90   -0.44 9 70.1 292 
 625  0Z  IAML     417  2.22        59.7 0.28                          70.1 292 
 624  0Z IP   0 D  416 54.19   39                         90    0.21 9 83.2 315 
 624  0N ES   1    417  5.48                              90    0.32 9 83.2 315 
 624  0Z  IAML     417  8.11        61.3 0.20                          83.2 315 
                                                                                
 2017  313 0553 58.6 L  72.679 124.981 10.4  SLT  9 0.4 1.2LSLT 1.3CSLT        1
 GAP=209        0.91       3.1     7.3  3.0  0.5060E+01 -0.1392E+02 -0.8562E-02E
 ACTION:ARG 20-12-21 03:09 OP:mn   STATUS:               ID:20170313055233     I
 2017-03-13-0552-33M.a_____039                                                 6
 STAT SP IPHASW D HRMM SECON CODA AMPLIT PERI AZIMU VELO AIN AR TRES W  DIS CAZ7
 620  0Z IP   0 C  554  3.31   33                        116    0.1010 21.3 263 
 620  0N ES   0    554  6.41                             116   -0.1510 21.3 263 
 620  0Z  IAML     554  6.63        51.0 0.11                          21.3 263 
 622  0Z IP   1 D  554  4.88   42                        110    0.3110 28.7 157 
 622  0E ES   1    554  9.34                             110    0.4110 28.7 157 
 622  0Z  IAML     554  9.50        13.0 0.16                          28.7 157 
 623  0Z IP   1 D  554  8.18   38                         66    0.3910 47.3 146 
 623  0E ES   1    554 14.89                              66    0.3910 47.3 146 
 623  0Z  IAML     554 16.90         6.3 0.22                          47.3 146 
 624  0Z IP   0 D  554  8.08   38                         66    0.1110 48.8 117 
 624  0N ES   0    554 14.63                              66   -0.1810 48.8 117 
 624  0Z  IAML     554 16.07        11.1 0.14                          48.8 117 
 621  0Z IP   0 C  554  8.88   33                         66   -0.1810 55.3 183 
 621  0E ES   2    554 16.03                              66   -0.6610 55.3 183 
 621  0Z  IAML     554 16.67         4.6 0.19                          55.3 183 
 628  0Z IP   1 D  554 12.56   44                         66   -0.31 9 78.9 112 
 628  0N ES   1    554 22.87                              66   -0.40 9 78.9 112 
 628  0Z  IAML     554 24.27         6.2 0.16                          78.9 112 
 627  0Z IP   1 D  554 15.02   50                         58   -0.30 8 92.2 132 
 627  0N ES   2    554 26.90                              58   -0.61 8 92.2 132 
 627  0Z  IAML     554 31.39         2.7 0.14                          92.2 132 
 630  0Z IP   0 D  554 21.36   40                         44    0.15 7  132 119 
 630  0N ES   0    554 37.94                              44    0.24 7  132 119 
 630  0Z  IAML     554 40.24        17.6 0.22                           132 119 
 631  0Z IP   2 D  554 25.86   55                         37    0.65 5  163 150 
 631  0E ES   3    554 45.43                              37    0.80 5  163 150 
 631  0Z  IAML     554 47.39         5.4 0.37                           163 150 
                                                                                
 2017  313 0809  4.7 L  72.449 125.101 15.0  SLT  7 0.2 1.3LSLT 1.1CSLT        1
 GAP=133        0.49       1.1     3.2  1.9  0.8710E+00 -0.1591E+01  0.3212E-01E
 ACTION:ARG 20-12-21 03:09 OP:mn   STATUS:               ID:20170313080741     I
 2017-03-13-0807-41M.a_____039                                                 6
 STAT SP IPHASW D HRMM SECON CODA AMPLIT PERI AZIMU VELO AIN AR TRES W  DIS CAZ7
 623  0Z IP   0 D  8 9 10.61   38                        114    0.1710 26.1 121 
 623  0E ES   0    8 9 14.56                             114   -0.0710 26.1 121 
 623  0Z  IAML     8 9 15.47        41.9 0.23                          26.1 121 
 621  0Z IP   0 D  8 9 11.20   33                        110    0.1910 30.4 194 
 621  0E ES   0    8 9 15.58                             110   -0.0310 30.4 194 
 621  0Z  IAML     8 9 17.34        23.5 0.15                          30.4 194 
 620  0Z IP   0 D  8 9 11.72   34                        107    0.0710 34.1 313 
 620  0N ES   1    8 9 16.45                             107   -0.2810 34.1 313 
 620  0Z  IAML     8 9 17.87        44.7 0.14                          34.1 313 
 624  0Z IP   0 D  8 9 12.75   25                        103    0.1810 39.6  85 
 624  0N ES   0    8 9 18.26                             103   -0.0410 39.6  85 
 624  0Z  IAML     8 9 18.61        42.4 0.14                          39.6  85 
 625  0Z IP   0 C  8 9 13.68   53                        101    0.0810 45.9 131 
 625  0N ES   1    8 9 19.84                             101   -0.2510 45.9 131 
 625  0Z  IAML     8 9 21.34        10.0 0.26                          45.9 131 
 628  0Z IP   0 D  8 9 17.39   42                         68    0.21 9 69.2  94 
 628  0N ES   0    8 9 26.13                              68   -0.16 9 69.2  94 
 628  0Z  IAML     8 9 27.51        18.6 0.24                          69.2  94 
 626  0Z IP   0 D  8 9 17.71   45                         68    0.18 9 70.3 153 
 626  0E ES   0    8 9 26.64                              68   -0.24 9 70.3 153 
 626  0Z  IAML     8 9 26.87         6.5 0.21                          70.3 153 
                                                                                
 2017  317 1007 12.9 L  72.229 125.979  9.9  SLT  7 0.1 0.7LSLT 0.9CSLT        1
 GAP=119        0.35       0.7     1.9  0.8  0.2890E+00 -0.1636E+00  0.1019E+00E
 ACTION:ARG 20-12-21 03:09 OP:mn   STATUS:               ID:20170317100556     I
 2017-03-17-1005-56M.a_____039                                                 6
 STAT SP IPHASW D HRMM SECON CODA AMPLIT PERI AZIMU VELO AIN AR TRES W  DIS CAZ7
 625  0Z IP   0 C 10 7 15.52   28                        143    0.1610 7.51 144 
 625  0E ES   0   10 7 17.05                             143   -0.0810 7.51 144 
 625  0Z  IAML    10 7 17.31        20.4 0.18                          7.51 144 
 623  0Z IP   0 D 10 7 16.27   23                        127    0.0310 13.2 326 
 623  0E ES   0   10 7 18.51                             127   -0.1510 13.2 326 
 623  0Z  IAML    10 7 19.03        21.6 0.25                          13.2 326 
 624  0Z IP   0 C 10 7 19.09   37                        109    0.2010 29.4  20 
 624  0E ES   0   10 7 23.21                             109   -0.0410 29.4  20 
 624  0Z  IAML    10 7 23.77         9.2 0.17                          29.4  20 
 622  0Z IP   0 D 10 7 19.65   28                        107    0.0510 32.8 317 
 622  0E ES   0   10 7 24.34                             107   -0.1310 32.8 317 
 622  0Z  IAML    10 7 28.80         4.3 0.60                          32.8 317 
 621  0Z IP   0 C 10 7 20.43   28                         66    0.1010 37.5 263 
 621  0N ES   0   10 7 25.73                              66   -0.0110 37.5 263 
 621  0Z  IAML    10 7 27.08         9.0 0.28                          37.5 263 
 628  0Z IP   0 D 10 7 21.20   28                         66    0.0410 44.0  64 
 628  0N ES   0   10 7 27.17                              66   -0.0110 44.0  64 
 628  0Z  IAML    10 7 28.42         8.2 0.15                          44.0  64 
 629  0Z IP   0 D 10 7 23.73   40                         66    0.0310 56.7 125 
 629  0E ES   0   10 7 31.37                              66   -0.2010 56.7 125 
 629  0Z  IAML    10 7 32.24         3.3 0.27                          56.7 125 
                                                                                
 2017  320 0711 13.8 L  72.123 127.179 18.7  SLT  6 0.2 1.0LSLT 1.1CSLT        1
 GAP=205        0.53       2.0     7.2  2.5  0.8532E+01  0.3758E+01 -0.1403E+01E
 ACTION:ARG 20-12-21 03:09 OP:mn   STATUS:               ID:20170320071005     I
 2017-03-20-0710-05M.a_____039                                                 6
 STAT SP IPHASW D HRMM SECON CODA AMPLIT PERI AZIMU VELO AIN AR TRES W  DIS CAZ7
 627  0Z IP   0 C  711 17.58   30                        157    0.1610 6.78 264 
 627  0E ES   0    711 20.11                             157    0.0510 6.78 264 
 627  0Z  IAML     711 20.41        85.9 0.31                          6.78 264 
 629  0Z IP   0 C  711 19.14   35                        121    0.0110 22.1 168 
 629  0N ES   1    711 22.77                             121   -0.2610 22.1 168 
 629  0Z  IAML     711 22.85        62.5 0.20                          22.1 168 
 625  0Z IP   0 C  711 21.49   37                        102    0.1710 37.1 279 
 625  0N ES   0    711 26.93                             102    0.1010 37.1 279 
 625  0Z  IAML     711 27.17         8.9 0.29                          37.1 279 
 624  0Z IP   0 D  711 23.48   34                         95    0.1010 49.9 323 
 624  0N ES   0    711 30.20                              95   -0.1910 49.9 323 
 624  0Z  IAML     711 32.73         6.2 0.17                          49.9 323 
 623  0Z IP   0 D  711 24.02   45                         94   -0.0010 53.4 296 
 623  0E ES   1    711 31.14                              94   -0.3610 53.4 296 
 623  0Z  IAML     711 32.00         5.3 0.23                          53.4 296 
 621  0Z IP   1 C  711 28.28   43                         92    0.34 9 78.6 276 
 621  0N ES   0    711 38.20                              92   -0.07 9 78.6 276 
 621  0Z  IAML     711 38.53         3.6 0.09                          78.6 276 
                                                                                
 2017  320 0853 55.4 L  72.688 124.977 12.3  SLT  6 0.2 0.6LSLT 1.0CSLT        1
 GAP=213        0.65       2.8     6.0  3.8  0.7935E+01 -0.1387E+02 -0.1760E+01E
 ACTION:ARG 20-12-21 03:09 OP:mn   STATUS:               ID:20170320085230     I
 2017-03-20-0852-30M.a_____039                                                 6
 STAT SP IPHASW D HRMM SECON CODA AMPLIT PERI AZIMU VELO AIN AR TRES W  DIS CAZ7
 620  0Z IP   0 C  854  0.19   26                        112    0.0810 21.3 260 
 620  0N ES   1    854  3.23                             112   -0.3110 21.3 260 
 620  0Z  IAML     854  3.55        22.9 0.12                          21.3 260 
 622  0Z IP   1 C  854  1.92   46                        102    0.3410 29.6 158 
 622  0E ES   0    854  6.13                             102    0.0510 29.6 158 
 622  0Z  IAML     854  6.65         3.0 0.16                          29.6 158 
 623  0Z IP   0 C  854  4.99   28                         94    0.2310 48.2 147 
 623  0N ES   0    854 11.60                              94    0.0210 48.2 147 
 623  0Z  IAML     854 13.65         2.0 0.15                          48.2 147 
 624  0Z IP   0 D  854  4.87   38                         94   -0.0110 49.4 118 
 624  0E ES   1    854 11.41                              94   -0.3810 49.4 118 
 624  0Z  IAML     854 12.91         2.8 0.16                          49.4 118 
 628  0Z IP   1 D  854 10.02   31                         68    0.30 9 79.5 113 
 628  0E ES   0    854 19.93                              68   -0.22 9 79.5 113 
 628  0Z  IAML     854 21.05         1.9 0.17                          79.5 113 
 626  0Z IP   0 C  854 12.78   29                         68    0.21 8 96.2 158 
 626  0E ES   1    854 24.76                              68   -0.33 8 96.2 158 
 626  0Z  IAML     854 25.16         1.2 0.14                          96.2 158 
                                                                                
 2017  320 1900 33.6 L  72.410 126.094 18.2  SLT  7 0.2 0.7LSLT 0.6CSLT        1
 GAP=122        0.65       1.8     4.1  2.9 -0.1277E+01 -0.5687E+00  0.2204E+01E
 ACTION:ARG 20-12-21 03:09 OP:mn   STATUS:               ID:20170320190000     I
 2017-03-20-1900-00M.a_____039                                                 6
 STAT SP IPHASW D HRMM SECON CODA AMPLIT PERI AZIMU VELO AIN AR TRES W  DIS CAZ7
 624  0Z IP   0 D 19 0 37.68   22                        148    0.2410 9.53  40 
 624  0E ES   0   19 0 40.10                             148   -0.1410 9.53  40 
 624  0Z  IAML    19 0 40.49        27.4 0.14                          9.53  40 
 623  0Z IP   1 C 19 0 38.40   17                        135    0.3510 14.7 230 
 623  0N ES   0   19 0 41.37                             135    0.0810 14.7 230 
 623  0Z  IAML    19 0 41.66        25.9 0.19                          14.7 230 
 625  0Z IP   0 D 19 0 39.68   20                        113    0.2010 26.4 179 
 625  0N ES   0   19 0 43.66                             113   -0.1110 26.4 179 
 625  0Z  IAML    19 0 44.10         2.9 0.17                          26.4 179 
 622  0Z IP   0 C 19 0 39.71   25                        113    0.0810 26.6 278 
 622  0N ES   1   19 0 43.71                             113   -0.3210 26.6 278 
 622  0Z  IAML    19 0 44.04         5.4 0.12                          26.6 278 
 628  0Z IP   0 D 19 0 40.69   25                        101    0.1010 35.5  91 
 628  0N ES   1   19 0 45.33                             101   -0.3610 35.5  91 
 628  0Z  IAML    19 0 46.85         8.3 0.26                          35.5  91 
 621  0Z IP   0 D 19 0 43.02   27                         94    0.1510 48.1 239 
 621  0N ES   1   19 0 49.31                              94   -0.3310 48.1 239 
 621  0Z  IAML    19 0 49.89         2.7 0.30                          48.1 239 
 626  0Z IP   1 C 19 0 44.66   24                         93    0.2710 58.3 182 
 626  0N ES   0   19 0 52.05                              93   -0.2010 58.3 182 
 626  0Z  IAML    19 0 52.41         4.2 0.32                          58.3 182 
                                                                                
 2017  323 0519 23.8 L  71.650 128.961  2.8  SLT  6 0.2 1.4LSLT 1.1CSLT        1
 GAP=180        0.61       1.4     5.7  3.4  0.2815E+01  0.4316E+01 -0.2351E+01E
 ACTION:ARG 20-12-21 03:09 OP:mn   STATUS:               ID:20170323051802     I
 2017-03-23-0518-02M.a_____039                                                 6
 STAT SP IPHASW D HRMM SECON CODA AMPLIT PERI AZIMU VELO AIN AR TRES W  DIS CAZ7
 632  0Z IP   0 D  519 26.42   27                        106    0.1810 9.35 155 
 632  0N ES   0    519 27.84                             106   -0.1910 9.35 155 
 632  0Z  IAML     519 28.20       519.2 0.27                          9.35 155 
 630  0Z IP   0 D  519 33.73   30                         93    0.0010 52.3 335 
 630  0N ES   1    519 40.67                              93   -0.3110 52.3 335 
 630  0Z  IAML     519 46.31         5.1 0.09                          52.3 335 
 629  0Z IP   1 C  519 36.53   32                         92    0.26 9 65.4 299 
 629  0N ES   0    519 45.52                              92    0.13 9 65.4 299 
 629  0Z  IAML     519 47.82        16.5 0.39                          65.4 299 
 631  0Z IP   0 D  519 36.84   27                         92    0.02 9 66.8 246 
 631  0N ES   1    519 46.07                              92   -0.27 9 66.8 246 
 631  0Z  IAML     519 47.41        20.5 0.53                          66.8 246 
 627  0Z IP   1 D  519 40.51   36                         66    0.39 9 86.2 308 
 627  0N ES   0    519 52.19                              66    0.14 9 86.2 308 
 627  0Z  IAML     519 55.05         6.6 0.34                          86.2 308 
 628  0Z IP   0 D  519 43.08   38                         58    0.11 8  104 324 
 628  0N ES   1    519 56.51                              58   -0.46 8  104 324 
 628  0Z  IAML     519 59.34         5.1 0.12                           104 324 
                                                                                
