 2016 1125 0556  1.1 L  72.708 124.961 14.4  SLT  6 0.4 0.4LSLT 0.8CSLT        1
 GAP=220        0.98       4.6     9.6  5.1  0.1938E+02 -0.2976E+02 -0.4625E+01E
 ACTION:REG 18-11-22 15:21 OP:art  STATUS:               ID:20161125055436     I
 2016-11-25-0554-36M.arct__039                                                 6
 STAT SP IPHASW D HRMM SECON CODA AMPLIT PERI AZIMU VELO AIN AR TRES W  DIS CAZ7
 620  0Z IP   0    556  5.82   21                        119   -0.1110 21.3 254 
 620  0N ES   1    556  9.22                             119   -0.2610 21.3 254 
 620  0Z  IAML     556  9.74         4.4 0.13                          21.3 254 
 622  0Z IP   0    556  7.71   26                        107   -0.0110 31.9 158 
 622  0N ES   0    556 12.46                             107   -0.1110 31.9 158 
 622  0Z  IAML     556 12.54         3.2 0.16                          31.9 158 
 623  0Z IP   2    556 11.41                              98    0.5710 50.4 147 
 623  0E ES   0    556 17.98                              98    0.0110 50.4 147 
 623  0Z  IAML     556 19.34         1.0 0.41                          50.4 147 
 624  0Z IP   1    556 11.24   28                         98    0.3910 51.0 120 
 624  0E ES   1    556 17.74                              98   -0.2510 51.0 120 
 624  0Z  IAML     556 18.16         3.5 0.23                          51.0 120 
 628  0Z IP   1    556 15.17   35                         68   -0.29 9 80.8 114 
 628  0E ES   1    556 25.48                              68   -0.48 9 80.8 114 
 628  0Z  IAML     556 26.04         1.5 0.52                          80.8 114 
 626  0Z IP   3    556 19.43   32                         68    0.97 8 98.5 158 
 626  0N ES   1    556 30.76                              68   -0.39 8 98.5 158 
 626  0Z  IAML     556 32.73         0.8 0.15                          98.5 158 
                                                                                
 2017  117 0846 48.0 L  72.202 127.342 24.2  SLT  6 0.2 0.4LSLT 0.3CSLT        1
 GAP=129        0.66       1.8     5.0  2.4  0.1385E+01  0.3420E+01  0.1320E+01E
 ACTION:ARG 20-09-30 09:42 OP:mn   STATUS:               ID:20170117084544     I
 2017-01-17-0845-44M.a_____039                                                 6
 STAT SP IPHASW D HRMM SECON CODA AMPLIT PERI AZIMU VELO AIN AR TRES W  DIS CAZ7
 627  0Z IP   1 D  846 53.34   16                        144    0.2910 15.5 233 
 627  0N ES   0    846 56.65                             144   -0.1210 15.5 233 
 627  0Z  IAML     846 56.82         5.9 0.18                          15.5 233 
 628  0Z IP   1 D  846 53.86   16                        131    0.2510 23.1 343 
 628  0N ES   0    846 57.60                             131   -0.1510 23.1 343 
 628  0Z  IAML     846 57.84        14.0 0.17                          23.1 343 
 629  0Z IP   1 D  846 55.24   18                        122    0.3510 30.5 182 
 629  0Z  IAML     846 59.97         1.1 0.10                          30.5 182 
 629  0E ES   0    847  0.04                             122    0.0810 30.5 182 
 630  0Z IP   0 C  846 55.71   14                        116    0.0510 36.5 112 
 630  0N ES   1    847  0.86                             116   -0.4210 36.5 112 
 630  0Z  IAML     847  0.98         3.0 0.19                          36.5 112 
 625  0Z IP   0 C  846 56.67   17                        112    0.1210 42.3 266 
 625  0N ES   1    847  2.52                             112   -0.3010 42.3 266 
 625  0Z  IAML     847  2.83         1.8 0.19                          42.3 266 
 626  0Z IP   0 C  846 58.73   23                         70    0.1010 57.0 233 
 626  0E ES   1    847  6.16                              70   -0.2710 57.0 233 
 626  0Z  IAML     847  6.61         1.9 0.17                          57.0 233 
                                                                                
 2017  122 1614 26.1 L  71.946 128.062 15.0  SLT  6 0.3 1.1LSLT 1.0CSLT        1
 GAP=107        0.83       2.2     5.8  3.5  0.5670E+01  0.9664E+01  0.4406E+01E
 ACTION:ARG 20-09-30 09:42 OP:mn   STATUS:               ID:20170122161342     I
 2017-01-22-1613-42M.a_____039                                                 6
 STAT SP IPHASW D HRMM SECON CODA AMPLIT PERI AZIMU VELO AIN AR TRES W  DIS CAZ7
 630  0Z IP   1 C 1614 30.75   14                        127    0.3910 17.0  32 
 630  0E ES   0   1614 33.21                             127   -0.2210 17.0  32 
 630  0Z  IAML    1614 33.46       104.3 0.12                          17.0  32 
 629  0Z IP   1 D 1614 32.13   30                        114    0.3510 26.0 266 
 629  0E ES   0   1614 35.84                             114   -0.0510 26.0 266 
 629  0Z  IAML    1614 36.23        18.5 0.10                          26.0 266 
 627  0Z IP   1 C 1614 34.55   30                        102    0.2510 41.8 298 
 627  0N ES   1   1614 39.89                             102   -0.3710 41.8 298 
 627  0Z  IAML    1614 40.61        14.7 0.22                          41.8 298 
 632  0Z IP   0 C 1614 37.17   34                         98    0.1410 54.5 139 
 632  0E ES   2   1614 44.47                              98   -0.5110 54.5 139 
 632  0Z  IAML    1614 44.94         8.0 0.10                          54.5 139 
 631  0Z IP   1 D 1614 39.26   55                         68    0.31 9 67.4 205 
 631  0E ES   0   1614 48.25                              68   -0.05 9 67.4 205 
 631  0Z  IAML    1614 50.83         5.8 0.32                          67.4 205 
 625  0Z IP   0 D 1614 39.55   29                         68    0.21 9 71.9 292 
 625  0E ES   1   1614 48.51                              68   -0.47 9 71.9 292 
 625  0Z  IAML    1614 51.05         2.4 0.27                          71.9 292 
                                                                                
 2017  125 2243 59.5 L  72.428 126.006 13.4  SLT  6 0.2 1.0LSLT 0.8CSLT        1
 GAP=145        0.50       1.4     3.3  2.0 -0.4637E+00 -0.4872E+00  0.1542E+01E
 ACTION:ARG 20-09-30 09:42 OP:mn   STATUS:               ID:20170125224241     I
 2017-01-25-2242-41M.a_____039                                                 6
 STAT SP IPHASW D HRMM SECON CODA AMPLIT PERI AZIMU VELO AIN AR TRES W  DIS CAZ7
 624  0Z IP   0 D 2244  2.91   25                        139    0.1710 10.5  59 
 624  0E ES   0   2244  4.95                             139   -0.1710 10.5  59 
 624  0Z  IAML    2244  5.20       124.5 0.16                          10.5  59 
 622  0Z IP   0 C 2244  4.78   25                        113    0.1210 23.4 274 
 622  0E ES   0   2244  8.28                             113   -0.1710 23.4 274 
 622  0Z  IAML    2244  9.10        14.6 0.20                          23.4 274 
 625  0Z IP   1 C 2244  5.66   21                        107    0.2710 28.6 173 
 625  0N ES   0   2244  9.88                             107    0.1810 28.6 173 
 625  0Z  IAML    2244 10.97         6.7 0.21                          28.6 173 
 628  0Z IP   0 D 2244  6.90   31                        100    0.1110 38.6  94 
 628  0E ES   0   2244 11.99                             100   -0.1410 38.6  94 
 628  0Z  IAML    2244 12.68         7.1 0.16                          38.6  94 
 626  0Z IP   0 C 2244 10.68   36                         94   -0.0010 60.3 179 
 626  0N ES   1   2244 18.54                              94   -0.3310 60.3 179 
 626  0Z  IAML    2244 20.43         3.8 0.33                          60.3 179 
 631  0Z IP   0 D 2244 20.79   35                         50   -0.12 7  123 159 
 631  0N ES   0   2244 36.54                              50   -0.02 7  123 159 
 631  0Z  IAML    2244 39.67         1.7 0.16                           123 159 
                                                                                
 2017  3 2 1359 58.5 L  72.650 124.950  7.2  SLT  7 0.3 0.7LSLT 0.6CSLT        1
 GAP=198        0.71       2.3     4.7  2.5  0.3414E+01 -0.4514E+01  0.1899E+00E
 ACTION:ARG 20-12-21 03:09 OP:mn   STATUS:               ID:20170302140000     I
 2017-03-02-1400-00M.a_____039                                                 6
 STAT SP IPHASW D HRMM SECON CODA AMPLIT PERI AZIMU VELO AIN AR TRES W  DIS CAZ7
 620  0Z IP   0 C 14 0  2.62   12                        110   -0.0210 20.1 272 
 620  0N ES   0   14 0  5.48                             110   -0.2010 20.1 272 
 620  0Z  IAML    14 0  6.17        11.7 0.22                          20.1 272 
 623  0Z IP   2 C 14 0  7.90   23                         99    0.5610 45.2 143 
 623  0E ES   0   14 0 13.91                              99    0.1010 45.2 143 
 623  0Z  IAML    14 0 16.05         2.6 0.31                          45.2 143 
 624  0Z IP   0 C 14 0  7.90   21                         98    0.0610 48.4 113 
 624  0N ES   0   14 0 14.45                              98   -0.2210 48.4 113 
 624  0Z  IAML    14 0 14.90         4.1 0.20                          48.4 113 
 621  0Z IP   0 D 14 0  8.53   18                         98    0.0410 52.0 182 
 621  0E ES   0   14 0 15.65                              98   -0.1510 52.0 182 
 621  0Z  IAML    14 0 15.67         1.7 0.16                          52.0 182 
 628  0Z IP   0 C 14 0 12.90   19                         66   -0.04 9 78.8 110 
 628  0Z  IAML    14 0 22.84         2.9 0.36                          78.8 110 
 628  0N ES   1   14 0 23.10                              66   -0.40 9 78.8 110 
 626  0Z IP   0 D 14 0 15.66   34                         58    0.15 8 92.7 156 
 626  0N ES   1   14 0 27.55                              58   -0.40 8 92.7 156 
 626  0Z  IAML    14 0 28.04         1.5 0.25                          92.7 156 
 631  0Z IP   3 C 14 0 26.12   35                         37    0.82 6  160 149 
 631  0N ES   1   14 0 45.20                              37    0.32 6  160 149 
 631  0Z  IAML    14 0 47.10         2.3 0.16                           160 149 
                                                                                
 2017  3 4 2135  2.3 L  72.673 124.999  9.5  SLT  7 0.5 1.5LSLT 0.9CSLT        1
 GAP=207        1.19       5.7    14.6  4.8  0.5433E+02 -0.5267E+02 -0.1089E+02E
 ACTION:ARG 20-12-21 03:09 OP:mn   STATUS:               ID:20170304213342     I
 2017-03-04-2133-42M.a_____039                                                 6
 STAT SP IPHASW D HRMM SECON CODA AMPLIT PERI AZIMU VELO AIN AR TRES W  DIS CAZ7
 620  0Z IP   0 C 2135  6.89   22                        113    0.0210 21.8 265 
 620  0N ES   1   2135  9.93                             113   -0.3110 21.8 265 
 620  0Z  IAML    2135 10.05        86.0 0.13                          21.8 265 
 622  0Z IP   2 C 2135  8.63   25                        109    0.6310 27.8 158 
 622  0E ES   2   2135 12.74                             109    0.5410 27.8 158 
 622  0Z  IAML    2135 12.96        43.3 0.27                          27.8 158 
 623  0Z IP   0 D 2135 11.57   25                         66    0.2210 46.3 146 
 623  0E ES   0   2135 17.74                              66   -0.2410 46.3 146 
 623  0Z  IAML    2135 18.46        11.2 0.28                          46.3 146 
 625  0Z IP   1 C 2135 14.52   28                         66   -0.28 9 67.0 146 
 625  0N ES   3   2135 23.03                              66   -0.93 9 67.0 146 
 625  0Z  IAML    2135 24.79         5.7 0.30                          67.0 146 
 628  0Z IP   0 D 2135 16.21   34                         66   -0.22 9 78.1 112 
 628  0E ES   2   2135 26.07                              66   -0.72 9 78.1 112 
 628  0Z  IAML    2135 27.53        11.0 0.31                          78.1 112 
 630  0Z IP   2 C 2135 25.48   35                         44    0.62 7  131 119 
 630  0E ES   2   2135 41.91                              44    0.55 7  131 119 
 630  0Z  IAML    2135 43.85        28.1 0.25                           131 119 
 631  0Z IP   3 C 2135 29.65   45                         37    0.76 6  162 150 
 631  0N ES   2   2135 48.84                              37    0.51 6  162 150 
 631  0Z  IAML    2135 50.49         7.9 0.16                           162 150 
                                                                                
 2017  3 7 0447 20.4 L  72.681 125.010  8.9  SLT 10 0.5 1.8LSLT 1.4CSLT        1
 GAP=210        1.09       4.9    11.2  4.0  0.3716E+02 -0.3357E+02 -0.1079E+02E
 ACTION:ARG 20-12-21 03:09 OP:mn   STATUS:               ID:20170307044601     I
 2017-03-07-0446-01M.a_____039                                                 6
 STAT SP IPHASW D HRMM SECON CODA AMPLIT PERI AZIMU VELO AIN AR TRES W  DIS CAZ7
 620  0Z IP   0 C  447 25.10   28                        112    0.0710 22.3 262 
 620  0N ES   1    447 28.18                             112   -0.2510 22.3 262 
 620  0Z  IAML     447 28.45       381.6 0.12                          22.3 262 
 622  0Z IP   1 D  447 26.62   34                        107    0.3810 28.6 159 
 622  0E ES   1    447 30.86                             107    0.3510 28.6 159 
 622  0Z  IAML     447 31.27        70.8 0.22                          28.6 159 
 623  0Z IP   0 D  447 29.64   30                        101    0.0310 47.0 147 
 623  0E ES   0    447 36.57                             101    0.2210 47.0 147 
 623  0Z  IAML     447 37.13        23.8 0.25                          47.0 147 
 624  0Z IP   0 D  447 29.73   35                         66    0.0110 48.1 118 
 624  0E ES   0    447 36.78                              66    0.2310 48.1 118 
 624  0Z  IAML     447 37.43        56.6 0.20                          48.1 118 
 625  0Z IP   0 C  447 32.96   49                         66   -0.11 9 67.6 146 
 625  0N ES   3    447 41.46                              66   -0.88 9 67.6 146 
 625  0Z  IAML     447 42.87        11.5 0.26                          67.6 146 
 628  0Z IP   1 D  447 34.30   39                         66   -0.31 9 78.2 113 
 628  0E ES   1    447 44.74                              66   -0.26 9 78.2 113 
 628  0Z  IAML     447 45.61        24.7 0.35                          78.2 113 
 627  0Z IP   1 D  447 36.70   44                         58   -0.45 8 91.6 132 
 627  0N ES   2    447 48.67                              58   -0.72 8 91.6 132 
 627  0Z  IAML     447 48.90        10.6 0.36                          91.6 132 
 630  0Z IP   0 C  447 43.03   38                         44   -0.05 7  131 120 
 630  0N ES   1    448  0.14                              44    0.49 7  131 120 
 630  0Z  IAML     448  1.93        78.9 0.21                           131 120 
 631  0Z IP   1 D  447 47.59   48                         37    0.42 5  162 151 
 631  0E ES   1    448  7.03                              37    0.30 5  162 151 
 631  0Z  IAML     448  9.42        22.3 0.20                           162 151 
 632  0Z IP   3 D  447 51.04   71                         37    0.99 5  186 130 
 632  0N ES   4    448 13.95                              37    2.23 5  186 130 
 632  0Z  IAML     448 14.76        14.6 0.48                           186 130 
                                                                                
 2017  3 7 2016 50.1 L  72.674 124.939 15.1  SLT  6 0.1 1.2LSLT 0.9CSLT        1
 GAP=207        0.40       1.8     3.8  1.8  0.3424E+01 -0.3989E+01 -0.5179E+00E
 ACTION:ARG 20-12-21 03:09 OP:mn   STATUS:               ID:20170307201532     I
 2017-03-07-2015-32M.a_____039                                                 6
 STAT SP IPHASW D HRMM SECON CODA AMPLIT PERI AZIMU VELO AIN AR TRES W  DIS CAZ7
 620  0Z IP   0 D 2016 54.89   27                        123    0.1010 19.8 264 
 620  0N ES   0   2016 58.01                             123   -0.2110 19.8 264 
 620  0Z  IAML    2016 58.22        65.2 0.16                          19.8 264 
 622  0Z IP   0 D 2016 56.37   24                        112    0.1310 28.7 154 
 622  0E ES   0   2017  0.78                             112    0.0410 28.7 154 
 622  0Z  IAML    2017  0.95        37.3 0.29                          28.7 154 
 623  0Z IP   0 D 2016 59.49   30                        100    0.0910 47.6 144 
 623  0E ES   0   2017  6.12                             100   -0.0710 47.6 144 
 623  0Z  IAML    2017  7.13         6.9 0.23                          47.6 144 
 624  0Z IP   0 C 2016 59.78   34                         99    0.0910 49.8 116 
 624  0N ES   0   2017  6.58                              99   -0.1110 49.8 116 
 624  0Z  IAML    2017  7.53        13.6 0.15                          49.8 116 
 628  0Z IP   0 D 2017  4.31   28                         68    0.01 9 80.0 111 
 628  0E ES   0   2017 14.48                              68   -0.19 9 80.0 111 
 628  0Z  IAML    2017 14.92         9.4 0.24                          80.0 111 
 626  0Z IP   1 D 2017  7.15   41                         68    0.25 8 95.3 156 
 626  0E ES   0   2017 19.03                              68   -0.15 8 95.3 156 
 626  0Z  IAML    2017 19.78         3.2 0.39                          95.3 156 
                                                                                
 2017  3 9 1454  0.3 L  72.664 124.935 13.2  SLT  6 0.3 0.4LSLT 0.7CSLT        1
 GAP=204        0.65       2.4     5.9  3.3  0.5290E+01 -0.1311E+02 -0.2177E+01E
 ACTION:ARG 20-12-21 03:09 OP:mn   STATUS:               ID:20170309145250     I
 2017-03-09-1452-50M.a_____039                                                 6
 STAT SP IPHASW D HRMM SECON CODA AMPLIT PERI AZIMU VELO AIN AR TRES W  DIS CAZ7
 620  0Z IP   0 C 1454  4.93   13                        118    0.1210 19.6 267 
 620  0N ES   0   1454  7.99                             118   -0.1110 19.6 267 
 620  0Z  IAML    1454  8.42        17.6 0.33                          19.6 267 
 622  0Z IP   1 D 1454  6.51   27                        107    0.3010 27.8 153 
 622  0E ES   1   1454 10.77                             107    0.2510 27.8 153 
 622  0Z  IAML    1454 10.95         3.1 0.27                          27.8 153 
 624  0Z IP   0 D 1454  9.81   35                         96   -0.0010 49.5 114 
 624  0E ES   0   1454 16.64                              96   -0.1110 49.5 114 
 624  0Z  IAML    1454 17.03         1.7 0.11                          49.5 114 
 621  0Z IP   0 D 1454 10.38   25                         95   -0.1110 53.6 182 
 621  0E ES   1   1454 17.66                              95   -0.2510 53.6 182 
 621  0Z  IAML    1454 20.23         0.7 0.09                          53.6 182 
 628  0Z IP   0 D 1454 14.39   32                         68   -0.22 9 79.8 111 
 628  0E ES   1   1454 24.62                              68   -0.43 9 79.8 111 
 628  0Z  IAML    1454 25.78         1.0 0.14                          79.8 111 
 630  0Z IP   0 C 1454 22.92   32                         50    0.24 7  132 118 
 630  0E ES   2   1454 39.65                              50    0.65 7  132 118 
 630  0Z  IAML    1454 41.77         3.0 0.22                           132 118 
                                                                                
