 2017  4 5 0307 36.1 L  71.684 128.950 14.9  BER 11 0.2 1.0LBER 1.8CBER        1
 GAP=187        0.38       1.1     5.0  2.1  0.1579E+01  0.5184E+01 -0.7574E+00E
 ACTION:UP  20-12-21 00:10 OP:elen STATUS:               ID:20170405030618     I
 OLDACT:UP  20-12-20 01:44 OP:elen STATUS:               ID:20170405030618     3
 OLDACT:UP  20-12-16 21:32 OP:elen STATUS:               ID:20170405030618     3
 OLDACT:REG 20-12-13 13:11 OP:elen STATUS:               ID:20170405030618     3
 2017-04-05-0306-18M.NSN___039                                                 6
 STAT SP IPHASW D HRMM SECON CODA AMPLIT PERI AZIMU VELO AIN AR TRES W  DIS CAZ7
 632  0Z IP        3 7 39.22   48                        137   -0.1810 13.0 161 
 632  0N ES        3 7 42.07                             137    0.1610 13.0 161 
 632  0N  IAML     3 7 42.69        27.1 0.05                          13.0 161 
 630  0Z IP        3 7 44.47   65                        104   -0.08 9 48.8 334 
 630  0N ES        3 7 50.96                             104   -0.01 9 48.8 334 
 630  0E  IAML     3 7 51.40         6.5 0.12                          48.8 334 
 629  0Z IP        3 7 46.88   48                        100    0.04 8 63.3 296 
 629  0N ES        3 7 55.19                             100    0.18 8 63.3 296 
 629  0E  IAML     3 7 56.96         2.5 0.13                          63.3 296 
 631  0Z IP        3 7 47.53   58                        100   -0.07 8 68.1 243 
 631  0N ES        3 7 56.26                             100   -0.08 8 68.1 243 
 631  0N  IAML     3 7 56.72         6.8 0.14                          68.1 243 
 627  0Z IP        3 7 50.25   43                         98    0.16 8 83.6 306 
 627  0N ES        3 8  1.00                              98    0.29 8 83.6 306 
 627  0E  IAML     3 8  1.36         3.5 0.22                          83.6 306 
 628  0Z IP        3 7 52.64   55                         96   -0.26 7  101 323 
 628  0N ES        3 8  5.23                              96   -0.43 7  101 323 
 628  0E  IAML     3 8  7.84         6.4 0.21                           101 323 
 626  0Z IP        3 7 53.31   55                         96   -0.07 7  104 284 
 626  0N ES        3 8  6.21                              96   -0.30 7  104 284 
 626  0E  IAML     3 8  9.71         7.5 0.24                           104 284 
 624  0Z IP        3 7 57.38   55                         95    0.26 6  128 315 
 624  0N ES        3 8 13.29                              95    0.20 6  128 315 
 624  0N  IAML     3 8 15.76         6.6 0.19                           128 315 
 623  0Z IP        3 7 57.86   54                         95    0.13 6  131 305 
 623  0N ES        3 8 14.04                              95   -0.13 6  131 305 
 623  0E  IAML     3 8 17.30         2.9 0.24                           131 305 
 621  0Z IP        3 8  0.75   54                         58    0.20 5  151 294 
 621  0N ES        3 8 19.13                              58   -0.01 5  151 294 
 621  0E  IAML     3 8 21.93         2.3 0.14                           151 294 
 622  0Z IP        3 8  0.73   57                         58    0.22 5  151 306 
 622  0N ES        3 8 19.09                              58    0.03 5  151 306 
 622  0N  IAML     3 8 21.09         5.1 0.20                           151 306 

 2017  4 5 0307 36.1 L  71.681 128.957 15.3  BER 10 0.2 1.0LBER 2.0CBER        1
 GAP=198        0.41       1.5     5.8  2.4  0.3283E+01  0.5423E+01 -0.1463E+01E
 ACTION:UP  20-12-21 00:33 OP:elen STATUS:               ID:20170405030650     I
 OLDACT:UP  20-12-20 02:02 OP:elen STATUS:               ID:20170405030650     3
 OLDACT:UP  20-12-16 23:26 OP:elen STATUS:               ID:20170405030650     3
 OLDACT:REG 20-12-13 13:16 OP:elen STATUS:               ID:20170405030650     3
 2017-04-05-0306-50M.NSN___039                                                 6
 STAT SP IPHASW D HRMM SECON CODA AMPLIT PERI AZIMU VELO AIN AR TRES W  DIS CAZ7
 632  0Z IP        3 7 39.21   74                        139   -0.1710 12.6 161 
 632  0N ES        3 7 42.08                             139    0.1810 12.6 161 
 632  0N  IAML     3 7 42.69        26.9 0.04                          12.6 161 
 629  0Z IP        3 7 46.83   63                        101   -0.05 8 63.6 297 
 629  0N ES        3 7 55.19                             101    0.10 8 63.6 297 
 629  0E  IAML     3 7 56.96         2.5 0.14                          63.6 297 
 631  0Z IP        3 7 47.53   78                        100   -0.07 8 68.2 243 
 631  0N ES        3 7 56.25                             100   -0.11 8 68.2 243 
 631  0N  IAML     3 7 56.72         6.9 0.15                          68.2 243 
 627  0Z IP        3 7 50.24   59                         98    0.12 8 84.0 306 
 627  0N ES        3 8  1.01                              98    0.21 8 84.0 306 
 627  0E  IAML     3 8  1.36         3.5 0.22                          84.0 306 
 628  0Z IP        3 7 52.64   64                         96   -0.29 7  102 323 
 628  0N ES        3 8  5.21                              96   -0.53 7  102 323 
 628  0E  IAML     3 8  7.84         6.3 0.23                           102 323 
 626  0Z IP        3 7 53.30   55                         96   -0.11 7  105 284 
 626  0N ES        3 8  6.38                              96   -0.20 7  105 284 
 626  0E  IAML     3 8  9.71         7.4 0.23                           105 284 
 624  0Z IP        3 7 57.28   56                         95    0.13 6  128 315 
 624  0N ES        3 8 13.30                              95    0.12 6  128 315 
 624  0N  IAML     3 8 15.76         6.6 0.21                           128 315 
 623  0Z IP        3 7 58.00   61                         95    0.24 6  132 305 
 623  0N ES        3 8 14.60                              95    0.35 6  132 305 
 623  0E  IAML     3 8 17.30         3.0 0.25                           132 305 
 622  0Z IP        3 8  0.73   76                         58    0.23 5  151 306 
 622  0N ES        3 8 19.30                              58    0.24 5  151 306 
 622  0N  IAML     3 8 21.09         5.1 0.19                           151 306 
 621  0Z IP        3 8  0.61   76                         58    0.08 5  152 294 
 621  0N ES        3 8 19.05                              58   -0.08 5  152 294 
 621  0E  IAML     3 8 21.93         2.4 0.14                           152 294 

 2017  4 6 1728  1.0 L  72.723 125.692 21.3  BER 10 0.3 0.9LBER 1.9CBER        1
 GAP=225        0.61       2.8     5.6  2.6  0.4997E+01 -0.6165E+01 -0.1972E+01E
 ACTION:UP  20-12-21 12:27 OP:elen STATUS:               ID:20170406172639     I
 OLDACT:UP  20-12-20 10:56 OP:elen STATUS:               ID:20170406172639     3
 OLDACT:UP  20-12-17 22:23 OP:elen STATUS:               ID:20170406172639     3
 OLDACT:REG 20-12-15 19:37 OP:elen STATUS:               ID:20170406172639     3
 2017-04-06-1726-39M.NSN___039                                                 6
 STAT SP IPHASW D HRMM SECON CODA AMPLIT PERI AZIMU VELO AIN AR TRES W  DIS CAZ7
 624  0Z IP       1728  7.81   52                        121    0.1710 33.8 145 
 624  0N ES       1728 12.77                             121    0.1210 33.8 145 
 624  0N  IAML    1728 13.91         6.5 0.11                          33.8 145 
 622  0Z IP       1728  7.84   49                        121    0.1910 33.9 202 
 622  0N ES       1728 12.73                             121    0.0610 33.9 202 
 622  0E  IAML    1728 14.00        10.3 0.41                          33.9 202 
 623  0Z IP       1728  9.42   62                        114    0.2510 44.4 177 
 623  0N ES       1728 15.48                             114    0.1410 44.4 177 
 623  0E  IAML    1728 17.38         3.3 0.15                          44.4 177 
 620  0Z IP       1728  9.28   53                        113   -0.0310 45.4 261 
 620  0N ES       1728 15.28                             113   -0.3110 45.4 261 
 620  0E  IAML    1728 15.49        25.5 0.18                          45.4 261 
 628  0Z IP       1728 11.58   47                        107   -0.04 9 60.6 126 
 628  0N ES       1728 19.31                             107   -0.34 9 60.6 126 
 628  0N  IAML    1728 19.87        12.7 0.25                          60.6 126 
 621  0Z IP       1728 12.54   57                        106    0.09 9 66.0 205 
 621  0N ES       1728 21.02                             106   -0.09 9 66.0 205 
 621  0E  IAML    1728 21.75         2.5 0.16                          66.0 205 
 626  0Z IP       1728 16.77   51                        101   -0.07 8 94.0 173 
 626  0E ES       1728 28.24                             101   -0.60 8 94.0 173 
 626  0N  IAML    1728 29.14         1.6 0.15                          94.0 173 
 630  0Z IP       1728 19.73   74                         58   -0.20 7  115 128 
 630  0N ES       1728 33.53                              58   -0.75 7  115 128 
 630  0E  IAML    1728 34.32         3.9 0.15                           115 128 
 631  0Z IP       1728 26.31   93                         58    0.55 5  157 159 
 631  0N ES       1728 44.89                              58    0.35 5  157 159 
 631  0E  IAML    1728 46.34         3.2 0.16                           157 159 
 632  0Z IP       1728 28.58   90                         58    0.69 5  173 136 
 632  0N ES       1728 48.98                              58    0.70 5  173 136 
 632  0E  IAML    1728 50.06         4.5 0.31                           173 136 

 2017  4 8 1004 44.9 L  72.613 124.950 15.2  BER 12 0.3 1.5LBER 2.6CBER        1
 GAP=184        0.54       2.4     5.6  2.8  0.8413E+01 -0.5357E+01 -0.1883E+00E
 ACTION:UP  20-12-21 14:32 OP:elen STATUS:               ID:20170408100319     I
 OLDACT:UP  20-12-20 16:21 OP:elen STATUS:               ID:20170408100319     3
 OLDACT:UP  20-12-19 02:06 OP:elen STATUS:               ID:20170408100319     3
 OLDACT:REG 20-12-15 20:09 OP:elen STATUS:               ID:20170408100319     3
 2017-04-08-1003-19M.NSN___039                                                 6
 STAT SP IPHASW D HRMM SECON CODA AMPLIT PERI AZIMU VELO AIN AR TRES W  DIS CAZ7
 620  0Z IP       10 4 49.10   78                        124   -0.0210 20.6 283 
 620  0N ES       10 4 52.40                             124    0.0410 20.6 283 
 620  0E  IAML    10 4 52.80       171.2 0.15                          20.6 283 
 622  0Z IP       10 4 49.30   86                        121   -0.0910 22.6 147 
 622  0N ES       10 4 52.82                             121   -0.0210 22.6 147 
 622  0E  IAML    10 4 53.10        74.9 0.37                          22.6 147 
 623  0Z IP       10 4 52.26   80                        107   -0.01 9 42.0 139 
 623  0N ES       10 4 58.11                             107    0.21 9 42.0 139 
 623  0N  IAML    10 4 59.03        75.1 0.25                          42.0 139 
 624  0Z IP       10 4 53.11   93                        105    0.09 9 46.9 108 
 624  0N ES       10 4 59.48                             105    0.25 9 46.9 108 
 624  0N  IAML    10 5  1.03        27.4 0.11                          46.9 108 
 625  0Z IP       10 4 55.37  106                        101   -0.13 8 62.6 141 
 625  0N ES       10 5  3.50                             101   -0.09 8 62.6 141 
 625  0N  IAML    10 5  3.88         8.5 0.32                          62.6 141 
 628  0Z IP       10 4 57.62  104                         99   -0.23 8 77.5 107 
 628  0N ES       10 5  7.40                              99   -0.33 8 77.5 107 
 628  0E  IAML    10 5  8.95        21.9 0.21                          77.5 107 
 627  0Z IP       10 4 59.88  107                         97    0.31 8 88.2 128 
 627  0N ES       10 5 11.19                              97    0.43 8 88.2 128 
 627  0N  IAML    10 5 12.24         8.1 0.25                          88.2 128 
 626  0Z IP       10 4 59.53   99                         97   -0.16 8 88.9 155 
 626  0E ES       10 5 10.66                              97   -0.30 8 88.9 155 
 626  0E  IAML    10 5 11.00         8.5 0.17                          88.9 155 
 629  0Z IP       10 5  3.50   89                         96    0.31 7  111 132 
 629  0N ES       10 5 17.47                              96    0.35 7  111 132 
 629  0E  IAML    10 5 18.54         6.7 0.21                           111 132 
 630  0Z IP       10 5  5.80   97                         95   -0.32 6  129 116 
 630  0N ES       10 5 21.43                              95   -0.86 6  129 116 
 630  0E  IAML    10 5 25.71        18.6 0.18                           129 116 
 631  0Z IP       10 5 10.15  104                         58    0.10 5  157 149 
 631  0E ES       10 5 28.84                              58   -0.36 5  157 149 
 631  0N  IAML    10 5 30.82        14.2 0.13                           157 149 
 632  0Z IP       10 5 14.26  104                         58    0.65 4  183 127 
 632  0N ES       10 5 35.96                              58    0.49 4  183 127 
 632  0E  IAML    10 5 36.82        10.4 0.35                           183 127 

 2017  4 8 1004 44.9 L  72.607 124.944 15.0  BER 13 0.3 1.4LBER 2.8CBER        1
 GAP=181        0.52       1.8     4.4  2.6  0.3423E+01 -0.4030E+01  0.1362E+00E
 ACTION:UP  20-12-21 15:15 OP:elen STATUS:               ID:20170408100354     I
 OLDACT:UP  20-12-20 16:45 OP:elen STATUS:               ID:20170408100354     3
 OLDACT:UP  20-12-19 13:04 OP:elen STATUS:               ID:20170408100354     3
 OLDACT:REG 20-12-19 09:34 OP:elen STATUS:               ID:20170408100354     3
 2017-04-08-1003-54M.NSN___039                                                 6
 STAT SP IPHASW D HRMM SECON CODA AMPLIT PERI AZIMU VELO AIN AR TRES W  DIS CAZ7
 620  0Z IP       10 4 49.12   92                        124   -0.0110 20.6 285 
 620  0N ES       10 4 52.40                             124    0.0410 20.6 285 
 620  0E  IAML    10 4 52.80       170.6 0.15                          20.6 285 
 622  0Z IP       10 4 49.31  112                        122   -0.0410 22.2 146 
 622  0N ES       10 4 52.78                             122    0.0310 22.2 146 
 622  0E  IAML    10 4 53.18        75.7 0.20                          22.2 146 
 623  0Z IP       10 4 52.27  100                        107    0.03 9 41.7 138 
 623  0N ES       10 4 58.13                             107    0.30 9 41.7 138 
 623  0N  IAML    10 4 59.15        73.9 0.30                          41.7 138 
 624  0Z IP       10 4 53.13  119                        105    0.08 9 46.9 108 
 624  0N ES       10 4 59.48                             105    0.22 9 46.9 108 
 624  0N  IAML    10 5  1.02        33.6 0.15                          46.9 108 
 621  0Z IP       10 4 52.92   98                        105   -0.18 9 47.2 182 
 621  0N ES       10 4 59.20                             105   -0.15 9 47.2 182 
 621  0E  IAML    10 5  1.72        20.3 0.22                          47.2 182 
 625  0Z IP       10 4 55.33  121                        101   -0.14 9 62.3 140 
 625  0N ES       10 5  3.31                             101   -0.20 9 62.3 140 
 625  0N  IAML    10 5  3.88         8.4 0.32                          62.3 140 
 628  0Z IP       10 4 57.63  111                         98   -0.26 8 77.5 106 
 628  0N ES       10 5  7.38                              98   -0.39 8 77.5 106 
 628  0E  IAML    10 5  8.94        21.7 0.19                          77.5 106 
 627  0Z IP       10 4 59.89  107                         97    0.32 8 88.0 127 
 627  0N ES       10 5 11.08                              97    0.35 8 88.0 127 
 627  0N  IAML    10 5 12.24         8.1 0.25                          88.0 127 
 626  0Z IP       10 4 59.78  122                         97    0.14 8 88.4 155 
 626  0N ES       10 5 10.85                              97    0.00 8 88.4 155 
 626  0E  IAML    10 5 11.00         8.5 0.18                          88.4 155 
 629  0Z IP       10 5  3.42  112                         96    0.24 7  111 132 
 629  0N ES       10 5 17.26                              96    0.18 7  111 132 
 629  0E  IAML    10 5 18.54         6.7 0.20                           111 132 
 630  0Z IP       10 5  5.81  123                         95   -0.33 6  129 116 
 630  0N ES       10 5 21.44                              95   -0.86 6  129 116 
 630  0E  IAML    10 5 25.71        18.5 0.18                           129 116 
 631  0Z IP       10 5 10.17  120                         58    0.13 5  156 148 
 631  0N ES       10 5 28.83                              58   -0.32 5  156 148 
 631  0N  IAML    10 5 30.82        14.2 0.13                           156 148 
 632  0Z IP       10 5 14.26  118                         58    0.63 4  183 127 
 632  0N ES       10 5 35.99                              58    0.52 4  183 127 
 632  0E  IAML    10 5 37.29         8.6 0.16                           183 127 

