 2016  822 1318 49.5 L  72.365 127.084 16.5  BER  8 0.1 0.6LBER 1.4CBER        1
 GAP= 98        0.34       1.0     2.7  1.8  0.1007E+01  0.1707E+01  0.7603E+00E
 ACTION:UP  21-01-08 22:12 OP:elen STATUS:               ID:20160822131743     I
 OLDACT:REG 21-01-08 15:24 OP:elen STATUS:               ID:20160822131743     3
 2016-08-22-1317-43M.arct__039                                                 6
 STAT SP IPHASW D HRMM SECON CODA AMPLIT PERI AZIMU VELO AIN AR TRES W  DIS CAZ7
 628  0Z IP       1318 52.33   40                        164    0.0210 4.47  28 
 628  0N ES       1318 54.47                             164    0.0110 4.47  28 
 628  0N  IAML    1318 54.58        79.2 0.14                          4.47  28 
 627  0Z IP       1318 54.86   31                        118    0.02 9 27.9 187 
 627  0E ES       1318 58.85                             118   -0.08 9 27.9 187 
 627  0E  IAML    1318 59.21        13.9 0.14                          27.9 187 
 624  0Z IP       1318 55.20   43                        116    0.06 9 30.0 295 
 624  0N ES       1318 59.45                             116   -0.01 9 30.0 295 
 624  0N  IAML    1319  0.17         9.4 0.19                          30.0 295 
 625  0Z IP       1318 56.77   43                        110    0.22 9 39.4 238 
 625  0N ES       1319  2.17                             110    0.24 9 39.4 238 
 625  0E  IAML    1319  5.64         3.4 0.36                          39.4 238 
 623  0Z IP       1318 57.42   36                        107    0.02 9 45.0 265 
 623  0E ES       1319  3.30                             107   -0.14 9 45.0 265 
 623  0E  IAML    1319  3.64         2.5 0.18                          45.0 265 
 630  0Z IP       1318 58.72   48                        105    0.04 8 53.3 127 
 630  0E ES       1319  5.54                             105   -0.14 8 53.3 127 
 630  0E  IAML    1319  6.59         4.5 0.17                          53.3 127 
 622  0Z IP       1318 59.79   39                        103   -0.01 8 60.4 279 
 622  0N ES       1319  7.38                             103   -0.27 8 60.4 279 
 622  0N  IAML    1319  8.26         2.5 0.11                          60.4 279 
 626  0Z IP       1319  0.46   48                        102    0.07 8 64.2 215 
 626  0N ES       1319  8.56                             102   -0.14 8 64.2 215 
 626  0N  IAML    1319 10.91         1.7 0.06                          64.2 215 

 2016 10 9 0036 44.7 L  72.872 124.993 17.2  BER  8 0.3 1.3LBER 1.4CBER        1
 GAP=264        0.54       3.5     7.7  3.6  0.5444E+01 -0.1727E+02 -0.4751E+01E
 ACTION:ARG 20-04-11 14:12 OP:mn   STATUS:               ID:20161009003553     I
 2016-10-09-0035-53M.SIOLA_039                                                 6
 STAT SP IPHASW D HRMM SECON CODA AMPLIT PERI AZIMU VELO AIN AR TRES W  DIS CAZ7
 620  0Z IP     C  036 50.84   52                        116    0.0310 32.4 222 
 620  0N ES        036 55.36                             116   -0.0710 32.4 222 
 620  0Z  IAML     036 56.58        17.0 0.10                          32.4 222 
 622  0Z IP     D  036 53.46   45                        107    0.13 9 49.1 167 
 622  0N ES        036 59.76                             107   -0.12 9 49.1 167 
 622  0Z  IAML     037  0.06        25.9 0.26                          49.1 167 
 623  0Z IP     C  036 56.30   31                        102    0.32 9 66.1 157 
 623  0N ES        037  4.89                             102    0.35 9 66.1 157 
 623  0Z  IAML     037  5.81         6.2 0.16                          66.1 157 
 621  0Z IP     C  036 57.58   30                        100   -0.10 8 76.9 183 
 621  0N ES        037  7.24                             100   -0.29 8 76.9 183 
 621  0Z  IAML     037  8.38        14.7 0.25                          76.9 183 
 628  0Z IP     C  036 59.56   41                         99   -0.06 8 89.0 125 
 628  0E ES        037 10.72                              99   -0.22 8 89.0 125 
 628  0Z  IAML     037 11.62        12.3 0.18                          89.0 125 
 629  0Z IP     C  037  6.49   34                         58    0.27 6  131 142 
 629  0N ES        037 23.04                              58    0.48 6  131 142 
 629  0Z  IAML     037 23.64         7.5 0.18                           131 142 
 630  0Z IP     C  037  7.39   41                         58   -0.46 6  143 127 
 630  0E ES        037 24.67                              58   -0.75 6  143 127 
 630  0Z  IAML     037 26.44         5.9 0.13                           143 127 
 632  0Z IP     C  037 15.92   58                         58    0.17 4  201 134 
 632  0E ES        037 39.74                              58    0.41 4  201 134 
 632  0Z  IAML     037 40.61         5.6 0.22                           201 134 

 2017  3 4 2135  2.9 L  72.688 124.942 13.4  BER  7 0.3 1.3LBER 0.9CBER        1
 GAP=213        0.61       3.8     7.9  4.9  0.1884E+02 -0.2365E+02 -0.4721E+01E
 ACTION:ARG 20-12-21 03:09 OP:mn   STATUS:               ID:20170304213342     I
 2017-03-04-2133-42M.a_____039                                                 6
 STAT SP IPHASW D HRMM SECON CODA AMPLIT PERI AZIMU VELO AIN AR TRES W  DIS CAZ7
 620  0Z IP     C 2135  6.89   22                        121   -0.0710 20.1 260 
 620  0N ES       2135  9.93                             121   -0.1110 20.1 260 
 620  0Z  IAML    2135 10.05        86.0 0.13                          20.1 260 
 622  0Z IP     C 2135  8.63   25                        111    0.2210 30.1 155 
 622  0E ES       2135 12.74                             111    0.1510 30.1 155 
 622  0Z  IAML    2135 12.96        43.3 0.27                          30.1 155 
 623  0Z IP     D 2135 11.57   25                        102    0.26 9 48.8 145 
 623  0E ES       2135 17.74                             102    0.04 9 48.8 145 
 623  0Z  IAML    2135 18.46        11.2 0.28                          48.8 145 
 625  0Z IP     C 2135 14.52   28                         98   -0.08 8 69.5 145 
 625  0N ES       2135 23.03                              98   -0.45 8 69.5 145 
 625  0Z  IAML    2135 24.79         5.7 0.30                          69.5 145 
 628  0Z IP     D 2135 16.21   34                         97   -0.16 8 80.5 112 
 628  0E ES       2135 26.07                              97   -0.52 8 80.5 112 
 628  0Z  IAML    2135 27.53        11.0 0.31                          80.5 112 
 630  0Z IP     C 2135 25.48   35                         94    0.66 6  133 119 
 630  0E ES       2135 41.91                              94    0.43 6  133 119 
 630  0Z  IAML    2135 43.85        28.1 0.25                           133 119 
 631  0Z IP     C 2135 29.65   45                         58    0.39 5  164 150 
 631  0N ES       2135 48.84                              58   -0.44 5  164 150 
 631  0Z  IAML    2135 50.49         7.9 0.16                           164 150 

 2017  3 7 0447 21.0 L  72.694 124.924 14.2  BER 10 0.2 1.7LBER 1.4CBER        1
 GAP=216        0.48       2.7     5.2  3.1  0.7479E+01 -0.8698E+01 -0.1596E+01E
 ACTION:ARG 20-12-21 03:09 OP:mn   STATUS:               ID:20170307044601     I
 2017-03-07-0446-01M.a_____039                                                 6
 STAT SP IPHASW D HRMM SECON CODA AMPLIT PERI AZIMU VELO AIN AR TRES W  DIS CAZ7
 620  0Z IP     C  447 25.10   28                        123    0.0310 19.7 257 
 620  0N ES        447 28.18                             123    0.0310 19.7 257 
 620  0Z  IAML     447 28.45       381.6 0.12                          19.7 257 
 622  0Z IP     D  447 26.62   34                        112   -0.0710 31.0 155 
 622  0E ES        447 30.86                             112   -0.1510 31.0 155 
 622  0Z  IAML     447 31.27        70.8 0.22                          31.0 155 
 623  0Z IP     D  447 29.64   30                        103    0.05 9 49.7 145 
 623  0E ES        447 36.57                             103    0.47 9 49.7 145 
 623  0Z  IAML     447 37.13        23.8 0.25                          49.7 145 
 624  0Z IP     D  447 29.73   35                        102   -0.10 9 51.3 118 
 624  0E ES        447 36.78                             102    0.25 9 51.3 118 
 624  0Z  IAML     447 37.43        56.6 0.20                          51.3 118 
 625  0Z IP     C  447 32.96   49                         99    0.10 8 70.4 145 
 625  0N ES        447 41.46                              99   -0.41 8 70.4 145 
 625  0Z  IAML     447 42.87        11.5 0.26                          70.4 145 
 628  0Z IP     D  447 34.30   39                         97   -0.31 8 81.3 113 
 628  0E ES        447 44.74                              97   -0.21 8 81.3 113 
 628  0Z  IAML     447 45.61        24.7 0.35                          81.3 113 
 627  0Z IP     D  447 36.70   44                         96   -0.05 7 94.7 132 
 627  0N ES        447 48.67                              96   -0.04 7 94.7 132 
 627  0Z  IAML     447 48.90        10.6 0.36                          94.7 132 
 630  0Z IP     C  447 43.03   38                         94   -0.04 6  134 119 
 630  0N ES        448  0.14                              94    0.30 6  134 119 
 630  0Z  IAML     448  1.93        78.9 0.21                           134 119 
 631  0Z IP     D  447 47.59   48                         58    0.17 5  165 150 
 631  0E ES        448  7.03                              58   -0.47 5  165 150 
 631  0Z  IAML     448  9.42        22.3 0.20                           165 150 
 632  0Z IP     D  447 51.04   71                         58    0.32 4  189 129 
 632  0N ES        448 13.95                              58    0.65 4  189 129 
 632  0Z  IAML     448 14.76        14.6 0.48                           189 129 

 2017  313 0553 59.1 L  72.698 124.923 15.1  BER  9 0.2 1.0LBER 1.4CBER        1
 GAP=217        0.48       2.2     4.6  2.6  0.3595E+01 -0.6467E+01 -0.8871E+00E
 ACTION:ARG 20-12-21 03:09 OP:mn   STATUS:               ID:20170313055233     I
 2017-03-13-0552-33M.a_____039                                                 6
 STAT SP IPHASW D HRMM SECON CODA AMPLIT PERI AZIMU VELO AIN AR TRES W  DIS CAZ7
 620  0Z IP     C  554  3.31   33                        125    0.0210 19.8 256 
 620  0N ES        554  6.41                             125   -0.0310 19.8 256 
 620  0Z  IAML     554  6.63        51.0 0.11                          19.8 256 
 622  0Z IP     D  554  4.88   42                        113   -0.0510 31.4 155 
 622  0E ES        554  9.34                             113    0.0110 31.4 155 
 622  0Z  IAML     554  9.50        13.0 0.16                          31.4 155 
 623  0Z IP     D  554  8.18   38                        104    0.38 9 50.1 145 
 623  0E ES        554 14.89                             104    0.50 9 50.1 145 
 623  0Z  IAML     554 16.90         6.3 0.22                          50.1 145 
 624  0Z IP     D  554  8.08   38                        103    0.05 9 51.5 118 
 624  0N ES        554 14.63                             103   -0.15 9 51.5 118 
 624  0Z  IAML     554 16.07        11.1 0.14                          51.5 118 
 621  0Z IP     C  554  8.88   33                        102   -0.06 9 57.3 181 
 621  0E ES        554 16.03                             102   -0.36 9 57.3 181 
 621  0Z  IAML     554 16.67         4.6 0.19                          57.3 181 
 628  0Z IP     D  554 12.56   44                         98   -0.23 8 81.5 113 
 628  0N ES        554 22.87                              98   -0.29 8 81.5 113 
 628  0Z  IAML     554 24.27         6.2 0.16                          81.5 113 
 627  0Z IP     D  554 15.02   50                         97    0.08 7 95.0 132 
 627  0N ES        554 26.90                              97   -0.05 7 95.0 132 
 627  0Z  IAML     554 31.39         2.7 0.14                          95.0 132 
 630  0Z IP     D  554 21.36   40                         58    0.11 6  134 120 
 630  0N ES        554 37.94                              58   -0.11 6  134 120 
 630  0Z  IAML     554 40.24        17.6 0.22                           134 120 
 631  0Z IP     D  554 25.86   55                         58    0.34 5  165 150 
 631  0E ES        554 45.43                              58   -0.14 5  165 150 
 631  0Z  IAML     554 47.39         5.4 0.37                           165 150 

 2017  326 0836 34.1 L  71.993 127.676 16.1  BER  7 0.1 1.5LBER 0.9CBER        1
 GAP=127        0.35       1.0     2.3  2.2  0.3496E+00 -0.2820E-01  0.4866E+00E
 ACTION:ARG 20-12-21 03:09 OP:mn   STATUS:               ID:20170326083527     I
 2017-03-26-0835-27M.a_____039                                                 6
 STAT SP IPHASW D HRMM SECON CODA AMPLIT PERI AZIMU VELO AIN AR TRES W  DIS CAZ7
 629  0Z IP     C  836 37.77   15                        137    0.0810 14.4 240 
 629  0N ES        836 40.52                             137    0.0910 14.4 240 
 629  0Z  IAML     836 40.82       360.6 0.20                          14.4 240 
 630  0Z IP     D  836 38.91   22                        122    0.0010 24.1  67 
 630  0E ES        836 42.54                             122   -0.0410 24.1  67 
 630  0Z  IAML     836 43.12       190.9 0.17                          24.1  67 
 627  0Z IP     C  836 39.40   35                        118    0.0110 27.6 300 
 627  0N ES        836 43.30                             118   -0.1310 27.6 300 
 627  0Z  IAML     836 43.48        88.3 0.34                          27.6 300 
 625  0Z IP     D  836 44.17   34                        103    0.22 8 57.5 291 
 625  0E ES        836 51.55                             103    0.09 8 57.5 291 
 625  0Z  IAML     836 51.71        10.9 0.18                          57.5 291 
 626  0Z IP     D  836 43.96   29                        103   -0.06 8 58.0 259 
 626  0N ES        836 51.25                             103   -0.32 8 58.0 259 
 626  0Z  IAML     836 51.63        35.8 0.21                          58.0 259 
 632  0Z IP     D  836 45.56   41                        101    0.03 8 67.6 133 
 632  0E ES        836 54.09                             101   -0.15 8 67.6 133 
 632  0Z  IAML     836 55.46        17.7 0.12                          67.6 133 
 631  0Z IP     D  836 45.76   37                        101    0.16 8 68.0 193 
 631  0E ES        836 54.35                             101   -0.01 8 68.0 193 
 631  0Z  IAML     836 54.70        21.7 0.11                          68.0 193 

 2017  4 2 0422  1.0 L  72.722 125.690 21.9  BER 10 0.3 1.2LBER 1.8CBER        1
 GAP=225        0.62       2.8     5.7  2.6  0.5114E+01 -0.6218E+01 -0.1958E+01E
 ACTION:UP  20-12-20 22:46 OP:elen STATUS:               ID:20170402042039     I
 OLDACT:UP  20-12-20 00:44 OP:elen STATUS:               ID:20170402042039     3
 OLDACT:UP  20-12-16 20:09 OP:elen STATUS:               ID:20170402042039     3
 OLDACT:UP  20-12-16 14:06 OP:elen STATUS:               ID:20170402042039     3
 OLDACT:REG 20-12-12 10:59 OP:elen STATUS:               ID:20170402042039     3
 2017-04-02-0420-39M.NSN___039                                                 6
 STAT SP IPHASW D HRMM SECON CODA AMPLIT PERI AZIMU VELO AIN AR TRES W  DIS CAZ7
 622  0Z IP        422  7.79   47                        121    0.1310 33.7 202 
 622  0N ES        422 12.79                             121    0.0910 33.7 202 
 624  0Z IP        422  7.79   50                        121    0.1310 33.7 144 
 624  0N ES        422 12.83                             121    0.1310 33.7 144 
 624  0N  IAML     422 13.96        16.4 0.13                          33.7 144 
 622  0N  IAML     422 13.69        13.8 0.15                          33.7 202 
 623  0Z IP        422  9.41   48                        115    0.2410 44.3 177 
 623  0N ES        422 15.58                             115    0.2310 44.3 177 
 623  0E  IAML     422 17.17         7.4 0.15                          44.3 177 
 620  0Z IP        422  9.30   52                        114   -0.0210 45.3 261 
 620  0N ES        422 15.36                             114   -0.2510 45.3 261 
 620  0N  IAML     422 15.71        31.6 0.15                          45.3 261 
 628  0Z IP        422 11.53   56                        108   -0.09 9 60.6 126 
 628  0N ES        422 19.37                             108   -0.30 9 60.6 126 
 628  0N  IAML     422 19.92        27.0 0.25                          60.6 126 
 621  0Z IP        422 12.50   48                        106    0.07 9 65.8 205 
 621  0N ES        422 20.98                             106   -0.12 9 65.8 205 
 621  0E  IAML     422 21.82         5.2 0.18                          65.8 205 
 626  0Z IP        422 16.65   47                        101   -0.17 8 93.8 173 
 626  0N ES        422 28.16                             101   -0.66 8 93.8 173 
 626  0E  IAML     422 28.49         3.2 0.21                          93.8 173 
 630  0Z IP        422 19.71   62                         58   -0.15 7  115 128 
 630  0N ES        422 33.47                              58   -0.69 7  115 128 
 630  0E  IAML     422 34.42         8.4 0.10                           115 128 
 631  0Z IP        422 26.15   76                         58    0.48 5  157 159 
 631  0N ES        422 44.66                              58    0.26 5  157 159 
 631  0E  IAML     422 45.70         6.6 0.23                           157 159 
 632  0Z IP        422 28.64   56                         58    0.83 5  173 136 
 632  0N ES        422 49.00                              58    0.84 5  173 136 
 632  0E  IAML     422 50.12         7.9 0.31                           173 136 

