 2016 10 5 1619 46.9 L  72.877 125.015 19.0  BER  9 0.2 1.0LBER 0.4CBER        1
 GAP=264        0.50       3.0     5.9  3.0  0.3465E+01 -0.9131E+01 -0.3363E+01E
 ACTION:ARG 20-04-11 14:12 OP:mn   STATUS:               ID:20161005161823     I
 2016-10-05-1618-23M.SIOLA_039                                                 6
 STAT SP IPHASW D HRMM SECON CODA AMPLIT PERI AZIMU VELO AIN AR TRES W  DIS CAZ7
 620  0Z IP     C 1619 53.22   14                        118   -0.0110 33.3 222 
 620  0E ES       1619 57.77                             118   -0.2810 33.3 222 
 620  0Z  IAML    1619 58.27        10.0 0.26                          33.3 222 
 622  0Z IP     C 1619 55.67   24                        109    0.03 9 49.5 168 
 622  0N ES       1620  2.15                             109   -0.15 9 49.5 168 
 622  0Z  IAML    1620  2.41        12.4 0.26                          49.5 168 
 624  0Z IP     C 1619 57.78   12                        105    0.32 9 61.3 136 
 624  0E ES       1620  5.66                             105    0.17 9 61.3 136 
 624  0Z  IAML    1620  6.07        13.9 0.20                          61.3 136 
 623  0Z IP     D 1619 58.49   14                        104    0.25 9 66.3 158 
 623  0E ES       1620  7.08                             104    0.20 9 66.3 158 
 623  0Z  IAML    1620  8.02         7.1 0.21                          66.3 158 
 621  0Z IP     D 1620  0.03   18                        102    0.04 8 77.4 183 
 621  0N ES       1620 10.27                             102    0.31 8 77.4 183 
 621  0Z  IAML    1620 10.74         9.1 0.26                          77.4 183 
 628  0Z IP     D 1620  1.57   24                        100   -0.21 8 88.7 126 
 628  0E ES       1620 12.86                             100   -0.25 8 88.7 126 
 628  0Z  IAML    1620 13.38         4.9 0.14                          88.7 126 
 627  0Z IP     D 1620  4.99   37                         98    0.22 7  107 141 
 627  0E ES       1620 17.78                              98   -0.58 7  107 141 
 627  0Z  IAML    1620 18.01         3.3 0.70                           107 141 
 629  0Z IP     D 1620  8.38   25                         58    0.15 6  131 143 
 629  0E ES       1620 24.46                              58    0.01 6  131 143 
 629  0Z  IAML    1620 25.99         5.6 0.17                           131 143 
 630  0Z IP     D 1620  9.67   29                         58   -0.15 6  143 127 
 630  0E ES       1620 26.89                              58   -0.36 6  143 127 
 630  0Z  IAML    1620 27.89         4.1 0.22                           143 127 

 2017  3 2 1359 59.1 L  72.683 124.890 11.5  BER  7 0.2 0.5LBER 0.5CBER        1
 GAP=211        0.49       2.4     4.8  4.4  0.1869E+01 -0.1131E+02  0.2421E+01E
 ACTION:ARG 20-12-21 03:09 OP:mn   STATUS:               ID:20170302140000     I
 2017-03-02-1400-00M.a_____039                                                 6
 STAT SP IPHASW D HRMM SECON CODA AMPLIT PERI AZIMU VELO AIN AR TRES W  DIS CAZ7
 620  0Z IP     C 14 0  2.62   12                        119   -0.1610 18.3 260 
 620  0N ES       14 0  5.48                             119   -0.0710 18.3 260 
 620  0Z  IAML    14 0  6.17        11.7 0.22                          18.3 260 
 623  0Z IP     C 14 0  7.90   23                         99    0.33 9 49.4 143 
 623  0E ES       14 0 13.91                              99   -0.07 9 49.4 143 
 623  0Z  IAML    14 0 16.05         2.6 0.31                          49.4 143 
 624  0Z IP     C 14 0  7.90   21                         99   -0.05 9 51.7 116 
 624  0N ES       14 0 14.45                              99   -0.19 9 51.7 116 
 624  0Z  IAML    14 0 14.90         4.1 0.20                          51.7 116 
 621  0Z IP     D 14 0  8.53   18                         98   -0.04 9 55.7 180 
 621  0E ES       14 0 15.65                              98   -0.09 9 55.7 180 
 621  0Z  IAML    14 0 15.67         1.7 0.16                          55.7 180 
 628  0Z IP     C 14 0 12.90   19                         95    0.12 8 81.9 112 
 628  0Z  IAML    14 0 22.84         2.9 0.36                          81.9 112 
 628  0N ES       14 0 23.10                              95   -0.05 8 81.9 112 
 626  0Z IP     D 14 0 15.66   34                         94    0.48 7 96.8 156 
 626  0N ES       14 0 27.55                              94    0.17 7 96.8 156 
 626  0Z  IAML    14 0 28.04         1.5 0.25                          96.8 156 
 631  0Z IP     C 14 0 26.12   35                         58    0.41 5  165 149 
 631  0N ES       14 0 45.20                              58   -0.70 5  165 149 
 631  0Z  IAML    14 0 47.10         2.3 0.16                           165 149 

 2017  313 0809  5.6 L  72.450 125.088 14.9  BER  7 0.1 1.2LBER 1.3CBER        1
 GAP=132        0.28       0.7     2.2  3.0  0.4656E+00 -0.1236E+01 -0.2307E+00E
 ACTION:ARG 20-12-21 03:09 OP:mn   STATUS:               ID:20170313080741     I
 2017-03-13-0807-41M.a_____039                                                 6
 STAT SP IPHASW D HRMM SECON CODA AMPLIT PERI AZIMU VELO AIN AR TRES W  DIS CAZ7
 623  0Z IP     D  8 9 10.61   38                        117   -0.1010 26.6 121 
 623  0E ES        8 9 14.56                             117   -0.0110 26.6 121 
 623  0Z  IAML     8 9 15.47        41.9 0.23                          26.6 121 
 621  0Z IP     D  8 9 11.20   33                        113   -0.0810 30.5 193 
 621  0E ES        8 9 15.58                             113    0.0110 30.5 193 
 621  0Z  IAML     8 9 17.34        23.5 0.15                          30.5 193 
 620  0Z IP     D  8 9 11.72   34                        111   -0.0410 33.7 313 
 620  0N ES        8 9 16.45                             111    0.0410 33.7 313 
 620  0Z  IAML     8 9 17.87        44.7 0.14                          33.7 313 
 624  0Z IP     D  8 9 12.75   25                        107    0.0210 40.0  85 
 624  0N ES        8 9 18.26                             107    0.1410 40.0  85 
 624  0Z  IAML     8 9 18.61        42.4 0.14                          40.0  85 
 625  0Z IP     C  8 9 13.68   53                        105   -0.02 9 46.3 131 
 625  0N ES        8 9 19.84                             105    0.01 9 46.3 131 
 625  0Z  IAML     8 9 21.34        10.0 0.26                          46.3 131 
 628  0Z IP     D  8 9 17.39   42                         99    0.01 8 69.6  94 
 628  0N ES        8 9 26.13                              99   -0.18 8 69.6  94 
 628  0Z  IAML     8 9 27.51        18.6 0.24                          69.6  94 
 626  0Z IP     D  8 9 17.71   45                         99    0.17 8 70.6 152 
 626  0E ES        8 9 26.64                              99    0.06 8 70.6 152 
 626  0Z  IAML     8 9 26.87         6.5 0.21                          70.6 152 

 2017  317 1007 14.1 L  72.235 125.988  3.9  BER  7 0.2 0.5LBER 0.9CBER        1
 GAP=113        0.51       1.1     3.2  1.6  0.1304E+01 -0.7183E+00 -0.5991E+00E
 ACTION:ARG 20-12-21 03:09 OP:mn   STATUS:               ID:20170317100556     I
 2017-03-17-1005-56M.a_____039                                                 6
 STAT SP IPHASW D HRMM SECON CODA AMPLIT PERI AZIMU VELO AIN AR TRES W  DIS CAZ7
 625  0Z IP     C 10 7 15.52   28                        116   -0.1410 7.94 149 
 625  0E ES       10 7 17.05                             116    0.1910 7.94 149 
 625  0Z  IAML    10 7 17.31        20.4 0.18                          7.94 149 
 623  0Z IP     D 10 7 16.27   23                        107   -0.2010 12.8 323 
 623  0E ES       10 7 18.51                             107    0.2310 12.8 323 
 623  0Z  IAML    10 7 19.03        21.6 0.25                          12.8 323 
 624  0Z IP     C 10 7 19.09   37                         65   -0.07 9 28.6  20 
 624  0E ES       10 7 23.21                              65    0.19 9 28.6  20 
 624  0Z  IAML    10 7 23.77         9.2 0.17                          28.6  20 
 622  0Z IP     D 10 7 19.65   28                         65   -0.14 9 32.5 316 
 622  0E ES       10 7 24.34                              65    0.21 9 32.5 316 
 622  0Z  IAML    10 7 28.80         4.3 0.60                          32.5 316 
 621  0Z IP     C 10 7 20.43   28                         65   -0.24 9 37.9 262 
 621  0N ES       10 7 25.73                              65    0.06 9 37.9 262 
 621  0Z  IAML    10 7 27.08         9.0 0.28                          37.9 262 
 628  0Z IP     D 10 7 21.20   28                         65   -0.35 9 43.4  64 
 628  0N ES       10 7 27.17                              65   -0.06 9 43.4  64 
 628  0Z  IAML    10 7 28.42         8.2 0.15                          43.4  64 
 629  0Z IP     D 10 7 23.73   40                         65    0.00 8 56.9 126 
 629  0E ES       10 7 31.37                              65    0.31 8 56.9 126 
 629  0Z  IAML    10 7 32.24         3.3 0.27                          56.9 126 

 2017  320 1900 34.3 L  72.415 126.129 18.0  BER  7 0.1 0.6LBER 0.5CBER        1
 GAP=119        0.38       1.2     2.8  2.0 -0.5913E+00 -0.8801E-01  0.9422E+00E
 ACTION:ARG 20-12-21 03:09 OP:mn   STATUS:               ID:20170320190000     I
 2017-03-20-1900-00M.a_____039                                                 6
 STAT SP IPHASW D HRMM SECON CODA AMPLIT PERI AZIMU VELO AIN AR TRES W  DIS CAZ7
 624  0Z IP     D 19 0 37.68   22                        154    0.1210 8.41  36 
 624  0E ES       19 0 40.10                             154    0.0410 8.41  36 
 624  0Z  IAML    19 0 40.49        27.4 0.14                          8.41  36 
 623  0Z IP     C 19 0 38.40   17                        137    0.1510 15.9 232 
 623  0N ES       19 0 41.37                             137    0.0910 15.9 232 
 623  0Z  IAML    19 0 41.66        25.9 0.19                          15.9 232 
 625  0Z IP     D 19 0 39.68   20                        122    0.05 9 26.9 182 
 625  0N ES       19 0 43.66                             122   -0.04 9 26.9 182 
 625  0Z  IAML    19 0 44.10         2.9 0.17                          26.9 182 
 622  0Z IP     C 19 0 39.71   25                        121   -0.02 9 27.7 277 
 622  0N ES       19 0 43.71                             121   -0.18 9 27.7 277 
 622  0Z  IAML    19 0 44.04         5.4 0.12                          27.7 277 
 628  0Z IP     D 19 0 40.69   25                        115   -0.00 9 34.4  92 
 628  0N ES       19 0 45.33                             115   -0.25 9 34.4  92 
 628  0Z  IAML    19 0 46.85         8.3 0.26                          34.4  92 
 621  0Z IP     D 19 0 43.02   27                        108    0.08 9 49.3 239 
 621  0N ES       19 0 49.31                             108   -0.22 9 49.3 239 
 621  0Z  IAML    19 0 49.89         2.7 0.30                          49.3 239 
 626  0Z IP     C 19 0 44.66   24                        105    0.24 8 58.9 183 
 626  0N ES       19 0 52.05                             105   -0.09 8 58.9 183 
 626  0Z  IAML    19 0 52.41         4.2 0.32                          58.9 183 

 2017  414 0459 18.8 L  72.268 127.384 20.1  BER  7 0.1 0.5LBER 0.5CBER        1
 GAP=152        0.35       0.9     3.2  2.1  0.8692E+00  0.6018E+00  0.6197E+00E
 ACTION:UP  20-12-23 23:35 OP:elen STATUS:               ID:20170414045811     I
 OLDACT:REG 20-12-21 23:05 OP:elen STATUS:               ID:20170414045811     3
 2017-04-14-0458-11M.NSN___039                                                 6
 STAT SP IPHASW D HRMM SECON CODA AMPLIT PERI AZIMU VELO AIN AR TRES W  DIS CAZ7
 628  0Z IP        459 23.05   21                        139   -0.0410 16.8 332 
 628  0N ES        459 26.28                             139   -0.1010 16.8 332 
 628  0N  IAML     459 26.45        23.3 0.08                          16.8 332 
 627  0Z IP        459 23.80   19                        131    0.1510 21.7 219 
 627  0N ES        459 27.53                             131    0.1610 21.7 219 
 627  0N  IAML     459 28.15         7.8 0.21                          21.7 219 
 629  0Z IP        459 25.93   20                        116    0.10 9 37.9 184 
 629  0N ES        459 31.21                             116   -0.00 9 37.9 184 
 629  0N  IAML     459 31.83         2.1 0.37                          37.9 184 
 630  0Z IP        459 26.00   20                        115    0.05 9 38.7 123 
 630  0N ES        459 31.33                             115   -0.09 9 38.7 123 
 630  0E  IAML     459 31.56         2.7 0.16                          38.7 123 
 626  0Z IP        459 29.62   24                        106    0.02 8 62.8 228 
 626  0E ES        459 37.59                             106   -0.25 8 62.8 228 
 626  0N  IAML     459 37.71         1.9 0.21                          62.8 228 
 622  0Z IP        459 31.28   26                        103    0.12 8 72.7 286 
 622  0E ES        459 40.52                             103   -0.06 8 72.7 286 
 622  0E  IAML     459 41.08         1.3 0.14                          72.7 286 
 631  0Z IP        459 35.11                             100    0.11 7 97.1 183 
 631  0N ES        459 47.07                             100   -0.28 7 97.1 183 
 631  0E  IAML     459 47.29         3.2 0.19                          97.1 183 

 2017  416 0523 41.9 L  71.956 127.088 19.2  BER 13 0.2 1.6LBER 2.5CBER        1
 GAP= 84        0.44       0.9     2.7  1.5  0.8479E+00  0.1013E+01  0.2525E-01E
 ACTION:UP  20-12-26 19:23 OP:elen STATUS:               ID:20170416052232     I
 OLDACT:REG 20-12-24 20:31 OP:elen STATUS:               ID:20170416052232     3
 2017-04-16-0522-32M.NSN___039                                                 6
 STAT SP IPHASW D HRMM SECON CODA AMPLIT PERI AZIMU VELO AIN AR TRES W  DIS CAZ7
 629  0Z IP        523 45.45   82                        156    0.1010 8.35 111 
 629  0N ES        523 48.09                             156    0.0910 8.35 111 
 629  0N  IAML     523 48.18       179.5 0.06                          8.35 111 
 627  0Z IP        523 46.35   83                        135    0.0710 18.3 349 
 627  0N ES        523 49.70                             135    0.0710 18.3 349 
 627  0E  IAML     523 49.90       231.5 0.18                          18.3 349 
 626  0Z IP        523 48.77   80                        115   -0.03 9 37.2 259 
 626  0N ES        523 53.87                             115   -0.19 9 37.2 259 
 626  0N  IAML     523 53.97        63.4 0.13                          37.2 259 
 625  0Z IP        523 49.48   82                        113    0.03 9 41.6 306 
 625  0N ES        523 55.09                             113   -0.11 9 41.6 306 
 625  0N  IAML     523 55.32        56.1 0.21                          41.6 306 
 630  0Z IP        523 49.98   86                        111    0.07 9 44.7  72 
 630  0N ES        523 55.91                             111   -0.10 9 44.7  72 
 630  0E  IAML     523 56.36        36.3 0.12                          44.7  72 
 628  0Z IP        523 50.46   78                        109   -0.20 9 49.6   2 
 628  0N ES        523 56.76                             109   -0.57 9 49.6   2 
 628  0E  IAML     523 57.87        59.4 0.22                          49.6   2 
 623  0Z IP        523 52.70   88                        105    0.22 8 61.4 313 
 623  0N ES        524  0.64                             105    0.10 8 61.4 313 
 623  0E  IAML     524  0.98        12.3 0.17                          61.4 313 
 631  0Z IP        523 52.69   91                        105    0.07 8 62.4 175 
 631  0N ES        524  0.61                             105   -0.18 8 62.4 175 
 631  0E  IAML     524  0.91       108.1 0.18                          62.4 175 
 624  0Z IP        523 53.19   87                        104    0.26 8 64.3 335 
 624  0N ES        524  1.53                             104    0.20 8 64.3 335 
 624  0E  IAML     524  3.80        21.0 0.28                          64.3 335 
 621  0Z IP        523 55.38   86                        101    0.02 8 79.7 290 
 621  0N ES        524  5.30                             101   -0.30 8 79.7 290 
 621  0N  IAML     524 10.84        11.6 0.16                          79.7 290 
 622  0Z IP        523 55.88   87                        101    0.28 7 81.3 313 
 622  0E ES        524  6.15                             101    0.11 7 81.3 313 
 622  0E  IAML     524 12.01        20.7 0.15                          81.3 313 
 632  0Z IP        523 55.75   95                        101    0.14 7 81.4 121 
 632  0N ES        524  5.91                             101   -0.14 7 81.4 121 
 632  0E  IAML     524  8.88        12.0 0.12                          81.4 121 
 620  0Z IP        524  2.06  120                         58    0.21 6  121 311 
 620  0N ES        524 16.86                              58   -0.18 6  121 311 
 620  0E  IAML     524 20.08        17.2 0.19                           121 311 

 2017  423 1455 44.1 L  72.840 124.493 16.8  BER  8 0.2 0.6LBER 1.4CBER        1
 GAP=285        0.42       2.7     6.7  3.3  0.2029E+01 -0.1246E+02 -0.3691E+01E
 ACTION:UP  20-12-31 12:43 OP:elen STATUS:               ID:20170423145418     I
 OLDACT:REG 20-12-30 23:54 OP:elen STATUS:               ID:20170423145418     3
 2017-04-23-1454-18M.NSN___036                                                 6
 STAT SP IPHASW D HRMM SECON CODA AMPLIT PERI AZIMU VELO AIN AR TRES W  DIS CAZ7
 620  0Z IP       1455 48.50   35                        126   -0.1310 21.3 193 
 620  0N ES       1455 51.91                             126   -0.1510 21.3 193 
 620  0N  IAML    1455 52.17         7.5 0.26                          21.3 193 
 622  0Z IP       1455 53.26   37                        105    0.09 9 52.1 148 
 622  0N ES       1456  0.15                             105    0.10 9 52.1 148 
 622  0N  IAML    1456  0.80         2.6 0.14                          52.1 148 
 623  0Z IP       1455 56.38   39                        101    0.20 8 71.3 143 
 623  0N ES       1456  5.47                             101    0.12 8 71.3 143 
 623  0N  IAML    1456  7.34         2.3 0.20                          71.3 143 
 624  0Z IP       1455 56.49   45                        101    0.21 8 71.9 124 
 624  0N ES       1456  5.67                             101    0.15 8 71.9 124 
 624  0N  IAML    1456  7.60         2.5 0.13                          71.9 124 
 621  0Z IP       1455 56.84   32                        100    0.16 8 74.4 170 
 621  0E  IAML    1456  6.32         1.9 0.18                          74.4 170 
 621  0N ES       1456  6.34                             100    0.12 8 74.4 170 
 628  0Z IP       1456  0.83   54                         97   -0.12 7  101 118 
 628  0N ES       1456 13.28                              97   -0.46 7  101 118 
 628  0E  IAML    1456 14.87         2.2 0.23                           101 118 
 626  0Z IP       1456  3.70   45                         96    0.00 7  118 153 
 626  0N ES       1456 18.27                              96   -0.30 7  118 153 
 626  0E  IAML    1456 18.75         1.2 0.25                           118 153 
 630  0Z IP       1456  8.91   56                         58    0.05 5  155 122 
 630  0N ES       1456 27.27                              58   -0.40 5  155 122 
 630  0E  IAML    1456 28.26         3.0 0.26                           155 122 

