 2016  822 1318 48.8 L  72.364 127.056 19.4  SLT  8 0.3 0.8LSLT 1.2CSLT        1
 GAP=102        0.57       1.6     4.8  2.7  0.2394E+01  0.4051E+01  0.1483E+01E
 ACTION:UP  21-01-08 22:12 OP:elen STATUS:               ID:20160822131743     I
 OLDACT:REG 21-01-08 15:24 OP:elen STATUS:               ID:20160822131743     3
 2016-08-22-1317-43M.arct__039                                                 6
 STAT SP IPHASW D HRMM SECON CODA AMPLIT PERI AZIMU VELO AIN AR TRES W  DIS CAZ7
 628  0Z IP   1   1318 52.33   40                        165    0.29 7 5.04  37 
 628  0N ES   0   1318 54.47                             165    0.0410 5.04  37 
 628  0N  IAML    1318 54.58        79.2 0.14                          5.04  37 
 627  0Z IP   0   1318 54.86   31                        122    0.1510 27.7 185 
 627  0E ES   0   1318 58.85                             122   -0.2010 27.7 185 
 627  0E  IAML    1318 59.21        13.9 0.14                          27.7 185 
 624  0Z IP   0   1318 55.20   43                        121    0.1710 29.1 296 
 624  0N ES   0   1318 59.45                             121   -0.1510 29.1 296 
 624  0N  IAML    1319  0.17         9.4 0.19                          29.1 296 
 625  0Z IP   1   1318 56.77   43                        113    0.43 7 38.6 237 
 625  0N ES   1   1319  2.17                             113    0.29 7 38.6 237 
 625  0E  IAML    1319  5.64         3.4 0.36                          38.6 237 
 623  0Z IP   0   1318 57.42   36                        110    0.0310 44.1 265 
 623  0E ES   1   1319  3.30                             110   -0.38 7 44.1 265 
 623  0E  IAML    1319  3.64         2.5 0.18                          44.1 265 
 630  0Z IP   0   1318 58.72   48                        106   -0.1210 54.0 126 
 630  0E ES   2   1319  5.54                             106   -0.66 5 54.0 126 
 630  0E  IAML    1319  6.59         4.5 0.17                          54.0 126 
 622  0Z IP   0   1318 59.79   39                        104   -0.1110 59.5 279 
 622  0N ES   2   1319  7.38                             104   -0.64 5 59.5 279 
 622  0N  IAML    1319  8.26         2.5 0.11                          59.5 279 
 626  0Z IP   1   1319  0.46   48                        103    0.25 7 63.6 214 
 626  0N ES   0   1319  8.56                             103    0.00 9 63.6 214 
 626  0N  IAML    1319 10.91         1.7 0.06                          63.6 214 
                                                                                
 2016 10 5 1619 46.7 L  72.864 125.045 14.3  SLT  9 0.2 1.2LSLT 0.5CSLT        1
 GAP=260        0.39       2.0     3.7  2.0  0.1485E+01 -0.3429E+01 -0.1892E+01E
 ACTION:ARG 20-04-11 14:12 OP:mn   STATUS:               ID:20161005161823     I
 2016-10-05-1618-23M.SIOLA_039                                                 6
 STAT SP IPHASW D HRMM SECON CODA AMPLIT PERI AZIMU VELO AIN AR TRES W  DIS CAZ7
 620  0Z IP   0 C 1619 53.22   14                        108    0.1010 32.9 225 
 620  0E ES   0   1619 57.77                             108   -0.0610 32.9 225 
 620  0Z  IAML    1619 58.27        10.0 0.26                          32.9 225 
 622  0Z IP   0 C 1619 55.67   24                        100   -0.0210 47.9 169 
 622  0N ES   0   1620  2.15                             100   -0.1210 47.9 169 
 622  0Z  IAML    1620  2.41        12.4 0.26                          47.9 169 
 624  0Z IP   0 C 1619 57.78   12                         97    0.2110 59.5 136 
 624  0E ES   0   1620  5.66                              97    0.1210 59.5 136 
 624  0Z  IAML    1620  6.07        13.9 0.20                          59.5 136 
 623  0Z IP   0 D 1619 58.49   14                         97    0.01 9 64.6 158 
 623  0E ES   0   1620  7.08                              97   -0.03 9 64.6 158 
 623  0Z  IAML    1620  8.02         7.1 0.21                          64.6 158 
 621  0Z IP   0 D 1620  0.03   18                         95   -0.11 9 76.0 184 
 621  0N ES   1   1620 10.27                              95    0.29 7 76.0 184 
 621  0Z  IAML    1620 10.74         9.1 0.26                          76.0 184 
 628  0Z IP   1 D 1620  1.57   24                         94   -0.30 6 87.1 125 
 628  0E ES   0   1620 12.86                              94   -0.11 9 87.1 125 
 628  0Z  IAML    1620 13.38         4.9 0.14                          87.1 125 
 627  0Z IP   0 D 1620  4.99   37                         52   -0.07 8  106 141 
 627  0E ES   2   1620 17.78                              52   -0.71 4  106 141 
 627  0Z  IAML    1620 18.01         3.3 0.70                           106 141 
 629  0Z IP   0 D 1620  8.38   25                         52    0.07 7  129 143 
 629  0E ES   1   1620 24.46                              52    0.35 5  129 143 
 629  0Z  IAML    1620 25.99         5.6 0.17                           129 143 
 630  0Z IP   0 D 1620  9.67   29                         48   -0.12 6  141 127 
 630  0E ES   1   1620 26.89                              48    0.21 5  141 127 
 630  0Z  IAML    1620 27.89         4.1 0.22                           141 127 
                                                                                
 2016 10 9 0036 44.6 L  72.856 125.040 11.3  SLT  8 0.2 1.4LSLT 1.4CSLT        1
 GAP=259        0.39       2.1     4.0  3.2  0.1213E+01 -0.5778E+01 -0.2465E+01E
 ACTION:ARG 20-04-11 14:12 OP:mn   STATUS:               ID:20161009003553     I
 2016-10-09-0035-53M.SIOLA_039                                                 6
 STAT SP IPHASW D HRMM SECON CODA AMPLIT PERI AZIMU VELO AIN AR TRES W  DIS CAZ7
 620  0Z IP   0 C  036 50.84   52                        100    0.0610 32.1 226 
 620  0N ES   0    036 55.36                             100    0.0410 32.1 226 
 620  0Z  IAML     036 56.58        17.0 0.10                          32.1 226 
 622  0Z IP   0 D  036 53.46   45                         94    0.0810 47.0 169 
 622  0N ES   0    036 59.76                              94   -0.0610 47.0 169 
 622  0Z  IAML     037  0.06        25.9 0.26                          47.0 169 
 623  0Z IP   0 C  036 56.30   31                         93    0.08 9 63.8 158 
 623  0N ES   0    037  4.89                              93    0.17 9 63.8 158 
 623  0Z  IAML     037  5.81         6.2 0.16                          63.8 158 
 621  0Z IP   1 C  036 57.58   30                         92   -0.28 7 75.1 184 
 621  0N ES   1    037  7.24                              92   -0.33 7 75.1 184 
 621  0Z  IAML     037  8.38        14.7 0.25                          75.1 184 
 628  0Z IP   0 C  036 59.56   41                         92   -0.12 9 86.7 125 
 628  0E ES   0    037 10.72                              92    0.01 9 86.7 125 
 628  0Z  IAML     037 11.62        12.3 0.18                          86.7 125 
 629  0Z IP   0 C  037  6.49   34                         52    0.05 7  129 142 
 629  0N ES   2    037 23.04                              52    0.63 3  129 142 
 629  0Z  IAML     037 23.64         7.5 0.18                           129 142 
 630  0Z IP   2 C  037  7.39   41                         48   -0.59 3  141 127 
 630  0E ES   2    037 24.67                              48   -0.41 3  141 127 
 630  0Z  IAML     037 26.44         5.9 0.13                           141 127 
 632  0Z IP   0 C  037 15.92   58                         48    0.04 4  198 134 
 632  0E ES   3    037 39.74                              48    1.00 1  198 134 
 632  0Z  IAML     037 40.61         5.6 0.22                           198 134 
                                                                                
 2017  3 2 1359 58.8 L  72.665 124.950  5.9  SLT  7 0.1 0.7LSLT 0.6CSLT        1
 GAP=204        0.36       1.2     2.6  1.8  0.9153E+00 -0.2064E+01  0.3735E-01E
 ACTION:ARG 20-12-21 03:09 OP:mn   STATUS:               ID:20170302140000     I
 2017-03-02-1400-00M.a_____039                                                 6
 STAT SP IPHASW D HRMM SECON CODA AMPLIT PERI AZIMU VELO AIN AR TRES W  DIS CAZ7
 620  0Z IP   0 C 14 0  2.62   12                        106   -0.0610 20.1 267 
 620  0N ES   0   14 0  5.48                             106   -0.0610 20.1 267 
 620  0Z  IAML    14 0  6.17        11.7 0.22                          20.1 267 
 623  0Z IP   1 C 14 0  7.90   23                         97    0.38 7 46.6 144 
 623  0E ES   0   14 0 13.91                              97    0.0110 46.6 144 
 623  0Z  IAML    14 0 16.05         2.6 0.31                          46.6 144 
 624  0Z IP   0 C 14 0  7.90   21                         97   -0.0010 49.1 115 
 624  0N ES   0   14 0 14.45                              97   -0.1310 49.1 115 
 624  0Z  IAML    14 0 14.90         4.1 0.20                          49.1 115 
 621  0Z IP   0 D 14 0  8.53   18                         96   -0.0110 53.7 182 
 621  0E ES   0   14 0 15.65                              96   -0.0210 53.7 182 
 621  0Z  IAML    14 0 15.67         1.7 0.16                          53.7 182 
 628  0Z IP   0 C 14 0 12.90   19                         68    0.03 9 79.3 111 
 628  0Z  IAML    14 0 22.84         2.9 0.36                          79.3 111 
 628  0N ES   0   14 0 23.10                              68   -0.06 9 79.3 111 
 626  0Z IP   0 D 14 0 15.66   34                         68    0.20 8 94.2 156 
 626  0N ES   0   14 0 27.55                              68   -0.09 8 94.2 156 
 626  0Z  IAML    14 0 28.04         1.5 0.25                          94.2 156 
 631  0Z IP   1 C 14 0 26.12   35                         44    0.32 4  162 150 
 631  0N ES   1   14 0 45.20                              44   -0.34 4  162 150 
 631  0Z  IAML    14 0 47.10         2.3 0.16                           162 150 
                                                                                
 2017  3 4 2135  2.5 L  72.684 124.985  9.4  SLT  7 0.3 1.5LSLT 0.9CSLT        1
 GAP=211        0.55       3.1     7.6  3.1  0.1372E+02 -0.1782E+02 -0.2376E+01E
 ACTION:ARG 20-12-21 03:09 OP:mn   STATUS:               ID:20170304213342     I
 2017-03-04-2133-42M.a_____039                                                 6
 STAT SP IPHASW D HRMM SECON CODA AMPLIT PERI AZIMU VELO AIN AR TRES W  DIS CAZ7
 620  0Z IP   0 C 2135  6.89   22                        114    0.0210 21.5 261 
 620  0N ES   0   2135  9.93                             114   -0.1310 21.5 261 
 620  0Z  IAML    2135 10.05        86.0 0.13                          21.5 261 
 622  0Z IP   1 C 2135  8.63   25                         68    0.36 7 29.1 158 
 622  0E ES   1   2135 12.74                              68    0.26 7 29.1 158 
 622  0Z  IAML    2135 12.96        43.3 0.27                          29.1 158 
 623  0Z IP   0 D 2135 11.57   25                         68    0.1610 47.6 147 
 623  0E ES   0   2135 17.74                              68   -0.1610 47.6 147 
 623  0Z  IAML    2135 18.46        11.2 0.28                          47.6 147 
 625  0Z IP   0 C 2135 14.52   28                         68   -0.21 9 68.3 146 
 625  0N ES   2   2135 23.03                              68   -0.63 5 68.3 146 
 625  0Z  IAML    2135 24.79         5.7 0.30                          68.3 146 
 628  0Z IP   0 D 2135 16.21   34                         68   -0.11 9 79.0 113 
 628  0E ES   1   2135 26.07                              68   -0.33 7 79.0 113 
 628  0Z  IAML    2135 27.53        11.0 0.31                          79.0 113 
 630  0Z IP   1 C 2135 25.48   35                         47    0.55 5  132 119 
 630  0E ES   2   2135 41.91                              47    0.60 3  132 119 
 630  0Z  IAML    2135 43.85        28.1 0.25                           132 119 
 631  0Z IP   1 C 2135 29.65   45                         44    0.41 4  163 150 
 631  0N ES   0   2135 48.84                              44    0.09 5  163 150 
 631  0Z  IAML    2135 50.49         7.9 0.16                           163 150 
                                                                                
 2017  3 7 0447 20.6 L  72.693 124.987  9.1  SLT 10 0.2 1.9LSLT 1.4CSLT        1
 GAP=215        0.46       2.3     5.3  2.3  0.7171E+01 -0.9553E+01 -0.2246E+01E
 ACTION:ARG 20-12-21 03:09 OP:mn   STATUS:               ID:20170307044601     I
 2017-03-07-0446-01M.a_____039                                                 6
 STAT SP IPHASW D HRMM SECON CODA AMPLIT PERI AZIMU VELO AIN AR TRES W  DIS CAZ7
 620  0Z IP   0 C  447 25.10   28                        113    0.1010 21.7 259 
 620  0N ES   0    447 28.18                             113   -0.0210 21.7 259 
 620  0Z  IAML     447 28.45       381.6 0.12                          21.7 259 
 622  0Z IP   0 D  447 26.62   34                        107    0.0910 30.1 159 
 622  0E ES   0    447 30.86                             107    0.0110 30.1 159 
 622  0Z  IAML     447 31.27        70.8 0.22                          30.1 159 
 623  0Z IP   0 D  447 29.64   30                         68   -0.0410 48.5 147 
 623  0E ES   1    447 36.57                              68    0.27 7 48.5 147 
 623  0Z  IAML     447 37.13        23.8 0.25                          48.5 147 
 624  0Z IP   0 D  447 29.73   35                         68   -0.0410 49.4 119 
 624  0E ES   1    447 36.78                              68    0.32 7 49.4 119 
 624  0Z  IAML     447 37.43        56.6 0.20                          49.4 119 
 625  0Z IP   0 C  447 32.96   49                         68   -0.05 9 69.1 146 
 625  0N ES   2    447 41.46                              68   -0.59 5 69.1 146 
 625  0Z  IAML     447 42.87        11.5 0.26                          69.1 146 
 628  0Z IP   0 D  447 34.30   39                         68   -0.20 9 79.4 113 
 628  0E ES   0    447 44.74                              68    0.10 9 79.4 113 
 628  0Z  IAML     447 45.61        24.7 0.35                          79.4 113 
 627  0Z IP   1 D  447 36.70   44                         68   -0.38 6 93.1 133 
 627  0N ES   1    447 48.67                              68   -0.43 6 93.1 133 
 627  0Z  IAML     447 48.90        10.6 0.36                          93.1 133 
 630  0Z IP   0 C  447 43.03   38                         47   -0.11 7  132 120 
 630  0N ES   1    448  0.14                              47    0.55 5  132 120 
 630  0Z  IAML     448  1.93        78.9 0.21                           132 120 
 631  0Z IP   0 D  447 47.59   48                         44    0.09 5  164 151 
 631  0E ES   0    448  7.03                              44   -0.10 5  164 151 
 631  0Z  IAML     448  9.42        22.3 0.20                           164 151 
 632  0Z IP   0 D  447 51.04   71                         44    0.22 4  188 130 
 632  0N ES   4    448 13.95                              44    1.08 0  188 130 
 632  0Z  IAML     448 14.76        14.6 0.48                           188 130 
                                                                                
 2017  313 0553 58.9 L  72.691 124.981  9.4  SLT  9 0.2 1.2LSLT 1.3CSLT        1
 GAP=214        0.47       2.0     3.3  2.6  0.1923E+01 -0.3402E+01 -0.7114E-01E
 ACTION:ARG 20-12-21 03:09 OP:mn   STATUS:               ID:20170313055233     I
 2017-03-13-0552-33M.a_____039                                                 6
 STAT SP IPHASW D HRMM SECON CODA AMPLIT PERI AZIMU VELO AIN AR TRES W  DIS CAZ7
 620  0Z IP   0 C  554  3.31   33                        114    0.0810 21.5 259 
 620  0N ES   0    554  6.41                             114   -0.0110 21.5 259 
 620  0Z  IAML     554  6.63        51.0 0.11                          21.5 259 
 622  0Z IP   0 D  554  4.88   42                         68    0.1110 29.9 158 
 622  0E ES   1    554  9.34                              68    0.25 7 29.9 158 
 622  0Z  IAML     554  9.50        13.0 0.16                          29.9 158 
 623  0Z IP   1 D  554  8.18   38                         68    0.28 7 48.4 147 
 623  0E ES   1    554 14.89                              68    0.39 7 48.4 147 
 623  0Z  IAML     554 16.90         6.3 0.22                          48.4 147 
 624  0Z IP   0 D  554  8.08   38                         68    0.0610 49.5 118 
 624  0N ES   0    554 14.63                              68   -0.0710 49.5 118 
 624  0Z  IAML     554 16.07        11.1 0.14                          49.5 118 
 621  0Z IP   0 C  554  8.88   33                         68   -0.1510 56.7 183 
 621  0E ES   1    554 16.03                              68   -0.42 7 56.7 183 
 621  0Z  IAML     554 16.67         4.6 0.19                          56.7 183 
 628  0Z IP   0 D  554 12.56   44                         68   -0.20 9 79.5 113 
 628  0N ES   0    554 22.87                              68   -0.03 9 79.5 113 
 628  0Z  IAML     554 24.27         6.2 0.16                          79.5 113 
 627  0Z IP   1 D  554 15.02   50                         68   -0.30 6 93.1 133 
 627  0N ES   1    554 26.90                              68   -0.43 6 93.1 133 
 627  0Z  IAML     554 31.39         2.7 0.14                          93.1 133 
 630  0Z IP   0 D  554 21.36   40                         47   -0.01 7  132 120 
 630  0N ES   0    554 37.94                              47    0.14 7  132 120 
 630  0Z  IAML     554 40.24        17.6 0.22                           132 120 
 631  0Z IP   0 D  554 25.86   55                         44    0.16 5  164 151 
 631  0E ES   0    554 45.43                              44    0.14 5  164 151 
 631  0Z  IAML     554 47.39         5.4 0.37                           164 151 
                                                                                
 2017  313 0809  5.2 L  72.455 125.107 13.6  SLT  7 0.1 1.4LSLT 1.1CSLT        1
 GAP=135        0.28       0.6     1.8  2.9  0.3216E+00 -0.1204E+01 -0.1598E+00E
 ACTION:ARG 20-12-21 03:09 OP:mn   STATUS:               ID:20170313080741     I
 2017-03-13-0807-41M.a_____039                                                 6
 STAT SP IPHASW D HRMM SECON CODA AMPLIT PERI AZIMU VELO AIN AR TRES W  DIS CAZ7
 623  0Z IP   0 D  8 9 10.61   38                        112   -0.0210 26.3 123 
 623  0E ES   0    8 9 14.56                             112   -0.0510 26.3 123 
 623  0Z  IAML     8 9 15.47        41.9 0.23                          26.3 123 
 621  0Z IP   0 D  8 9 11.20   33                        108    0.0710 31.1 194 
 621  0E ES   0    8 9 15.58                             108    0.1110 31.1 194 
 621  0Z  IAML     8 9 17.34        23.5 0.15                          31.1 194 
 620  0Z IP   0 D  8 9 11.72   34                        106   -0.0210 33.8 311 
 620  0N ES   0    8 9 16.45                             106   -0.0910 33.8 311 
 620  0Z  IAML     8 9 17.87        44.7 0.14                          33.8 311 
 624  0Z IP   0 D  8 9 12.75   25                        102    0.0710 39.3  86 
 624  0N ES   0    8 9 18.26                             102    0.1010 39.3  86 
 624  0Z  IAML     8 9 18.61        42.4 0.14                          39.3  86 
 625  0Z IP   0 C  8 9 13.68   53                        100   -0.0210 46.2 132 
 625  0N ES   0    8 9 19.84                             100   -0.0910 46.2 132 
 625  0Z  IAML     8 9 21.34        10.0 0.26                          46.2 132 
 628  0Z IP   0 D  8 9 17.39   42                         95    0.08 9 69.0  94 
 628  0N ES   0    8 9 26.13                              95   -0.04 9 69.0  94 
 628  0Z  IAML     8 9 27.51        18.6 0.24                          69.0  94 
 626  0Z IP   0 D  8 9 17.71   45                         95    0.04 9 70.8 153 
 626  0E ES   0    8 9 26.64                              95   -0.15 9 70.8 153 
 626  0Z  IAML     8 9 26.87         6.5 0.21                          70.8 153 
                                                                                
