 2017  4 8 1004 44.4 L  72.607 124.974 13.7  SLT 12 0.2 1.7LSLT 2.3CSLT        1
 GAP=182        0.41       1.6     3.5  1.4  0.3563E+01 -0.1636E+01 -0.1332E+00E
 ACTION:UP  20-12-21 14:32 OP:elen STATUS:               ID:20170408100319     I
 OLDACT:UP  20-12-20 16:21 OP:elen STATUS:               ID:20170408100319     3
 OLDACT:UP  20-12-19 02:06 OP:elen STATUS:               ID:20170408100319     3
 OLDACT:REG 20-12-15 20:09 OP:elen STATUS:               ID:20170408100319     3
 2017-04-08-1003-19M.NSN___039                                                 6
 STAT SP IPHASW D HRMM SECON CODA AMPLIT PERI AZIMU VELO AIN AR TRES W  DIS CAZ7
 620  0Z IP   0   10 4 49.10   78                        118    0.0510 21.5 284 
 620  0N ES   0   10 4 52.40                             118   -0.0410 21.5 284 
 620  0E  IAML    10 4 52.80       171.2 0.15                          21.5 284 
 622  0Z IP   0   10 4 49.30   86                        118    0.1510 21.6 148 
 622  0N ES   1   10 4 52.82                             118    0.21 7 21.6 148 
 622  0E  IAML    10 4 53.10        74.9 0.37                          21.6 148 
 623  0Z IP   0   10 4 52.26   80                        102    0.0110 41.0 139 
 623  0N ES   0   10 4 58.11                             102    0.1310 41.0 139 
 623  0N  IAML    10 4 59.03        75.1 0.25                          41.0 139 
 624  0Z IP   0   10 4 53.11   93                        100    0.0910 45.9 108 
 624  0N ES   0   10 4 59.48                             100    0.1710 45.9 108 
 624  0N  IAML    10 5  1.03        27.4 0.11                          45.9 108 
 625  0Z IP   0   10 4 55.37  106                         96   -0.1710 61.6 141 
 625  0N ES   0   10 5  3.50                              96   -0.1610 61.6 141 
 625  0N  IAML    10 5  3.88         8.5 0.32                          61.6 141 
 628  0Z IP   0   10 4 57.62  104                         95   -0.19 9 76.5 107 
 628  0N ES   0   10 5  7.40                              95   -0.20 9 76.5 107 
 628  0E  IAML    10 5  8.95        21.9 0.21                          76.5 107 
 627  0Z IP   0   10 4 59.88  107                         94    0.01 9 87.2 128 
 627  0N ES   0   10 5 11.19                              94    0.03 9 87.2 128 
 627  0N  IAML    10 5 12.24         8.1 0.25                          87.2 128 
 626  0Z IP   1   10 4 59.53   99                         94   -0.28 6 88.0 155 
 626  0E ES   1   10 5 10.66                              94   -0.40 6 88.0 155 
 626  0E  IAML    10 5 11.00         8.5 0.17                          88.0 155 
 629  0Z IP   0   10 5  3.50   89                         52    0.02 8  110 132 
 629  0N ES   0   10 5 17.47                              52    0.07 8  110 132 
 629  0E  IAML    10 5 18.54         6.7 0.21                           110 132 
 630  0Z IP   0   10 5  5.80   97                         52   -0.10 7  128 116 
 630  0N ES   1   10 5 21.43                              52   -0.15 5  128 116 
 630  0E  IAML    10 5 25.71        18.6 0.18                           128 116 
 631  0Z IP   1   10 5 10.15  104                         48    0.41 4  156 149 
 631  0E ES   1   10 5 28.84                              48    0.61 4  156 149 
 631  0N  IAML    10 5 30.82        14.2 0.13                           156 149 
 632  0Z IP   3   10 5 14.26  104                         48    0.90 1  182 127 
 632  0N ES   4   10 5 35.96                              48    1.46 0  182 127 
 632  0E  IAML    10 5 36.82        10.4 0.35                           182 127 
                                                                                
 2017  4 8 1004 44.4 L  72.604 124.970 14.0  SLT 13 0.2 1.6LSLT 2.5CSLT        1
 GAP=181        0.40       1.1     2.8  1.5  0.1170E+01 -0.1413E+01 -0.2640E-01E
 ACTION:UP  20-12-21 15:15 OP:elen STATUS:               ID:20170408100354     I
 OLDACT:UP  20-12-20 16:45 OP:elen STATUS:               ID:20170408100354     3
 OLDACT:UP  20-12-19 13:04 OP:elen STATUS:               ID:20170408100354     3
 OLDACT:REG 20-12-19 09:34 OP:elen STATUS:               ID:20170408100354     3
 2017-04-08-1003-54M.NSN___039                                                 6
 STAT SP IPHASW D HRMM SECON CODA AMPLIT PERI AZIMU VELO AIN AR TRES W  DIS CAZ7
 622  0Z IP   0   10 4 49.31  112                        119    0.1710 21.4 147 
 622  0N ES   1   10 4 52.78                             119    0.18 7 21.4 147 
 622  0E  IAML    10 4 53.18        75.7 0.20                          21.4 147 
 620  0Z IP   0   10 4 49.12   92                        119    0.0510 21.5 285 
 620  0N ES   0   10 4 52.40                             119   -0.0610 21.5 285 
 620  0E  IAML    10 4 52.80       170.6 0.15                          21.5 285 
 623  0Z IP   0   10 4 52.27  100                        102    0.0310 40.8 139 
 623  0N ES   0   10 4 58.13                             102    0.1810 40.8 139 
 623  0N  IAML    10 4 59.15        73.9 0.30                          40.8 139 
 624  0Z IP   0   10 4 53.13  119                        100    0.1010 46.0 107 
 624  0N ES   0   10 4 59.48                             100    0.1510 46.0 107 
 624  0N  IAML    10 5  1.02        33.6 0.15                          46.0 107 
 621  0Z IP   0   10 4 52.92   98                        100   -0.0610 46.9 183 
 621  0N ES   0   10 4 59.20                             100   -0.0410 46.9 183 
 621  0E  IAML    10 5  1.72        20.3 0.22                          46.9 183 
 625  0Z IP   0   10 4 55.33  121                         97   -0.1810 61.4 141 
 625  0N ES   1   10 5  3.31                              97   -0.31 7 61.4 141 
 625  0N  IAML    10 5  3.88         8.4 0.32                          61.4 141 
 628  0Z IP   0   10 4 57.63  111                         95   -0.19 9 76.5 106 
 628  0N ES   0   10 5  7.38                              95   -0.23 9 76.5 106 
 628  0E  IAML    10 5  8.94        21.7 0.19                          76.5 106 
 627  0Z IP   0   10 4 59.89  107                         94    0.03 9 87.1 128 
 627  0N ES   0   10 5 11.08                              94   -0.05 9 87.1 128 
 627  0N  IAML    10 5 12.24         8.1 0.25                          87.1 128 
 626  0Z IP   0   10 4 59.78  122                         94    0.00 8 87.7 155 
 626  0N ES   0   10 5 10.85                              94   -0.15 8 87.7 155 
 626  0E  IAML    10 5 11.00         8.5 0.18                          87.7 155 
 629  0Z IP   0   10 5  3.42  112                         52   -0.01 8  110 132 
 629  0N ES   1   10 5 17.26                              52   -0.06 6  110 132 
 629  0E  IAML    10 5 18.54         6.7 0.20                           110 132 
 630  0Z IP   0   10 5  5.81  123                         52   -0.06 7  128 116 
 630  0N ES   1   10 5 21.44                              52   -0.09 5  128 116 
 630  0E  IAML    10 5 25.71        18.5 0.18                           128 116 
 631  0Z IP   1   10 5 10.17  120                         48    0.49 4  156 149 
 631  0N ES   1   10 5 28.83                              48    0.70 4  156 149 
 631  0N  IAML    10 5 30.82        14.2 0.13                           156 149 
 632  0Z IP   3   10 5 14.26  118                         48    0.94 1  182 127 
 632  0N ES   4   10 5 35.99                              48    1.56 0  182 127 
 632  0E  IAML    10 5 37.29         8.6 0.16                           182 127 
                                                                                
 2017  414 0459 18.2 L  72.263 127.381 22.3  SLT  7 0.2 0.7LSLT 0.5CSLT        1
 GAP=150        0.48       1.2     4.3  1.8  0.1175E+01  0.3048E+00  0.9094E+00E
 ACTION:UP  20-12-23 23:35 OP:elen STATUS:               ID:20170414045811     I
 OLDACT:REG 20-12-21 23:05 OP:elen STATUS:               ID:20170414045811     3
 2017-04-14-0458-11M.NSN___039                                                 6
 STAT SP IPHASW D HRMM SECON CODA AMPLIT PERI AZIMU VELO AIN AR TRES W  DIS CAZ7
 628  0Z IP   0    459 23.05   21                        137    0.1610 17.2 333 
 628  0N ES   0    459 26.28                             137   -0.0110 17.2 333 
 628  0N  IAML     459 26.45        23.3 0.08                          17.2 333 
 627  0Z IP   0    459 23.80   19                        130    0.2010 21.2 220 
 627  0N ES   0    459 27.53                             130    0.0310 21.2 220 
 627  0N  IAML     459 28.15         7.8 0.21                          21.2 220 
 629  0Z IP   0    459 25.93   20                        109    0.0710 37.3 184 
 629  0N ES   0    459 31.21                             109   -0.2110 37.3 184 
 629  0N  IAML     459 31.83         2.1 0.37                          37.3 184 
 630  0Z IP   0    459 26.00   20                        108    0.0110 38.5 123 
 630  0N ES   1    459 31.33                             108   -0.31 7 38.5 123 
 630  0E  IAML     459 31.56         2.7 0.16                          38.5 123 
 626  0Z IP   0    459 29.62   24                         94    0.1910 62.3 228 
 626  0E ES   0    459 37.59                              94   -0.0010 62.3 228 
 626  0N  IAML     459 37.71         1.9 0.21                          62.3 228 
 622  0Z IP   0    459 31.28   26                         93   -0.14 9 72.8 287 
 622  0E ES   1    459 40.52                              93   -0.52 7 72.8 287 
 622  0E  IAML     459 41.08         1.3 0.14                          72.8 287 
 631  0Z IP   0    459 35.11                              60    0.20 8 96.5 183 
 631  0N ES   0    459 47.07                              60   -0.01 8 96.5 183 
 631  0E  IAML     459 47.29         3.2 0.19                          96.5 183 
                                                                                
 2017  416 0523 41.1 L  71.950 127.104 21.6  SLT 13 0.2 1.8LSLT 2.2CSLT        1
 GAP= 85        0.50       1.0     3.0  1.8  0.6951E+00  0.1154E+01 -0.5369E-02E
 ACTION:UP  20-12-26 19:23 OP:elen STATUS:               ID:20170416052232     I
 OLDACT:REG 20-12-24 20:31 OP:elen STATUS:               ID:20170416052232     3
 2017-04-16-0522-32M.NSN___039                                                 6
 STAT SP IPHASW D HRMM SECON CODA AMPLIT PERI AZIMU VELO AIN AR TRES W  DIS CAZ7
 629  0Z IP   1    523 45.45   82                        158    0.28 7 7.61 108 
 629  0N ES   0    523 48.09                             158   -0.0510 7.61 108 
 629  0N  IAML     523 48.18       179.5 0.06                          7.61 108 
 627  0Z IP   1    523 46.35   83                        132    0.22 7 19.0 347 
 627  0N ES   0    523 49.70                             132   -0.1010 19.0 347 
 627  0E  IAML     523 49.90       231.5 0.18                          19.0 347 
 626  0Z IP   1    523 48.77   80                        106    0.30 7 37.7 260 
 626  0N ES   0    523 53.87                             106    0.0210 37.7 260 
 626  0N  IAML     523 53.97        63.4 0.13                          37.7 260 
 625  0Z IP   0    523 49.48   82                        101    0.1110 42.4 307 
 625  0N ES   1    523 55.09                             101   -0.31 7 42.4 307 
 625  0N  IAML     523 55.32        56.1 0.21                          42.4 307 
 630  0Z IP   1    523 49.98   86                        100    0.28 7 44.3  71 
 630  0N ES   0    523 55.91                             100   -0.0710 44.3  71 
 630  0E  IAML     523 56.36        36.3 0.12                          44.3  71 
 628  0Z IP   0    523 50.46   78                         96    0.1410 50.2   2 
 628  0N ES   1    523 56.76                              96   -0.30 7 50.2   2 
 628  0E  IAML     523 57.87        59.4 0.22                          50.2   2 
 631  0Z IP   0    523 52.69   91                         93    0.0310 61.7 175 
 631  0N ES   1    524  0.61                              93   -0.49 7 61.7 175 
 631  0E  IAML     524  0.91       108.1 0.18                          61.7 175 
 623  0Z IP   0    523 52.70   88                         93    0.0810 62.2 313 
 623  0N ES   1    524  0.64                              93   -0.39 7 62.2 313 
 623  0E  IAML     524  0.98        12.3 0.17                          62.2 313 
 624  0Z IP   0    523 53.19   87                         92    0.19 9 65.1 335 
 624  0N ES   1    524  1.53                              92   -0.16 7 65.1 335 
 624  0E  IAML     524  3.80        21.0 0.28                          65.1 335 
 621  0Z IP   0    523 55.38   86                         92    0.19 9 80.5 290 
 621  0N ES   1    524  5.30                              92   -0.17 7 80.5 290 
 621  0N  IAML     524 10.84        11.6 0.16                          80.5 290 
 632  0Z IP   0    523 55.75   95                         92   -0.18 9 80.6 120 
 632  0N ES   3    524  5.91                              92   -0.86 2 80.6 120 
 632  0E  IAML     524  8.88        12.0 0.12                          80.6 120 
 622  0Z IP   0    523 55.88   87                         91    0.15 9 82.1 313 
 622  0E ES   1    524  6.15                              91   -0.25 7 82.1 313 
 622  0E  IAML     524 12.01        20.7 0.15                          82.1 313 
 620  0Z IP   3    524  2.06  120                         60    1.01 2  122 311 
 620  0N ES   4    524 16.86                              60    1.24 0  122 311 
 620  0E  IAML     524 20.08        17.2 0.19                           122 311 
                                                                                
 2017  416 1821  5.1 L  72.862 125.046 14.1  SLT 13 0.2 1.5LSLT 2.2CSLT        1
 GAP=260        0.39       1.8     3.6  1.5  0.8000E+00 -0.2307E+01 -0.8300E+00E
 ACTION:UP  20-12-27 00:47 OP:elen STATUS:               ID:20170416181941     I
 OLDACT:REG 20-12-24 20:59 OP:elen STATUS:               ID:20170416181941     3
 2017-04-16-1819-41M.NSN___039                                                 6
 STAT SP IPHASW D HRMM SECON CODA AMPLIT PERI AZIMU VELO AIN AR TRES W  DIS CAZ7
 620  0Z IP   0   1821 11.60   79                        107    0.0310 32.8 225 
 620  0E ES   0   1821 16.27                             107    0.0110 32.8 225 
 620  0E  IAML    1821 18.35        20.2 0.16                          32.8 225 
 622  0Z IP   0   1821 14.23   83                        100    0.1110 47.7 169 
 622  0E ES   0   1821 20.81                             100    0.1310 47.7 169 
 622  0N  IAML    1821 20.82        23.1 0.27                          47.7 169 
 624  0Z IP   0   1821 16.12   90                         97    0.1010 59.4 136 
 624  0N ES   0   1821 24.11                              97    0.1510 59.4 136 
 624  0N  IAML    1821 24.84        18.5 0.25                          59.4 136 
 623  0Z IP   0   1821 17.07   85                         96    0.15 9 64.4 158 
 623  0E ES   1   1821 25.73                              96    0.21 7 64.4 158 
 623  0E  IAML    1821 26.39        16.1 0.19                          64.4 158 
 621  0Z IP   0   1821 18.44   78                         95   -0.14 9 75.8 184 
 621  0N ES   1   1821 28.05                              95   -0.35 7 75.8 184 
 621  0E  IAML    1821 29.12        15.1 0.21                          75.8 184 
 625  0Z IP   0   1821 19.96   85                         94   -0.20 9 84.6 155 
 625  0N ES   1   1821 30.82                              94   -0.30 6 84.6 155 
 625  0N  IAML    1821 32.15         4.3 0.38                          84.6 155 
 628  0Z IP   0   1821 20.12   85                         94   -0.19 9 86.9 125 
 628  0N ES   1   1821 31.05                              94   -0.34 6 86.9 125 
 628  0N  IAML    1821 32.39        16.4 0.29                          86.9 125 
 627  0Z IP   0   1821 23.51   88                         52   -0.02 8  106 141 
 627  0E ES   0   1821 36.89                              52   -0.07 8  106 141 
 627  0E  IAML    1821 38.22         4.4 0.21                           106 141 
 626  0Z IP   0   1821 24.38   87                         52   -0.06 7  114 162 
 626  0N ES   1   1821 38.38                              52   -0.15 6  114 162 
 626  0E  IAML    1821 38.73        21.4 0.23                           114 162 
 629  0Z IP   0   1821 26.93   76                         52    0.15 7  129 143 
 629  0E ES   0   1821 42.83                              52    0.26 7  129 143 
 629  0E  IAML    1821 47.02         3.3 0.46                           129 143 
 630  0Z IP   0   1821 28.17   78                         48   -0.10 6  141 127 
 630  0E ES   1   1821 45.06                              48   -0.09 5  141 127 
 630  0E  IAML    1821 46.35        10.8 0.24                           141 127 
 631  0Z IP   2   1821 34.15   89                         48    0.70 2  180 154 
 631  0N ES   4   1821 55.38                              48    1.27 0  180 154 
 631  0E  IAML    1821 56.98         8.3 0.23                           180 154 
 632  0Z IP   2   1821 36.81   87                         48    0.63 2  199 134 
 632  0N ES   3   1822  0.00                              48    1.16 1  199 134 
 632  0E  IAML    1822  3.02         4.0 0.37                           199 134 
                                                                                
