 2017  317 1007 13.4 L  72.233 125.987  8.5  SLT  7 0.1 0.7LSLT 0.9CSLT        1
 GAP=114        0.35       0.7     2.1  1.1  0.3293E+00 -0.1077E+01 -0.3045E-01E
 ACTION:ARG 20-12-21 03:09 OP:mn   STATUS:               ID:20170317100556     I
 2017-03-17-1005-56M.a_____039                                                 6
 STAT SP IPHASW D HRMM SECON CODA AMPLIT PERI AZIMU VELO AIN AR TRES W  DIS CAZ7
 625  0Z IP   0 C 10 7 15.52   28                        138    0.0210 7.73 148 
 625  0E ES   0   10 7 17.05                             138    0.0310 7.73 148 
 625  0Z  IAML    10 7 17.31        20.4 0.18                          7.73 148 
 623  0Z IP   0 D 10 7 16.27   23                        123   -0.1410 12.9 324 
 623  0E ES   0   10 7 18.51                             123   -0.0910 12.9 324 
 623  0Z  IAML    10 7 19.03        21.6 0.25                          12.9 324 
 624  0Z IP   0 C 10 7 19.09   37                        106    0.0710 28.8  20 
 624  0E ES   0   10 7 23.21                             106    0.1010 28.8  20 
 624  0Z  IAML    10 7 23.77         9.2 0.17                          28.8  20 
 622  0Z IP   0 D 10 7 19.65   28                        105   -0.1110 32.6 316 
 622  0E ES   0   10 7 24.34                             105   -0.0510 32.6 316 
 622  0Z  IAML    10 7 28.80         4.3 0.60                          32.6 316 
 621  0Z IP   0 C 10 7 20.43   28                        103    0.0210 37.8 262 
 621  0N ES   0   10 7 25.73                             103    0.2310 37.8 262 
 621  0Z  IAML    10 7 27.08         9.0 0.28                          37.8 262 
 628  0Z IP   0 D 10 7 21.20   28                         68   -0.0710 43.5  64 
 628  0N ES   0   10 7 27.17                              68    0.1710 43.5  64 
 628  0Z  IAML    10 7 28.42         8.2 0.15                          43.5  64 
 629  0Z IP   0 D 10 7 23.73   40                         68   -0.1110 56.8 126 
 629  0E ES   0   10 7 31.37                              68   -0.0710 56.8 126 
 629  0Z  IAML    10 7 32.24         3.3 0.27                          56.8 126 
                                                                                
 2017  320 1900 34.0 L  72.414 126.098 17.3  SLT  7 0.1 0.8LSLT 0.6CSLT        1
 GAP=124        0.43       1.1     2.7  2.1 -0.5453E+00 -0.1445E+00  0.9618E+00E
 ACTION:ARG 20-12-21 03:09 OP:mn   STATUS:               ID:20170320190000     I
 2017-03-20-1900-00M.a_____039                                                 6
 STAT SP IPHASW D HRMM SECON CODA AMPLIT PERI AZIMU VELO AIN AR TRES W  DIS CAZ7
 624  0Z IP   0 D 19 0 37.68   22                        151    0.1610 9.10  41 
 624  0E ES   0   19 0 40.10                             151   -0.0210 9.10  41 
 624  0Z  IAML    19 0 40.49        27.4 0.14                          9.10  41 
 623  0Z IP   0 C 19 0 38.40   17                        137    0.2210 15.1 229 
 623  0N ES   0   19 0 41.37                             137    0.1110 15.1 229 
 623  0Z  IAML    19 0 41.66        25.9 0.19                          15.1 229 
 622  0Z IP   0 C 19 0 39.71   25                        120   -0.0310 26.6 277 
 622  0N ES   1   19 0 43.71                             120   -0.2610 26.6 277 
 622  0Z  IAML    19 0 44.04         5.4 0.12                          26.6 277 
 625  0Z IP   0 D 19 0 39.68   20                        120    0.1010 26.8 179 
 625  0N ES   0   19 0 43.66                             120   -0.0310 26.8 179 
 625  0Z  IAML    19 0 44.10         2.9 0.17                          26.8 179 
 628  0Z IP   0 D 19 0 40.69   25                        112    0.0310 35.4  92 
 628  0N ES   0   19 0 45.33                             112   -0.2210 35.4  92 
 628  0Z  IAML    19 0 46.85         8.3 0.26                          35.4  92 
 621  0Z IP   0 D 19 0 43.02   27                        105    0.1210 48.4 239 
 621  0N ES   0   19 0 49.31                             105   -0.1210 48.4 239 
 621  0Z  IAML    19 0 49.89         2.7 0.30                          48.4 239 
 626  0Z IP   0 C 19 0 44.66   24                        102    0.1410 58.8 182 
 626  0N ES   0   19 0 52.05                             102   -0.1910 58.8 182 
 626  0Z  IAML    19 0 52.41         4.2 0.32                          58.8 182 
                                                                                
 2017  326 0836 33.0 L  71.978 127.702 20.2  SLT  7 0.3 1.8LSLT 1.0CSLT        1
 GAP=121        0.83       2.4     5.0  2.1  0.3505E+01  0.2441E+01  0.2484E+01E
 ACTION:ARG 20-12-21 03:09 OP:mn   STATUS:               ID:20170326083527     I
 2017-03-26-0835-27M.a_____039                                                 6
 STAT SP IPHASW D HRMM SECON CODA AMPLIT PERI AZIMU VELO AIN AR TRES W  DIS CAZ7
 629  0Z IP   1 C  836 37.77   15                        143    0.3010 14.5 248 
 629  0N ES   0    836 40.52                             143   -0.1910 14.5 248 
 629  0Z  IAML     836 40.82       360.6 0.20                          14.5 248 
 630  0Z IP   1 D  836 38.91   22                        128    0.3510 24.0  63 
 630  0E ES   0    836 42.54                             128   -0.0710 24.0  63 
 630  0Z  IAML     836 43.12       190.9 0.17                          24.0  63 
 627  0Z IP   0 C  836 39.40   35                        122    0.1410 29.2 302 
 627  0N ES   2    836 43.30                             122   -0.5110 29.2 302 
 627  0Z  IAML     836 43.48        88.3 0.34                          29.2 302 
 626  0Z IP   1 D  836 43.96   29                         67    0.3310 58.6 261 
 626  0N ES   0    836 51.25                              67   -0.1310 58.6 261 
 626  0Z  IAML     836 51.63        35.8 0.21                          58.6 261 
 625  0Z IP   1 D  836 44.17   34                         67    0.2910 59.0 292 
 625  0E ES   1    836 51.55                              67   -0.2610 59.0 292 
 625  0Z  IAML     836 51.71        10.9 0.18                          59.0 292 
 632  0Z IP   0 D  836 45.56   41                         67   -0.01 9 65.7 133 
 632  0E ES   2    836 54.09                              67   -0.64 9 65.7 133 
 632  0Z  IAML     836 55.46        17.7 0.12                          65.7 133 
 631  0Z IP   1 D  836 45.76   37                         67    0.40 9 66.6 194 
 631  0E ES   0    836 54.35                              67   -0.01 9 66.6 194 
 631  0Z  IAML     836 54.70        21.7 0.11                          66.6 194 
                                                                                
 2017  4 2 0422  0.8 L  72.718 125.673 18.0  SLT 10 0.3 1.4LSLT 1.7CSLT        1
 GAP=224        0.74       2.7     5.3  2.0  0.3683E+01 -0.3633E+01 -0.1019E+01E
 ACTION:UP  20-12-20 22:46 OP:elen STATUS:               ID:20170402042039     I
 OLDACT:UP  20-12-20 00:44 OP:elen STATUS:               ID:20170402042039     3
 OLDACT:UP  20-12-16 20:09 OP:elen STATUS:               ID:20170402042039     3
 OLDACT:UP  20-12-16 14:06 OP:elen STATUS:               ID:20170402042039     3
 OLDACT:REG 20-12-12 10:59 OP:elen STATUS:               ID:20170402042039     3
 2017-04-02-0420-39M.NSN___039                                                 6
 STAT SP IPHASW D HRMM SECON CODA AMPLIT PERI AZIMU VELO AIN AR TRES W  DIS CAZ7
 622  0Z IP   0    422  7.79   47                        115    0.2010 33.0 202 
 622  0N ES   0    422 12.79                             115    0.2310 33.0 202 
 622  0N  IAML     422 13.69        13.8 0.15                          33.0 202 
 624  0Z IP   0    422  7.79   50                        115    0.1710 33.6 143 
 624  0N ES   0    422 12.83                             115    0.2310 33.6 143 
 624  0N  IAML     422 13.96        16.4 0.13                          33.6 143 
 623  0Z IP   0    422  9.41   48                        108    0.1210 43.8 176 
 623  0N ES   0    422 15.58                             108    0.0910 43.8 176 
 623  0E  IAML     422 17.17         7.4 0.15                          43.8 176 
 620  0Z IP   0    422  9.30   52                        108   -0.0410 44.6 261 
 620  0N ES   0    422 15.36                             108   -0.2210 44.6 261 
 620  0N  IAML     422 15.71        31.6 0.15                          44.6 261 
 628  0Z IP   0    422 11.53   56                        102   -0.1110 60.7 125 
 628  0N ES   0    422 19.37                             102   -0.2010 60.7 125 
 628  0N  IAML     422 19.92        27.0 0.25                          60.7 125 
 621  0Z IP   0    422 12.50   48                        101   -0.03 9 65.2 204 
 621  0N ES   0    422 20.98                             101   -0.12 9 65.2 204 
 621  0E  IAML     422 21.82         5.2 0.18                          65.2 204 
 626  0Z IP   1    422 16.65   47                         52   -0.30 8 93.4 172 
 626  0N ES   2    422 28.16                              52   -0.60 8 93.4 172 
 626  0E  IAML     422 28.49         3.2 0.21                          93.4 172 
 630  0Z IP   1    422 19.71   62                         52   -0.32 7  115 127 
 630  0N ES   2    422 33.47                              52   -0.61 7  115 127 
 630  0E  IAML     422 34.42         8.4 0.10                           115 127 
 631  0Z IP   1    422 26.15   76                         48    0.41 6  157 159 
 631  0N ES   2    422 44.66                              48    0.70 6  157 159 
 631  0E  IAML     422 45.70         6.6 0.23                           157 159 
 632  0Z IP   2    422 28.64   56                         48    0.55 5  173 136 
 632  0N ES   3    422 49.00                              48    0.98 5  173 136 
 632  0E  IAML     422 50.12         7.9 0.31                           173 136 
                                                                                
 2017  4 5 0307 35.7 L  71.681 128.850  7.8  SLT 11 0.3 1.2LSLT 1.7CSLT        1
 GAP=169        0.60       1.3     7.4  2.5  0.3144E+01  0.1392E+02  0.8543E-02E
 ACTION:UP  20-12-21 00:10 OP:elen STATUS:               ID:20170405030618     I
 OLDACT:UP  20-12-20 01:44 OP:elen STATUS:               ID:20170405030618     3
 OLDACT:UP  20-12-16 21:32 OP:elen STATUS:               ID:20170405030618     3
 OLDACT:REG 20-12-13 13:11 OP:elen STATUS:               ID:20170405030618     3
 2017-04-05-0306-18M.NSN___039                                                 6
 STAT SP IPHASW D HRMM SECON CODA AMPLIT PERI AZIMU VELO AIN AR TRES W  DIS CAZ7
 632  0Z IP   0    3 7 39.22   48                        118   -0.0510 14.3 147 
 632  0N ES   0    3 7 42.07                             118    0.1710 14.3 147 
 632  0N  IAML     3 7 42.69        27.1 0.05                          14.3 147 
 630  0Z IP   0    3 7 44.47   65                         99   -0.0310 47.5 338 
 630  0N ES   0    3 7 50.96                              99    0.0210 47.5 338 
 630  0E  IAML     3 7 51.40         6.5 0.12                          47.5 338 
 629  0Z IP   0    3 7 46.88   48                         68    0.1510 60.3 298 
 629  0N ES   1    3 7 55.19                              68    0.3910 60.3 298 
 629  0E  IAML     3 7 56.96         2.5 0.13                          60.3 298 
 631  0Z IP   0    3 7 47.53   58                         68   -0.19 9 64.8 242 
 631  0N ES   1    3 7 56.26                              68   -0.26 9 64.8 242 
 631  0N  IAML     3 7 56.72         6.8 0.14                          64.8 242 
 627  0Z IP   0    3 7 50.25   43                         68    0.07 9 81.0 308 
 627  0N ES   0    3 8  1.00                              68    0.24 9 81.0 308 
 627  0E  IAML     3 8  1.36         3.5 0.22                          81.0 308 
 628  0Z IP   1    3 7 52.64   55                         68   -0.40 8 99.3 325 
 628  0N ES   1    3 8  5.23                              68   -0.48 8 99.3 325 
 628  0E  IAML     3 8  7.84         6.4 0.21                          99.3 325 
 626  0Z IP   0    3 7 53.31   55                         68   -0.05 8  101 285 
 626  0N ES   0    3 8  6.21                              68   -0.07 8  101 285 
 626  0E  IAML     3 8  9.71         7.5 0.24                           101 285 
 624  0Z IP   0    3 7 57.38   55                         47   -0.13 7  125 316 
 624  0N ES   0    3 8 13.29                              47   -0.17 7  125 316 
 624  0N  IAML     3 8 15.76         6.6 0.19                           125 316 
 623  0Z IP   0    3 7 57.86   54                         47   -0.16 7  129 305 
 623  0N ES   1    3 8 14.04                              47   -0.30 7  129 305 
 623  0E  IAML     3 8 17.30         2.9 0.24                           129 305 
 621  0Z IP   1    3 8  0.75   54                         44    0.41 6  148 294 
 621  0N ES   3    3 8 19.13                              44    0.79 6  148 294 
 621  0E  IAML     3 8 21.93         2.3 0.14                           148 294 
 622  0Z IP   0    3 8  0.73   57                         44    0.10 6  148 307 
 622  0N ES   0    3 8 19.09                              44    0.23 6  148 307 
 622  0N  IAML     3 8 21.09         5.1 0.20                           148 307 
                                                                                
 2017  4 5 0307 35.7 L  71.683 128.842  6.9  SLT 10 0.3 1.2LSLT 1.9CSLT        1
 GAP=181        0.61       1.9     7.7  3.7  0.8141E+00  0.1934E+02 -0.3382E+01E
 ACTION:UP  20-12-21 00:33 OP:elen STATUS:               ID:20170405030650     I
 OLDACT:UP  20-12-20 02:02 OP:elen STATUS:               ID:20170405030650     3
 OLDACT:UP  20-12-16 23:26 OP:elen STATUS:               ID:20170405030650     3
 OLDACT:REG 20-12-13 13:16 OP:elen STATUS:               ID:20170405030650     3
 2017-04-05-0306-50M.NSN___039                                                 6
 STAT SP IPHASW D HRMM SECON CODA AMPLIT PERI AZIMU VELO AIN AR TRES W  DIS CAZ7
 632  0Z IP   0    3 7 39.21   74                        115   -0.0410 14.6 146 
 632  0N ES   0    3 7 42.08                             115    0.2210 14.6 146 
 632  0N  IAML     3 7 42.69        26.9 0.04                          14.6 146 
 629  0Z IP   0    3 7 46.83   63                         68    0.1010 59.9 298 
 629  0N ES   1    3 7 55.19                              68    0.3910 59.9 298 
 629  0E  IAML     3 7 56.96         2.5 0.14                          59.9 298 
 631  0Z IP   0    3 7 47.53   78                         68   -0.22 9 64.7 241 
 631  0N ES   1    3 7 56.25                              68   -0.32 9 64.7 241 
 631  0N  IAML     3 7 56.72         6.9 0.15                          64.7 241 
 627  0Z IP   0    3 7 50.24   59                         68    0.06 9 80.7 308 
 627  0N ES   0    3 8  1.01                              68    0.24 9 80.7 308 
 627  0E  IAML     3 8  1.36         3.5 0.22                          80.7 308 
 628  0Z IP   1    3 7 52.64   64                         68   -0.40 8 99.0 325 
 628  0N ES   2    3 8  5.21                              68   -0.52 8 99.0 325 
 628  0E  IAML     3 8  7.84         6.3 0.23                          99.0 325 
 626  0Z IP   0    3 7 53.30   55                         68   -0.06 8  101 284 
 626  0N ES   0    3 8  6.38                              68    0.10 8  101 284 
 626  0E  IAML     3 8  9.71         7.4 0.23                           101 284 
 624  0Z IP   1    3 7 57.28   56                         47   -0.30 7  125 316 
 624  0N ES   1    3 8 13.30                              47   -0.27 7  125 316 
 624  0N  IAML     3 8 15.76         6.6 0.21                           125 316 
 623  0Z IP   0    3 7 58.00   61                         47   -0.08 7  128 305 
 623  0N ES   0    3 8 14.60                              47    0.16 7  128 305 
 623  0E  IAML     3 8 17.30         3.0 0.25                           128 305 
 622  0Z IP   0    3 8  0.73   76                         44    0.03 6  148 307 
 622  0N ES   1    3 8 19.30                              44    0.32 6  148 307 
 622  0N  IAML     3 8 21.09         5.1 0.19                           148 307 
 621  0Z IP   0    3 8  0.61   76                         44    0.20 6  148 294 
 621  0N ES   2    3 8 19.05                              44    0.59 6  148 294 
 621  0E  IAML     3 8 21.93         2.4 0.14                           148 294 
                                                                                
 2017  4 6 1728  0.8 L  72.720 125.669 18.2  SLT 10 0.4 1.1LSLT 1.8CSLT        1
 GAP=224        0.74       2.7     5.2  2.1  0.3650E+01 -0.3652E+01 -0.1037E+01E
 ACTION:UP  20-12-21 12:27 OP:elen STATUS:               ID:20170406172639     I
 OLDACT:UP  20-12-20 10:56 OP:elen STATUS:               ID:20170406172639     3
 OLDACT:UP  20-12-17 22:23 OP:elen STATUS:               ID:20170406172639     3
 OLDACT:REG 20-12-15 19:37 OP:elen STATUS:               ID:20170406172639     3
 2017-04-06-1726-39M.NSN___039                                                 6
 STAT SP IPHASW D HRMM SECON CODA AMPLIT PERI AZIMU VELO AIN AR TRES W  DIS CAZ7
 622  0Z IP   1   1728  7.84   49                        115    0.2510 33.2 201 
 622  0N ES   0   1728 12.73                             115    0.1410 33.2 201 
 622  0E  IAML    1728 14.00        10.3 0.41                          33.2 201 
 624  0Z IP   0   1728  7.81   52                        115    0.1810 33.9 143 
 624  0N ES   0   1728 12.77                             115    0.1110 33.9 143 
 624  0N  IAML    1728 13.91         6.5 0.11                          33.9 143 
 623  0Z IP   0   1728  9.42   62                        108    0.1210 44.1 176 
 623  0N ES   0   1728 15.48                             108   -0.0610 44.1 176 
 623  0E  IAML    1728 17.38         3.3 0.15                          44.1 176 
 620  0Z IP   0   1728  9.28   53                        108   -0.0110 44.5 261 
 620  0N ES   0   1728 15.28                             108   -0.2410 44.5 261 
 620  0E  IAML    1728 15.49        25.5 0.18                          44.5 261 
 628  0Z IP   0   1728 11.58   47                        102   -0.0810 61.0 125 
 628  0N ES   1   1728 19.31                             102   -0.3110 61.0 125 
 628  0N  IAML    1728 19.87        12.7 0.25                          61.0 125 
 621  0Z IP   0   1728 12.54   57                        101    0.02 9 65.3 204 
 621  0N ES   0   1728 21.02                             101   -0.10 9 65.3 204 
 621  0E  IAML    1728 21.75         2.5 0.16                          65.3 204 
 626  0Z IP   0   1728 16.77   51                         52   -0.17 8 93.7 172 
 626  0E ES   2   1728 28.24                              52   -0.52 8 93.7 172 
 626  0N  IAML    1728 29.14         1.6 0.15                          93.7 172 
 630  0Z IP   1   1728 19.73   74                         52   -0.29 7  115 127 
 630  0N ES   2   1728 33.53                              52   -0.56 7  115 127 
 630  0E  IAML    1728 34.32         3.9 0.15                           115 127 
 631  0Z IP   2   1728 26.31   93                         48    0.58 6  157 159 
 631  0N ES   3   1728 44.89                              48    0.93 6  157 159 
 631  0E  IAML    1728 46.34         3.2 0.16                           157 159 
 632  0Z IP   2   1728 28.58   90                         48    0.50 5  173 136 
 632  0N ES   3   1728 48.98                              48    0.95 5  173 136 
 632  0E  IAML    1728 50.06         4.5 0.31                           173 136 
                                                                                
