 2017  4 8 1004 44.5 L  72.606 124.977 12.8  SLT 12 0.3 1.7LSLT 2.3CSLT        1
 GAP=182        0.62       2.2     5.1  1.9  0.6804E+01 -0.3108E+01 -0.4425E+00E
 ACTION:UP  20-12-21 14:32 OP:elen STATUS:               ID:20170408100319     I
 OLDACT:UP  20-12-20 16:21 OP:elen STATUS:               ID:20170408100319     3
 OLDACT:UP  20-12-19 02:06 OP:elen STATUS:               ID:20170408100319     3
 OLDACT:REG 20-12-15 20:09 OP:elen STATUS:               ID:20170408100319     3
 2017-04-08-1003-19M.NSN___039                                                 6
 STAT SP IPHASW D HRMM SECON CODA AMPLIT PERI AZIMU VELO AIN AR TRES W  DIS CAZ7
 622  0Z IP   0   10 4 49.30   86                        116    0.1710 21.5 148 
 622  0N ES   1   10 4 52.82                             116    0.3010 21.5 148 
 622  0E  IAML    10 4 53.10        74.9 0.37                          21.5 148 
 620  0Z IP   0   10 4 49.10   78                        115    0.0410 21.7 285 
 620  0N ES   0   10 4 52.40                             115   -0.0210 21.7 285 
 620  0E  IAML    10 4 52.80       171.2 0.15                          21.7 285 
 623  0Z IP   0   10 4 52.26   80                        100   -0.0010 40.9 140 
 623  0N ES   0   10 4 58.11                             100    0.1510 40.9 140 
 623  0N  IAML    10 4 59.03        75.1 0.25                          40.9 140 
 624  0Z IP   0   10 4 53.11   93                         98    0.0710 45.8 108 
 624  0N ES   0   10 4 59.48                              98    0.1910 45.8 108 
 624  0N  IAML    10 5  1.03        27.4 0.11                          45.8 108 
 625  0Z IP   0   10 4 55.37  106                         95   -0.1910 61.5 141 
 625  0N ES   0   10 5  3.50                              95   -0.1610 61.5 141 
 625  0N  IAML    10 5  3.88         8.5 0.32                          61.5 141 
 628  0Z IP   0   10 4 57.62  104                         94   -0.22 9 76.4 106 
 628  0N ES   0   10 5  7.40                              94   -0.20 9 76.4 106 
 628  0E  IAML    10 5  8.95        21.9 0.21                          76.4 106 
 627  0Z IP   0   10 4 59.88  107                         93   -0.02 9 87.0 128 
 627  0N ES   0   10 5 11.19                              93    0.03 9 87.0 128 
 627  0N  IAML    10 5 12.24         8.1 0.25                          87.0 128 
 626  0Z IP   1   10 4 59.53   99                         93   -0.32 8 87.9 155 
 626  0E ES   1   10 5 10.66                              93   -0.41 8 87.9 155 
 626  0E  IAML    10 5 11.00         8.5 0.17                          87.9 155 
 629  0Z IP   0   10 5  3.50   89                         52   -0.11 8  110 132 
 629  0N ES   0   10 5 17.47                              52   -0.12 8  110 132 
 629  0E  IAML    10 5 18.54         6.7 0.21                           110 132 
 630  0Z IP   0   10 5  5.80   97                         52   -0.23 7  128 116 
 630  0N ES   1   10 5 21.43                              52   -0.34 7  128 116 
 630  0E  IAML    10 5 25.71        18.6 0.18                           128 116 
 631  0Z IP   1   10 5 10.15  104                         48    0.27 6  156 149 
 631  0E ES   1   10 5 28.84                              48    0.40 6  156 149 
 631  0N  IAML    10 5 30.82        14.2 0.13                           156 149 
 632  0Z IP   3   10 5 14.26  104                         48    0.75 5  182 127 
 632  0N ES   4   10 5 35.96                              48    1.26 5  182 127 
 632  0E  IAML    10 5 36.82        10.4 0.35                           182 127 
                                                                                
 2017  4 8 1004 44.5 L  72.604 124.975 13.0  SLT 13 0.3 1.6LSLT 2.5CSLT        1
 GAP=181        0.61       1.7     4.1  1.8  0.2797E+01 -0.2529E+01 -0.2217E+00E
 ACTION:UP  20-12-21 15:15 OP:elen STATUS:               ID:20170408100354     I
 OLDACT:UP  20-12-20 16:45 OP:elen STATUS:               ID:20170408100354     3
 OLDACT:UP  20-12-19 13:04 OP:elen STATUS:               ID:20170408100354     3
 OLDACT:REG 20-12-19 09:34 OP:elen STATUS:               ID:20170408100354     3
 2017-04-08-1003-54M.NSN___039                                                 6
 STAT SP IPHASW D HRMM SECON CODA AMPLIT PERI AZIMU VELO AIN AR TRES W  DIS CAZ7
 622  0Z IP   0   10 4 49.31  112                        116    0.1910 21.3 148 
 622  0N ES   1   10 4 52.78                             116    0.2810 21.3 148 
 622  0E  IAML    10 4 53.18        75.7 0.20                          21.3 148 
 620  0Z IP   0   10 4 49.12   92                        116    0.0410 21.7 285 
 620  0N ES   0   10 4 52.40                             116   -0.0410 21.7 285 
 620  0E  IAML    10 4 52.80       170.6 0.15                          21.7 285 
 623  0Z IP   0   10 4 52.27  100                        100    0.0210 40.7 139 
 623  0N ES   0   10 4 58.13                             100    0.2010 40.7 139 
 623  0N  IAML    10 4 59.15        73.9 0.30                          40.7 139 
 624  0Z IP   0   10 4 53.13  119                         98    0.0810 45.8 108 
 624  0N ES   0   10 4 59.48                              98    0.1810 45.8 108 
 624  0N  IAML    10 5  1.02        33.6 0.15                          45.8 108 
 621  0Z IP   0   10 4 52.92   98                         98   -0.1010 46.9 184 
 621  0N ES   0   10 4 59.20                              98   -0.0610 46.9 184 
 621  0E  IAML    10 5  1.72        20.3 0.22                          46.9 184 
 625  0Z IP   0   10 4 55.33  121                         95   -0.2110 61.3 141 
 625  0N ES   1   10 5  3.31                              95   -0.3110 61.3 141 
 625  0N  IAML    10 5  3.88         8.4 0.32                          61.3 141 
 628  0Z IP   0   10 4 57.63  111                         94   -0.22 9 76.4 106 
 628  0N ES   0   10 5  7.38                              94   -0.23 9 76.4 106 
 628  0E  IAML    10 5  8.94        21.7 0.19                          76.4 106 
 627  0Z IP   0   10 4 59.89  107                         93    0.00 9 87.0 128 
 627  0N ES   0   10 5 11.08                              93   -0.06 9 87.0 128 
 627  0N  IAML    10 5 12.24         8.1 0.25                          87.0 128 
 626  0Z IP   0   10 4 59.78  122                         93   -0.04 8 87.7 155 
 626  0N ES   0   10 5 10.85                              93   -0.17 8 87.7 155 
 626  0E  IAML    10 5 11.00         8.5 0.18                          87.7 155 
 629  0Z IP   0   10 5  3.42  112                         52   -0.17 8  110 132 
 629  0N ES   1   10 5 17.26                              52   -0.28 8  110 132 
 629  0E  IAML    10 5 18.54         6.7 0.20                           110 132 
 630  0Z IP   0   10 5  5.81  123                         52   -0.20 7  128 116 
 630  0N ES   1   10 5 21.44                              52   -0.30 7  128 116 
 630  0E  IAML    10 5 25.71        18.5 0.18                           128 116 
 631  0Z IP   1   10 5 10.17  120                         48    0.32 6  156 149 
 631  0N ES   1   10 5 28.83                              48    0.46 6  156 149 
 631  0N  IAML    10 5 30.82        14.2 0.13                           156 149 
 632  0Z IP   3   10 5 14.26  118                         48    0.78 5  182 127 
 632  0N ES   4   10 5 35.99                              48    1.33 5  182 127 
 632  0E  IAML    10 5 37.29         8.6 0.16                           182 127 
                                                                                
 2017  414 0459 18.2 L  72.264 127.381 22.4  SLT  7 0.2 0.7LSLT 0.5CSLT        1
 GAP=150        0.54       1.4     4.4  2.0  0.1869E+01  0.1059E+01  0.1075E+01E
 ACTION:UP  20-12-23 23:35 OP:elen STATUS:               ID:20170414045811     I
 OLDACT:REG 20-12-21 23:05 OP:elen STATUS:               ID:20170414045811     3
 2017-04-14-0458-11M.NSN___039                                                 6
 STAT SP IPHASW D HRMM SECON CODA AMPLIT PERI AZIMU VELO AIN AR TRES W  DIS CAZ7
 628  0Z IP   0    459 23.05   21                        137    0.2010 17.1 332 
 628  0N ES   0    459 26.28                             137    0.0410 17.1 332 
 628  0N  IAML     459 26.45        23.3 0.08                          17.1 332 
 627  0Z IP   0    459 23.80   19                        130    0.2210 21.3 220 
 627  0N ES   0    459 27.53                             130    0.0310 21.3 220 
 627  0N  IAML     459 28.15         7.8 0.21                          21.3 220 
 629  0Z IP   0    459 25.93   20                        109    0.0910 37.5 184 
 629  0N ES   0    459 31.21                             109   -0.2110 37.5 184 
 629  0N  IAML     459 31.83         2.1 0.37                          37.5 184 
 630  0Z IP   0    459 26.00   20                        108    0.0410 38.5 123 
 630  0N ES   1    459 31.33                             108   -0.3010 38.5 123 
 630  0E  IAML     459 31.56         2.7 0.16                          38.5 123 
 626  0Z IP   0    459 29.62   24                         95    0.21 9 62.4 228 
 626  0E ES   0    459 37.59                              95    0.01 9 62.4 228 
 626  0N  IAML     459 37.71         1.9 0.21                          62.4 228 
 622  0Z IP   0    459 31.28   26                         93   -0.10 9 72.8 287 
 622  0E ES   1    459 40.52                              93   -0.47 9 72.8 287 
 622  0E  IAML     459 41.08         1.3 0.14                          72.8 287 
 631  0Z IP   0    459 35.11                              60    0.23 8 96.7 183 
 631  0N ES   0    459 47.07                              60    0.02 8 96.7 183 
 631  0E  IAML     459 47.29         3.2 0.19                          96.7 183 
                                                                                
 2017  416 0523 41.1 L  71.948 127.112 21.0  SLT 13 0.4 1.8LSLT 2.2CSLT        1
 GAP= 85        0.90       1.6     4.7  2.7  0.2426E+01  0.2562E+01 -0.6773E-01E
 ACTION:UP  20-12-26 19:23 OP:elen STATUS:               ID:20170416052232     I
 OLDACT:REG 20-12-24 20:31 OP:elen STATUS:               ID:20170416052232     3
 2017-04-16-0522-32M.NSN___039                                                 6
 STAT SP IPHASW D HRMM SECON CODA AMPLIT PERI AZIMU VELO AIN AR TRES W  DIS CAZ7
 629  0Z IP   1    523 45.45   82                        158    0.4010 7.26 107 
 629  0N ES   0    523 48.09                             158    0.1610 7.26 107 
 629  0N  IAML     523 48.18       179.5 0.06                          7.26 107 
 627  0Z IP   1    523 46.35   83                        130    0.2510 19.4 347 
 627  0N ES   0    523 49.70                             130   -0.0410 19.4 347 
 627  0E  IAML     523 49.90       231.5 0.18                          19.4 347 
 626  0Z IP   1    523 48.77   80                        103    0.2910 37.9 260 
 626  0N ES   0    523 53.87                             103    0.0110 37.9 260 
 626  0N  IAML     523 53.97        63.4 0.13                          37.9 260 
 625  0Z IP   0    523 49.48   82                         97    0.0710 42.8 307 
 625  0N ES   1    523 55.09                              97   -0.3910 42.8 307 
 625  0N  IAML     523 55.32        56.1 0.21                          42.8 307 
 630  0Z IP   1    523 49.98   86                         95    0.3210 44.1  71 
 630  0N ES   0    523 55.91                              95    0.0010 44.1  71 
 630  0E  IAML     523 56.36        36.3 0.12                          44.1  71 
 628  0Z IP   0    523 50.46   78                         92    0.1010 50.5   1 
 628  0N ES   1    523 56.76                              92   -0.3610 50.5   1 
 628  0E  IAML     523 57.87        59.4 0.22                          50.5   1 
 631  0Z IP   0    523 52.69   91                         91    0.0810 61.4 176 
 631  0N ES   1    524  0.61                              91   -0.4010 61.4 176 
 631  0E  IAML     524  0.91       108.1 0.18                          61.4 176 
 623  0Z IP   0    523 52.70   88                         91    0.02 9 62.6 313 
 623  0N ES   1    524  0.64                              91   -0.49 9 62.6 313 
 623  0E  IAML     524  0.98        12.3 0.17                          62.6 313 
 624  0Z IP   0    523 53.19   87                         91    0.13 9 65.5 335 
 624  0N ES   1    524  1.53                              91   -0.26 9 65.5 335 
 624  0E  IAML     524  3.80        21.0 0.28                          65.5 335 
 632  0Z IP   0    523 55.75   95                         91   -0.12 9 80.2 120 
 632  0N ES   3    524  5.91                              91   -0.75 9 80.2 120 
 632  0E  IAML     524  8.88        12.0 0.12                          80.2 120 
 621  0Z IP   0    523 55.38   86                         91    0.14 9 80.8 290 
 621  0N ES   1    524  5.30                              91   -0.27 9 80.8 290 
 621  0N  IAML     524 10.84        11.6 0.16                          80.8 290 
 622  0Z IP   0    523 55.88   87                         90    0.09 9 82.5 313 
 622  0E ES   1    524  6.15                              90   -0.36 9 82.5 313 
 622  0E  IAML     524 12.01        20.7 0.15                          82.5 313 
 620  0Z IP   3    524  2.06  120                         60    0.90 7  123 311 
 620  0N ES   4    524 16.86                              60    1.06 7  123 311 
 620  0E  IAML     524 20.08        17.2 0.19                           123 311 
                                                                                
 2017  416 1821  5.2 L  72.861 125.053 13.2  SLT 13 0.3 1.5LSLT 2.2CSLT        1
 GAP=260        0.60       2.5     5.1  2.0  0.1103E+01 -0.3872E+01 -0.1411E+01E
 ACTION:UP  20-12-27 00:47 OP:elen STATUS:               ID:20170416181941     I
 OLDACT:REG 20-12-24 20:59 OP:elen STATUS:               ID:20170416181941     3
 2017-04-16-1819-41M.NSN___039                                                 6
 STAT SP IPHASW D HRMM SECON CODA AMPLIT PERI AZIMU VELO AIN AR TRES W  DIS CAZ7
 620  0Z IP   0   1821 11.60   79                        105    0.0310 32.9 226 
 620  0E ES   0   1821 16.27                             105    0.0310 32.9 226 
 620  0E  IAML    1821 18.35        20.2 0.16                          32.9 226 
 622  0Z IP   0   1821 14.23   83                         98    0.1210 47.6 169 
 622  0E ES   0   1821 20.81                              98    0.1710 47.6 169 
 622  0N  IAML    1821 20.82        23.1 0.27                          47.6 169 
 624  0Z IP   0   1821 16.12   90                         96    0.1310 59.2 136 
 624  0N ES   0   1821 24.11                              96    0.2210 59.2 136 
 624  0N  IAML    1821 24.84        18.5 0.25                          59.2 136 
 623  0Z IP   0   1821 17.07   85                         95    0.16 9 64.2 158 
 623  0E ES   1   1821 25.73                              95    0.25 9 64.2 158 
 623  0E  IAML    1821 26.39        16.1 0.19                          64.2 158 
 621  0Z IP   0   1821 18.44   78                         94   -0.15 9 75.8 184 
 621  0N ES   1   1821 28.05                              94   -0.34 9 75.8 184 
 621  0E  IAML    1821 29.12        15.1 0.21                          75.8 184 
 625  0Z IP   0   1821 19.96   85                         93   -0.19 9 84.5 155 
 625  0N ES   1   1821 30.82                              93   -0.27 9 84.5 155 
 625  0N  IAML    1821 32.15         4.3 0.38                          84.5 155 
 628  0Z IP   0   1821 20.12   85                         93   -0.18 9 86.7 125 
 628  0N ES   1   1821 31.05                              93   -0.29 9 86.7 125 
 628  0N  IAML    1821 32.39        16.4 0.29                          86.7 125 
 627  0Z IP   0   1821 23.51   88                         52   -0.12 8  105 141 
 627  0E ES   0   1821 36.89                              52   -0.22 8  105 141 
 627  0E  IAML    1821 38.22         4.4 0.21                           105 141 
 626  0Z IP   0   1821 24.38   87                         52   -0.17 7  114 163 
 626  0N ES   1   1821 38.38                              52   -0.32 7  114 163 
 626  0E  IAML    1821 38.73        21.4 0.23                           114 163 
 629  0Z IP   0   1821 26.93   76                         52    0.05 7  129 143 
 629  0E ES   0   1821 42.83                              52    0.10 7  129 143 
 629  0E  IAML    1821 47.02         3.3 0.46                           129 143 
 630  0Z IP   0   1821 28.17   78                         48   -0.21 6  141 127 
 630  0E ES   1   1821 45.06                              48   -0.26 6  141 127 
 630  0E  IAML    1821 46.35        10.8 0.24                           141 127 
 631  0Z IP   2   1821 34.15   89                         48    0.59 5  180 154 
 631  0N ES   4   1821 55.38                              48    1.09 5  180 154 
 631  0E  IAML    1821 56.98         8.3 0.23                           180 154 
 632  0Z IP   2   1821 36.81   87                         48    0.52 4  198 134 
 632  0N ES   3   1822  0.00                              48    0.99 4  198 134 
 632  0E  IAML    1822  3.02         4.0 0.37                           198 134 
                                                                                
