 2017  427 0912 28.0 L  72.050 127.809 13.1  SLT  8 0.1 1.1LSLT 1.6CSLT        1
 GAP=115        0.35       0.7     2.4  2.4  0.8311E-01  0.2597E+01 -0.1996E+00E
 ACTION:UP  21-01-03 00:37 OP:elen STATUS:               ID:20170427091104     I
 OLDACT:REG 21-01-02 12:22 OP:elen STATUS:               ID:20170427091104     3
 2017-04-27-0911-04M.NSN___024                                                 6
 STAT SP IPHASW D HRMM SECON CODA AMPLIT PERI AZIMU VELO AIN AR TRES W  DIS CAZ7
 630  0Z IP   0    912 32.08   60                        122    0.0910 18.0  81 
 630  0N ES   0    912 34.82                             122   -0.0910 18.0  81 
 630  0E  IAML     912 35.23        75.2 0.16                          18.0  81 
 629  0Z IP   0    912 32.72   51                        116    0.1210 21.8 232 
 629  0N ES   0    912 35.92                             116   -0.0410 21.8 232 
 629  0N  IAML     912 36.29        59.7 0.32                          21.8 232 
 627  0Z IP   0    912 33.91   56                        108    0.1910 29.4 285 
 627  0N ES   0    912 37.96                             108    0.0510 29.4 285 
 627  0N  IAML     912 38.62        15.6 0.11                          29.4 285 
 628  0Z IP   0    912 36.13   59                         99    0.0510 45.1 330 
 628  0E ES   0    912 41.83                              99   -0.1610 45.1 330 
 628  0N  IAML     912 43.71        13.3 0.10                          45.1 330 
 625  0Z IP   0    912 38.95   47                         96    0.1210 60.0 284 
 625  0N ES   0    912 46.75                              96    0.0110 60.0 284 
 625  0E  IAML     912 48.75         5.0 0.38                          60.0 284 
 624  0Z IP   0    912 40.79   55                         94    0.05 9 70.6 313 
 624  0N ES   0    912 49.90                              94   -0.15 9 70.6 313 
 624  0E  IAML     912 52.51         7.8 0.24                          70.6 313 
 631  0Z IP   0    912 41.71   65                         94    0.01 9 75.2 195 
 631  0E ES   0    912 51.50                              94   -0.22 9 75.2 195 
 631  0N  IAML     912 56.09         4.4 0.17                          75.2 195 
 621  0Z IP   0    912 45.77   63                         93    0.05 8  101 280 
 621  0N ES   0    912 58.51                              93   -0.16 8  101 280 
 621  0E  IAML     913  4.61         3.4 0.11                           101 280 
                                                                                
 2017  427 0912 28.0 L  72.051 127.807 12.8  SLT  8 0.1 1.1LSLT 1.8CSLT        1
 GAP=114        0.39       0.8     2.6  2.7  0.9139E-01  0.3435E+01 -0.2804E+00E
 ACTION:UP  21-01-03 02:00 OP:elen STATUS:               ID:20170427091134     I
 OLDACT:REG 21-01-02 12:26 OP:elen STATUS:               ID:20170427091134     3
 2017-04-27-0911-34M.NSN___024                                                 6
 STAT SP IPHASW D HRMM SECON CODA AMPLIT PERI AZIMU VELO AIN AR TRES W  DIS CAZ7
 630  0Z IP   0    912 32.09   73                        121    0.1110 18.0  81 
 630  0N ES   0    912 34.77                             121   -0.1110 18.0  81 
 630  0E  IAML     912 35.23        73.7 0.16                          18.0  81 
 629  0Z IP   0    912 32.76   63                        115    0.1610 21.8 232 
 629  0N ES   0    912 35.91                             115   -0.0410 21.8 232 
 629  0N  IAML     912 36.50        46.4 0.25                          21.8 232 
 627  0Z IP   0    912 33.89   69                        107    0.1810 29.3 285 
 627  0N ES   0    912 37.90                             107    0.0210 29.3 285 
 627  0N  IAML     912 38.62        15.3 0.11                          29.3 285 
 628  0Z IP   0    912 36.13   71                         98    0.0710 45.0 330 
 628  0E ES   0    912 41.77                              98   -0.1810 45.0 330 
 628  0N  IAML     912 43.71        13.4 0.10                          45.0 330 
 625  0Z IP   0    912 39.00   64                         95    0.1810 59.9 284 
 625  0N ES   0    912 46.73                              95    0.0110 59.9 284 
 625  0E  IAML     912 48.75         5.0 0.37                          59.9 284 
 624  0Z IP   0    912 40.79   61                         94    0.06 9 70.5 313 
 624  0E ES   0    912 49.82                              94   -0.20 9 70.5 313 
 624  0N  IAML     912 53.81        11.0 0.23                          70.5 313 
 631  0Z IP   0    912 41.74   76                         94   -0.00 9 75.4 195 
 631  0E ES   1    912 51.50                              94   -0.27 9 75.4 195 
 631  0N  IAML     912 56.09         4.4 0.17                          75.4 195 
 621  0Z IP   0    912 45.78   68                         92    0.06 8  101 280 
 621  0N ES   0    912 58.52                              92   -0.14 8  101 280 
 621  0E  IAML     913  4.61         3.4 0.10                           101 280 
                                                                                
