 2017  418 1500 13.1 L  72.731 124.623 17.4  SLT 12 0.3 1.4LSLT 1.8CSLT        1
 GAP=245        0.72       3.0     7.1  1.8  0.5024E+01 -0.6991E+01 -0.1268E+01E
 ACTION:UP  20-12-29 20:35 OP:elen STATUS:               ID:20170418150000     I
 OLDACT:REG 20-12-27 21:06 OP:elen STATUS:               ID:20170418150000     3
 2017-04-18-1500-00M.NSN___039                                                 6
 STAT SP IPHASW D HRMM SECON CODA AMPLIT PERI AZIMU VELO AIN AR TRES W  DIS CAZ7
 620  0Z IP   0   15 0 17.01   45                        143    0.0410 12.6 227 
 620  0N ES   1   15 0 20.21                             143    0.4110 12.6 227 
 620  0E  IAML    15 0 20.40        46.0 0.06                          12.6 227 
 622  0Z IP   0   15 0 20.82   62                        109   -0.0810 39.6 144 
 622  0E ES   1   15 0 26.88                             109    0.2910 39.6 144 
 622  0E  IAML    15 0 27.41        11.0 0.25                          39.6 144 
 623  0Z IP   0   15 0 23.95   64                        102   -0.1310 59.1 139 
 623  0N ES   0   15 0 32.25                             102    0.1610 59.1 139 
 623  0N  IAML    15 0 32.59        15.2 0.23                          59.1 139 
 621  0Z IP   1   15 0 23.90   61                        101   -0.3410 61.7 172 
 621  0N ES   1   15 0 32.11                             101   -0.2610 61.7 172 
 621  0N  IAML    15 0 32.91         5.1 0.16                          61.7 172 
 624  0Z IP   0   15 0 24.31   72                        101   -0.2010 62.0 116 
 624  0N ES   0   15 0 32.87                             101    0.0310 62.0 116 
 624  0E  IAML    15 0 33.70        15.7 0.13                          62.0 116 
 625  0Z IP   1   15 0 27.09   68                         98   -0.26 9 79.7 141 
 625  0E ES   0   15 0 37.66                              98   -0.09 9 79.7 141 
 625  0E  IAML    15 0 42.86         5.3 0.15                          79.7 141 
 628  0Z IP   1   15 0 28.73   62                         67   -0.33 8 92.1 112 
 628  0N ES   0   15 0 40.56                              67   -0.16 8 92.1 112 
 628  0N  IAML    15 0 42.58         9.3 0.32                          92.1 112 
 627  0Z IP   0   15 0 30.88   70                         52   -0.19 8  105 130 
 627  0N ES   0   15 0 44.21                              52    0.02 8  105 130 
 627  0E  IAML    15 0 46.27         8.7 0.18                           105 130 
 626  0Z IP   1   15 0 30.64   66                         52   -0.32 8  106 152 
 626  0N ES   0   15 0 43.79                              52   -0.21 8  106 152 
 626  0E  IAML    15 0 46.76        15.3 0.29                           106 152 
 629  0Z IP   1   15 0 34.49   63                         52    0.30 7  128 133 
 629  0N ES   3   15 0 50.51                              52    0.92 7  128 133 
 629  0E  IAML    15 0 51.67        10.5 0.26                           128 133 
 630  0Z IP   1   15 0 36.66   69                         48    0.32 6  145 119 
 630  0E ES   3   15 0 54.25                              48    0.94 6  145 119 
 630  0E  IAML    15 0 55.69        10.5 0.13                           145 119 
 631  0Z IP   0   15 0 40.10   68                         48   -0.18 5  174 147 
 631  0N ES   0   15 1  0.17                              48    0.05 5  174 147 
 631  0E  IAML    15 1  2.92         5.5 0.22                           174 147 
                                                                                
 2017  420 1302 35.4 L  72.632 129.098 18.8  SLT 11 0.5 1.2LSLT 1.5CSLT        1
 GAP=301        1.05       4.8    17.4  3.4  0.2041E+02  0.6793E+01 -0.4347E+01E
 ACTION:UP  20-12-30 20:06 OP:elen STATUS:               ID:20170420130148     I
 OLDACT:REG 20-12-27 21:23 OP:elen STATUS:               ID:20170420130148     3
 2017-04-20-1301-48M.NSN___039                                                 6
 STAT SP IPHASW D HRMM SECON CODA AMPLIT PERI AZIMU VELO AIN AR TRES W  DIS CAZ7
 630  0Z IP   0   13 2 47.72   48                        101   -0.0010 67.4 203 
 630  0E ES   0   13 2 56.70                             101    0.0210 67.4 203 
 630  0E  IAML    13 2 57.62         4.2 0.12                          67.4 203 
 628  0Z IP   0   13 2 48.04   43                        101    0.1110 70.4 249 
 628  0N ES   0   13 2 57.25                             101    0.2110 70.4 249 
 628  0N  IAML    13 2 59.12         8.4 0.12                          70.4 249 
 627  0Z IP   0   13 2 51.30   41                         52   -0.20 9 91.8 232 
 627  0N ES   1   13 3  2.84                              52   -0.39 9 91.8 232 
 627  0N  IAML    13 3  3.72         3.6 0.20                          91.8 232 
 624  0Z IP   1   13 2 51.72   56                         52   -0.47 9 96.1 261 
 624  0N ES   3   13 3  3.60                              52   -0.82 9 96.1 261 
 624  0E  IAML    13 3  6.29        11.1 0.17                          96.1 261 
 629  0Z IP   1   13 2 52.13   45                         52   -0.44 9 99.2 219 
 629  0N ES   3   13 3  4.30                              52   -0.77 9 99.2 219 
 629  0N  IAML    13 3  7.12         1.6 0.12                          99.2 219 
 625  0Z IP   0   13 2 54.58   56                         52    0.22 8  113 245 
 625  0N ES   1   13 3  8.54                              52    0.36 8  113 245 
 625  0N  IAML    13 3 12.64         2.7 0.28                           113 245 
 623  0Z IP   0   13 2 54.92   53                         52   -0.18 8  117 255 
 623  0N ES   1   13 3  9.14                              52   -0.30 8  117 255 
 623  0N  IAML    13 3 13.97         1.9 0.31                           117 255 
 622  0Z IP   0   13 2 56.57   62                         52   -0.05 7  129 262 
 622  0E ES   0   13 3 11.98                              52   -0.10 7  129 262 
 622  0N  IAML    13 3 16.58         2.0 0.17                           129 262 
 626  0Z IP   2   13 2 57.46   55                         48    0.61 7  133 233 
 626  0N ES   4   13 3 13.50                              48    1.03 7  133 233 
 626  0N  IAML    13 3 15.11         3.2 0.16                           133 233 
 621  0Z IP   3   13 3  0.04   50                         48    0.91 6  151 253 
 621  0N ES   4   13 3 17.92                              48    1.49 6  151 253 
 621  0N  IAML    13 3 19.43         3.5 0.20                           151 253 
 631  0Z IP   0   13 2 59.88   53                         48    0.22 6  152 206 
 631  0N ES   1   13 3 17.65                              48    0.31 6  152 206 
 631  0E  IAML    13 3 18.76         4.9 0.32                           152 206 
                                                                                
 2017  423 1455 44.0 L  72.834 124.593 11.6  SLT  8 0.2 0.7LSLT 1.3CSLT        1
 GAP=276        0.39       1.9     4.1  1.8 -0.1225E+01 -0.2475E+01 -0.7932E+00E
 ACTION:UP  20-12-31 12:43 OP:elen STATUS:               ID:20170423145418     I
 OLDACT:REG 20-12-30 23:54 OP:elen STATUS:               ID:20170423145418     3
 2017-04-23-1454-18M.NSN___036                                                 6
 STAT SP IPHASW D HRMM SECON CODA AMPLIT PERI AZIMU VELO AIN AR TRES W  DIS CAZ7
 620  0Z IP   0   1455 48.50   35                        111    0.0210 21.7 202 
 620  0N ES   0   1455 51.91                             111    0.1410 21.7 202 
 620  0N  IAML    1455 52.17         7.5 0.26                          21.7 202 
 622  0Z IP   0   1455 53.26   37                         94   -0.0110 49.9 151 
 622  0N ES   0   1456  0.15                              94    0.0910 49.9 151 
 622  0N  IAML    1456  0.80         2.6 0.14                          49.9 151 
 624  0Z IP   0   1455 56.49   45                         93    0.09 9 68.8 125 
 624  0N ES   0   1456  5.67                              93    0.19 9 68.8 125 
 624  0N  IAML    1456  7.60         2.5 0.13                          68.8 125 
 623  0Z IP   0   1455 56.38   39                         93   -0.09 9 68.8 145 
 623  0N ES   0   1456  5.47                              93   -0.12 9 68.8 145 
 623  0N  IAML    1456  7.34         2.3 0.20                          68.8 145 
 621  0Z IP   0   1455 56.84   32                         92   -0.10 9 73.2 172 
 621  0E  IAML    1456  6.32         1.9 0.18                          73.2 172 
 621  0N ES   0   1456  6.34                              92   -0.07 9 73.2 172 
 628  0Z IP   0   1456  0.83   54                         92   -0.17 8 98.0 118 
 628  0N ES   0   1456 13.28                              92   -0.15 8 98.0 118 
 628  0E  IAML    1456 14.87         2.2 0.23                          98.0 118 
 626  0Z IP   0   1456  3.70   45                         52   -0.18 7  116 154 
 626  0N ES   0   1456 18.27                              52   -0.15 7  116 154 
 626  0E  IAML    1456 18.75         1.2 0.25                           116 154 
 630  0Z IP   0   1456  8.91   56                         48    0.19 6  151 122 
 630  0N ES   1   1456 27.27                              48    0.48 6  151 122 
 630  0E  IAML    1456 28.26         3.0 0.26                           151 122 
                                                                                
 2017  423 2313 41.6 L  72.595 124.903 19.3  SLT 12 0.3 1.5LSLT 2.1CSLT        1
 GAP=175        0.76       2.2     6.0  1.7  0.4996E+01 -0.4313E+01 -0.1178E+00E
 ACTION:UP  21-01-01 14:08 OP:elen STATUS:               ID:20170423231216     I
 OLDACT:REG 20-12-30 23:59 OP:elen STATUS:               ID:20170423231216     3
 2017-04-23-2312-16M.NSN___036                                                 6
 STAT SP IPHASW D HRMM SECON CODA AMPLIT PERI AZIMU VELO AIN AR TRES W  DIS CAZ7
 620  0Z IP   0   2313 46.48   80                        132   -0.0410 19.7 290 
 620  0N ES   0   2313 50.18                             132    0.0510 19.7 290 
 620  0E  IAML    2313 50.37        79.3 0.10                          19.7 290 
 622  0Z IP   0   2313 47.05   83                        129    0.1410 21.9 141 
 622  0N ES   1   2313 51.23                             129    0.4410 21.9 141 
 622  0N  IAML    2313 52.56        48.0 0.16                          21.9 141 
 623  0Z IP   0   2313 49.73   80                        111   -0.0810 41.6 136 
 623  0N ES   0   2313 55.88                             111    0.0610 41.6 136 
 623  0E  IAML    2313 56.62        82.7 0.25                          41.6 136 
 621  0Z IP   0   2313 50.11   78                        109   -0.1110 45.9 181 
 621  0N ES   0   2313 56.52                             109   -0.0110 45.9 181 
 621  0E  IAML    2313 56.54        16.1 0.14                          45.9 181 
 624  0Z IP   0   2313 50.63   84                        108   -0.1210 47.9 106 
 624  0N ES   0   2313 57.40                             108   -0.0310 47.9 106 
 624  0E  IAML    2313 58.06        49.5 0.19                          47.9 106 
 625  0Z IP   0   2313 52.86   87                        103   -0.1110 62.2 139 
 625  0E ES   0   2314  1.25                             103   -0.0310 62.2 139 
 625  0N  IAML    2314  3.61         7.8 0.27                          62.2 139 
 628  0Z IP   1   2313 54.98   89                         67   -0.31 9 78.4 105 
 628  0N ES   1   2314  4.93                              67   -0.36 9 78.4 105 
 628  0N  IAML    2314  6.54        12.5 0.19                          78.4 105 
 626  0Z IP   1   2313 56.45   85                         67   -0.37 8 87.9 153 
 626  0N ES   1   2314  7.49                              67   -0.45 8 87.9 153 
 626  0E  IAML    2314  8.44        13.9 0.16                          87.9 153 
 627  0Z IP   1   2313 56.83   83                         67   -0.25 8 88.3 126 
 627  0E ES   0   2314  8.15                              67   -0.24 8 88.3 126 
 627  0E  IAML    2314  9.54         4.7 0.16                          88.3 126 
 629  0Z IP   0   2314  0.22   88                         52    0.02 8  111 131 
 629  0N ES   0   2314 14.02                              52    0.24 8  111 131 
 629  0E  IAML    2314 16.94         4.7 0.22                           111 131 
 630  0Z IP   2   2314  3.25   84                         48    0.55 7  130 115 
 630  0N ES   4   2314 19.30                              48    1.19 7  130 115 
 630  0E  IAML    2314 20.72         6.7 0.13                           130 115 
 631  0Z IP   1   2314  6.59   87                         48    0.29 6  156 148 
 631  0N ES   2   2314 25.05                              48    0.71 6  156 148 
 631  0E  IAML    2314 26.89        13.4 0.18                           156 148 
                                                                                
 2017  425 0652 22.6 L  71.952 128.048  8.9  SLT  9 0.4 1.4LSLT 1.8CSLT        1
 GAP=170        0.86       1.8     7.0  3.0 -0.2069E+01  0.1145E+02 -0.2912E+00E
 ACTION:UP  21-01-02 01:38 OP:elen STATUS:               ID:20170425065114     I
 OLDACT:REG 20-12-31 19:06 OP:elen STATUS:               ID:20170425065114     3
 2017-04-25-0651-14M.NSN___027                                                 6
 STAT SP IPHASW D HRMM SECON CODA AMPLIT PERI AZIMU VELO AIN AR TRES W  DIS CAZ7
 630  0Z IP   0    652 26.18   85                        118    0.0710 16.7  35 
 630  0E ES   0    652 28.80                             118    0.1410 16.7  35 
 630  0E  IAML     652 29.11       220.3 0.20                          16.7  35 
 629  0Z IP   0    652 27.55   63                        109   -0.0910 25.6 265 
 629  0N ES   0    652 31.16                             109   -0.1310 25.6 265 
 629  0E  IAML     652 31.82        95.0 0.25                          25.6 265 
 627  0Z IP   0    652 30.04   64                         68   -0.2310 41.1 297 
 627  0N ES   1    652 35.52                              68   -0.3410 41.1 297 
 627  0E  IAML     652 38.27        30.9 0.53                          41.1 297 
 628  0Z IP   0    652 32.83   74                         68   -0.1910 58.7 329 
 628  0N ES   1    652 40.31                              68   -0.3010 58.7 329 
 628  0N  IAML     652 47.06        11.6 0.14                          58.7 329 
 631  0Z IP   0    652 35.05   90                         68   -0.05 9 67.8 205 
 631  0N ES   0    652 44.17                              68   -0.03 9 67.8 205 
 631  0N  IAML     652 44.52        10.0 0.33                          67.8 205 
 625  0Z IP   0    652 35.26   67                         68   -0.12 9 71.2 291 
 625  0N ES   0    652 44.57                              68   -0.12 9 71.2 291 
 625  0N  IAML     652 48.33         6.8 0.40                          71.2 291 
 624  0Z IP   0    652 37.49   63                         68   -0.20 9 84.1 315 
 624  0N ES   1    652 48.42                              68   -0.27 9 84.1 315 
 624  0N  IAML     652 50.56        18.4 0.21                          84.1 315 
 623  0Z IP   2    652 39.13   64                         68    0.59 8 88.8 299 
 623  0E ES   4    652 51.26                              68    1.10 8 88.8 299 
 623  0N  IAML     652 57.27         5.5 0.26                          88.8 299 
 621  0Z IP   1    652 42.42   59                         68    0.27 8  112 285 
 621  0N ES   2    652 56.94                              68    0.53 8  112 285 
 621  0E  IAML     653  0.65         5.5 0.17                           112 285 
                                                                                
 2017  426 1840 43.4 L  72.269 126.363 20.5  SLT  8 0.2 1.5LSLT 2.0CSLT        1
 GAP= 93        0.52       1.3     3.1  1.2  0.4600E+00  0.9399E-01  0.6663E+00E
 ACTION:UP  21-01-02 22:25 OP:elen STATUS:               ID:20170426183923     I
 OLDACT:REG 21-01-02 11:44 OP:elen STATUS:               ID:20170426183923     3
 2017-04-26-1839-23M.NSN___024                                                 6
 STAT SP IPHASW D HRMM SECON CODA AMPLIT PERI AZIMU VELO AIN AR TRES W  DIS CAZ7
 625  0Z IP   0   1840 47.88   74                        145    0.1610 13.7 220 
 625  0N ES   0   1840 50.73                             145   -0.1510 13.7 220 
 625  0E  IAML    1840 51.37       213.3 0.52                          13.7 220 
 624  0Z IP   0   1840 48.98   77                        129    0.0310 23.3 353 
 624  0N ES   1   1840 52.65                             129   -0.3510 23.3 353 
 624  0N  IAML    1840 52.83       190.5 0.14                          23.3 353 
 627  0Z IP   0   1840 49.51   82                        125    0.1510 27.1 128 
 627  0N ES   0   1840 53.59                             125   -0.1210 27.1 128 
 627  0N  IAML    1840 53.89        27.0 0.10                          27.1 128 
 628  0Z IP   1   1840 49.87   85                        122    0.3010 30.3  61 
 628  0N ES   0   1840 54.20                             122    0.1310 30.3  61 
 628  0N  IAML    1840 54.73        51.7 0.14                          30.3  61 
 629  0Z IP   0   1840 53.07   83                         67    0.1510 50.0 139 
 629  0E ES   0   1840 59.71                              67   -0.1510 50.0 139 
 629  0E  IAML    1841  0.14        14.2 0.26                          50.0 139 
 621  0Z IP   0   1840 53.08   83                         67    0.1610 51.1 260 
 621  0N ES   0   1840 59.75                              67   -0.1210 51.1 260 
 621  0N  IAML    1841  0.04        20.1 0.21                          51.1 260 
 630  0Z IP   0   1840 56.07   88                         67    0.01 9 70.5 107 
 630  0E ES   1   1841  4.95                              67   -0.35 9 70.5 107 
 630  0N  IAML    1841  8.11         4.4 0.16                          70.5 107 
 631  0Z IP   0   1841  1.10   83                         52    0.18 8  102 162 
 631  0N ES   0   1841 13.69                              52   -0.02 8  102 162 
 631  0E  IAML    1841 13.87        16.2 0.28                           102 162 
                                                                                
