 2016  822 1318 48.7 L  72.365 127.062 19.5  SLT  8 0.3 0.8LSLT 1.2CSLT        1
 GAP=101        0.83       2.4     5.6  2.9  0.5909E+01  0.5736E+01  0.3581E+01E
 ACTION:UP  21-01-08 22:12 OP:elen STATUS:               ID:20160822131743     I
 OLDACT:REG 21-01-08 15:24 OP:elen STATUS:               ID:20160822131743     3
 2016-08-22-1317-43M.arct__039                                                 6
 STAT SP IPHASW D HRMM SECON CODA AMPLIT PERI AZIMU VELO AIN AR TRES W  DIS CAZ7
 628  0Z IP   1   1318 52.33   40                        166    0.3510 4.82  37 
 628  0N ES   0   1318 54.47                             166    0.1110 4.82  37 
 628  0N  IAML    1318 54.58        79.2 0.14                          4.82  37 
 627  0Z IP   0   1318 54.86   31                        122    0.1910 27.8 186 
 627  0E ES   0   1318 58.85                             122   -0.1810 27.8 186 
 627  0E  IAML    1318 59.21        13.9 0.14                          27.8 186 
 624  0Z IP   0   1318 55.20   43                        121    0.2210 29.3 295 
 624  0N ES   0   1318 59.45                             121   -0.1210 29.3 295 
 624  0N  IAML    1319  0.17         9.4 0.19                          29.3 295 
 625  0Z IP   1   1318 56.77   43                        113    0.4510 38.8 237 
 625  0N ES   1   1319  2.17                             113    0.2910 38.8 237 
 625  0E  IAML    1319  5.64         3.4 0.36                          38.8 237 
 623  0Z IP   0   1318 57.42   36                        110    0.0610 44.3 265 
 623  0E ES   1   1319  3.30                             110   -0.3810 44.3 265 
 623  0E  IAML    1319  3.64         2.5 0.18                          44.3 265 
 630  0Z IP   0   1318 58.72   48                        106   -0.0510 53.9 126 
 630  0E ES   2   1319  5.54                             106   -0.5810 53.9 126 
 630  0E  IAML    1319  6.59         4.5 0.17                          53.9 126 
 622  0Z IP   0   1318 59.79   39                        104   -0.0710 59.6 279 
 622  0N ES   2   1319  7.38                             104   -0.6310 59.6 279 
 622  0N  IAML    1319  8.26         2.5 0.11                          59.6 279 
 626  0Z IP   1   1319  0.46   48                         67    0.28 9 63.8 214 
 626  0N ES   0   1319  8.56                              67    0.00 9 63.8 214 
 626  0N  IAML    1319 10.91         1.7 0.06                          63.8 214 
                                                                                
 2016 10 5 1619 46.6 L  72.865 125.047 14.7  SLT  9 0.2 1.2LSLT 0.5CSLT        1
 GAP=261        0.52       2.4     4.8  2.1  0.1190E+01 -0.4652E+01 -0.1790E+01E
 ACTION:ARG 20-04-11 14:12 OP:mn   STATUS:               ID:20161005161823     I
 2016-10-05-1618-23M.SIOLA_039                                                 6
 STAT SP IPHASW D HRMM SECON CODA AMPLIT PERI AZIMU VELO AIN AR TRES W  DIS CAZ7
 620  0Z IP   0 C 1619 53.22   14                        109    0.0910 33.0 225 
 620  0E ES   0   1619 57.77                             109   -0.1010 33.0 225 
 620  0Z  IAML    1619 58.27        10.0 0.26                          33.0 225 
 622  0Z IP   0 C 1619 55.67   24                        101   -0.0210 48.0 169 
 622  0N ES   0   1620  2.15                             101   -0.1510 48.0 169 
 622  0Z  IAML    1620  2.41        12.4 0.26                          48.0 169 
 624  0Z IP   0 C 1619 57.78   12                         98    0.2310 59.6 136 
 624  0E ES   0   1620  5.66                              98    0.1310 59.6 136 
 624  0Z  IAML    1620  6.07        13.9 0.20                          59.6 136 
 623  0Z IP   0 D 1619 58.49   14                         97    0.02 9 64.7 158 
 623  0E ES   0   1620  7.08                              97   -0.03 9 64.7 158 
 623  0Z  IAML    1620  8.02         7.1 0.21                          64.7 158 
 621  0Z IP   0 D 1620  0.03   18                         96   -0.11 9 76.2 184 
 621  0N ES   1   1620 10.27                              96    0.27 9 76.2 184 
 621  0Z  IAML    1620 10.74         9.1 0.26                          76.2 184 
 628  0Z IP   1 D 1620  1.57   24                         95   -0.27 9 87.1 126 
 628  0E ES   0   1620 12.86                              95   -0.09 9 87.1 126 
 628  0Z  IAML    1620 13.38         4.9 0.14                          87.1 126 
 627  0Z IP   0 D 1620  4.99   37                         52   -0.01 8  106 141 
 627  0E ES   2   1620 17.78                              52   -0.63 8  106 141 
 627  0Z  IAML    1620 18.01         3.3 0.70                           106 141 
 629  0Z IP   0 D 1620  8.38   25                         52    0.13 7  129 143 
 629  0E ES   1   1620 24.46                              52    0.43 7  129 143 
 629  0Z  IAML    1620 25.99         5.6 0.17                           129 143 
 630  0Z IP   0 D 1620  9.67   29                         48   -0.05 6  141 127 
 630  0E ES   1   1620 26.89                              48    0.31 6  141 127 
 630  0Z  IAML    1620 27.89         4.1 0.22                           141 127 
                                                                                
 2016 10 9 0036 44.5 L  72.860 125.041 10.5  SLT  8 0.3 1.4LSLT 1.4CSLT        1
 GAP=260        0.61       2.9     5.9  3.4  0.9754E+00 -0.8932E+01 -0.3318E+01E
 ACTION:ARG 20-04-11 14:12 OP:mn   STATUS:               ID:20161009003553     I
 2016-10-09-0035-53M.SIOLA_039                                                 6
 STAT SP IPHASW D HRMM SECON CODA AMPLIT PERI AZIMU VELO AIN AR TRES W  DIS CAZ7
 620  0Z IP   0 C  036 50.84   52                         96    0.1310 32.5 225 
 620  0N ES   0    036 55.36                              96    0.0910 32.5 225 
 620  0Z  IAML     036 56.58        17.0 0.10                          32.5 225 
 622  0Z IP   0 D  036 53.46   45                         92    0.1210 47.5 169 
 622  0N ES   0    036 59.76                              92   -0.0710 47.5 169 
 622  0Z  IAML     037  0.06        25.9 0.26                          47.5 169 
 623  0Z IP   0 C  036 56.30   31                         91    0.13 9 64.2 158 
 623  0N ES   0    037  4.89                              91    0.17 9 64.2 158 
 623  0Z  IAML     037  5.81         6.2 0.16                          64.2 158 
 621  0Z IP   1 C  036 57.58   30                         91   -0.25 9 75.6 184 
 621  0N ES   1    037  7.24                              91   -0.35 9 75.6 184 
 621  0Z  IAML     037  8.38        14.7 0.25                          75.6 184 
 628  0Z IP   0 C  036 59.56   41                         91   -0.04 9 86.9 125 
 628  0E ES   0    037 10.72                              91    0.06 9 86.9 125 
 628  0Z  IAML     037 11.62        12.3 0.18                          86.9 125 
 629  0Z IP   0 C  037  6.49   34                         52    0.03 7  129 142 
 629  0N ES   2    037 23.04                              52    0.51 7  129 142 
 629  0Z  IAML     037 23.64         7.5 0.18                           129 142 
 630  0Z IP   2 C  037  7.39   41                         48   -0.61 6  141 127 
 630  0E ES   2    037 24.67                              48   -0.51 6  141 127 
 630  0Z  IAML     037 26.44         5.9 0.13                           141 127 
 632  0Z IP   0 C  037 15.92   58                         48    0.02 4  199 134 
 632  0E ES   3    037 39.74                              48    0.88 4  199 134 
 632  0Z  IAML     037 40.61         5.6 0.22                           199 134 
                                                                                
 2017  3 2 1359 58.8 L  72.665 124.948  6.1  SLT  7 0.2 0.7LSLT 0.6CSLT        1
 GAP=204        0.42       1.4     2.9  1.9  0.1213E+01 -0.2295E+01  0.7083E-01E
 ACTION:ARG 20-12-21 03:09 OP:mn   STATUS:               ID:20170302140000     I
 2017-03-02-1400-00M.a_____039                                                 6
 STAT SP IPHASW D HRMM SECON CODA AMPLIT PERI AZIMU VELO AIN AR TRES W  DIS CAZ7
 620  0Z IP   0 C 14 0  2.62   12                        107   -0.0710 20.0 267 
 620  0N ES   0   14 0  5.48                             107   -0.0610 20.0 267 
 620  0Z  IAML    14 0  6.17        11.7 0.22                          20.0 267 
 623  0Z IP   1 C 14 0  7.90   23                         97    0.3610 46.6 144 
 623  0E ES   0   14 0 13.91                              97   -0.0210 46.6 144 
 623  0Z  IAML    14 0 16.05         2.6 0.31                          46.6 144 
 624  0Z IP   0 C 14 0  7.90   21                         97   -0.0310 49.1 115 
 624  0N ES   0   14 0 14.45                              97   -0.1710 49.1 115 
 624  0Z  IAML    14 0 14.90         4.1 0.20                          49.1 115 
 621  0Z IP   0 D 14 0  8.53   18                         96   -0.0210 53.7 182 
 621  0E ES   0   14 0 15.65                              96   -0.0410 53.7 182 
 621  0Z  IAML    14 0 15.67         1.7 0.16                          53.7 182 
 628  0Z IP   0 C 14 0 12.90   19                         68    0.02 9 79.4 111 
 628  0Z  IAML    14 0 22.84         2.9 0.36                          79.4 111 
 628  0N ES   0   14 0 23.10                              68   -0.07 9 79.4 111 
 626  0Z IP   0 D 14 0 15.66   34                         68    0.20 8 94.3 156 
 626  0N ES   0   14 0 27.55                              68   -0.08 8 94.3 156 
 626  0Z  IAML    14 0 28.04         1.5 0.25                          94.3 156 
 631  0Z IP   1 C 14 0 26.12   35                         44    0.33 6  162 150 
 631  0N ES   1   14 0 45.20                              44   -0.31 6  162 150 
 631  0Z  IAML    14 0 47.10         2.3 0.16                           162 150 
                                                                                
 2017  3 4 2135  2.6 L  72.679 124.985  9.4  SLT  7 0.3 1.5LSLT 0.9CSLT        1
 GAP=209        0.77       3.7     9.5  3.5  0.2241E+02 -0.2516E+02 -0.4904E+01E
 ACTION:ARG 20-12-21 03:09 OP:mn   STATUS:               ID:20170304213342     I
 2017-03-04-2133-42M.a_____039                                                 6
 STAT SP IPHASW D HRMM SECON CODA AMPLIT PERI AZIMU VELO AIN AR TRES W  DIS CAZ7
 620  0Z IP   0 C 2135  6.89   22                        114   -0.0410 21.4 263 
 620  0N ES   0   2135  9.93                             114   -0.1810 21.4 263 
 620  0Z  IAML    2135 10.05        86.0 0.13                          21.4 263 
 622  0Z IP   1 C 2135  8.63   25                        108    0.3610 28.7 157 
 622  0E ES   1   2135 12.74                             108    0.3210 28.7 157 
 622  0Z  IAML    2135 12.96        43.3 0.27                          28.7 157 
 623  0Z IP   0 D 2135 11.57   25                         68    0.1510 47.2 146 
 623  0E ES   0   2135 17.74                              68   -0.1310 47.2 146 
 623  0Z  IAML    2135 18.46        11.2 0.28                          47.2 146 
 625  0Z IP   0 C 2135 14.52   28                         68   -0.23 9 67.9 146 
 625  0N ES   2   2135 23.03                              68   -0.59 9 67.9 146 
 625  0Z  IAML    2135 24.79         5.7 0.30                          67.9 146 
 628  0Z IP   0 D 2135 16.21   34                         68   -0.16 9 78.9 112 
 628  0E ES   1   2135 26.07                              68   -0.36 9 78.9 112 
 628  0Z  IAML    2135 27.53        11.0 0.31                          78.9 112 
 630  0Z IP   1 C 2135 25.48   35                         47    0.49 7  132 119 
 630  0E ES   2   2135 41.91                              47    0.57 7  132 119 
 630  0Z  IAML    2135 43.85        28.1 0.25                           132 119 
 631  0Z IP   1 C 2135 29.65   45                         44    0.38 5  163 150 
 631  0N ES   0   2135 48.84                              44    0.09 5  163 150 
 631  0Z  IAML    2135 50.49         7.9 0.16                           163 150 
                                                                                
 2017  3 7 0447 20.7 L  72.689 124.988  8.7  SLT 10 0.3 1.9LSLT 1.4CSLT        1
 GAP=213        0.67       2.9     7.1  2.9  0.1075E+02 -0.1585E+02 -0.2704E+01E
 ACTION:ARG 20-12-21 03:09 OP:mn   STATUS:               ID:20170307044601     I
 2017-03-07-0446-01M.a_____039                                                 6
 STAT SP IPHASW D HRMM SECON CODA AMPLIT PERI AZIMU VELO AIN AR TRES W  DIS CAZ7
 620  0Z IP   0 C  447 25.10   28                        112    0.0910 21.7 260 
 620  0N ES   0    447 28.18                             112   -0.0110 21.7 260 
 620  0Z  IAML     447 28.45       381.6 0.12                          21.7 260 
 622  0Z IP   0 D  447 26.62   34                        106    0.1510 29.6 158 
 622  0E ES   0    447 30.86                             106    0.1510 29.6 158 
 622  0Z  IAML     447 31.27        70.8 0.22                          29.6 158 
 623  0Z IP   0 D  447 29.64   30                         68   -0.0410 48.0 147 
 623  0E ES   1    447 36.57                              68    0.3010 48.0 147 
 623  0Z  IAML     447 37.13        23.8 0.25                          48.0 147 
 624  0Z IP   0 D  447 29.73   35                         68   -0.0710 49.1 118 
 624  0E ES   1    447 36.78                              68    0.3010 49.1 118 
 624  0Z  IAML     447 37.43        56.6 0.20                          49.1 118 
 625  0Z IP   0 C  447 32.96   49                         68   -0.05 9 68.7 146 
 625  0N ES   2    447 41.46                              68   -0.56 9 68.7 146 
 625  0Z  IAML     447 42.87        11.5 0.26                          68.7 146 
 628  0Z IP   0 D  447 34.30   39                         68   -0.24 9 79.1 113 
 628  0E ES   0    447 44.74                              68    0.07 9 79.1 113 
 628  0Z  IAML     447 45.61        24.7 0.35                          79.1 113 
 627  0Z IP   1 D  447 36.70   44                         68   -0.40 8 92.7 133 
 627  0N ES   1    447 48.67                              68   -0.42 8 92.7 133 
 627  0Z  IAML     447 48.90        10.6 0.36                          92.7 133 
 630  0Z IP   0 C  447 43.03   38                         47   -0.18 7  132 120 
 630  0N ES   1    448  0.14                              47    0.48 7  132 120 
 630  0Z  IAML     448  1.93        78.9 0.21                           132 120 
 631  0Z IP   0 D  447 47.59   48                         44    0.05 5  164 151 
 631  0E ES   0    448  7.03                              44   -0.14 5  164 151 
 631  0Z  IAML     448  9.42        22.3 0.20                           164 151 
 632  0Z IP   0 D  447 51.04   71                         44    0.17 4  187 130 
 632  0N ES   4    448 13.95                              44    1.02 4  187 130 
 632  0Z  IAML     448 14.76        14.6 0.48                           187 130 
                                                                                
 2017  313 0553 58.9 L  72.691 124.979  9.4  SLT  9 0.2 1.2LSLT 1.3CSLT        1
 GAP=214        0.58       2.6     6.8  4.3 -0.7412E+01 -0.2477E+02  0.7177E+01E
 ACTION:ARG 20-12-21 03:09 OP:mn   STATUS:               ID:20170313055233     I
 2017-03-13-0552-33M.a_____039                                                 6
 STAT SP IPHASW D HRMM SECON CODA AMPLIT PERI AZIMU VELO AIN AR TRES W  DIS CAZ7
 620  0Z IP   0 C  554  3.31   33                        114    0.0910 21.4 259 
 620  0N ES   0    554  6.41                             114    0.0010 21.4 259 
 620  0Z  IAML     554  6.63        51.0 0.11                          21.4 259 
 622  0Z IP   0 D  554  4.88   42                         68    0.1010 30.0 158 
 622  0E ES   1    554  9.34                              68    0.2510 30.0 158 
 622  0Z  IAML     554  9.50        13.0 0.16                          30.0 158 
 623  0Z IP   1 D  554  8.18   38                         68    0.2810 48.5 147 
 623  0E ES   1    554 14.89                              68    0.3910 48.5 147 
 623  0Z  IAML     554 16.90         6.3 0.22                          48.5 147 
 624  0Z IP   0 D  554  8.08   38                         68    0.0510 49.5 118 
 624  0N ES   0    554 14.63                              68   -0.0810 49.5 118 
 624  0Z  IAML     554 16.07        11.1 0.14                          49.5 118 
 621  0Z IP   0 C  554  8.88   33                         68   -0.1510 56.7 183 
 621  0E ES   1    554 16.03                              68   -0.4210 56.7 183 
 621  0Z  IAML     554 16.67         4.6 0.19                          56.7 183 
 628  0Z IP   0 D  554 12.56   44                         68   -0.20 9 79.6 113 
 628  0N ES   0    554 22.87                              68   -0.04 9 79.6 113 
 628  0Z  IAML     554 24.27         6.2 0.16                          79.6 113 
 627  0Z IP   1 D  554 15.02   50                         68   -0.30 8 93.1 133 
 627  0N ES   1    554 26.90                              68   -0.43 8 93.1 133 
 627  0Z  IAML     554 31.39         2.7 0.14                          93.1 133 
 630  0Z IP   0 D  554 21.36   40                         47   -0.01 7  132 120 
 630  0N ES   0    554 37.94                              47    0.14 7  132 120 
 630  0Z  IAML     554 40.24        17.6 0.22                           132 120 
 631  0Z IP   0 D  554 25.86   55                         44    0.16 5  164 150 
 631  0E ES   0    554 45.43                              44    0.14 5  164 150 
 631  0Z  IAML     554 47.39         5.4 0.37                           164 150 
                                                                                
 2017  313 0809  5.2 L  72.455 125.107 13.6  SLT  7 0.1 1.4LSLT 1.1CSLT        1
 GAP=135        0.28       0.6     1.8  2.9  0.3216E+00 -0.1204E+01 -0.1598E+00E
 ACTION:ARG 20-12-21 03:09 OP:mn   STATUS:               ID:20170313080741     I
 2017-03-13-0807-41M.a_____039                                                 6
 STAT SP IPHASW D HRMM SECON CODA AMPLIT PERI AZIMU VELO AIN AR TRES W  DIS CAZ7
 623  0Z IP   0 D  8 9 10.61   38                        112   -0.0210 26.3 123 
 623  0E ES   0    8 9 14.56                             112   -0.0510 26.3 123 
 623  0Z  IAML     8 9 15.47        41.9 0.23                          26.3 123 
 621  0Z IP   0 D  8 9 11.20   33                        108    0.0710 31.1 194 
 621  0E ES   0    8 9 15.58                             108    0.1110 31.1 194 
 621  0Z  IAML     8 9 17.34        23.5 0.15                          31.1 194 
 620  0Z IP   0 D  8 9 11.72   34                        106   -0.0210 33.8 311 
 620  0N ES   0    8 9 16.45                             106   -0.0910 33.8 311 
 620  0Z  IAML     8 9 17.87        44.7 0.14                          33.8 311 
 624  0Z IP   0 D  8 9 12.75   25                        102    0.0710 39.3  86 
 624  0N ES   0    8 9 18.26                             102    0.1010 39.3  86 
 624  0Z  IAML     8 9 18.61        42.4 0.14                          39.3  86 
 625  0Z IP   0 C  8 9 13.68   53                        100   -0.0210 46.2 132 
 625  0N ES   0    8 9 19.84                             100   -0.0910 46.2 132 
 625  0Z  IAML     8 9 21.34        10.0 0.26                          46.2 132 
 628  0Z IP   0 D  8 9 17.39   42                         95    0.08 9 69.0  94 
 628  0N ES   0    8 9 26.13                              95   -0.04 9 69.0  94 
 628  0Z  IAML     8 9 27.51        18.6 0.24                          69.0  94 
 626  0Z IP   0 D  8 9 17.71   45                         95    0.04 9 70.8 153 
 626  0E ES   0    8 9 26.64                              95   -0.15 9 70.8 153 
 626  0Z  IAML     8 9 26.87         6.5 0.21                          70.8 153 
                                                                                
