 2017  4 8 1004 45.2 L  72.584 124.865 14.5  BER 13 0.4                        1
 GAP=169        0.76       2.6     6.6  3.6  0.7699E+01 -0.6809E+01  0.9295E+00E
 ACTION:UP  20-12-21 14:32 OP:elen STATUS:               ID:20170408100319     I
 OLDACT:UP  20-12-20 16:21 OP:elen STATUS:               ID:20170408100319     3
 OLDACT:UP  20-12-19 02:06 OP:elen STATUS:               ID:20170408100319     3
 OLDACT:REG 20-12-15 20:09 OP:elen STATUS:               ID:20170408100319     3
 2017-04-08-1003-19M.NSN___039                                                 6
 STAT SP IPHASW D HRMM SECON CODA AMPLIT PERI AZIMU VELO AIN AR TRES W  DIS CAZ7
 620  0Z IP       10 4 49.10                             126   -0.0510 18.9 295 
 620  0N ES       10 4 52.37                             126    0.3310 18.9 295 
 622  0Z IP       10 4 49.31                             122   -0.2310 21.8 136 
 622  0E ES       10 4 52.71                             122   -0.0110 21.8 136 
 623  0Z IP       10 4 52.25                             107   -0.23 9 41.7 133 
 623  0N ES       10 4 57.99                             107    0.18 9 41.7 133 
 621  0Z IP       10 4 53.23                             106    0.27 9 44.6 179 
 621  0N ES       10 4 58.56                             106   -0.08 9 44.6 179 
 624  0Z IP       10 4 53.23                             104   -0.36 9 48.8 104 
 624  0Z ES       10 5  0.44                             104    0.71 9 48.8 104 
 625  0Z IP       10 4 55.44                             101   -0.24 8 62.1 137 
 625  0N ES       10 5  3.16                             101   -0.19 8 62.1 137 
 628  0Z IP       10 4 57.57                              98   -0.86 8 79.4 104 
 628  0N ES       10 5  7.96                              98   -0.15 8 79.4 104 
 626  0Z IP       10 4 59.90                              97    0.18 8 87.3 152 
 626  0E ES       10 5 10.06                              97   -0.27 8 87.3 152 
 627  0Z IP       10 4 59.81                              97   -0.10 8 88.6 125 
 627  0E ES       10 5 10.80                              97    0.13 8 88.6 125 
 629  0Z IP       10 5  3.42                              96   -0.05 7  111 130 
 629  0N ES       10 5 17.36                              96    0.54 7  111 130 
 630  0Z IP       10 5  5.84                              95   -0.75 6  130 114 
 630  0E ES       10 5 23.00                              95    0.77 6  130 114 
 631  0Z IP       10 5 10.20                              53   -0.01 5  156 147 
 631  0E ES       10 5 28.65                              53    0.16 5  156 147 
 632  0Z IP       10 5 14.07                              53    0.33 4  183 126 
 632  0E ES       10 5 35.68                              53    1.09 4  183 126 

 2017  416 0523 42.2 L  71.953 127.085 18.0  BER 12 0.3                        1
 GAP= 84        0.58       1.2     3.7  2.5  0.1620E+01  0.1918E+01  0.1052E+00E
 ACTION:UP  20-12-26 19:23 OP:elen STATUS:               ID:20170416052232     I
 OLDACT:REG 20-12-24 20:31 OP:elen STATUS:               ID:20170416052232     3
 2017-04-16-0522-32M.NSN___039                                                 6
 STAT SP IPHASW D HRMM SECON CODA AMPLIT PERI AZIMU VELO AIN AR TRES W  DIS CAZ7
 629  0Z IP        523 45.44                             154   -0.0010 8.35 109 
 629  0E ES        523 48.02                             154    0.1810 8.35 109 
 627  0Z IP        523 46.36                             133   -0.0810 18.6 349 
 627  0E ES        523 49.61                             133    0.0410 18.6 349 
 626  0Z IP        523 48.76                             114   -0.22 9 37.1 259 
 626  0N ES        523 53.71                             114   -0.24 9 37.1 259 
 625  0Z IP        523 49.72                             111    0.08 9 41.7 307 
 625  0N ES        523 54.90                             111   -0.20 9 41.7 307 
 630  0Z IP        523 49.92                             110   -0.20 9 44.9  72 
 630  0N ES        523 55.85                             110   -0.09 9 44.9  72 
 628  0Z IP        523 50.39                             108   -0.50 9 49.9   2 
 628  0E ES        523 56.86                             108   -0.41 9 49.9   2 
 623  0Z IP        523 52.77                             104    0.07 8 61.5 313 
 623  0N ES        524  0.55                             104    0.16 8 61.5 313 
 631  0Z IP        523 52.66                             104   -0.13 8 62.1 175 
 631  0E ES        524  0.63                             104    0.07 8 62.1 175 
 624  0Z IP        523 53.61                             104    0.44 8 64.5 335 
 624  0N ES        524  1.79                             104    0.58 8 64.5 335 
 632  0Z IP        523 55.84                             101    0.02 7 81.3 120 
 632  0E ES        524  6.13                             101    0.34 7 81.3 120 
 622  0Z IP        523 56.19                             101    0.36 7 81.4 313 
 622  0N ES        524  5.76                             101   -0.05 7 81.4 313 
 620  0Z IP        524  2.20                              97   -0.01 6  121 311 
 620  0N ES        524 17.06                              97    0.21 6  121 311 

 2017  425 0652 23.4 L  71.956 128.060  0.0  BER  9 0.6 1.2LBER 2.1CBER        1
 GAP=171        1.35       3.4    11.9  8.7 -0.1475E+02  0.5367E+02 -0.5078E+01E
 ACTION:REE 25-08-04 22:18 OP:mn   STATUS:               ID:20170425065114     I
 OLDACT:REG 20-12-31 19:06 OP:elen STATUS:               ID:20170425065114     3
 2017-04-25-0651-14M.NSN___027                                                 6
 STAT SP IPHASW D HRMM SECON CODA AMPLIT PERI AZIMU VELO AIN AR TRES W  DIS CAZ7
 630  0Z IP        652 26.18   85                         90   -0.1110 16.1  34 
 630  0E ES        652 28.80                              90    0.4110 16.1  34 
 630  0E  IAML     652 29.11       220.3 0.20                          16.1  34 
 629  0Z IP        652 27.55   63                         90   -0.5110 26.0 264 
 629  0N ES        652 31.16                              90   -0.2910 26.0 264 
 629  0E  IAML     652 31.82        95.0 0.25                          26.0 264 
 627  0Z IP        652 30.04   64                         65   -0.68 9 41.2 296 
 627  0N ES        652 35.52                              65   -0.54 9 41.2 296 
 627  0E  IAML     652 38.27        30.9 0.53                          41.2 296 
 628  0Z IP        652 32.83   74                         65   -0.69 8 58.5 328 
 628  0N ES        652 40.31                              65   -0.58 8 58.5 328 
 628  0N  IAML     652 47.06        11.6 0.14                          58.5 328 
 631  0Z IP        652 35.05   90                         65   -0.06 8 68.4 205 
 631  0N ES        652 44.17                              65    0.52 8 68.4 205 
 631  0N  IAML     652 44.52        10.0 0.33                          68.4 205 
 625  0Z IP        652 35.26   67                         65   -0.33 8 71.4 291 
 625  0N ES        652 44.57                              65    0.09 8 71.4 291 
 625  0N  IAML     652 48.33         6.8 0.40                          71.4 291 
 624  0Z IP        652 37.49   63                         65   -0.15 8 84.1 314 
 624  0N ES        652 48.42                              65    0.40 8 84.1 314 
 624  0N  IAML     652 50.56        18.4 0.21                          84.1 314 
 623  0Z IP        652 39.13   64                         65    0.72 7 88.9 299 
 623  0E ES        652 51.26                              65    1.90 7 88.9 299 
 623  0N  IAML     652 57.27         5.5 0.26                          88.9 299 
 621  0Z IP        652 42.42   59                         65    0.28 7  112 285 
 621  0N ES        652 56.94                              65    1.13 7  112 285 
 621  0E  IAML     653  0.65         5.5 0.17                           112 285 

 2017  426 1425 21.2 L  72.075 127.261 21.8  BER  6 0.0 0.1LBER 0.6CBER        1
 GAP=112        0.22       0.8     2.1  1.4  0.6139E+00 -0.4714E+00 -0.4469E+00E
 ACTION:REE 25-08-04 22:19 OP:mn   STATUS:               ID:20170426142409     I
 OLDACT:REG 21-01-02 11:34 OP:elen STATUS:               ID:20170426142409     3
 2017-04-26-1424-09M.NSN___024                                                 6
 STAT SP IPHASW D HRMM SECON CODA AMPLIT PERI AZIMU VELO AIN AR TRES W  DIS CAZ7
 627  0Z IP       1425 25.19   24                        153   -0.0410 10.7 296 
 627  0N ES       1425 28.15                             153   -0.0110 10.7 296 
 627  0N  IAML    1425 28.30         9.4 0.08                          10.7 296 
 629  0Z IP       1425 25.70   24                        142   -0.0210 16.4 174 
 629  0N ES       1425 29.01                             142    0.0110 16.4 174 
 629  0E  IAML    1425 29.36         1.7 0.10                          16.4 174 
 630  0Z IP       1425 28.22   24                        119   -0.00 9 36.5  89 
 630  0N ES       1425 33.37                             119    0.04 9 36.5  89 
 630  0N  IAML    1425 33.67         4.8 0.16                          36.5  89 
 628  0Z IP       1425 28.19   21                        120   -0.03 9 36.5 354 
 628  0N ES       1425 33.32                             120   -0.01 9 36.5 354 
 628  0N  IAML    1425 33.55         1.7 0.10                          36.5 354 
 625  0Z IP       1425 28.87   22                        117    0.00 9 41.1 286 
 625  0N ES       1425 34.49                             117    0.04 9 41.1 286 
 625  0N  IAML    1425 35.27         1.7 0.23                          41.1 286 
 624  0Z IP       1425 31.08   24                        110    0.00 8 55.9 324 
 624  0N ES       1425 38.30                             110    0.03 8 55.9 324 
 624  0E  IAML    1425 38.99         1.1 0.28                          55.9 324 

 2017  426 1840 44.2 L  72.274 126.360 18.4  BER  8 0.1 1.4LBER 2.4CBER        1
 GAP= 93        0.30       0.7     2.1  1.7  0.8941E-01 -0.6921E+00  0.2685E+00E
 ACTION:REE 25-08-04 22:19 OP:mn   STATUS:               ID:20170426183923     I
 OLDACT:REG 21-01-02 11:44 OP:elen STATUS:               ID:20170426183923     3
 2017-04-26-1839-23M.NSN___024                                                 6
 STAT SP IPHASW D HRMM SECON CODA AMPLIT PERI AZIMU VELO AIN AR TRES W  DIS CAZ7
 625  0Z IP       1840 47.88   74                        141   -0.1110 14.1 218 
 625  0N ES       1840 50.73                             141   -0.0510 14.1 218 
 625  0E  IAML    1840 51.37       213.3 0.52                          14.1 218 
 624  0Z IP       1840 48.98   77                        128    0.0010 22.7 353 
 624  0N ES       1840 52.65                             128    0.1510 22.7 353 
 624  0N  IAML    1840 52.83       190.5 0.14                          22.7 353 
 627  0Z IP       1840 49.51   82                        122   -0.1110 27.6 129 
 627  0N ES       1840 53.59                             122   -0.0310 27.6 129 
 627  0N  IAML    1840 53.89        27.0 0.10                          27.6 129 
 628  0Z IP       1840 49.87   85                        120   -0.11 9 30.1  62 
 628  0N ES       1840 54.20                             120   -0.03 9 30.1  62 
 628  0N  IAML    1840 54.73        51.7 0.14                          30.1  62 
 629  0Z IP       1840 53.07   83                        108    0.07 9 50.5 139 
 629  0E ES       1840 59.71                             108    0.25 9 50.5 139 
 629  0E  IAML    1841  0.14        14.2 0.26                          50.5 139 
 621  0Z IP       1840 53.08   83                        108   -0.03 9 51.1 259 
 621  0N ES       1840 59.75                             108    0.09 9 51.1 259 
 621  0N  IAML    1841  0.04        20.1 0.21                          51.1 259 
 630  0Z IP       1840 56.07   88                        103   -0.08 8 70.7 107 
 630  0E ES       1841  4.95                             103    0.04 8 70.7 107 
 630  0N  IAML    1841  8.11         4.4 0.16                          70.7 107 
 631  0Z IP       1841  1.10   83                         99   -0.08 7  102 162 
 631  0N ES       1841 13.69                              99    0.07 7  102 162 
 631  0E  IAML    1841 13.87        16.2 0.28                           102 162 

 2017  427 0912 29.1 L  72.060 127.824  6.2  BER  8 0.3 0.9LBER 1.8CBER        1
 GAP=115        0.72       1.7     5.7 17.9 -0.2594E+00  0.6359E+02 -0.4453E+01E
 ACTION:REE 25-08-04 22:19 OP:mn   STATUS:               ID:20170427091104     I
 OLDACT:REG 21-01-02 12:22 OP:elen STATUS:               ID:20170427091104     3
 2017-04-27-0911-04M.NSN___024                                                 6
 STAT SP IPHASW D HRMM SECON CODA AMPLIT PERI AZIMU VELO AIN AR TRES W  DIS CAZ7
 630  0Z IP        912 32.08   60                        102   -0.1410 17.3  84 
 630  0N ES        912 34.82                             102    0.3010 17.3  84 
 630  0E  IAML     912 35.23        75.2 0.16                          17.3  84 
 629  0Z IP        912 32.72   51                         98   -0.3910 22.9 231 
 629  0N ES        912 35.92                              98   -0.1510 22.9 231 
 629  0N  IAML     912 36.29        59.7 0.32                          22.9 231 
 627  0Z IP        912 33.91   56                         95   -0.2710 29.6 283 
 627  0N ES        912 37.96                              95    0.0310 29.6 283 
 627  0N  IAML     912 38.62        15.6 0.11                          29.6 283 
 628  0Z IP        912 36.13   59                         93   -0.43 9 44.4 329 
 628  0E ES        912 41.83                              93   -0.21 9 44.4 329 
 628  0N  IAML     912 43.71        13.3 0.10                          44.4 329 
 625  0Z IP        912 38.95   47                         92   -0.16 8 60.2 283 
 625  0N ES        912 46.75                              92    0.30 8 60.2 283 
 625  0E  IAML     912 48.75         5.0 0.38                          60.2 283 
 624  0Z IP        912 40.79   55                         92    0.07 8 70.2 312 
 624  0N ES        912 49.90                              92    0.66 8 70.2 312 
 624  0E  IAML     912 52.51         7.8 0.24                          70.2 312 
 631  0Z IP        912 41.71   65                         92   -0.03 8 76.5 196 
 631  0E ES        912 51.50                              92    0.50 8 76.5 196 
 631  0N  IAML     912 56.09         4.4 0.17                          76.5 196 
 621  0Z IP        912 45.77   63                         91   -0.02 7  102 279 
 621  0N ES        912 58.51                              91    0.50 7  102 279 
 621  0E  IAML     913  4.61         3.4 0.11                           102 279 

