 2016 1124 2316 14.6 L  72.734 124.949  9.7  BER 12 0.3 1.8LBER 2.2CBER        1
 GAP=229        0.56       2.6     4.8  4.1  0.2908E+01 -0.8778E+01 -0.9052E+00E
 ACTION:REE 25-08-04 21:59 OP:mn   STATUS:               ID:20161124231448     I
 2016-11-24-2314-48M.arct__039                                                 6
 STAT SP IPHASW D HRMM SECON CODA AMPLIT PERI AZIMU VELO AIN AR TRES W  DIS CAZ7
 620  0Z IP       2316 18.56                             110   -0.0810 21.9 246 
 620  0N ES       2316 21.82                             110    0.2410 21.9 246 
 622  0Z IP       2316 20.47                             101   -0.1810 34.7 159 
 622  0N ES       2316 24.79                             101   -0.2510 34.7 159 
 624  0Z IP       2316 23.59   67                         97    0.07 9 52.8 122 
 624  0E ES       2316 30.60                              97    0.58 9 52.8 122 
 624  0Z  IAML    2316 30.90        59.3 0.25                          52.8 122 
 621  0Z IP       2316 24.77   89                         96   -0.14 9 61.4 182 
 621  0N ES       2316 32.50                              96    0.07 9 61.4 182 
 621  0Z  IAML    2316 35.59        32.5 0.61                          61.4 182 
 625  0Z IP       2316 27.00                              95    0.14 8 73.6 147 
 625  0E ES       2316 35.74                              95   -0.06 8 73.6 147 
 628  0Z IP       2316 27.87                              94   -0.41 8 82.4 116 
 628  0N ES       2316 38.01                              94   -0.24 8 82.4 116 
 627  0Z IP       2316 31.03                              93    0.38 7 97.1 134 
 627  0E ES       2316 42.37                              93    0.03 7 97.1 134 
 626  0Z IP       2316 31.28   70                         93   -0.06 7  101 158 
 626  0E ES       2316 43.70                              93    0.16 7  101 158 
 626  0Z  IAML    2316 44.70        17.6 0.47                           101 158 
 629  0Z IP       2316 34.21                              93   -0.17 6  120 137 
 629  0N ES       2316 48.44                              93   -0.37 6  120 137 
 630  0Z IP       2316 36.36   66                         92   -0.48 6  136 121 
 630  0N ES       2316 53.62                              92    0.56 6  136 121 
 630  0Z  IAML    2316 55.52        52.5 0.35                           136 121 
 631  0Z IP       2316 41.48                              53   -0.30 5  169 151 
 631  0N ES       2317  1.49                              53   -0.12 5  169 151 
 632  0Z IP       2316 44.76                              53    0.06 4  191 131 
 632  0N ES       2317  7.56                              53    0.90 4  191 131 

 2016 1125 1638 37.9 L  72.749 124.934 10.0  BER  9 0.4 1.1LBER 2.7CBER        1
 GAP=235        0.75       3.9     6.8  5.5  0.4522E+01 -0.1680E+02 -0.2386E+01E
 ACTION:REE 25-08-04 22:00 OP:mn   STATUS:               ID:20161125163711     I
 2016-11-25-1637-11M.arct__039                                                 6
 STAT SP IPHASW D HRMM SECON CODA AMPLIT PERI AZIMU VELO AIN AR TRES W  DIS CAZ7
 620  0Z IP       1638 41.87   99                        110   -0.1010 22.2 242 
 620  0N ES       1638 45.25                             110    0.3010 22.2 242 
 620  0Z  IAML    1638 46.64        24.4 0.21                          22.2 242 
 622  0Z IP       1638 43.96                             101   -0.24 9 36.5 160 
 622  0N ES       1638 48.26                             101   -0.54 9 36.5 160 
 624  0Z IP       1638 47.16  114                         97    0.15 9 54.1 124 
 624  0E ES       1638 54.03                              97    0.37 9 54.1 124 
 624  0Z  IAML    1638 54.30        25.4 0.17                          54.1 124 
 623  0Z IP       1638 47.26                              97    0.16 9 54.7 149 
 623  0N ES       1638 54.54                              97    0.72 9 54.7 149 
 621  0Z IP       1638 48.39  102                         96   -0.06 9 63.0 181 
 621  0E ES       1638 55.93                              96   -0.23 9 63.0 181 
 621  0Z  IAML    1638 56.04         9.0 0.26                          63.0 181 
 628  0Z IP       1638 51.20                              94   -0.54 8 83.6 117 
 628  0N ES       1639  1.36                              94   -0.49 8 83.6 117 
 630  0Z IP       1639  0.34                              93    0.02 6  137 122 
 630  0N ES       1639 17.25                              93    0.56 6  137 122 
 631  0Z IP       1639  5.04                              53   -0.19 5  170 151 
 631  0N ES       1639 25.12                              53   -0.07 5  170 151 
 632  0Z IP       1639  8.13                              53    0.01 4  193 131 
 632  0N ES       1639 30.86                              53    0.67 4  193 131 

 2016 1228 2250 24.6 L  71.590 127.532  0.0  BER 10 0.5 1.5LBER 2.3CBER        1
 GAP=114        0.99       3.7     8.1 13.1  0.9280E+01 -0.4114E+02 -0.4012E+02E
 ACTION:REE 25-08-04 22:04 OP:mn   STATUS:               ID:20161228224921     I
 2016-12-28-2249-21M.arct__039                                                 6
 STAT SP IPHASW D HRMM SECON CODA AMPLIT PERI AZIMU VELO AIN AR TRES W  DIS CAZ7
 631  0Z IP       2250 28.59   77                         90   -0.1810 23.6 205 
 631  0N ES       2250 32.09                              90    0.2410 23.6 205 
 631  0Z  IAML    2250 33.05       162.0 0.45                          23.6 205 
 629  0Z IP       2250 30.78                              65   -0.65 9 38.5 349 
 629  0N ES       2250 36.02                              65   -0.44 9 38.5 349 
 632  0Z IP       2250 33.78   84                         65   -0.21 9 54.4  91 
 632  0N ES       2250 40.97                              65    0.09 9 54.4  91 
 632  0Z  IAML    2250 42.34        30.3 0.26                          54.4  91 
 630  0Z IP       2250 35.00   83                         65   -0.01 9 60.7  27 
 630  0N ES       2250 43.00                              65    0.36 9 60.7  27 
 630  0Z  IAML    2250 43.81        19.2 0.62                          60.7  27 
 627  0Z IP       2250 35.35                              65    0.16 9 61.8 342 
 626  0Z IP       2250 34.81                              65   -0.42 9 62.0 303 
 626  0N ES       2250 42.41                              65   -0.61 9 62.0 303 
 628  0Z IP       2250 39.83                              65   -0.12 8 91.3 352 
 623  0Z IP       2250 42.52                              65    0.78 7  102 324 
 622  0Z IP       2250 45.89                              65    1.00 6  122 322 
 622  0E ES       2251  0.71                              65    0.98 6  122 322 
 620  0Z IP       2250 51.19                              65   -0.03 5  161 319 
 620  0Z ES       2251 11.71                              65    1.03 5  161 319 

 2017  3 4 2135  3.3 L  72.676 124.915 11.9  BER 11 0.3                        1
 GAP=208        0.55       2.3     4.9  3.9  0.3883E+01 -0.8989E+01  0.4247E-01E
 ACTION:ARG 20-12-21 03:09 OP:mn   STATUS:               ID:20170304213342     I
 2017-03-04-2133-42M.a_____039                                                 6
 STAT SP IPHASW D HRMM SECON CODA AMPLIT PERI AZIMU VELO AIN AR TRES W  DIS CAZ7
 620  0Z IP       2135  6.89                             119   -0.2010 19.1 263 
 620  0N ES       2135  9.97                             119    0.1410 19.1 263 
 622  0Z IP       2135  8.40                             109   -0.2110 29.3 153 
 622  0Z ES       2135 12.52                             109    0.0710 29.3 153 
 623  0Z IP       2135 11.59                             101    0.02 9 48.2 144 
 623  0E ES       2135 17.76                             101    0.18 9 48.2 144 
 624  0Z IP       2135 11.59                             100   -0.36 9 50.6 115 
 624  0N ES       2135 18.14                             100   -0.10 9 50.6 115 
 621  0Z IP       2135 12.49                              99   -0.15 9 54.9 181 
 621  0E ES       2135 19.36                              99   -0.08 9 54.9 181 
 625  0Z IP       2135 15.37                              97    0.50 8 68.9 144 
 625  0N ES       2135 23.10                              97   -0.18 8 68.9 144 
 628  0Z IP       2135 16.91                              96    0.13 8 80.9 111 
 628  0N ES       2135 26.46                              96   -0.13 8 80.9 111 
 626  0Z IP       2135 19.31                              95    0.12 7 95.8 156 
 626  0E ES       2135 30.76                              95   -0.01 7 95.8 156 
 629  0Z IP       2135 23.36                              94    0.86 7  116 135 
 629  0E ES       2135 36.05                              94   -0.44 7  116 135 
 630  0Z IP       2135 25.40                              93    0.18 6  133 119 
 630  0N ES       2135 41.51                              93    0.32 6  133 119 
 631  0Z IP       2135 29.38                              53   -0.26 5  164 149 
 631  0N ES       2135 48.84                              53    0.00 5  164 149 

 2017  3 7 0447 21.2 L  72.697 124.947 11.0  BER 12 0.4                        1
 GAP=216        0.68       2.9     5.9  4.4  0.5624E+01 -0.1164E+02 -0.9601E+00E
 ACTION:ARG 20-12-21 03:09 OP:mn   STATUS:               ID:20170307044601     I
 2017-03-07-0446-01M.a_____039                                                 6
 STAT SP IPHASW D HRMM SECON CODA AMPLIT PERI AZIMU VELO AIN AR TRES W  DIS CAZ7
 620  0Z IP        447 25.09                             115   -0.0310 20.5 257 
 620  0N ES        447 28.21                             115    0.2510 20.5 257 
 622  0Z IP        447 26.58                             106   -0.1210 31.0 157 
 622  0N ES        447 30.76                             106    0.0610 31.0 157 
 623  0Z IP        447 29.77                              99    0.13 9 49.6 146 
 623  0E ES        447 36.14                              99    0.36 9 49.6 146 
 624  0Z IP        447 29.62                              99   -0.21 9 50.8 118 
 624  0E ES        447 36.27                              99    0.15 9 50.8 118 
 621  0Z IP        447 30.66                              98   -0.22 9 57.3 182 
 621  0E ES        447 37.40                              98   -0.53 9 57.3 182 
 625  0Z IP        447 33.65                              96    0.71 8 70.2 146 
 625  0N ES        447 41.29                              96   -0.20 8 70.2 146 
 628  0Z IP        447 34.27                              95   -0.37 8 80.8 113 
 628  0N ES        447 44.02                              95   -0.41 8 80.8 113 
 627  0Z IP        447 36.61                              94   -0.21 7 94.4 132 
 627  0N ES        447 48.59                              94    0.39 7 94.4 132 
 626  0Z IP        447 37.35                              94    0.01 7 97.5 157 
 626  0E ES        447 49.14                              94    0.03 7 97.5 157 
 630  0Z IP        447 42.58                              93   -0.55 6  134 120 
 630  0N ES        447 59.57                              93    0.45 6  134 120 
 631  0Z IP        447 47.46                              53   -0.34 5  165 150 
 631  0N ES        448  7.08                              53   -0.12 5  165 150 
 632  0Z IP        447 50.90                              53    0.05 4  189 130 
 632  0N ES        448 13.79                              53    1.32 4  189 130 

 2017  313 0809  6.1 L  72.454 125.049  1.2  BER 13 0.6                        1
 GAP=132        1.17       2.6     7.8  5.1  0.4806E+01 -0.1468E+02  0.1266E+01E
 ACTION:ARG 20-12-21 03:09 OP:mn   STATUS:               ID:20170313080741     I
 2017-03-13-0807-41M.a_____039                                                 6
 STAT SP IPHASW D HRMM SECON CODA AMPLIT PERI AZIMU VELO AIN AR TRES W  DIS CAZ7
 622  0Z IP        8 9  7.76                              98    0.0210 8.97  98 
 622  0N ES        8 9  9.32                              98    0.3910 8.97  98 
 623  0Z IP        8 9 10.65                              93   -0.47 9 27.9 120 
 623  0N ES        8 9 14.89                              93    0.13 9 27.9 120 
 621  0Z IP        8 9 11.42                              93   -0.17 9 30.6 190 
 621  0N ES        8 9 15.96                              93    0.37 9 30.6 190 
 620  0Z IP        8 9 11.73                              65   -0.19 9 32.4 314 
 620  0E ES        8 9 16.77                              65    0.61 9 32.4 314 
 624  0Z IP        8 9 12.86                              65   -0.50 9 41.3  86 
 624  0E ES        8 9 18.19                              65   -0.45 9 41.3  86 
 625  0Z IP        8 9 13.81                              65   -0.55 9 47.5 131 
 625  0E ES        8 9 20.38                              65    0.00 9 47.5 131 
 628  0Z IP        8 9 17.50                              65   -0.64 8 71.0  94 
 628  0N ES        8 9 26.57                              65   -0.34 8 71.0  94 
 626  0Z IP        8 9 17.81                              65   -0.44 8 71.6 151 
 626  0E ES        8 9 26.75                              65   -0.35 8 71.6 151 
 627  0Z IP        8 9 18.62                              65   -0.28 8 75.6 119 
 627  0E ES        8 9 28.34                              65    0.12 8 75.6 119 
 629  0Z IP        8 9 23.22                              65    0.89 7 97.0 126 
 629  0E ES        8 9 35.02                              65    0.86 7 97.0 126 
 630  0Z IP        8 9 25.92                              65    0.01 6  119 109 
 630  0N ES        8 9 42.64                              65    2.29 6  119 109 
 631  0Z IP        8 9 29.68                              65    0.38 5  140 146 
 631  0E ES        8 9 45.58                              65   -0.64 5  140 146 
 632  0Z IP        8 9 34.08                              65   -0.02 4  170 123 
 632  0N ES        8 9 54.84                              65    0.32 4  170 123 

 2017  320 1900 34.5 L  72.410 126.153 17.6  BER  9 0.2                        1
 GAP= 94        0.59       1.5     3.6  2.7  0.2912E+00  0.1067E+00  0.9763E+00E
 ACTION:ARG 20-12-21 03:09 OP:mn   STATUS:               ID:20170320190000     I
 2017-03-20-1900-00M.a_____039                                                 6
 STAT SP IPHASW D HRMM SECON CODA AMPLIT PERI AZIMU VELO AIN AR TRES W  DIS CAZ7
 624  0Z IP       19 0 37.65                             154   -0.1110 8.46  29 
 624  0N ES       19 0 40.26                             154    0.1410 8.46  29 
 623  0Z IP       19 0 38.41                             136   -0.0710 16.2 235 
 623  0N ES       19 0 41.36                             136   -0.0210 16.2 235 
 625  0Z IP       19 0 39.69                             122   -0.06 9 26.3 183 
 625  0N ES       19 0 43.86                             122    0.28 9 26.3 183 
 622  0Z IP       19 0 39.70                             120   -0.35 9 28.5 278 
 622  0N ES       19 0 43.81                             120   -0.29 9 28.5 278 
 628  0Z IP       19 0 40.71                             116   -0.07 9 33.6  91 
 628  0N ES       19 0 45.37                             116    0.02 9 33.6  91 
 621  0Z IP       19 0 43.05                             108   -0.18 9 49.8 240 
 621  0N ES       19 0 49.32                             108   -0.27 9 49.8 240 
 626  0Z IP       19 0 44.86                             105    0.30 8 58.4 184 
 626  0E ES       19 0 52.06                             105    0.17 8 58.4 184 
 620  0Z IP       19 0 46.03                             103    0.24 8 66.4 295 
 620  0N ES       19 0 54.73                             103    0.70 8 66.4 295 
 630  0Z IP       19 0 48.34                             100   -0.06 7 82.9 116 
 630  0N ES       19 0 58.33                             100   -0.21 7 82.9 116 

 2017  4 2 0422  1.4 L  72.730 125.712 17.4  BER 13 0.4                        1
 GAP=227        0.73       3.1     6.1  3.9  0.6123E+01 -0.7123E+01 -0.3084E+01E
 ACTION:UP  20-12-20 22:46 OP:elen STATUS:               ID:20170402042039     I
 OLDACT:UP  20-12-20 00:44 OP:elen STATUS:               ID:20170402042039     3
 OLDACT:UP  20-12-16 20:09 OP:elen STATUS:               ID:20170402042039     3
 OLDACT:UP  20-12-16 14:06 OP:elen STATUS:               ID:20170402042039     3
 OLDACT:REG 20-12-12 10:59 OP:elen STATUS:               ID:20170402042039     3
 2017-04-02-0420-39M.NSN___039                                                 6
 STAT SP IPHASW D HRMM SECON CODA AMPLIT PERI AZIMU VELO AIN AR TRES W  DIS CAZ7
 624  0Z IP        422  7.93                             115    0.2610 34.0 146 
 624  0N ES        422 12.72                             115    0.4410 34.0 146 
 622  0Z IP        422  7.87                             115    0.1010 34.8 203 
 622  0N ES        422 12.68                             115    0.2210 34.8 203 
 623  0Z IP        422  9.48                             109    0.1610 45.1 178 
 623  0E ES        422 15.32                             109    0.1810 45.1 178 
 620  0Z IP        422  9.31                             109   -0.1710 46.1 260 
 620  0E ES        422 15.33                             109   -0.0710 46.1 260 
 628  0Z IP        422 11.52                             104   -0.19 9 60.5 127 
 628  0N ES        422 19.31                             104    0.04 9 60.5 127 
 625  0Z IP        422 12.32                             103    0.15 9 63.5 168 
 625  0E ES        422 20.08                             103    0.02 9 63.5 168 
 621  0Z IP        422 13.07                             103    0.33 9 66.9 205 
 621  0E ES        422 20.50                             103   -0.54 9 66.9 205 
 627  0Z IP        422 15.23                             100    0.33 8 80.7 147 
 627  0E ES        422 24.48                             100   -0.30 8 80.7 147 
 626  0Z IP        422 16.68                              99   -0.44 8 94.6 173 
 626  0Z ES        422 28.14                              99   -0.49 8 94.6 173 
 629  0Z IP        422 18.83                              98    0.13 7  105 148 
 630  0Z IP        422 19.72                              97   -0.57 7  115 128 
 630  0N ES        422 33.07                              97   -1.05 7  115 128 
 631  0Z IP        422 26.19                              53   -0.17 5  158 160 
 631  0E ES        422 44.71                              53    0.10 5  158 160 
 632  0Z IP        422 28.57                              53    0.27 5  173 137 
 632  0Z ES        422 49.10                              53    1.13 5  173 137 

