 2016  822 1318 49.8 L  72.364 127.102 14.3  BER  8 0.2 0.9CBER                1
 GAP=106        0.40       1.5     3.3  3.6  0.2039E+01  0.3514E+01  0.2532E+01E
 ACTION:UP  21-01-08 22:12 OP:elen STATUS:               ID:20160822131743     I
 OLDACT:REG 21-01-08 15:24 OP:elen STATUS:               ID:20160822131743     3
 2016-08-22-1317-43M.arct__039                                                 6
 STAT SP IPHASW D HRMM SECON CODA AMPLIT PERI AZIMU VELO AIN AR TRES W  DIS CAZ7
 628  0Z IP    A  1318 52.27   29                        163   -0.0510 4.30  21 
 628  0N IS   3A  1318 54.48                             163    0.34 2 4.30  21 
 627  0Z IP    AD 1318 54.94                             115   -0.08 9 27.9 188 
 627  0E IS   3A  1318 58.78                             115   -0.04 2 27.9 188 
 624  0Z IP       1318 55.19                             113   -0.23 9 30.5 295 
 624  0E ES       1318 59.46                             113   -0.05 9 30.5 295 
 625  0Z IP       1318 56.66                             107   -0.17 9 39.9 238 
 625  0N ES       1319  2.22                             107    0.26 9 39.9 238 
 630  0Z IP       1318 58.88                             103    0.05 8 52.7 127 
 630  0E ES       1319  5.54                             103    0.12 8 52.7 127 
 630  0E IS   3A  1319  5.56                             103    0.14 2 52.7 127 
 622  0Z IP       1319  0.53                             101    0.39 8 61.0 279 
 622  0N ES       1319  7.83                             101    0.16 8 61.0 279 
 626  0Z IP       1319  0.52                             100   -0.19 8 64.5 215 
 626  0N ES       1319  8.58                             100   -0.08 8 64.5 215 
 621  0Z IP       1319  2.86                              98    0.02 7 77.8 256 
 621  0N ES       1319 12.21                              98   -0.14 7 77.8 256 

 2016 1015 1013 37.0 L  72.055 126.973 10.0  BER 13 0.4                        1
 GAP= 78        0.86       1.6     4.8  4.1  0.3044E+01  0.4940E+01  0.1138E+01E
 ACTION:ARG 20-04-11 14:12 OP:mn   STATUS:               ID:20161015101225     I
 2016-10-15-1012-25M.SIOLA_039                                                 6
 STAT SP IPHASW D HRMM SECON CODA AMPLIT PERI AZIMU VELO AIN AR TRES W  DIS CAZ7
 627  0Z IP       1013 38.86                             144   -0.1410 6.93   3 
 627  0N ES       1013 40.65                             144    0.1510 6.93   3 
 629  0Z IP       1013 40.18                             115   -0.2810 18.3 140 
 629  0Z ES       1013 43.13                             115    0.1110 18.3 140 
 625  0Z IP       1013 42.39                             103   -0.25 9 32.5 295 
 625  0N ES       1013 46.82                             103    0.03 9 32.5 295 
 626  0Z IP       1013 43.03                             101   -0.38 9 37.3 241 
 626  0N ES       1013 47.98                             101   -0.15 9 37.3 241 
 628  0Z IP       1013 43.01                             101   -0.64 9 38.9   9 
 628  0N ES       1013 48.22                             101   -0.33 9 38.9   9 
 630  0Z IP       1013 44.61                              98   -0.25 9 46.5  87 
 630  0N ES       1013 50.64                              98    0.01 9 46.5  87 
 623  0Z IP       1013 45.75                              98    0.13 8 51.3 307 
 623  0N ES       1013 52.58                              98    0.64 8 51.3 307 
 624  0Z IP       1013 45.77                              97   -0.06 8 52.6 334 
 624  0N ES       1013 52.66                              97    0.34 8 52.6 334 
 622  0Z IP       1013 48.64                              95   -0.15 8 71.1 308 
 622  0N ES       1013 57.74                              95    0.30 8 71.1 308 
 621  0Z IP       1013 49.10                              95    0.01 8 72.9 282 
 621  0N ES       1013 57.96                              95    0.00 8 72.9 282 
 631  0Z IP       1013 49.10                              95   -0.14 8 73.8 172 
 631  0N ES       1013 58.06                              95   -0.14 8 73.8 172 
 632  0Z IP       1013 52.19                              94    0.24 7 90.7 125 
 632  0N ES       1014  4.38                              94    1.47 7 90.7 125 
 620  0Z IP       1013 54.93                              93   -0.31 6  111 308 
 620  0N ES       1014  9.29                              93    0.70 6  111 308 

 2016 1029 0831 55.9 L  72.043 127.692  1.5  BER 11 0.4 1.7LBER 2.0CBER        1
 GAP=112        0.89       1.9     5.4  4.3 -0.7650E+00  0.8988E+01 -0.2471E+01E
 ACTION:REE 25-08-04 21:46 OP:mn   STATUS:               ID:20161029083048     I
 OLDACT:UP  20-04-26 21:33 OP:alex STATUS:               ID:20161029083048     3
 OLDACT:ARG 20-04-26 14:49 OP:alex STATUS:               ID:20161029083048     3
 2016-10-29-0830-48M.SIOLA_039                                                 6
 STAT SP IPHASW D HRMM SECON CODA AMPLIT PERI AZIMU VELO AIN AR TRES W  DIS CAZ7
 629  0Z IP     D  831 59.17   58                         95   -0.0110 18.3 226 
 629  0E IS        832  1.87                              95    0.3010 18.3 226 
 629  0Z  IAML     832  2.25       315.8 0.32                          18.3 226 
 630  0Z IP        831 59.66                              94   -0.1810 22.0  80 
 630  0N ES        832  2.95                              94    0.2310 22.0  80 
 627  0Z EP     C  832  0.41   37                         94   -0.1010 25.7 289 
 627  0E ES        832  3.48                              94   -0.3910 25.7 289 
 627  0Z ES        832  4.05                             100           25.7 289 
 628  0Z IP        832  2.86                              65   -0.67 9 43.9 335 
 628  0N ES        832  8.64                              65   -0.46 9 43.9 335 
 625  0Z EP     C  832  5.37   99                         65   -0.15 9 56.3 286 
 625  0E ES        832 12.61                              65    0.06 9 56.3 286 
 625  0Z  IAML     832 16.70        18.1 1.02                          56.3 286 
 626  0Z IP        832  5.72                              65   -0.39 9 59.8 254 
 626  0N ES        832 13.09                              65   -0.47 9 59.8 254 
 624  0Z IP        832  7.82                              65    0.37 8 68.2 316 
 624  0N ES        832 16.34                              65    0.45 8 68.2 316 
 623  0Z IP        832  9.37                              65    1.13 8 73.2 296 
 623  0N ES        832 17.84                              65    0.59 8 73.2 296 
 631  0Z EP     C  832  8.24   77                         65   -0.07 8 73.6 192 
 631  0E ES        832 17.24                              65   -0.14 8 73.6 192 
 631  0Z  IAML     832 19.49        65.7 0.34                          73.6 192 
 622  0Z IP        832 11.79                              65    0.44 7 92.4 300 
 622  0N ES        832 22.69                              65    0.06 7 92.4 300 
 620  0Z IP        832 17.65                              65   -0.11 6  132 303 
 620  0N ES        832 33.70                              65   -0.02 6  132 303 

 2016 1030 1322 37.7 L  72.557 126.559  0.0  BER 12 0.3 1.9LBER                1
 GAP=212        0.59       2.0     3.6  2.8  0.2620E+01 -0.4313E+00  0.3781E+00E
 ACTION:REE 25-08-04 21:47 OP:mn   STATUS:               ID:20161030132120     I
 OLDACT:ARG 20-04-26 14:49 OP:alex STATUS:               ID:20161030132120     3
 2016-10-30-1321-20M.SIOLA_039                                                 6
 STAT SP IPHASW D HRMM SECON CODA AMPLIT PERI AZIMU VELO AIN AR TRES W  DIS CAZ7
 624  0Z EP     C 1322 40.12                              90    0.0610 13.2 226 
 624  0E ES       1322 41.68                              90   -0.0910 13.2 226 
 624  0Z  IAML    1322 42.72       707.3 0.21                          13.2 226 
 628  0Z EP     C 1322 42.27                              90   -0.1610 26.4 131 
 628  0N ES       1322 46.16                              90    0.2810 26.4 131 
 628  0Z  IAML    1322 46.61       182.7 0.30                          26.4 131 
 623  0Z IP       1322 44.27                              90   -0.10 9 37.3 227 
 623  0N ES       1322 49.46                              90    0.23 9 37.3 227 
 622  0Z IP       1322 45.24                              65   -0.19 9 43.8 253 
 622  0N ES       1322 51.03                              65   -0.03 9 43.8 253 
 625  0Z IP       1322 45.46                              65   -0.24 9 45.4 200 
 625  0N ES       1322 51.31                              65   -0.22 9 45.4 200 
 627  0Z IP       1322 46.47                              65   -0.16 9 51.2 164 
 627  0E ES       1322 53.05                              65   -0.09 9 51.2 164 
 620  0Z IP       1322 50.31                              65   -0.09 8 74.6 279 
 620  0N ES       1323  0.27                              65    0.60 8 74.6 279 
 629  0Z IP       1322 50.21                              65   -0.20 8 74.7 160 
 629  0E ES       1323  0.08                              65    0.39 8 74.7 160 
 626  0Z EP     C 1322 50.70                              65   -0.07 8 76.8 194 
 626  0N ES       1322 59.97                              65   -0.34 8 76.8 194 
 626  0Z  IAML    1323  1.87        36.2 0.58                          76.8 194 
 630  0Z IP       1322 51.12                              65   -0.24 8 80.5 131 
 630  0E ES       1323  1.13                              65   -0.19 8 80.5 131 
 631  0Z EP     C 1322 59.88                              65    0.31 6  131 169 
 631  0N ES       1323 16.50                              65    0.97 6  131 169 
 631  0Z  IAML    1323 22.17        29.5 0.65                           131 169 
 632  0Z IP       1323  1.17                              65    0.27 6  140 141 
 632  0E ES       1323 17.99                              65    0.16 6  140 141 

 2016 1116 1036  4.3 L  72.746 124.940 12.3  BER  7 0.3 0.6LBER 1.5CBER        1
 GAP=234        0.59       3.2     7.3  9.2  0.3908E+01 -0.4727E+02 -0.2184E+01E
 ACTION:REE 25-08-04 21:55 OP:mn   STATUS:               ID:20161116103351     I
 2016-11-16-1033-51M.arct__039                                                 6
 STAT SP IPHASW D HRMM SECON CODA AMPLIT PERI AZIMU VELO AIN AR TRES W  DIS CAZ7
 620  0Z IP       1036  8.25   49                        116   -0.2710 22.2 243 
 620  0N ES       1036 11.86                             116    0.2510 22.2 243 
 620  0Z  IAML    1036 12.46        10.1 0.34                          22.2 243 
 622  0Z IP       1036 10.46                             106   -0.17 9 36.1 160 
 622  0N ES       1036 15.02                             106   -0.23 9 36.1 160 
 624  0Z IP       1036 13.48   41                        100    0.07 9 53.8 123 
 624  0E ES       1036 20.36                             100    0.29 9 53.8 123 
 624  0Z  IAML    1036 20.79         8.1 0.18                          53.8 123 
 623  0Z IP       1036 13.76                             100    0.27 9 54.3 149 
 621  0Z IP       1036 14.87   44                         98    0.02 9 62.7 182 
 621  0E ES       1036 22.33                              98   -0.23 9 62.7 182 
 621  0Z  IAML    1036 22.48         3.3 0.21                          62.7 182 
 628  0Z IP       1036 17.72                              96   -0.41 8 83.3 117 
 628  0N ES       1036 28.08                              96   -0.15 8 83.3 117 
 626  0Z IP       1036 21.80   39                         95    0.55 7  103 158 
 626  0E ES       1036 33.86                              95    0.22 7  103 158 
 626  0Z  IAML    1036 34.58         1.8 0.45                           103 158 

 2016 1116 2215 50.2 L  72.754 124.941 10.6  BER 12 0.4 2.2LBER 2.1CBER        1
 GAP=236        0.69       3.3     6.3  5.0  0.4629E+01 -0.1447E+02 -0.2290E+01E
 ACTION:REE 25-08-04 21:56 OP:mn   STATUS:               ID:20161116221424     I
 2016-11-16-2214-24M.arct__039                                                 6
 STAT SP IPHASW D HRMM SECON CODA AMPLIT PERI AZIMU VELO AIN AR TRES W  DIS CAZ7
 620  0Z IP       2215 54.33                             112   -0.0510 22.6 241 
 620  0N ES       2215 57.69                             112    0.2510 22.6 241 
 622  0Z IP       2215 56.36                             102   -0.23 9 36.9 160 
 622  0N ES       2216  0.83                             102   -0.43 9 36.9 160 
 624  0Z IP       2215 59.56   78                         98    0.22 9 54.2 124 
 624  0E ES       2216  6.74                              98    0.71 9 54.2 124 
 624  0Z  IAML    2216  6.79        99.1 0.14                          54.2 124 
 623  0Z IP       2215 59.54                              98    0.07 9 55.1 150 
 623  0N ES       2216  6.30                              98    0.05 9 55.1 150 
 621  0Z IP       2216  0.83   76                         97   -0.03 9 63.6 182 
 621  0N ES       2216  8.33                              97   -0.32 9 63.6 182 
 621  0Z  IAML    2216 11.21        82.2 0.84                          63.6 182 
 625  0Z IP       2216  2.90                              95    0.13 8 75.7 148 
 625  0N ES       2216 12.23                              95    0.27 8 75.7 148 
 628  0Z IP       2216  3.65                              95   -0.41 8 83.6 117 
 628  0N ES       2216 13.71                              95   -0.47 8 83.6 117 
 626  0Z IP       2216  7.19   65                         94   -0.07 7  104 158 
 626  0E ES       2216 20.50                              94    0.77 7  104 158 
 626  0Z  IAML    2216 20.65        68.6 0.40                           104 158 
 629  0Z IP       2216 10.10                              93   -0.15 6  122 138 
 629  0N ES       2216 24.27                              93   -0.63 6  122 138 
 630  0Z IP       2216 12.27   49                         93   -0.37 6  137 122 
 630  0E ES       2216 29.41                              93    0.38 6  137 122 
 630  0Z  IAML    2216 31.39       177.1 0.37                           137 122 
 631  0Z IP       2216 17.26                              53   -0.26 5  171 151 
 631  0N ES       2216 37.47                              53   -0.01 5  171 151 
 632  0Z IP       2216 20.60                              53    0.21 4  193 131 
 632  0N ES       2216 43.01                              53    0.57 4  193 131 

 2016 1117 0337  1.2 L  72.780 124.912 11.2  BER 13 0.3 1.9LBER 2.1CBER        1
 GAP=245        0.59       3.1     5.5  4.4  0.2513E+01 -0.1156E+02 -0.1400E+01E
 ACTION:REE 25-08-04 21:57 OP:mn   STATUS:               ID:20161117033653     I
 2016-11-17-0336-53M.arct__039                                                 6
 STAT SP IPHASW D HRMM SECON CODA AMPLIT PERI AZIMU VELO AIN AR TRES W  DIS CAZ7
 620  0Z IP        337  5.70                             112    0.1410 23.4 233 
 620  0N ES        337  8.90                             112    0.1710 23.4 233 
 622  0Z IP        337  7.74                             102   -0.39 9 40.0 160 
 624  0Z IP        337 10.92   66                         98    0.13 9 56.7 126 
 624  0E ES        337 18.10                              98    0.33 9 56.7 126 
 624  0Z  IAML     337 18.92        55.9 0.17                          56.7 126 
 623  0Z IP        337 10.76                              98   -0.24 9 58.0 150 
 623  0E ES        337 18.44                              98    0.31 9 58.0 150 
 621  0Z IP        337 12.08   68                         97   -0.29 8 66.5 181 
 621  0N ES        337 20.43                              97   -0.07 8 66.5 181 
 621  0Z  IAML     337 22.58        42.2 0.97                          66.5 181 
 625  0Z IP        337 14.18                              96   -0.12 8 78.6 149 
 625  0E ES        337 23.73                              96   -0.11 8 78.6 149 
 628  0Z IP        337 15.26   67                         95   -0.20 8 85.8 118 
 628  0N ES        337 26.02                              95    0.17 8 85.8 118 
 628  0Z  IAML     337 26.36        44.0 0.48                          85.8 118 
 627  0Z IP        337 18.53                              94    0.54 7  102 136 
 627  0N ES        337 30.05                              94   -0.18 7  102 136 
 626  0Z IP        337 18.79   68                         94   -0.01 7  107 159 
 626  0N ES        337 31.97                              94    0.34 7  107 159 
 626  0Z  IAML     337 31.98        32.2 0.35                           107 159 
 629  0Z IP        337 21.53                              93   -0.22 6  125 138 
 629  0N ES        337 35.85                              93   -0.87 6  125 138 
 630  0Z IP        337 23.74   66                         93   -0.33 6  139 123 
 630  0N ES        337 41.06                              93    0.32 6  139 123 
 630  0Z  IAML     337 42.82        77.8 0.39                           139 123 
 631  0Z IP        337 28.67                              53   -0.23 5  174 151 
 631  0N ES        337 49.09                              53   -0.00 5  174 151 
 632  0Z IP        337 31.99                              53    0.27 4  196 131 
 632  0N ES        337 54.99                              53    1.02 4  196 131 

 2016 1124 2250 46.3 L  72.749 124.942 10.7  BER 13 0.3                        1
 GAP=235        0.61       2.8     5.4  4.4  0.3731E+01 -0.1089E+02 -0.1760E+01E
 ACTION:REG 18-11-20 00:07 OP:art  STATUS:               ID:20161124224841     I
 2016-11-24-2248-41M.arct__039                                                 6
 STAT SP IPHASW D HRMM SECON CODA AMPLIT PERI AZIMU VELO AIN AR TRES W  DIS CAZ7
 620  0Z IP       2250 50.52                             112    0.0110 22.4 242 
 620  0N ES       2250 53.88                             112    0.3310 22.4 242 
 622  0Z IP       2250 52.65                             103   -0.02 9 36.4 160 
 622  0N ES       2250 57.01                             103   -0.28 9 36.4 160 
 624  0Z IP       2250 55.66                              98    0.21 9 53.9 124 
 624  0N ES       2251  2.67                              98    0.57 9 53.9 124 
 623  0Z IP       2250 55.22                              98   -0.33 9 54.6 149 
 623  0N ES       2251  2.63                              98    0.35 9 54.6 149 
 621  0Z IP       2250 56.85                              97   -0.08 9 63.1 182 
 621  0E ES       2251  4.33                              97   -0.33 9 63.1 182 
 625  0Z IP       2250 58.49                              96   -0.36 8 75.2 148 
 625  0N ES       2251  8.14                              96    0.15 8 75.2 148 
 628  0Z IP       2250 59.80                              95   -0.37 8 83.4 117 
 628  0N ES       2251 10.06                              95   -0.21 8 83.4 117 
 627  0Z IP       2251  2.50                              94   -0.10 7 98.5 135 
 627  0N ES       2251 14.39                              94   -0.08 7 98.5 135 
 626  0Z IP       2251  3.33                              94   -0.01 7  103 158 
 626  0Z ES       2251 16.02                              94    0.27 7  103 158 
 629  0Z IP       2251  6.20                              93   -0.14 6  122 138 
 629  0N ES       2251 20.52                              93   -0.42 6  122 138 
 630  0Z IP       2251  8.39                              93   -0.36 6  137 122 
 630  0Z ES       2251 25.77                              93    0.67 6  137 122 
 631  0Z IP       2251 13.33                              53   -0.28 5  170 151 
 631  0N ES       2251 33.82                              53    0.30 5  170 151 
 632  0Z IP       2251 16.75                              53    0.26 4  193 131 
 632  0N ES       2251 39.33                              53    0.83 4  193 131 

