 2016 10 5 1619 46.9 L  72.877 125.015 19.0  BER  9 0.2 1.0LBER 0.4CBER        1
 GAP=264        0.50       3.0     5.9  3.0  0.3465E+01 -0.9131E+01 -0.3363E+01E
 ACTION:ARG 20-04-11 14:12 OP:mn   STATUS:               ID:20161005161823     I
 2016-10-05-1618-23M.SIOLA_039                                                 6
 STAT SP IPHASW D HRMM SECON CODA AMPLIT PERI AZIMU VELO AIN AR TRES W  DIS CAZ7
 620  0Z IP     C 1619 53.22   14                        118   -0.0110 33.3 222 
 620  0E ES       1619 57.77                             118   -0.2810 33.3 222 
 620  0Z  IAML    1619 58.27        10.0 0.26                          33.3 222 
 622  0Z IP     C 1619 55.67   24                        109    0.03 9 49.5 168 
 622  0N ES       1620  2.15                             109   -0.15 9 49.5 168 
 622  0Z  IAML    1620  2.41        12.4 0.26                          49.5 168 
 624  0Z IP     C 1619 57.78   12                        105    0.32 9 61.3 136 
 624  0E ES       1620  5.66                             105    0.17 9 61.3 136 
 624  0Z  IAML    1620  6.07        13.9 0.20                          61.3 136 
 623  0Z IP     D 1619 58.49   14                        104    0.25 9 66.3 158 
 623  0E ES       1620  7.08                             104    0.20 9 66.3 158 
 623  0Z  IAML    1620  8.02         7.1 0.21                          66.3 158 
 621  0Z IP     D 1620  0.03   18                        102    0.04 8 77.4 183 
 621  0N ES       1620 10.27                             102    0.31 8 77.4 183 
 621  0Z  IAML    1620 10.74         9.1 0.26                          77.4 183 
 628  0Z IP     D 1620  1.57   24                        100   -0.21 8 88.7 126 
 628  0E ES       1620 12.86                             100   -0.25 8 88.7 126 
 628  0Z  IAML    1620 13.38         4.9 0.14                          88.7 126 
 627  0Z IP     D 1620  4.99   37                         98    0.22 7  107 141 
 627  0E ES       1620 17.78                              98   -0.58 7  107 141 
 627  0Z  IAML    1620 18.01         3.3 0.70                           107 141 
 629  0Z IP     D 1620  8.38   25                         58    0.15 6  131 143 
 629  0E ES       1620 24.46                              58    0.01 6  131 143 
 629  0Z  IAML    1620 25.99         5.6 0.17                           131 143 
 630  0Z IP     D 1620  9.67   29                         58   -0.15 6  143 127 
 630  0E ES       1620 26.89                              58   -0.36 6  143 127 
 630  0Z  IAML    1620 27.89         4.1 0.22                           143 127 

 2016 10 9 0036 44.7 L  72.872 124.993 17.2  BER  8 0.3 1.3LBER 1.4CBER        1
 GAP=264        0.54       3.5     7.7  3.6  0.5444E+01 -0.1727E+02 -0.4751E+01E
 ACTION:ARG 20-04-11 14:12 OP:mn   STATUS:               ID:20161009003553     I
 2016-10-09-0035-53M.SIOLA_039                                                 6
 STAT SP IPHASW D HRMM SECON CODA AMPLIT PERI AZIMU VELO AIN AR TRES W  DIS CAZ7
 620  0Z IP     C  036 50.84   52                        116    0.0310 32.4 222 
 620  0N ES        036 55.36                             116   -0.0710 32.4 222 
 620  0Z  IAML     036 56.58        17.0 0.10                          32.4 222 
 622  0Z IP     D  036 53.46   45                        107    0.13 9 49.1 167 
 622  0N ES        036 59.76                             107   -0.12 9 49.1 167 
 622  0Z  IAML     037  0.06        25.9 0.26                          49.1 167 
 623  0Z IP     C  036 56.30   31                        102    0.32 9 66.1 157 
 623  0N ES        037  4.89                             102    0.35 9 66.1 157 
 623  0Z  IAML     037  5.81         6.2 0.16                          66.1 157 
 621  0Z IP     C  036 57.58   30                        100   -0.10 8 76.9 183 
 621  0N ES        037  7.24                             100   -0.29 8 76.9 183 
 621  0Z  IAML     037  8.38        14.7 0.25                          76.9 183 
 628  0Z IP     C  036 59.56   41                         99   -0.06 8 89.0 125 
 628  0E ES        037 10.72                              99   -0.22 8 89.0 125 
 628  0Z  IAML     037 11.62        12.3 0.18                          89.0 125 
 629  0Z IP     C  037  6.49   34                         58    0.27 6  131 142 
 629  0N ES        037 23.04                              58    0.48 6  131 142 
 629  0Z  IAML     037 23.64         7.5 0.18                           131 142 
 630  0Z IP     C  037  7.39   41                         58   -0.46 6  143 127 
 630  0E ES        037 24.67                              58   -0.75 6  143 127 
 630  0Z  IAML     037 26.44         5.9 0.13                           143 127 
 632  0Z IP     C  037 15.92   58                         58    0.17 4  201 134 
 632  0E ES        037 39.74                              58    0.41 4  201 134 
 632  0Z  IAML     037 40.61         5.6 0.22                           201 134 

 2017  3 4 2135  2.9 L  72.688 124.942 13.4  BER  7 0.3 1.3LBER 0.9CBER        1
 GAP=213        0.61       3.8     7.9  4.9  0.1884E+02 -0.2365E+02 -0.4721E+01E
 ACTION:ARG 20-12-21 03:09 OP:mn   STATUS:               ID:20170304213342     I
 2017-03-04-2133-42M.a_____039                                                 6
 STAT SP IPHASW D HRMM SECON CODA AMPLIT PERI AZIMU VELO AIN AR TRES W  DIS CAZ7
 620  0Z IP     C 2135  6.89   22                        121   -0.0710 20.1 260 
 620  0N ES       2135  9.93                             121   -0.1110 20.1 260 
 620  0Z  IAML    2135 10.05        86.0 0.13                          20.1 260 
 622  0Z IP     C 2135  8.63   25                        111    0.2210 30.1 155 
 622  0E ES       2135 12.74                             111    0.1510 30.1 155 
 622  0Z  IAML    2135 12.96        43.3 0.27                          30.1 155 
 623  0Z IP     D 2135 11.57   25                        102    0.26 9 48.8 145 
 623  0E ES       2135 17.74                             102    0.04 9 48.8 145 
 623  0Z  IAML    2135 18.46        11.2 0.28                          48.8 145 
 625  0Z IP     C 2135 14.52   28                         98   -0.08 8 69.5 145 
 625  0N ES       2135 23.03                              98   -0.45 8 69.5 145 
 625  0Z  IAML    2135 24.79         5.7 0.30                          69.5 145 
 628  0Z IP     D 2135 16.21   34                         97   -0.16 8 80.5 112 
 628  0E ES       2135 26.07                              97   -0.52 8 80.5 112 
 628  0Z  IAML    2135 27.53        11.0 0.31                          80.5 112 
 630  0Z IP     C 2135 25.48   35                         94    0.66 6  133 119 
 630  0E ES       2135 41.91                              94    0.43 6  133 119 
 630  0Z  IAML    2135 43.85        28.1 0.25                           133 119 
 631  0Z IP     C 2135 29.65   45                         58    0.39 5  164 150 
 631  0N ES       2135 48.84                              58   -0.44 5  164 150 
 631  0Z  IAML    2135 50.49         7.9 0.16                           164 150 

 2017  3 7 0447 21.0 L  72.694 124.924 14.2  BER 10 0.2 1.7LBER 1.4CBER        1
 GAP=216        0.48       2.7     5.2  3.1  0.7479E+01 -0.8698E+01 -0.1596E+01E
 ACTION:ARG 20-12-21 03:09 OP:mn   STATUS:               ID:20170307044601     I
 2017-03-07-0446-01M.a_____039                                                 6
 STAT SP IPHASW D HRMM SECON CODA AMPLIT PERI AZIMU VELO AIN AR TRES W  DIS CAZ7
 620  0Z IP     C  447 25.10   28                        123    0.0310 19.7 257 
 620  0N ES        447 28.18                             123    0.0310 19.7 257 
 620  0Z  IAML     447 28.45       381.6 0.12                          19.7 257 
 622  0Z IP     D  447 26.62   34                        112   -0.0710 31.0 155 
 622  0E ES        447 30.86                             112   -0.1510 31.0 155 
 622  0Z  IAML     447 31.27        70.8 0.22                          31.0 155 
 623  0Z IP     D  447 29.64   30                        103    0.05 9 49.7 145 
 623  0E ES        447 36.57                             103    0.47 9 49.7 145 
 623  0Z  IAML     447 37.13        23.8 0.25                          49.7 145 
 624  0Z IP     D  447 29.73   35                        102   -0.10 9 51.3 118 
 624  0E ES        447 36.78                             102    0.25 9 51.3 118 
 624  0Z  IAML     447 37.43        56.6 0.20                          51.3 118 
 625  0Z IP     C  447 32.96   49                         99    0.10 8 70.4 145 
 625  0N ES        447 41.46                              99   -0.41 8 70.4 145 
 625  0Z  IAML     447 42.87        11.5 0.26                          70.4 145 
 628  0Z IP     D  447 34.30   39                         97   -0.31 8 81.3 113 
 628  0E ES        447 44.74                              97   -0.21 8 81.3 113 
 628  0Z  IAML     447 45.61        24.7 0.35                          81.3 113 
 627  0Z IP     D  447 36.70   44                         96   -0.05 7 94.7 132 
 627  0N ES        447 48.67                              96   -0.04 7 94.7 132 
 627  0Z  IAML     447 48.90        10.6 0.36                          94.7 132 
 630  0Z IP     C  447 43.03   38                         94   -0.04 6  134 119 
 630  0N ES        448  0.14                              94    0.30 6  134 119 
 630  0Z  IAML     448  1.93        78.9 0.21                           134 119 
 631  0Z IP     D  447 47.59   48                         58    0.17 5  165 150 
 631  0E ES        448  7.03                              58   -0.47 5  165 150 
 631  0Z  IAML     448  9.42        22.3 0.20                           165 150 
 632  0Z IP     D  447 51.04   71                         58    0.32 4  189 129 
 632  0N ES        448 13.95                              58    0.65 4  189 129 
 632  0Z  IAML     448 14.76        14.6 0.48                           189 129 

 2017  4 5 0307 36.1 L  71.684 128.950 14.9  BER 11 0.2 1.0LBER 1.8CBER        1
 GAP=187        0.38       1.1     5.0  2.1  0.1579E+01  0.5184E+01 -0.7574E+00E
 ACTION:UP  20-12-21 00:10 OP:elen STATUS:               ID:20170405030618     I
 OLDACT:UP  20-12-20 01:44 OP:elen STATUS:               ID:20170405030618     3
 OLDACT:UP  20-12-16 21:32 OP:elen STATUS:               ID:20170405030618     3
 OLDACT:REG 20-12-13 13:11 OP:elen STATUS:               ID:20170405030618     3
 2017-04-05-0306-18M.NSN___039                                                 6
 STAT SP IPHASW D HRMM SECON CODA AMPLIT PERI AZIMU VELO AIN AR TRES W  DIS CAZ7
 632  0Z IP        3 7 39.22   48                        137   -0.1810 13.0 161 
 632  0N ES        3 7 42.07                             137    0.1610 13.0 161 
 632  0N  IAML     3 7 42.69        27.1 0.05                          13.0 161 
 630  0Z IP        3 7 44.47   65                        104   -0.08 9 48.8 334 
 630  0N ES        3 7 50.96                             104   -0.01 9 48.8 334 
 630  0E  IAML     3 7 51.40         6.5 0.12                          48.8 334 
 629  0Z IP        3 7 46.88   48                        100    0.04 8 63.3 296 
 629  0N ES        3 7 55.19                             100    0.18 8 63.3 296 
 629  0E  IAML     3 7 56.96         2.5 0.13                          63.3 296 
 631  0Z IP        3 7 47.53   58                        100   -0.07 8 68.1 243 
 631  0N ES        3 7 56.26                             100   -0.08 8 68.1 243 
 631  0N  IAML     3 7 56.72         6.8 0.14                          68.1 243 
 627  0Z IP        3 7 50.25   43                         98    0.16 8 83.6 306 
 627  0N ES        3 8  1.00                              98    0.29 8 83.6 306 
 627  0E  IAML     3 8  1.36         3.5 0.22                          83.6 306 
 628  0Z IP        3 7 52.64   55                         96   -0.26 7  101 323 
 628  0N ES        3 8  5.23                              96   -0.43 7  101 323 
 628  0E  IAML     3 8  7.84         6.4 0.21                           101 323 
 626  0Z IP        3 7 53.31   55                         96   -0.07 7  104 284 
 626  0N ES        3 8  6.21                              96   -0.30 7  104 284 
 626  0E  IAML     3 8  9.71         7.5 0.24                           104 284 
 624  0Z IP        3 7 57.38   55                         95    0.26 6  128 315 
 624  0N ES        3 8 13.29                              95    0.20 6  128 315 
 624  0N  IAML     3 8 15.76         6.6 0.19                           128 315 
 623  0Z IP        3 7 57.86   54                         95    0.13 6  131 305 
 623  0N ES        3 8 14.04                              95   -0.13 6  131 305 
 623  0E  IAML     3 8 17.30         2.9 0.24                           131 305 
 621  0Z IP        3 8  0.75   54                         58    0.20 5  151 294 
 621  0N ES        3 8 19.13                              58   -0.01 5  151 294 
 621  0E  IAML     3 8 21.93         2.3 0.14                           151 294 
 622  0Z IP        3 8  0.73   57                         58    0.22 5  151 306 
 622  0N ES        3 8 19.09                              58    0.03 5  151 306 
 622  0N  IAML     3 8 21.09         5.1 0.20                           151 306 

 2017  4 5 0307 36.1 L  71.681 128.957 15.3  BER 10 0.2 1.0LBER 2.0CBER        1
 GAP=198        0.41       1.5     5.8  2.4  0.3283E+01  0.5423E+01 -0.1463E+01E
 ACTION:UP  20-12-21 00:33 OP:elen STATUS:               ID:20170405030650     I
 OLDACT:UP  20-12-20 02:02 OP:elen STATUS:               ID:20170405030650     3
 OLDACT:UP  20-12-16 23:26 OP:elen STATUS:               ID:20170405030650     3
 OLDACT:REG 20-12-13 13:16 OP:elen STATUS:               ID:20170405030650     3
 2017-04-05-0306-50M.NSN___039                                                 6
 STAT SP IPHASW D HRMM SECON CODA AMPLIT PERI AZIMU VELO AIN AR TRES W  DIS CAZ7
 632  0Z IP        3 7 39.21   74                        139   -0.1710 12.6 161 
 632  0N ES        3 7 42.08                             139    0.1810 12.6 161 
 632  0N  IAML     3 7 42.69        26.9 0.04                          12.6 161 
 629  0Z IP        3 7 46.83   63                        101   -0.05 8 63.6 297 
 629  0N ES        3 7 55.19                             101    0.10 8 63.6 297 
 629  0E  IAML     3 7 56.96         2.5 0.14                          63.6 297 
 631  0Z IP        3 7 47.53   78                        100   -0.07 8 68.2 243 
 631  0N ES        3 7 56.25                             100   -0.11 8 68.2 243 
 631  0N  IAML     3 7 56.72         6.9 0.15                          68.2 243 
 627  0Z IP        3 7 50.24   59                         98    0.12 8 84.0 306 
 627  0N ES        3 8  1.01                              98    0.21 8 84.0 306 
 627  0E  IAML     3 8  1.36         3.5 0.22                          84.0 306 
 628  0Z IP        3 7 52.64   64                         96   -0.29 7  102 323 
 628  0N ES        3 8  5.21                              96   -0.53 7  102 323 
 628  0E  IAML     3 8  7.84         6.3 0.23                           102 323 
 626  0Z IP        3 7 53.30   55                         96   -0.11 7  105 284 
 626  0N ES        3 8  6.38                              96   -0.20 7  105 284 
 626  0E  IAML     3 8  9.71         7.4 0.23                           105 284 
 624  0Z IP        3 7 57.28   56                         95    0.13 6  128 315 
 624  0N ES        3 8 13.30                              95    0.12 6  128 315 
 624  0N  IAML     3 8 15.76         6.6 0.21                           128 315 
 623  0Z IP        3 7 58.00   61                         95    0.24 6  132 305 
 623  0N ES        3 8 14.60                              95    0.35 6  132 305 
 623  0E  IAML     3 8 17.30         3.0 0.25                           132 305 
 622  0Z IP        3 8  0.73   76                         58    0.23 5  151 306 
 622  0N ES        3 8 19.30                              58    0.24 5  151 306 
 622  0N  IAML     3 8 21.09         5.1 0.19                           151 306 
 621  0Z IP        3 8  0.61   76                         58    0.08 5  152 294 
 621  0N ES        3 8 19.05                              58   -0.08 5  152 294 
 621  0E  IAML     3 8 21.93         2.4 0.14                           152 294 

