 2017  425 0652 23.3 L  71.960 128.031  0.0  BER  9 0.5 1.2LBER 2.1CBER        1
 GAP=166        1.14       2.8     8.4  6.2 -0.6495E+01  0.1530E+02 -0.4204E+00E
 ACTION:UP  21-01-02 01:38 OP:elen STATUS:               ID:20170425065114     I
 OLDACT:REG 20-12-31 19:06 OP:elen STATUS:               ID:20170425065114     3
 2017-04-25-0651-14M.NSN___027                                                 6
 STAT SP IPHASW D HRMM SECON CODA AMPLIT PERI AZIMU VELO AIN AR TRES W  DIS CAZ7
 630  0Z IP        652 26.18   85                         90   -0.0810 16.4  38 
 630  0E ES        652 28.80                              90    0.3210 16.4  38 
 630  0E  IAML     652 29.11       220.3 0.20                          16.4  38 
 629  0Z IP        652 27.55   63                         90   -0.2710 25.1 262 
 629  0N ES        652 31.16                              90   -0.0710 25.1 262 
 629  0E  IAML     652 31.82        95.0 0.25                          25.1 262 
 627  0Z IP        652 30.04   64                         90   -0.47 9 40.2 296 
 627  0N ES        652 35.52                              90   -0.44 9 40.2 296 
 627  0E  IAML     652 38.27        30.9 0.53                          40.2 296 
 628  0Z IP        652 32.83   74                         65   -0.58 9 57.7 329 
 628  0N ES        652 40.31                              65   -0.75 9 57.7 329 
 628  0N  IAML     652 47.06        11.6 0.14                          57.7 329 
 631  0Z IP        652 35.05   90                         65   -0.08 8 68.4 204 
 631  0N ES        652 44.17                              65    0.08 8 68.4 204 
 631  0N  IAML     652 44.52        10.0 0.33                          68.4 204 
 625  0Z IP        652 35.26   67                         65   -0.19 8 70.3 291 
 625  0N ES        652 44.57                              65   -0.09 8 70.3 291 
 625  0N  IAML     652 48.33         6.8 0.40                          70.3 291 
 624  0Z IP        652 37.49   63                         65   -0.02 8 83.1 315 
 624  0N ES        652 48.42                              65    0.14 8 83.1 315 
 624  0N  IAML     652 50.56        18.4 0.21                          83.1 315 
 623  0Z IP        652 39.13   64                         65    0.86 7 87.8 299 
 623  0E ES        652 51.26                              65    1.63 7 87.8 299 
 623  0N  IAML     652 57.27         5.5 0.26                          87.8 299 
 621  0Z IP        652 42.42   59                         65    0.43 7  111 285 
 621  0N ES        652 56.94                              65    0.78 7  111 285 
 621  0E  IAML     653  0.65         5.5 0.17                           111 285 

