 2017  4 8 1004 44.9 L  72.613 124.950 15.2  BER 12 0.3 1.5LBER 2.6CBER        1
 GAP=184        0.54       2.4     5.6  2.8  0.8413E+01 -0.5357E+01 -0.1883E+00E
 ACTION:UP  20-12-21 14:32 OP:elen STATUS:               ID:20170408100319     I
 OLDACT:UP  20-12-20 16:21 OP:elen STATUS:               ID:20170408100319     3
 OLDACT:UP  20-12-19 02:06 OP:elen STATUS:               ID:20170408100319     3
 OLDACT:REG 20-12-15 20:09 OP:elen STATUS:               ID:20170408100319     3
 2017-04-08-1003-19M.NSN___039                                                 6
 STAT SP IPHASW D HRMM SECON CODA AMPLIT PERI AZIMU VELO AIN AR TRES W  DIS CAZ7
 620  0Z IP       10 4 49.10   78                        124   -0.0210 20.6 283 
 620  0N ES       10 4 52.40                             124    0.0410 20.6 283 
 620  0E  IAML    10 4 52.80       171.2 0.15                          20.6 283 
 622  0Z IP       10 4 49.30   86                        121   -0.0910 22.6 147 
 622  0N ES       10 4 52.82                             121   -0.0210 22.6 147 
 622  0E  IAML    10 4 53.10        74.9 0.37                          22.6 147 
 623  0Z IP       10 4 52.26   80                        107   -0.01 9 42.0 139 
 623  0N ES       10 4 58.11                             107    0.21 9 42.0 139 
 623  0N  IAML    10 4 59.03        75.1 0.25                          42.0 139 
 624  0Z IP       10 4 53.11   93                        105    0.09 9 46.9 108 
 624  0N ES       10 4 59.48                             105    0.25 9 46.9 108 
 624  0N  IAML    10 5  1.03        27.4 0.11                          46.9 108 
 625  0Z IP       10 4 55.37  106                        101   -0.13 8 62.6 141 
 625  0N ES       10 5  3.50                             101   -0.09 8 62.6 141 
 625  0N  IAML    10 5  3.88         8.5 0.32                          62.6 141 
 628  0Z IP       10 4 57.62  104                         99   -0.23 8 77.5 107 
 628  0N ES       10 5  7.40                              99   -0.33 8 77.5 107 
 628  0E  IAML    10 5  8.95        21.9 0.21                          77.5 107 
 627  0Z IP       10 4 59.88  107                         97    0.31 8 88.2 128 
 627  0N ES       10 5 11.19                              97    0.43 8 88.2 128 
 627  0N  IAML    10 5 12.24         8.1 0.25                          88.2 128 
 626  0Z IP       10 4 59.53   99                         97   -0.16 8 88.9 155 
 626  0E ES       10 5 10.66                              97   -0.30 8 88.9 155 
 626  0E  IAML    10 5 11.00         8.5 0.17                          88.9 155 
 629  0Z IP       10 5  3.50   89                         96    0.31 7  111 132 
 629  0N ES       10 5 17.47                              96    0.35 7  111 132 
 629  0E  IAML    10 5 18.54         6.7 0.21                           111 132 
 630  0Z IP       10 5  5.80   97                         95   -0.32 6  129 116 
 630  0N ES       10 5 21.43                              95   -0.86 6  129 116 
 630  0E  IAML    10 5 25.71        18.6 0.18                           129 116 
 631  0Z IP       10 5 10.15  104                         58    0.10 5  157 149 
 631  0E ES       10 5 28.84                              58   -0.36 5  157 149 
 631  0N  IAML    10 5 30.82        14.2 0.13                           157 149 
 632  0Z IP       10 5 14.26  104                         58    0.65 4  183 127 
 632  0N ES       10 5 35.96                              58    0.49 4  183 127 
 632  0E  IAML    10 5 36.82        10.4 0.35                           183 127 

 2017  4 8 1004 44.9 L  72.607 124.944 15.0  BER 13 0.3 1.4LBER 2.8CBER        1
 GAP=181        0.52       1.8     4.4  2.6  0.3423E+01 -0.4030E+01  0.1362E+00E
 ACTION:UP  20-12-21 15:15 OP:elen STATUS:               ID:20170408100354     I
 OLDACT:UP  20-12-20 16:45 OP:elen STATUS:               ID:20170408100354     3
 OLDACT:UP  20-12-19 13:04 OP:elen STATUS:               ID:20170408100354     3
 OLDACT:REG 20-12-19 09:34 OP:elen STATUS:               ID:20170408100354     3
 2017-04-08-1003-54M.NSN___039                                                 6
 STAT SP IPHASW D HRMM SECON CODA AMPLIT PERI AZIMU VELO AIN AR TRES W  DIS CAZ7
 620  0Z IP       10 4 49.12   92                        124   -0.0110 20.6 285 
 620  0N ES       10 4 52.40                             124    0.0410 20.6 285 
 620  0E  IAML    10 4 52.80       170.6 0.15                          20.6 285 
 622  0Z IP       10 4 49.31  112                        122   -0.0410 22.2 146 
 622  0N ES       10 4 52.78                             122    0.0310 22.2 146 
 622  0E  IAML    10 4 53.18        75.7 0.20                          22.2 146 
 623  0Z IP       10 4 52.27  100                        107    0.03 9 41.7 138 
 623  0N ES       10 4 58.13                             107    0.30 9 41.7 138 
 623  0N  IAML    10 4 59.15        73.9 0.30                          41.7 138 
 624  0Z IP       10 4 53.13  119                        105    0.08 9 46.9 108 
 624  0N ES       10 4 59.48                             105    0.22 9 46.9 108 
 624  0N  IAML    10 5  1.02        33.6 0.15                          46.9 108 
 621  0Z IP       10 4 52.92   98                        105   -0.18 9 47.2 182 
 621  0N ES       10 4 59.20                             105   -0.15 9 47.2 182 
 621  0E  IAML    10 5  1.72        20.3 0.22                          47.2 182 
 625  0Z IP       10 4 55.33  121                        101   -0.14 9 62.3 140 
 625  0N ES       10 5  3.31                             101   -0.20 9 62.3 140 
 625  0N  IAML    10 5  3.88         8.4 0.32                          62.3 140 
 628  0Z IP       10 4 57.63  111                         98   -0.26 8 77.5 106 
 628  0N ES       10 5  7.38                              98   -0.39 8 77.5 106 
 628  0E  IAML    10 5  8.94        21.7 0.19                          77.5 106 
 627  0Z IP       10 4 59.89  107                         97    0.32 8 88.0 127 
 627  0N ES       10 5 11.08                              97    0.35 8 88.0 127 
 627  0N  IAML    10 5 12.24         8.1 0.25                          88.0 127 
 626  0Z IP       10 4 59.78  122                         97    0.14 8 88.4 155 
 626  0N ES       10 5 10.85                              97    0.00 8 88.4 155 
 626  0E  IAML    10 5 11.00         8.5 0.18                          88.4 155 
 629  0Z IP       10 5  3.42  112                         96    0.24 7  111 132 
 629  0N ES       10 5 17.26                              96    0.18 7  111 132 
 629  0E  IAML    10 5 18.54         6.7 0.20                           111 132 
 630  0Z IP       10 5  5.81  123                         95   -0.33 6  129 116 
 630  0N ES       10 5 21.44                              95   -0.86 6  129 116 
 630  0E  IAML    10 5 25.71        18.5 0.18                           129 116 
 631  0Z IP       10 5 10.17  120                         58    0.13 5  156 148 
 631  0N ES       10 5 28.83                              58   -0.32 5  156 148 
 631  0N  IAML    10 5 30.82        14.2 0.13                           156 148 
 632  0Z IP       10 5 14.26  118                         58    0.63 4  183 127 
 632  0N ES       10 5 35.99                              58    0.52 4  183 127 
 632  0E  IAML    10 5 37.29         8.6 0.16                           183 127 

 2017  418 1500 12.9 L  72.734 124.513 23.1  BER 12 0.3 1.3LBER 2.0CBER        1
 GAP=260        0.55       2.9     7.6  1.6  0.5969E+01 -0.6977E+01 -0.6863E+00E
 ACTION:UP  20-12-29 20:35 OP:elen STATUS:               ID:20170418150000     I
 OLDACT:REG 20-12-27 21:06 OP:elen STATUS:               ID:20170418150000     3
 2017-04-18-1500-00M.NSN___039                                                 6
 STAT SP IPHASW D HRMM SECON CODA AMPLIT PERI AZIMU VELO AIN AR TRES W  DIS CAZ7
 620  0Z IP       15 0 17.01   45                        155   -0.0910 10.5 212 
 620  0N ES       15 0 20.21                             155   -0.0710 10.5 212 
 620  0E  IAML    15 0 20.40        46.0 0.06                          10.5 212 
 622  0Z IP       15 0 20.82   62                        117   -0.01 9 42.2 140 
 622  0E ES       15 0 26.88                             117    0.04 9 42.2 140 
 622  0E  IAML    15 0 27.41        11.0 0.25                          42.2 140 
 623  0Z IP       15 0 23.95   64                        109    0.19 8 61.8 137 
 623  0N ES       15 0 32.25                             109    0.25 8 61.8 137 
 623  0N  IAML    15 0 32.59        15.2 0.23                          61.8 137 
 621  0Z IP       15 0 23.90   61                        108    0.01 8 62.7 168 
 621  0N ES       15 0 32.11                             108   -0.12 8 62.7 168 
 621  0N  IAML    15 0 32.91         5.1 0.16                          62.7 168 
 624  0Z IP       15 0 24.31   72                        108   -0.01 8 65.5 115 
 624  0N ES       15 0 32.87                             108   -0.12 8 65.5 115 
 624  0E  IAML    15 0 33.70        15.7 0.13                          65.5 115 
 625  0Z IP       15 0 27.09   68                        104    0.15 8 82.4 139 
 625  0E ES       15 0 37.66                             104    0.05 8 82.4 139 
 625  0E  IAML    15 0 42.86         5.3 0.15                          82.4 139 
 628  0Z IP       15 0 28.73   62                         68   -0.30 7 95.7 112 
 628  0N ES       15 0 40.56                              68   -0.71 7 95.7 112 
 628  0N  IAML    15 0 42.58         9.3 0.32                          95.7 112 
 627  0N ES       15 0 44.21                              58   -0.09 7  108 128 
 627  0E  IAML    15 0 46.27         8.7 0.18                           108 128 
 626  0Z IP       15 0 30.64   66                         58   -0.05 7  108 151 
 626  0E  IAML    15 0 46.76        15.3 0.29                           108 151 
 627  0Z IP       15 0 30.88   70                         58    0.13 7  108 128 
 626  0N ES       15 0 43.79                              58   -0.41 7  108 151 
 629  0Z IP       15 0 34.49   63                         58    0.64 6  131 132 
 629  0N ES       15 0 50.51                              58    0.75 6  131 132 
 629  0E  IAML    15 0 51.67        10.5 0.26                           131 132 
 630  0Z IP       15 0 36.66   69                         58    0.41 5  148 118 
 630  0E ES       15 0 54.25                              58    0.27 5  148 118 
 630  0E  IAML    15 0 55.69        10.5 0.13                           148 118 
 631  0Z IP       15 0 40.10   68                         58    0.02 4  176 146 
 631  0N ES       15 1  0.17                              58   -0.55 4  176 146 
 631  0E  IAML    15 1  2.92         5.5 0.22                           176 146 

 2017  420 1302 36.2 L  72.629 129.025 21.8  BER 11 0.3 0.9LBER 1.7CBER        1
 GAP=299        0.52       2.8     9.4  2.1  0.7280E+01  0.7164E-01 -0.1861E+01E
 ACTION:UP  20-12-30 20:06 OP:elen STATUS:               ID:20170420130148     I
 OLDACT:REG 20-12-27 21:23 OP:elen STATUS:               ID:20170420130148     3
 2017-04-20-1301-48M.NSN___039                                                 6
 STAT SP IPHASW D HRMM SECON CODA AMPLIT PERI AZIMU VELO AIN AR TRES W  DIS CAZ7
 630  0Z IP       13 2 47.72   48                        106    0.0810 66.2 201 
 630  0E ES       13 2 56.70                             106    0.3510 66.2 201 
 630  0E  IAML    13 2 57.62         4.2 0.12                          66.2 201 
 628  0Z IP       13 2 48.04   43                        106    0.1310 68.0 249 
 628  0N ES       13 2 57.25                             106    0.4210 68.0 249 
 628  0N  IAML    13 2 59.12         8.4 0.12                          68.0 249 
 627  0Z IP       13 2 51.30   41                        102   -0.01 9 89.7 231 
 627  0N ES       13 3  2.84                             102    0.04 9 89.7 231 
 627  0N  IAML    13 3  3.72         3.6 0.20                          89.7 231 
 624  0Z IP       13 2 51.72   56                        101   -0.21 9 93.6 261 
 624  0N ES       13 3  3.60                             101   -0.31 9 93.6 261 
 624  0E  IAML    13 3  6.29        11.1 0.17                          93.6 261 
 629  0Z IP       13 2 52.13   45                        101   -0.40 9 97.4 217 
 629  0N ES       13 3  4.30                             101   -0.66 9 97.4 217 
 629  0N  IAML    13 3  7.12         1.6 0.12                          97.4 217 
 625  0Z IP       13 2 54.58   56                         58    0.07 8  111 244 
 625  0N ES       13 3  8.54                              58    0.10 8  111 244 
 625  0N  IAML    13 3 12.64         2.7 0.28                           111 244 
 623  0Z IP       13 2 54.92   53                         58   -0.14 8  115 254 
 623  0N ES       13 3  9.14                              58   -0.26 8  115 254 
 623  0N  IAML    13 3 13.97         1.9 0.31                           115 254 
 622  0Z IP       13 2 56.57   62                         58   -0.03 7  126 262 
 622  0E ES       13 3 11.98                              58   -0.14 7  126 262 
 622  0N  IAML    13 3 16.58         2.0 0.17                           126 262 
 626  0Z IP       13 2 57.46   55                         58    0.18 7  131 232 
 626  0N ES       13 3 13.50                              58    0.18 7  131 232 
 626  0N  IAML    13 3 15.11         3.2 0.16                           131 232 
 621  0Z IP       13 3  0.04   50                         58    0.42 6  148 252 
 621  0N ES       13 3 17.92                              58    0.49 6  148 252 
 621  0N  IAML    13 3 19.43         3.5 0.20                           148 252 
 631  0Z IP       13 2 59.88   53                         58   -0.04 6  150 205 
 631  0N ES       13 3 17.65                              58   -0.31 6  150 205 
 631  0E  IAML    13 3 18.76         4.9 0.32                           150 205 

 2017  423 2313 41.8 L  72.596 124.874 22.0  BER 12 0.3 1.3LBER 2.4CBER        1
 GAP=174        0.53       1.9     5.0  1.7  0.3959E+01 -0.3027E+01  0.1074E+00E
 ACTION:UP  21-01-01 14:08 OP:elen STATUS:               ID:20170423231216     I
 OLDACT:REG 20-12-30 23:59 OP:elen STATUS:               ID:20170423231216     3
 2017-04-23-2312-16M.NSN___036                                                 6
 STAT SP IPHASW D HRMM SECON CODA AMPLIT PERI AZIMU VELO AIN AR TRES W  DIS CAZ7
 620  0Z IP       2313 46.48   80                        139   -0.0710 18.7 290 
 620  0N ES       2313 50.18                             139    0.0110 18.7 290 
 620  0E  IAML    2313 50.37        79.3 0.10                          18.7 290 
 622  0Z IP       2313 47.05   83                        133    0.0610 22.6 139 
 622  0N ES       2313 51.23                             133    0.2810 22.6 139 
 622  0N  IAML    2313 52.56        48.0 0.16                          22.6 139 
 623  0Z IP       2313 49.73   80                        116    0.08 9 42.4 135 
 623  0N ES       2313 55.88                             116    0.25 9 42.4 135 
 623  0E  IAML    2313 56.62        82.7 0.25                          42.4 135 
 621  0Z IP       2313 50.11   78                        114   -0.07 9 46.0 179 
 621  0N ES       2313 56.52                             114   -0.04 9 46.0 179 
 621  0E  IAML    2313 56.54        16.1 0.14                          46.0 179 
 624  0Z IP       2313 50.63   84                        112    0.03 9 48.8 105 
 624  0N ES       2313 57.40                             112    0.10 9 48.8 105 
 624  0E  IAML    2313 58.06        49.5 0.19                          48.8 105 
 625  0Z IP       2313 52.86   87                        107    0.12 8 62.9 138 
 625  0E ES       2314  1.25                             107    0.19 8 62.9 138 
 625  0N  IAML    2314  3.61         7.8 0.27                          62.9 138 
 628  0Z IP       2313 54.98   89                        104   -0.33 8 79.4 105 
 628  0N ES       2314  4.93                             104   -0.65 8 79.4 105 
 628  0N  IAML    2314  6.54        12.5 0.19                          79.4 105 
 626  0Z IP       2313 56.45   85                        102   -0.26 8 88.4 153 
 626  0N ES       2314  7.49                             102   -0.57 8 88.4 153 
 626  0E  IAML    2314  8.44        13.9 0.16                          88.4 153 
 627  0Z IP       2313 56.83   83                        102   -0.01 7 89.1 126 
 627  0E ES       2314  8.15                             102   -0.13 7 89.1 126 
 627  0E  IAML    2314  9.54         4.7 0.16                          89.1 126 
 629  0Z IP       2314  0.22   88                         58    0.04 7  111 131 
 629  0N ES       2314 14.02                              58   -0.14 7  111 131 
 629  0E  IAML    2314 16.94         4.7 0.22                           111 131 
 630  0Z IP       2314  3.25   84                         58    0.45 6  131 115 
 630  0N ES       2314 19.30                              58    0.53 6  131 115 
 630  0E  IAML    2314 20.72         6.7 0.13                           131 115 
 631  0Z IP       2314  6.59   87                         58    0.22 5  157 147 
 631  0N ES       2314 25.05                              58   -0.01 5  157 147 
 631  0E  IAML    2314 26.89        13.4 0.18                           157 147 

