 2016  822 1318 49.5 L  72.365 127.084 16.5  BER  8 0.1 0.6LBER 1.4CBER        1
 GAP= 98        0.34       1.0     2.7  1.8  0.1007E+01  0.1707E+01  0.7603E+00E
 ACTION:UP  21-01-08 22:12 OP:elen STATUS:               ID:20160822131743     I
 OLDACT:REG 21-01-08 15:24 OP:elen STATUS:               ID:20160822131743     3
 2016-08-22-1317-43M.arct__039                                                 6
 STAT SP IPHASW D HRMM SECON CODA AMPLIT PERI AZIMU VELO AIN AR TRES W  DIS CAZ7
 628  0Z IP       1318 52.33   40                        164    0.0210 4.47  28 
 628  0N ES       1318 54.47                             164    0.0110 4.47  28 
 628  0N  IAML    1318 54.58        79.2 0.14                          4.47  28 
 627  0Z IP       1318 54.86   31                        118    0.02 9 27.9 187 
 627  0E ES       1318 58.85                             118   -0.08 9 27.9 187 
 627  0E  IAML    1318 59.21        13.9 0.14                          27.9 187 
 624  0Z IP       1318 55.20   43                        116    0.06 9 30.0 295 
 624  0N ES       1318 59.45                             116   -0.01 9 30.0 295 
 624  0N  IAML    1319  0.17         9.4 0.19                          30.0 295 
 625  0Z IP       1318 56.77   43                        110    0.22 9 39.4 238 
 625  0N ES       1319  2.17                             110    0.24 9 39.4 238 
 625  0E  IAML    1319  5.64         3.4 0.36                          39.4 238 
 623  0Z IP       1318 57.42   36                        107    0.02 9 45.0 265 
 623  0E ES       1319  3.30                             107   -0.14 9 45.0 265 
 623  0E  IAML    1319  3.64         2.5 0.18                          45.0 265 
 630  0Z IP       1318 58.72   48                        105    0.04 8 53.3 127 
 630  0E ES       1319  5.54                             105   -0.14 8 53.3 127 
 630  0E  IAML    1319  6.59         4.5 0.17                          53.3 127 
 622  0Z IP       1318 59.79   39                        103   -0.01 8 60.4 279 
 622  0N ES       1319  7.38                             103   -0.27 8 60.4 279 
 622  0N  IAML    1319  8.26         2.5 0.11                          60.4 279 
 626  0Z IP       1319  0.46   48                        102    0.07 8 64.2 215 
 626  0N ES       1319  8.56                             102   -0.14 8 64.2 215 
 626  0N  IAML    1319 10.91         1.7 0.06                          64.2 215 

 2017  3 2 1359 59.1 L  72.683 124.890 11.5  BER  7 0.2 0.5LBER 0.5CBER        1
 GAP=211        0.49       2.4     4.8  4.4  0.1869E+01 -0.1131E+02  0.2421E+01E
 ACTION:ARG 20-12-21 03:09 OP:mn   STATUS:               ID:20170302140000     I
 2017-03-02-1400-00M.a_____039                                                 6
 STAT SP IPHASW D HRMM SECON CODA AMPLIT PERI AZIMU VELO AIN AR TRES W  DIS CAZ7
 620  0Z IP     C 14 0  2.62   12                        119   -0.1610 18.3 260 
 620  0N ES       14 0  5.48                             119   -0.0710 18.3 260 
 620  0Z  IAML    14 0  6.17        11.7 0.22                          18.3 260 
 623  0Z IP     C 14 0  7.90   23                         99    0.33 9 49.4 143 
 623  0E ES       14 0 13.91                              99   -0.07 9 49.4 143 
 623  0Z  IAML    14 0 16.05         2.6 0.31                          49.4 143 
 624  0Z IP     C 14 0  7.90   21                         99   -0.05 9 51.7 116 
 624  0N ES       14 0 14.45                              99   -0.19 9 51.7 116 
 624  0Z  IAML    14 0 14.90         4.1 0.20                          51.7 116 
 621  0Z IP     D 14 0  8.53   18                         98   -0.04 9 55.7 180 
 621  0E ES       14 0 15.65                              98   -0.09 9 55.7 180 
 621  0Z  IAML    14 0 15.67         1.7 0.16                          55.7 180 
 628  0Z IP     C 14 0 12.90   19                         95    0.12 8 81.9 112 
 628  0Z  IAML    14 0 22.84         2.9 0.36                          81.9 112 
 628  0N ES       14 0 23.10                              95   -0.05 8 81.9 112 
 626  0Z IP     D 14 0 15.66   34                         94    0.48 7 96.8 156 
 626  0N ES       14 0 27.55                              94    0.17 7 96.8 156 
 626  0Z  IAML    14 0 28.04         1.5 0.25                          96.8 156 
 631  0Z IP     C 14 0 26.12   35                         58    0.41 5  165 149 
 631  0N ES       14 0 45.20                              58   -0.70 5  165 149 
 631  0Z  IAML    14 0 47.10         2.3 0.16                           165 149 

 2017  313 0553 59.1 L  72.698 124.923 15.1  BER  9 0.2 1.0LBER 1.4CBER        1
 GAP=217        0.48       2.2     4.6  2.6  0.3595E+01 -0.6467E+01 -0.8871E+00E
 ACTION:ARG 20-12-21 03:09 OP:mn   STATUS:               ID:20170313055233     I
 2017-03-13-0552-33M.a_____039                                                 6
 STAT SP IPHASW D HRMM SECON CODA AMPLIT PERI AZIMU VELO AIN AR TRES W  DIS CAZ7
 620  0Z IP     C  554  3.31   33                        125    0.0210 19.8 256 
 620  0N ES        554  6.41                             125   -0.0310 19.8 256 
 620  0Z  IAML     554  6.63        51.0 0.11                          19.8 256 
 622  0Z IP     D  554  4.88   42                        113   -0.0510 31.4 155 
 622  0E ES        554  9.34                             113    0.0110 31.4 155 
 622  0Z  IAML     554  9.50        13.0 0.16                          31.4 155 
 623  0Z IP     D  554  8.18   38                        104    0.38 9 50.1 145 
 623  0E ES        554 14.89                             104    0.50 9 50.1 145 
 623  0Z  IAML     554 16.90         6.3 0.22                          50.1 145 
 624  0Z IP     D  554  8.08   38                        103    0.05 9 51.5 118 
 624  0N ES        554 14.63                             103   -0.15 9 51.5 118 
 624  0Z  IAML     554 16.07        11.1 0.14                          51.5 118 
 621  0Z IP     C  554  8.88   33                        102   -0.06 9 57.3 181 
 621  0E ES        554 16.03                             102   -0.36 9 57.3 181 
 621  0Z  IAML     554 16.67         4.6 0.19                          57.3 181 
 628  0Z IP     D  554 12.56   44                         98   -0.23 8 81.5 113 
 628  0N ES        554 22.87                              98   -0.29 8 81.5 113 
 628  0Z  IAML     554 24.27         6.2 0.16                          81.5 113 
 627  0Z IP     D  554 15.02   50                         97    0.08 7 95.0 132 
 627  0N ES        554 26.90                              97   -0.05 7 95.0 132 
 627  0Z  IAML     554 31.39         2.7 0.14                          95.0 132 
 630  0Z IP     D  554 21.36   40                         58    0.11 6  134 120 
 630  0N ES        554 37.94                              58   -0.11 6  134 120 
 630  0Z  IAML     554 40.24        17.6 0.22                           134 120 
 631  0Z IP     D  554 25.86   55                         58    0.34 5  165 150 
 631  0E ES        554 45.43                              58   -0.14 5  165 150 
 631  0Z  IAML     554 47.39         5.4 0.37                           165 150 

 2017  313 0809  5.6 L  72.450 125.088 14.9  BER  7 0.1 1.2LBER 1.3CBER        1
 GAP=132        0.28       0.7     2.2  3.0  0.4656E+00 -0.1236E+01 -0.2307E+00E
 ACTION:ARG 20-12-21 03:09 OP:mn   STATUS:               ID:20170313080741     I
 2017-03-13-0807-41M.a_____039                                                 6
 STAT SP IPHASW D HRMM SECON CODA AMPLIT PERI AZIMU VELO AIN AR TRES W  DIS CAZ7
 623  0Z IP     D  8 9 10.61   38                        117   -0.1010 26.6 121 
 623  0E ES        8 9 14.56                             117   -0.0110 26.6 121 
 623  0Z  IAML     8 9 15.47        41.9 0.23                          26.6 121 
 621  0Z IP     D  8 9 11.20   33                        113   -0.0810 30.5 193 
 621  0E ES        8 9 15.58                             113    0.0110 30.5 193 
 621  0Z  IAML     8 9 17.34        23.5 0.15                          30.5 193 
 620  0Z IP     D  8 9 11.72   34                        111   -0.0410 33.7 313 
 620  0N ES        8 9 16.45                             111    0.0410 33.7 313 
 620  0Z  IAML     8 9 17.87        44.7 0.14                          33.7 313 
 624  0Z IP     D  8 9 12.75   25                        107    0.0210 40.0  85 
 624  0N ES        8 9 18.26                             107    0.1410 40.0  85 
 624  0Z  IAML     8 9 18.61        42.4 0.14                          40.0  85 
 625  0Z IP     C  8 9 13.68   53                        105   -0.02 9 46.3 131 
 625  0N ES        8 9 19.84                             105    0.01 9 46.3 131 
 625  0Z  IAML     8 9 21.34        10.0 0.26                          46.3 131 
 628  0Z IP     D  8 9 17.39   42                         99    0.01 8 69.6  94 
 628  0N ES        8 9 26.13                              99   -0.18 8 69.6  94 
 628  0Z  IAML     8 9 27.51        18.6 0.24                          69.6  94 
 626  0Z IP     D  8 9 17.71   45                         99    0.17 8 70.6 152 
 626  0E ES        8 9 26.64                              99    0.06 8 70.6 152 
 626  0Z  IAML     8 9 26.87         6.5 0.21                          70.6 152 

 2017  317 1007 14.1 L  72.235 125.988  3.9  BER  7 0.2 0.5LBER 0.9CBER        1
 GAP=113        0.51       1.1     3.2  1.6  0.1304E+01 -0.7183E+00 -0.5991E+00E
 ACTION:ARG 20-12-21 03:09 OP:mn   STATUS:               ID:20170317100556     I
 2017-03-17-1005-56M.a_____039                                                 6
 STAT SP IPHASW D HRMM SECON CODA AMPLIT PERI AZIMU VELO AIN AR TRES W  DIS CAZ7
 625  0Z IP     C 10 7 15.52   28                        116   -0.1410 7.94 149 
 625  0E ES       10 7 17.05                             116    0.1910 7.94 149 
 625  0Z  IAML    10 7 17.31        20.4 0.18                          7.94 149 
 623  0Z IP     D 10 7 16.27   23                        107   -0.2010 12.8 323 
 623  0E ES       10 7 18.51                             107    0.2310 12.8 323 
 623  0Z  IAML    10 7 19.03        21.6 0.25                          12.8 323 
 624  0Z IP     C 10 7 19.09   37                         65   -0.07 9 28.6  20 
 624  0E ES       10 7 23.21                              65    0.19 9 28.6  20 
 624  0Z  IAML    10 7 23.77         9.2 0.17                          28.6  20 
 622  0Z IP     D 10 7 19.65   28                         65   -0.14 9 32.5 316 
 622  0E ES       10 7 24.34                              65    0.21 9 32.5 316 
 622  0Z  IAML    10 7 28.80         4.3 0.60                          32.5 316 
 621  0Z IP     C 10 7 20.43   28                         65   -0.24 9 37.9 262 
 621  0N ES       10 7 25.73                              65    0.06 9 37.9 262 
 621  0Z  IAML    10 7 27.08         9.0 0.28                          37.9 262 
 628  0Z IP     D 10 7 21.20   28                         65   -0.35 9 43.4  64 
 628  0N ES       10 7 27.17                              65   -0.06 9 43.4  64 
 628  0Z  IAML    10 7 28.42         8.2 0.15                          43.4  64 
 629  0Z IP     D 10 7 23.73   40                         65    0.00 8 56.9 126 
 629  0E ES       10 7 31.37                              65    0.31 8 56.9 126 
 629  0Z  IAML    10 7 32.24         3.3 0.27                          56.9 126 

 2017  320 1900 34.3 L  72.415 126.129 18.0  BER  7 0.1 0.6LBER 0.5CBER        1
 GAP=119        0.38       1.2     2.8  2.0 -0.5913E+00 -0.8801E-01  0.9422E+00E
 ACTION:ARG 20-12-21 03:09 OP:mn   STATUS:               ID:20170320190000     I
 2017-03-20-1900-00M.a_____039                                                 6
 STAT SP IPHASW D HRMM SECON CODA AMPLIT PERI AZIMU VELO AIN AR TRES W  DIS CAZ7
 624  0Z IP     D 19 0 37.68   22                        154    0.1210 8.41  36 
 624  0E ES       19 0 40.10                             154    0.0410 8.41  36 
 624  0Z  IAML    19 0 40.49        27.4 0.14                          8.41  36 
 623  0Z IP     C 19 0 38.40   17                        137    0.1510 15.9 232 
 623  0N ES       19 0 41.37                             137    0.0910 15.9 232 
 623  0Z  IAML    19 0 41.66        25.9 0.19                          15.9 232 
 625  0Z IP     D 19 0 39.68   20                        122    0.05 9 26.9 182 
 625  0N ES       19 0 43.66                             122   -0.04 9 26.9 182 
 625  0Z  IAML    19 0 44.10         2.9 0.17                          26.9 182 
 622  0Z IP     C 19 0 39.71   25                        121   -0.02 9 27.7 277 
 622  0N ES       19 0 43.71                             121   -0.18 9 27.7 277 
 622  0Z  IAML    19 0 44.04         5.4 0.12                          27.7 277 
 628  0Z IP     D 19 0 40.69   25                        115   -0.00 9 34.4  92 
 628  0N ES       19 0 45.33                             115   -0.25 9 34.4  92 
 628  0Z  IAML    19 0 46.85         8.3 0.26                          34.4  92 
 621  0Z IP     D 19 0 43.02   27                        108    0.08 9 49.3 239 
 621  0N ES       19 0 49.31                             108   -0.22 9 49.3 239 
 621  0Z  IAML    19 0 49.89         2.7 0.30                          49.3 239 
 626  0Z IP     C 19 0 44.66   24                        105    0.24 8 58.9 183 
 626  0N ES       19 0 52.05                             105   -0.09 8 58.9 183 
 626  0Z  IAML    19 0 52.41         4.2 0.32                          58.9 183 

 2017  326 0836 34.1 L  71.993 127.676 16.1  BER  7 0.1 1.5LBER 0.9CBER        1
 GAP=127        0.35       1.0     2.3  2.2  0.3496E+00 -0.2820E-01  0.4866E+00E
 ACTION:ARG 20-12-21 03:09 OP:mn   STATUS:               ID:20170326083527     I
 2017-03-26-0835-27M.a_____039                                                 6
 STAT SP IPHASW D HRMM SECON CODA AMPLIT PERI AZIMU VELO AIN AR TRES W  DIS CAZ7
 629  0Z IP     C  836 37.77   15                        137    0.0810 14.4 240 
 629  0N ES        836 40.52                             137    0.0910 14.4 240 
 629  0Z  IAML     836 40.82       360.6 0.20                          14.4 240 
 630  0Z IP     D  836 38.91   22                        122    0.0010 24.1  67 
 630  0E ES        836 42.54                             122   -0.0410 24.1  67 
 630  0Z  IAML     836 43.12       190.9 0.17                          24.1  67 
 627  0Z IP     C  836 39.40   35                        118    0.0110 27.6 300 
 627  0N ES        836 43.30                             118   -0.1310 27.6 300 
 627  0Z  IAML     836 43.48        88.3 0.34                          27.6 300 
 625  0Z IP     D  836 44.17   34                        103    0.22 8 57.5 291 
 625  0E ES        836 51.55                             103    0.09 8 57.5 291 
 625  0Z  IAML     836 51.71        10.9 0.18                          57.5 291 
 626  0Z IP     D  836 43.96   29                        103   -0.06 8 58.0 259 
 626  0N ES        836 51.25                             103   -0.32 8 58.0 259 
 626  0Z  IAML     836 51.63        35.8 0.21                          58.0 259 
 632  0Z IP     D  836 45.56   41                        101    0.03 8 67.6 133 
 632  0E ES        836 54.09                             101   -0.15 8 67.6 133 
 632  0Z  IAML     836 55.46        17.7 0.12                          67.6 133 
 631  0Z IP     D  836 45.76   37                        101    0.16 8 68.0 193 
 631  0E ES        836 54.35                             101   -0.01 8 68.0 193 
 631  0Z  IAML     836 54.70        21.7 0.11                          68.0 193 

 2017  4 2 0422  1.0 L  72.722 125.690 21.9  BER 10 0.3 1.2LBER 1.8CBER        1
 GAP=225        0.62       2.8     5.7  2.6  0.5114E+01 -0.6218E+01 -0.1958E+01E
 ACTION:UP  20-12-20 22:46 OP:elen STATUS:               ID:20170402042039     I
 OLDACT:UP  20-12-20 00:44 OP:elen STATUS:               ID:20170402042039     3
 OLDACT:UP  20-12-16 20:09 OP:elen STATUS:               ID:20170402042039     3
 OLDACT:UP  20-12-16 14:06 OP:elen STATUS:               ID:20170402042039     3
 OLDACT:REG 20-12-12 10:59 OP:elen STATUS:               ID:20170402042039     3
 2017-04-02-0420-39M.NSN___039                                                 6
 STAT SP IPHASW D HRMM SECON CODA AMPLIT PERI AZIMU VELO AIN AR TRES W  DIS CAZ7
 622  0Z IP        422  7.79   47                        121    0.1310 33.7 202 
 622  0N ES        422 12.79                             121    0.0910 33.7 202 
 624  0Z IP        422  7.79   50                        121    0.1310 33.7 144 
 624  0N ES        422 12.83                             121    0.1310 33.7 144 
 624  0N  IAML     422 13.96        16.4 0.13                          33.7 144 
 622  0N  IAML     422 13.69        13.8 0.15                          33.7 202 
 623  0Z IP        422  9.41   48                        115    0.2410 44.3 177 
 623  0N ES        422 15.58                             115    0.2310 44.3 177 
 623  0E  IAML     422 17.17         7.4 0.15                          44.3 177 
 620  0Z IP        422  9.30   52                        114   -0.0210 45.3 261 
 620  0N ES        422 15.36                             114   -0.2510 45.3 261 
 620  0N  IAML     422 15.71        31.6 0.15                          45.3 261 
 628  0Z IP        422 11.53   56                        108   -0.09 9 60.6 126 
 628  0N ES        422 19.37                             108   -0.30 9 60.6 126 
 628  0N  IAML     422 19.92        27.0 0.25                          60.6 126 
 621  0Z IP        422 12.50   48                        106    0.07 9 65.8 205 
 621  0N ES        422 20.98                             106   -0.12 9 65.8 205 
 621  0E  IAML     422 21.82         5.2 0.18                          65.8 205 
 626  0Z IP        422 16.65   47                        101   -0.17 8 93.8 173 
 626  0N ES        422 28.16                             101   -0.66 8 93.8 173 
 626  0E  IAML     422 28.49         3.2 0.21                          93.8 173 
 630  0Z IP        422 19.71   62                         58   -0.15 7  115 128 
 630  0N ES        422 33.47                              58   -0.69 7  115 128 
 630  0E  IAML     422 34.42         8.4 0.10                           115 128 
 631  0Z IP        422 26.15   76                         58    0.48 5  157 159 
 631  0N ES        422 44.66                              58    0.26 5  157 159 
 631  0E  IAML     422 45.70         6.6 0.23                           157 159 
 632  0Z IP        422 28.64   56                         58    0.83 5  173 136 
 632  0N ES        422 49.00                              58    0.84 5  173 136 
 632  0E  IAML     422 50.12         7.9 0.31                           173 136 

