 2017  4 6 1728  1.0 L  72.723 125.692 21.3  BER 10 0.3 0.9LBER 1.9CBER        1
 GAP=225        0.61       2.8     5.6  2.6  0.4997E+01 -0.6165E+01 -0.1972E+01E
 ACTION:UP  20-12-21 12:27 OP:elen STATUS:               ID:20170406172639     I
 OLDACT:UP  20-12-20 10:56 OP:elen STATUS:               ID:20170406172639     3
 OLDACT:UP  20-12-17 22:23 OP:elen STATUS:               ID:20170406172639     3
 OLDACT:REG 20-12-15 19:37 OP:elen STATUS:               ID:20170406172639     3
 2017-04-06-1726-39M.NSN___039                                                 6
 STAT SP IPHASW D HRMM SECON CODA AMPLIT PERI AZIMU VELO AIN AR TRES W  DIS CAZ7
 624  0Z IP       1728  7.81   52                        121    0.1710 33.8 145 
 624  0N ES       1728 12.77                             121    0.1210 33.8 145 
 624  0N  IAML    1728 13.91         6.5 0.11                          33.8 145 
 622  0Z IP       1728  7.84   49                        121    0.1910 33.9 202 
 622  0N ES       1728 12.73                             121    0.0610 33.9 202 
 622  0E  IAML    1728 14.00        10.3 0.41                          33.9 202 
 623  0Z IP       1728  9.42   62                        114    0.2510 44.4 177 
 623  0N ES       1728 15.48                             114    0.1410 44.4 177 
 623  0E  IAML    1728 17.38         3.3 0.15                          44.4 177 
 620  0Z IP       1728  9.28   53                        113   -0.0310 45.4 261 
 620  0N ES       1728 15.28                             113   -0.3110 45.4 261 
 620  0E  IAML    1728 15.49        25.5 0.18                          45.4 261 
 628  0Z IP       1728 11.58   47                        107   -0.04 9 60.6 126 
 628  0N ES       1728 19.31                             107   -0.34 9 60.6 126 
 628  0N  IAML    1728 19.87        12.7 0.25                          60.6 126 
 621  0Z IP       1728 12.54   57                        106    0.09 9 66.0 205 
 621  0N ES       1728 21.02                             106   -0.09 9 66.0 205 
 621  0E  IAML    1728 21.75         2.5 0.16                          66.0 205 
 626  0Z IP       1728 16.77   51                        101   -0.07 8 94.0 173 
 626  0E ES       1728 28.24                             101   -0.60 8 94.0 173 
 626  0N  IAML    1728 29.14         1.6 0.15                          94.0 173 
 630  0Z IP       1728 19.73   74                         58   -0.20 7  115 128 
 630  0N ES       1728 33.53                              58   -0.75 7  115 128 
 630  0E  IAML    1728 34.32         3.9 0.15                           115 128 
 631  0Z IP       1728 26.31   93                         58    0.55 5  157 159 
 631  0N ES       1728 44.89                              58    0.35 5  157 159 
 631  0E  IAML    1728 46.34         3.2 0.16                           157 159 
 632  0Z IP       1728 28.58   90                         58    0.69 5  173 136 
 632  0N ES       1728 48.98                              58    0.70 5  173 136 
 632  0E  IAML    1728 50.06         4.5 0.31                           173 136 

 2017  414 0459 18.8 L  72.268 127.384 20.1  BER  7 0.1 0.5LBER 0.5CBER        1
 GAP=152        0.35       0.9     3.2  2.1  0.8692E+00  0.6018E+00  0.6197E+00E
 ACTION:UP  20-12-23 23:35 OP:elen STATUS:               ID:20170414045811     I
 OLDACT:REG 20-12-21 23:05 OP:elen STATUS:               ID:20170414045811     3
 2017-04-14-0458-11M.NSN___039                                                 6
 STAT SP IPHASW D HRMM SECON CODA AMPLIT PERI AZIMU VELO AIN AR TRES W  DIS CAZ7
 628  0Z IP        459 23.05   21                        139   -0.0410 16.8 332 
 628  0N ES        459 26.28                             139   -0.1010 16.8 332 
 628  0N  IAML     459 26.45        23.3 0.08                          16.8 332 
 627  0Z IP        459 23.80   19                        131    0.1510 21.7 219 
 627  0N ES        459 27.53                             131    0.1610 21.7 219 
 627  0N  IAML     459 28.15         7.8 0.21                          21.7 219 
 629  0Z IP        459 25.93   20                        116    0.10 9 37.9 184 
 629  0N ES        459 31.21                             116   -0.00 9 37.9 184 
 629  0N  IAML     459 31.83         2.1 0.37                          37.9 184 
 630  0Z IP        459 26.00   20                        115    0.05 9 38.7 123 
 630  0N ES        459 31.33                             115   -0.09 9 38.7 123 
 630  0E  IAML     459 31.56         2.7 0.16                          38.7 123 
 626  0Z IP        459 29.62   24                        106    0.02 8 62.8 228 
 626  0E ES        459 37.59                             106   -0.25 8 62.8 228 
 626  0N  IAML     459 37.71         1.9 0.21                          62.8 228 
 622  0Z IP        459 31.28   26                        103    0.12 8 72.7 286 
 622  0E ES        459 40.52                             103   -0.06 8 72.7 286 
 622  0E  IAML     459 41.08         1.3 0.14                          72.7 286 
 631  0Z IP        459 35.11                             100    0.11 7 97.1 183 
 631  0N ES        459 47.07                             100   -0.28 7 97.1 183 
 631  0E  IAML     459 47.29         3.2 0.19                          97.1 183 

 2017  416 0523 41.9 L  71.956 127.088 19.2  BER 13 0.2 1.6LBER 2.5CBER        1
 GAP= 84        0.44       0.9     2.7  1.5  0.8479E+00  0.1013E+01  0.2525E-01E
 ACTION:UP  20-12-26 19:23 OP:elen STATUS:               ID:20170416052232     I
 OLDACT:REG 20-12-24 20:31 OP:elen STATUS:               ID:20170416052232     3
 2017-04-16-0522-32M.NSN___039                                                 6
 STAT SP IPHASW D HRMM SECON CODA AMPLIT PERI AZIMU VELO AIN AR TRES W  DIS CAZ7
 629  0Z IP        523 45.45   82                        156    0.1010 8.35 111 
 629  0N ES        523 48.09                             156    0.0910 8.35 111 
 629  0N  IAML     523 48.18       179.5 0.06                          8.35 111 
 627  0Z IP        523 46.35   83                        135    0.0710 18.3 349 
 627  0N ES        523 49.70                             135    0.0710 18.3 349 
 627  0E  IAML     523 49.90       231.5 0.18                          18.3 349 
 626  0Z IP        523 48.77   80                        115   -0.03 9 37.2 259 
 626  0N ES        523 53.87                             115   -0.19 9 37.2 259 
 626  0N  IAML     523 53.97        63.4 0.13                          37.2 259 
 625  0Z IP        523 49.48   82                        113    0.03 9 41.6 306 
 625  0N ES        523 55.09                             113   -0.11 9 41.6 306 
 625  0N  IAML     523 55.32        56.1 0.21                          41.6 306 
 630  0Z IP        523 49.98   86                        111    0.07 9 44.7  72 
 630  0N ES        523 55.91                             111   -0.10 9 44.7  72 
 630  0E  IAML     523 56.36        36.3 0.12                          44.7  72 
 628  0Z IP        523 50.46   78                        109   -0.20 9 49.6   2 
 628  0N ES        523 56.76                             109   -0.57 9 49.6   2 
 628  0E  IAML     523 57.87        59.4 0.22                          49.6   2 
 623  0Z IP        523 52.70   88                        105    0.22 8 61.4 313 
 623  0N ES        524  0.64                             105    0.10 8 61.4 313 
 623  0E  IAML     524  0.98        12.3 0.17                          61.4 313 
 631  0Z IP        523 52.69   91                        105    0.07 8 62.4 175 
 631  0N ES        524  0.61                             105   -0.18 8 62.4 175 
 631  0E  IAML     524  0.91       108.1 0.18                          62.4 175 
 624  0Z IP        523 53.19   87                        104    0.26 8 64.3 335 
 624  0N ES        524  1.53                             104    0.20 8 64.3 335 
 624  0E  IAML     524  3.80        21.0 0.28                          64.3 335 
 621  0Z IP        523 55.38   86                        101    0.02 8 79.7 290 
 621  0N ES        524  5.30                             101   -0.30 8 79.7 290 
 621  0N  IAML     524 10.84        11.6 0.16                          79.7 290 
 622  0Z IP        523 55.88   87                        101    0.28 7 81.3 313 
 622  0E ES        524  6.15                             101    0.11 7 81.3 313 
 622  0E  IAML     524 12.01        20.7 0.15                          81.3 313 
 632  0Z IP        523 55.75   95                        101    0.14 7 81.4 121 
 632  0N ES        524  5.91                             101   -0.14 7 81.4 121 
 632  0E  IAML     524  8.88        12.0 0.12                          81.4 121 
 620  0Z IP        524  2.06  120                         58    0.21 6  121 311 
 620  0N ES        524 16.86                              58   -0.18 6  121 311 
 620  0E  IAML     524 20.08        17.2 0.19                           121 311 

 2017  416 1821  5.5 L  72.867 125.003 19.3  BER 13 0.3 1.3LBER 2.4CBER        1
 GAP=262        0.54       2.9     6.2  2.7  0.3876E+01 -0.8357E+01 -0.2648E+01E
 ACTION:UP  20-12-27 00:47 OP:elen STATUS:               ID:20170416181941     I
 OLDACT:REG 20-12-24 20:59 OP:elen STATUS:               ID:20170416181941     3
 2017-04-16-1819-41M.NSN___039                                                 6
 STAT SP IPHASW D HRMM SECON CODA AMPLIT PERI AZIMU VELO AIN AR TRES W  DIS CAZ7
 620  0Z IP       1821 11.60   79                        119   -0.1110 32.2 223 
 620  0E ES       1821 16.27                             119   -0.1510 32.2 223 
 620  0E  IAML    1821 18.35        20.2 0.16                          32.2 223 
 622  0Z IP       1821 14.23   83                        109    0.12 9 48.5 168 
 622  0E ES       1821 20.81                             109    0.15 9 48.5 168 
 622  0N  IAML    1821 20.82        23.1 0.27                          48.5 168 
 624  0Z IP       1821 16.12   90                        105    0.12 9 60.7 135 
 624  0N ES       1821 24.11                             105    0.14 9 60.7 135 
 624  0N  IAML    1821 24.84        18.5 0.25                          60.7 135 
 623  0Z IP       1821 17.07   85                        104    0.34 9 65.4 157 
 623  0E ES       1821 25.73                             104    0.47 9 65.4 157 
 623  0E  IAML    1821 26.39        16.1 0.19                          65.4 157 
 621  0Z IP       1821 18.44   78                        102    0.01 8 76.3 183 
 621  0N ES       1821 28.05                             102   -0.21 8 76.3 183 
 621  0E  IAML    1821 29.12        15.1 0.21                          76.3 183 
 625  0Z IP       1821 19.96   85                        101    0.04 8 85.7 154 
 625  0N ES       1821 30.82                             101   -0.06 8 85.7 154 
 625  0N  IAML    1821 32.15         4.3 0.38                          85.7 154 
 628  0Z IP       1821 20.12   85                        100   -0.23 8 88.4 125 
 628  0N ES       1821 31.05                             100   -0.59 8 88.4 125 
 628  0N  IAML    1821 32.39        16.4 0.29                          88.4 125 
 627  0Z IP       1821 23.51   88                         98    0.22 7  107 141 
 627  0E ES       1821 36.89                              98    0.09 7  107 141 
 627  0E  IAML    1821 38.22         4.4 0.21                           107 141 
 626  0Z IP       1821 24.38   87                         98   -0.15 7  115 162 
 626  0N ES       1821 38.38                              98   -0.62 7  115 162 
 626  0E  IAML    1821 38.73        21.4 0.23                           115 162 
 629  0Z IP       1821 26.93   76                         58    0.20 6  130 142 
 629  0E ES       1821 42.83                              58   -0.04 6  130 142 
 629  0E  IAML    1821 47.02         3.3 0.46                           130 142 
 630  0Z IP       1821 28.17   78                         58   -0.19 6  142 127 
 630  0E ES       1821 45.06                              58   -0.68 6  142 127 
 630  0E  IAML    1821 46.35        10.8 0.24                           142 127 
 631  0Z IP       1821 34.15   89                         58    0.51 4  181 154 
 631  0N ES       1821 55.38                              58    0.36 4  181 154 
 631  0E  IAML    1821 56.98         8.3 0.23                           181 154 
 632  0Z IP       1821 36.81   87                         58    0.55 4  200 134 
 632  0N ES       1822  0.00                              58    0.36 4  200 134 
 632  0E  IAML    1822  3.02         4.0 0.37                           200 134 

 2017  423 1455 44.1 L  72.840 124.493 16.8  BER  8 0.2 0.6LBER 1.4CBER        1
 GAP=285        0.42       2.7     6.7  3.3  0.2029E+01 -0.1246E+02 -0.3691E+01E
 ACTION:UP  20-12-31 12:43 OP:elen STATUS:               ID:20170423145418     I
 OLDACT:REG 20-12-30 23:54 OP:elen STATUS:               ID:20170423145418     3
 2017-04-23-1454-18M.NSN___036                                                 6
 STAT SP IPHASW D HRMM SECON CODA AMPLIT PERI AZIMU VELO AIN AR TRES W  DIS CAZ7
 620  0Z IP       1455 48.50   35                        126   -0.1310 21.3 193 
 620  0N ES       1455 51.91                             126   -0.1510 21.3 193 
 620  0N  IAML    1455 52.17         7.5 0.26                          21.3 193 
 622  0Z IP       1455 53.26   37                        105    0.09 9 52.1 148 
 622  0N ES       1456  0.15                             105    0.10 9 52.1 148 
 622  0N  IAML    1456  0.80         2.6 0.14                          52.1 148 
 623  0Z IP       1455 56.38   39                        101    0.20 8 71.3 143 
 623  0N ES       1456  5.47                             101    0.12 8 71.3 143 
 623  0N  IAML    1456  7.34         2.3 0.20                          71.3 143 
 624  0Z IP       1455 56.49   45                        101    0.21 8 71.9 124 
 624  0N ES       1456  5.67                             101    0.15 8 71.9 124 
 624  0N  IAML    1456  7.60         2.5 0.13                          71.9 124 
 621  0Z IP       1455 56.84   32                        100    0.16 8 74.4 170 
 621  0E  IAML    1456  6.32         1.9 0.18                          74.4 170 
 621  0N ES       1456  6.34                             100    0.12 8 74.4 170 
 628  0Z IP       1456  0.83   54                         97   -0.12 7  101 118 
 628  0N ES       1456 13.28                              97   -0.46 7  101 118 
 628  0E  IAML    1456 14.87         2.2 0.23                           101 118 
 626  0Z IP       1456  3.70   45                         96    0.00 7  118 153 
 626  0N ES       1456 18.27                              96   -0.30 7  118 153 
 626  0E  IAML    1456 18.75         1.2 0.25                           118 153 
 630  0Z IP       1456  8.91   56                         58    0.05 5  155 122 
 630  0N ES       1456 27.27                              58   -0.40 5  155 122 
 630  0E  IAML    1456 28.26         3.0 0.26                           155 122 

 2017  426 1840 44.1 L  72.271 126.367 18.1  BER  8 0.1 1.3LBER 2.4CBER        1
 GAP= 93        0.30       0.7     2.1  1.7  0.9789E-01 -0.6935E+00  0.2460E+00E
 ACTION:UP  21-01-02 22:25 OP:elen STATUS:               ID:20170426183923     I
 OLDACT:REG 21-01-02 11:44 OP:elen STATUS:               ID:20170426183923     3
 2017-04-26-1839-23M.NSN___024                                                 6
 STAT SP IPHASW D HRMM SECON CODA AMPLIT PERI AZIMU VELO AIN AR TRES W  DIS CAZ7
 625  0Z IP       1840 47.88   74                        141    0.0210 14.0 219 
 625  0N ES       1840 50.73                             141   -0.0110 14.0 219 
 625  0E  IAML    1840 51.37       213.3 0.52                          14.0 219 
 624  0Z IP       1840 48.98   77                        126    0.0510 23.1 352 
 624  0N ES       1840 52.65                             126    0.0210 23.1 352 
 624  0N  IAML    1840 52.83       190.5 0.14                          23.1 352 
 627  0Z IP       1840 49.51   82                        122    0.0410 27.1 129 
 627  0N ES       1840 53.59                             122    0.0110 27.1 129 
 627  0N  IAML    1840 53.89        27.0 0.10                          27.1 129 
 628  0Z IP       1840 49.87   85                        119   -0.02 9 30.1  61 
 628  0N ES       1840 54.20                             119   -0.11 9 30.1  61 
 628  0N  IAML    1840 54.73        51.7 0.14                          30.1  61 
 629  0Z IP       1840 53.07   83                        107    0.20 9 50.1 139 
 629  0E ES       1840 59.71                             107    0.16 9 50.1 139 
 629  0E  IAML    1841  0.14        14.2 0.26                          50.1 139 
 621  0Z IP       1840 53.08   83                        107    0.03 9 51.3 260 
 621  0N ES       1840 59.75                             107   -0.12 9 51.3 260 
 621  0N  IAML    1841  0.04        20.1 0.21                          51.3 260 
 630  0Z IP       1840 56.07   88                        102    0.03 8 70.4 107 
 630  0E ES       1841  4.95                             102   -0.18 8 70.4 107 
 630  0N  IAML    1841  8.11         4.4 0.16                          70.4 107 
 631  0Z IP       1841  1.10   83                         98    0.04 7  102 162 
 631  0N ES       1841 13.69                              98   -0.28 7  102 162 
 631  0E  IAML    1841 13.87        16.2 0.28                           102 162 

