 2016 1015 1013 37.0 L  72.055 126.973 10.0  BER 13 0.4                        1
 GAP= 78        0.86       1.6     4.8  4.1  0.3044E+01  0.4940E+01  0.1138E+01E
 ACTION:ARG 20-04-11 14:12 OP:mn   STATUS:               ID:20161015101225     I
 2016-10-15-1012-25M.SIOLA_039                                                 6
 STAT SP IPHASW D HRMM SECON CODA AMPLIT PERI AZIMU VELO AIN AR TRES W  DIS CAZ7
 627  0Z IP       1013 38.86                             144   -0.1410 6.93   3 
 627  0N ES       1013 40.65                             144    0.1510 6.93   3 
 629  0Z IP       1013 40.18                             115   -0.2810 18.3 140 
 629  0Z ES       1013 43.13                             115    0.1110 18.3 140 
 625  0Z IP       1013 42.39                             103   -0.25 9 32.5 295 
 625  0N ES       1013 46.82                             103    0.03 9 32.5 295 
 626  0Z IP       1013 43.03                             101   -0.38 9 37.3 241 
 626  0N ES       1013 47.98                             101   -0.15 9 37.3 241 
 628  0Z IP       1013 43.01                             101   -0.64 9 38.9   9 
 628  0N ES       1013 48.22                             101   -0.33 9 38.9   9 
 630  0Z IP       1013 44.61                              98   -0.25 9 46.5  87 
 630  0N ES       1013 50.64                              98    0.01 9 46.5  87 
 623  0Z IP       1013 45.75                              98    0.13 8 51.3 307 
 623  0N ES       1013 52.58                              98    0.64 8 51.3 307 
 624  0Z IP       1013 45.77                              97   -0.06 8 52.6 334 
 624  0N ES       1013 52.66                              97    0.34 8 52.6 334 
 622  0Z IP       1013 48.64                              95   -0.15 8 71.1 308 
 622  0N ES       1013 57.74                              95    0.30 8 71.1 308 
 621  0Z IP       1013 49.10                              95    0.01 8 72.9 282 
 621  0N ES       1013 57.96                              95    0.00 8 72.9 282 
 631  0Z IP       1013 49.10                              95   -0.14 8 73.8 172 
 631  0N ES       1013 58.06                              95   -0.14 8 73.8 172 
 632  0Z IP       1013 52.19                              94    0.24 7 90.7 125 
 632  0N ES       1014  4.38                              94    1.47 7 90.7 125 
 620  0Z IP       1013 54.93                              93   -0.31 6  111 308 
 620  0N ES       1014  9.29                              93    0.70 6  111 308 

 2017  426 1840 44.2 L  72.274 126.360 18.4  BER  8 0.1 1.4LBER 2.4CBER        1
 GAP= 93        0.30       0.7     2.1  1.7  0.8941E-01 -0.6921E+00  0.2685E+00E
 ACTION:REE 25-08-04 22:19 OP:mn   STATUS:               ID:20170426183923     I
 OLDACT:REG 21-01-02 11:44 OP:elen STATUS:               ID:20170426183923     3
 2017-04-26-1839-23M.NSN___024                                                 6
 STAT SP IPHASW D HRMM SECON CODA AMPLIT PERI AZIMU VELO AIN AR TRES W  DIS CAZ7
 625  0Z IP       1840 47.88   74                        141   -0.1110 14.1 218 
 625  0N ES       1840 50.73                             141   -0.0510 14.1 218 
 625  0E  IAML    1840 51.37       213.3 0.52                          14.1 218 
 624  0Z IP       1840 48.98   77                        128    0.0010 22.7 353 
 624  0N ES       1840 52.65                             128    0.1510 22.7 353 
 624  0N  IAML    1840 52.83       190.5 0.14                          22.7 353 
 627  0Z IP       1840 49.51   82                        122   -0.1110 27.6 129 
 627  0N ES       1840 53.59                             122   -0.0310 27.6 129 
 627  0N  IAML    1840 53.89        27.0 0.10                          27.6 129 
 628  0Z IP       1840 49.87   85                        120   -0.11 9 30.1  62 
 628  0N ES       1840 54.20                             120   -0.03 9 30.1  62 
 628  0N  IAML    1840 54.73        51.7 0.14                          30.1  62 
 629  0Z IP       1840 53.07   83                        108    0.07 9 50.5 139 
 629  0E ES       1840 59.71                             108    0.25 9 50.5 139 
 629  0E  IAML    1841  0.14        14.2 0.26                          50.5 139 
 621  0Z IP       1840 53.08   83                        108   -0.03 9 51.1 259 
 621  0N ES       1840 59.75                             108    0.09 9 51.1 259 
 621  0N  IAML    1841  0.04        20.1 0.21                          51.1 259 
 630  0Z IP       1840 56.07   88                        103   -0.08 8 70.7 107 
 630  0E ES       1841  4.95                             103    0.04 8 70.7 107 
 630  0N  IAML    1841  8.11         4.4 0.16                          70.7 107 
 631  0Z IP       1841  1.10   83                         99   -0.08 7  102 162 
 631  0N ES       1841 13.69                              99    0.07 7  102 162 
 631  0E  IAML    1841 13.87        16.2 0.28                           102 162 

 2017  427 0912 29.1 L  72.060 127.824  6.2  BER  8 0.3 0.9LBER 1.8CBER        1
 GAP=115        0.72       1.7     5.7 17.9 -0.2594E+00  0.6359E+02 -0.4453E+01E
 ACTION:REE 25-08-04 22:19 OP:mn   STATUS:               ID:20170427091104     I
 OLDACT:REG 21-01-02 12:22 OP:elen STATUS:               ID:20170427091104     3
 2017-04-27-0911-04M.NSN___024                                                 6
 STAT SP IPHASW D HRMM SECON CODA AMPLIT PERI AZIMU VELO AIN AR TRES W  DIS CAZ7
 630  0Z IP        912 32.08   60                        102   -0.1410 17.3  84 
 630  0N ES        912 34.82                             102    0.3010 17.3  84 
 630  0E  IAML     912 35.23        75.2 0.16                          17.3  84 
 629  0Z IP        912 32.72   51                         98   -0.3910 22.9 231 
 629  0N ES        912 35.92                              98   -0.1510 22.9 231 
 629  0N  IAML     912 36.29        59.7 0.32                          22.9 231 
 627  0Z IP        912 33.91   56                         95   -0.2710 29.6 283 
 627  0N ES        912 37.96                              95    0.0310 29.6 283 
 627  0N  IAML     912 38.62        15.6 0.11                          29.6 283 
 628  0Z IP        912 36.13   59                         93   -0.43 9 44.4 329 
 628  0E ES        912 41.83                              93   -0.21 9 44.4 329 
 628  0N  IAML     912 43.71        13.3 0.10                          44.4 329 
 625  0Z IP        912 38.95   47                         92   -0.16 8 60.2 283 
 625  0N ES        912 46.75                              92    0.30 8 60.2 283 
 625  0E  IAML     912 48.75         5.0 0.38                          60.2 283 
 624  0Z IP        912 40.79   55                         92    0.07 8 70.2 312 
 624  0N ES        912 49.90                              92    0.66 8 70.2 312 
 624  0E  IAML     912 52.51         7.8 0.24                          70.2 312 
 631  0Z IP        912 41.71   65                         92   -0.03 8 76.5 196 
 631  0E ES        912 51.50                              92    0.50 8 76.5 196 
 631  0N  IAML     912 56.09         4.4 0.17                          76.5 196 
 621  0Z IP        912 45.77   63                         91   -0.02 7  102 279 
 621  0N ES        912 58.51                              91    0.50 7  102 279 
 621  0E  IAML     913  4.61         3.4 0.11                           102 279 

