 2016 1117 0337  1.2 L  72.729 124.948 11.9  SLT 13 0.3 2.1LSLT 1.8CSLT        1
 GAP=228        0.50       2.0     4.3  2.9  0.1691E+01 -0.6847E+01 -0.6061E+00E
 ACTION:REE 25-08-04 21:57 OP:mn   STATUS:               ID:20161117033653     I
 2016-11-17-0336-53M.arct__039                                                 6
 STAT SP IPHASW D HRMM SECON CODA AMPLIT PERI AZIMU VELO AIN AR TRES W  DIS CAZ7
 620  0Z IP   0    337  5.70                             115    0.0910 21.6 247 
 620  0N ES   0    337  8.90                             115    0.0910 21.6 247 
 622  0Z IP   0    337  7.74                             104   -0.0310 34.3 159 
 624  0Z IP   0    337 10.92   66                         95    0.1310 52.6 122 
 624  0E ES   1    337 18.10                              95    0.34 7 52.6 122 
 624  0Z  IAML     337 18.92        55.9 0.17                          52.6 122 
 623  0Z IP   1    337 10.76                              95   -0.27 7 52.6 148 
 623  0E ES   1    337 18.44                              95    0.25 7 52.6 148 
 621  0Z IP   0    337 12.08   68                         94   -0.2010 60.9 182 
 621  0N ES   0    337 20.43                              94    0.0910 60.9 182 
 621  0Z  IAML     337 22.58        42.2 0.97                          60.9 182 
 625  0Z IP   1    337 14.18                              92   -0.31 7 73.2 147 
 625  0E ES   1    337 23.73                              92   -0.44 7 73.2 147 
 628  0Z IP   0    337 15.26   67                         92   -0.22 9 82.2 115 
 628  0N ES   0    337 26.02                              92    0.14 9 82.2 115 
 628  0Z  IAML     337 26.36        44.0 0.48                          82.2 115 
 627  0Z IP   1    337 18.53                              91    0.24 6 96.8 134 
 627  0N ES   2    337 30.05                              91   -0.69 4 96.8 134 
 626  0Z IP   0    337 18.79   68                         91   -0.13 8  101 158 
 626  0N ES   0    337 31.97                              91    0.13 8  101 158 
 626  0Z  IAML     337 31.98        32.2 0.35                           101 158 
 629  0Z IP   1    337 21.53                              49   -0.42 5  120 137 
 629  0N ES   4    337 35.85                              49   -1.22 0  120 137 
 630  0Z IP   0    337 23.74   66                         49   -0.06 7  135 121 
 630  0N ES   2    337 41.06                              49    0.78 3  135 121 
 630  0Z  IAML     337 42.82        77.8 0.39                           135 121 
 631  0Z IP   0    337 28.67                              47    0.21 5  168 151 
 631  0N ES   2    337 49.09                              47    0.75 3  168 151 
 632  0Z IP   2    337 31.99                              45    0.66 2  191 130 
 632  0N ES   4    337 54.99                              45    1.69 0  191 130 
                                                                                
 2016 1124 2250 46.1 L  72.707 124.975 12.7  SLT 13 0.3                        1
 GAP=220        0.52       2.0     4.6  3.0  0.3475E+01 -0.7833E+01 -0.1299E+01E
 ACTION:REG 18-11-20 00:07 OP:art  STATUS:               ID:20161124224841     I
 2016-11-24-2248-41M.arct__039                                                 6
 STAT SP IPHASW D HRMM SECON CODA AMPLIT PERI AZIMU VELO AIN AR TRES W  DIS CAZ7
 620  0Z IP   0   2250 50.52                             117   -0.0710 21.7 255 
 620  0N ES   0   2250 53.88                             117    0.0410 21.7 255 
 622  0Z IP   1   2250 52.65                             108    0.38 7 31.6 159 
 622  0N ES   1   2250 57.01                             108    0.26 7 31.6 159 
 623  0Z IP   1   2250 55.22                              98   -0.29 7 50.0 148 
 623  0N ES   1   2251  2.63                              98    0.28 7 50.0 148 
 624  0Z IP   1   2250 55.66                              98    0.30 7 50.5 120 
 624  0N ES   2   2251  2.67                              98    0.59 5 50.5 120 
 621  0Z IP   0   2250 56.85                              96    0.0810 58.4 183 
 621  0E ES   0   2251  4.33                              96   -0.2010 58.4 183 
 625  0Z IP   2   2250 58.49                              94   -0.47 5 70.6 147 
 625  0N ES   0   2251  8.14                              94   -0.17 9 70.6 147 
 628  0Z IP   1   2250 59.80                              93   -0.27 7 80.3 114 
 628  0N ES   0   2251 10.06                              93   -0.18 9 80.3 114 
 627  0Z IP   1   2251  2.50                              92   -0.29 6 94.4 133 
 627  0N ES   2   2251 14.39                              92   -0.55 4 94.4 133 
 626  0Z IP   0   2251  3.33                              92   -0.04 8 98.2 158 
 626  0Z ES   0   2251 16.02                              92    0.07 8 98.2 158 
 629  0Z IP   1   2251  6.20                              49   -0.24 5  118 136 
 629  0N ES   4   2251 20.52                              49   -0.75 0  118 136 
 630  0Z IP   0   2251  8.39                              49    0.04 7  133 120 
 630  0Z ES   3   2251 25.77                              49    1.20 2  133 120 
 631  0Z IP   0   2251 13.33                              47    0.39 5  166 151 
 631  0N ES   3   2251 33.82                              47    1.31 1  166 151 
 632  0Z IP   2   2251 16.75                              45    0.90 2  189 130 
 632  0N ES   4   2251 39.33                              45    1.78 0  189 130 
                                                                                
 2016 1124 2302 57.7 L  72.724 124.970 12.5  SLT 13 0.3 2.1LSLT 1.9CSLT        1
 GAP=226        0.54       2.2     4.8  3.1  0.3786E+01 -0.8278E+01 -0.1886E+01E
 ACTION:REE 25-08-04 21:59 OP:mn   STATUS:               ID:20161124230145     I
 2016-11-24-2301-45M.arct__039                                                 6
 STAT SP IPHASW D HRMM SECON CODA AMPLIT PERI AZIMU VELO AIN AR TRES W  DIS CAZ7
 620  0Z IP   0   23 3  2.24                             116    0.0310 22.1 250 
 620  0N ES   0   23 3  5.52                             116    0.0310 22.1 250 
 622  0Z IP   0   23 3  4.25                             106    0.1210 33.5 160 
 622  0E ES   0   23 3  8.88                             106    0.0610 33.5 160 
 624  0Z IP   0   23 3  7.34   65                         97    0.2310 51.6 122 
 624  0E ES   1   23 3 14.42                              97    0.45 7 51.6 122 
 624  0Z  IAML    23 3 14.65        66.2 0.44                          51.6 122 
 623  0Z IP   0   23 3  7.23                              97   -0.1310 51.7 149 
 623  0N ES   1   23 3 14.72                              97    0.31 7 51.7 149 
 621  0Z IP   0   23 3  8.68   60                         95    0.0210 60.3 183 
 621  0E ES   1   23 3 16.23                              95   -0.42 7 60.3 183 
 621  0Z  IAML    23 3 19.33        53.8 0.60                          60.3 183 
 625  0Z IP   0   23 3 10.60                              93   -0.21 9 72.3 148 
 628  0Z IP   0   23 3 11.59                              93   -0.21 9 81.3 115 
 628  0N ES   1   23 3 21.64                              93   -0.44 7 81.3 115 
 627  0Z IP   1   23 3 14.21                              92   -0.39 6 95.8 134 
 627  0N ES   2   23 3 26.24                              92   -0.69 4 95.8 134 
 626  0Z IP   0   23 3 15.22   86                         92   -0.03 8  100 158 
 626  0E ES   0   23 3 28.20                              92    0.14 8  100 158 
 626  0Z  IAML    23 3 28.45        34.5 0.47                           100 158 
 629  0Z IP   1   23 3 17.92                              49   -0.32 5  119 137 
 629  0N ES   4   23 3 32.05                              49   -1.17 0  119 137 
 630  0Z IP   0   23 3 20.19   73                         49    0.10 7  134 121 
 630  0E ES   4   23 3 37.94                              49    1.51 0  134 121 
 630  0Z  IAML    23 3 39.21        83.6 0.32                           134 121 
 631  0Z IP   0   23 3 25.15                              47    0.39 5  167 151 
 631  0N ES   2   23 3 45.23                              47    0.72 3  167 151 
 632  0Z IP   2   23 3 28.44                              45    0.82 2  190 130 
 632  0N ES   4   23 3 50.95                              45    1.50 0  190 130 
                                                                                
 2016 1124 2316 14.3 L  72.698 124.982 10.9  SLT 12 0.3 1.9LSLT 1.9CSLT        1
 GAP=217        0.50       1.9     4.5  3.4  0.2316E+01 -0.9064E+01 -0.3198E+00E
 ACTION:REE 25-08-04 21:59 OP:mn   STATUS:               ID:20161124231448     I
 2016-11-24-2314-48M.arct__039                                                 6
 STAT SP IPHASW D HRMM SECON CODA AMPLIT PERI AZIMU VELO AIN AR TRES W  DIS CAZ7
 620  0Z IP   0   2316 18.56                             112   -0.1010 21.7 257 
 620  0N ES   0   2316 21.82                             112    0.0010 21.7 257 
 622  0Z IP   0   2316 20.47                             103    0.2310 30.7 159 
 622  0N ES   1   2316 24.79                             103    0.25 7 30.7 159 
 624  0Z IP   0   2316 23.59   67                         92    0.1710 49.8 119 
 624  0E ES   2   2316 30.60                              92    0.55 5 49.8 119 
 624  0Z  IAML    2316 30.90        59.3 0.25                          49.8 119 
 621  0Z IP   0   2316 24.77   89                         91   -0.0310 57.5 183 
 621  0N ES   0   2316 32.50                              91    0.0710 57.5 183 
 621  0Z  IAML    2316 35.59        32.5 0.61                          57.5 183 
 625  0Z IP   0   2316 27.00                              91    0.00 9 69.7 147 
 625  0E ES   1   2316 35.74                              91   -0.49 7 69.7 147 
 628  0Z IP   1   2316 27.87                              91   -0.30 7 79.8 114 
 628  0N ES   1   2316 38.01                              91   -0.25 7 79.8 114 
 627  0Z IP   0   2316 31.03                              90    0.17 8 93.6 133 
 627  0E ES   2   2316 42.37                              90   -0.54 4 93.6 133 
 626  0Z IP   0   2316 31.28   70                         90   -0.13 8 97.3 158 
 626  0E ES   0   2316 43.70                              90   -0.17 8 97.3 158 
 626  0Z  IAML    2316 44.70        17.6 0.47                          97.3 158 
 629  0Z IP   2   2316 34.21                              52   -0.54 4  117 136 
 629  0N ES   4   2316 48.44                              52   -1.20 0  117 136 
 630  0Z IP   1   2316 36.36   66                         49   -0.32 5  133 120 
 630  0N ES   2   2316 53.62                              49    0.64 3  133 120 
 630  0Z  IAML    2316 55.52        52.5 0.35                           133 120 
 631  0Z IP   1   2316 41.48                              49    0.24 4  165 151 
 631  0N ES   2   2317  1.49                              49    0.62 3  165 151 
 632  0Z IP   2   2316 44.76                              45    0.57 2  188 130 
 632  0N ES   4   2317  7.56                              45    1.58 0  188 130 
                                                                                
 2016 1125 0156 34.2 L  72.709 124.985  9.2  SLT  9 0.4                        1
 GAP=220        0.53       3.4     4.8  2.4  0.5139E+01 -0.4996E+01 -0.2467E+00E
 ACTION:REG 18-11-20 15:40 OP:art  STATUS:               ID:20161125015508     I
 2016-11-25-0155-08M.arct__039                                                 6
 STAT SP IPHASW D HRMM SECON CODA AMPLIT PERI AZIMU VELO AIN AR TRES W  DIS CAZ7
 620  0Z IP   0    156 38.27                             112   -0.2410 22.1 254 
 620  0N ES   1    156 41.96                             112    0.34 7 22.1 254 
 623  0Z IP   0    156 43.61                             100    0.0510 50.0 148 
 623  0N ES   3    156 51.35                             100    0.99 2 50.0 148 
 624  0Z IP   0    156 43.50                             100    0.1310 50.3 121 
 624  0E ES   0    156 50.11                             100    0.0810 50.3 121 
 621  0Z IP   1    156 44.59                              99   -0.30 7 58.7 183 
 621  0E ES   2    156 52.31                              99   -0.36 5 58.7 183 
 628  0Z IP   2    156 47.68                              76   -0.50 4 80.2 114 
 628  0N ES   1    156 58.01                              76   -0.35 7 80.2 114 
 626  0Z IP   0    156 51.76                              76    0.21 8 98.3 158 
 626  0E ES   2    157  3.75                              76   -0.43 4 98.3 158 
 629  0Z IP   1    156 54.73                              49   -0.21 5  118 137 
 629  0N ES   3    157 11.17                              49    1.12 2  118 137 
 630  0Z IP   1    156 57.14                              47    0.30 5  133 121 
 630  0N ES   0    157 13.21                              47   -0.13 7  133 121 
 631  0Z IP   1    157  1.82                              47    0.35 4  166 151 
 631  0N ES   1    157 21.99                              47    0.65 4  166 151 
                                                                                
 2016 1125 0619  0.6 L  72.721 125.003 11.7  SLT 13 0.3 2.8LSLT 1.8CSLT        1
 GAP=224        0.55       2.4     5.2  3.4  0.4800E+01 -0.1028E+02 -0.2022E+01E
 ACTION:REE 25-08-04 22:00 OP:mn   STATUS:               ID:20161125061718     I
 2016-11-25-0617-18M.arct__039                                                 6
 STAT SP IPHASW D HRMM SECON CODA AMPLIT PERI AZIMU VELO AIN AR TRES W  DIS CAZ7
 620  0Z IP   0    619  5.16   64                        113    0.0010 23.1 251 
 620  0N ES   0    619  8.47                             113   -0.0410 23.1 251 
 620  0Z  IAML     619  9.38      1098.9 0.59                          23.1 251 
 622  0Z IP   0    619  6.92                             104    0.0710 32.8 161 
 622  0N ES   1    619 11.74                             104    0.30 7 32.8 161 
 624  0Z IP   1    619 10.20   71                         95    0.43 7 50.5 122 
 624  0E ES   2    619 17.31                              95    0.82 5 50.5 122 
 624  0Z  IAML     619 17.37       482.5 0.57                          50.5 122 
 623  0Z IP   0    619  9.91                              95   -0.1610 50.9 150 
 623  0N ES   1    619 17.29                              95    0.28 7 50.9 150 
 621  0Z IP   0    619 11.63   67                         93    0.1610 60.1 184 
 621  0N ES   1    619 19.55                              93    0.12 7 60.1 184 
 621  0Z  IAML     619 22.77       387.8 1.17                          60.1 184 
 625  0Z IP   1    619 13.16                              92   -0.36 7 71.5 148 
 625  0E ES   1    619 22.51                              92   -0.47 7 71.5 148 
 628  0Z IP   0    619 14.43                              92   -0.03 9 80.2 116 
 628  0N ES   1    619 24.35                              92   -0.25 7 80.2 116 
 627  0Z IP   0    619 17.11                              91   -0.18 8 94.9 134 
 627  0N ES   2    619 28.99                              91   -0.51 4 94.9 134 
 626  0Z IP   0    619 17.82   66                         91   -0.18 8 99.4 159 
 626  0E ES   2    619 29.99                              91   -0.73 4 99.4 159 
 626  0Z  IAML     619 31.33       173.9 0.37                          99.4 159 
 629  0Z IP   2    619 20.53                              49   -0.52 4  118 137 
 629  0N ES   3    619 34.93                              49   -1.08 2  118 137 
 630  0Z IP   0    619 22.97                              49    0.08 7  133 121 
 630  0N ES   2    619 39.75                              49    0.55 3  133 121 
 631  0Z IP   0    619 27.80                              49    0.19 5  166 151 
 631  0N ES   2    619 47.92                              49    0.57 3  166 151 
 632  0Z IP   2    619 31.00                              45    0.56 2  189 131 
 632  0N ES   4    619 53.88                              45    1.62 0  189 131 
                                                                                
 2016 1125 1638 37.8 L  72.709 124.965  9.6  SLT  9 0.3 1.1LSLT 2.3CSLT        1
 GAP=221        0.49       2.3     4.5  2.2  0.4593E+01 -0.5216E+01 -0.1727E+01E
 ACTION:REE 25-08-04 22:00 OP:mn   STATUS:               ID:20161125163711     I
 2016-11-25-1637-11M.arct__039                                                 6
 STAT SP IPHASW D HRMM SECON CODA AMPLIT PERI AZIMU VELO AIN AR TRES W  DIS CAZ7
 620  0Z IP   0   1638 41.87   99                        114   -0.1610 21.4 254 
 620  0N ES   0   1638 45.25                             114    0.1610 21.4 254 
 620  0Z  IAML    1638 46.64        24.4 0.21                          21.4 254 
 622  0Z IP   0   1638 43.96                             106    0.0610 32.0 159 
 622  0N ES   0   1638 48.26                             106   -0.0610 32.0 159 
 623  0Z IP   0   1638 47.26                             101    0.0310 50.4 148 
 623  0N ES   1   1638 54.54                             101    0.45 7 50.4 148 
 624  0Z IP   0   1638 47.16  114                        101    0.0710 50.9 120 
 624  0E ES   1   1638 54.03                             101    0.20 7 50.9 120 
 624  0Z  IAML    1638 54.30        25.4 0.17                          50.9 120 
 621  0Z IP   0   1638 48.39  102                         99   -0.1110 58.6 183 
 621  0E ES   1   1638 55.93                              99   -0.35 7 58.6 183 
 621  0Z  IAML    1638 56.04         9.0 0.26                          58.6 183 
 628  0Z IP   2   1638 51.20                              76   -0.67 4 80.8 114 
 628  0N ES   2   1639  1.36                              76   -0.75 4 80.8 114 
 630  0Z IP   0   1639  0.34                              47   -0.13 7  134 120 
 630  0N ES   1   1639 17.25                              47    0.27 5  134 120 
 631  0Z IP   0   1639  5.04                              47   -0.02 5  166 151 
 631  0N ES   0   1639 25.12                              47    0.20 5  166 151 
 632  0Z IP   0   1639  8.13                              43    0.13 4  189 130 
 632  0N ES   3   1639 30.86                              43    0.85 1  189 130 
                                                                                
