 2017  418 1500 13.3 L  72.731 124.658 16.8  SLT 10 0.3                        1
 GAP=242        0.53       4.0     7.3  2.2  0.1456E+02 -0.1042E+02 -0.3586E+01E
 ACTION:UP  20-12-29 20:35 OP:elen STATUS:               ID:20170418150000     I
 OLDACT:REG 20-12-27 21:06 OP:elen STATUS:               ID:20170418150000     3
 2017-04-18-1500-00M.NSN___039                                                 6
 STAT SP IPHASW D HRMM SECON CODA AMPLIT PERI AZIMU VELO AIN AR TRES W  DIS CAZ7
 620  0Z IP   0   15 0 17.03                             140   -0.0810 13.4 231 
 620  0E ES   1   15 0 20.16                             140    0.29 7 13.4 231 
 622  0Z IP   0   15 0 20.78                             111   -0.1110 38.9 145 
 622  0E ES   1   15 0 26.67                             111    0.27 7 38.9 145 
 623  0Z IP   1   15 0 23.88                             103   -0.37 7 58.3 140 
 623  0N ES   0   15 0 32.00                             103   -0.2110 58.3 140 
 624  0Z IP   0   15 0 24.31                             102   -0.1510 61.0 117 
 624  0N ES   1   15 0 33.06                             102    0.48 7 61.0 117 
 628  0Z IP   1   15 0 28.79                              76   -0.29 6 91.1 113 
 628  0N ES   0   15 0 40.61                              76    0.04 8 91.1 113 
 627  0Z IP   2   15 0 32.05                              52    0.72 4  104 130 
 627  0N ES   1   15 0 44.24                              52   -0.23 6  104 130 
 626  0Z IP   3   15 0 30.69                              52   -0.71 2  105 153 
 626  0E ES   3   15 0 43.85                              52   -0.74 2  105 153 
 629  0Z IP   1   15 0 34.77                              49    0.39 5  127 134 
 629  0N ES   1   15 0 50.10                              49    0.36 5  127 134 
 630  0Z IP   0   15 0 36.65                              49    0.22 6  144 119 
 630  0N ES   4   15 0 54.59                              49    1.29 0  144 119 
 631  0Z IP   0   15 0 40.50                              47   -0.12 5  173 148 
 631  0E ES   4   15 1  1.79                              47    1.26 0  173 148 
                                                                                
 2017  423 2313 41.7 L  72.568 124.871 19.6  SLT 12 0.3                        1
 GAP=163        0.49       1.5     3.9  1.9  0.1988E+01 -0.2637E+01  0.3623E+00E
 ACTION:UP  21-01-01 14:08 OP:elen STATUS:               ID:20170423231216     I
 OLDACT:REG 20-12-30 23:59 OP:elen STATUS:               ID:20170423231216     3
 2017-04-23-2312-16M.NSN___036                                                 6
 STAT SP IPHASW D HRMM SECON CODA AMPLIT PERI AZIMU VELO AIN AR TRES W  DIS CAZ7
 620  0Z IP   0   2313 46.51                             132   -0.1010 19.9 299 
 620  0E ES   0   2313 50.11                             132   -0.0610 19.9 299 
 622  0Z IP   1   2313 47.03                             131    0.25 7 20.5 133 
 622  0E ES   3   2313 51.34                             131    0.88 2 20.5 133 
 623  0Z IP   0   2313 49.75                             111   -0.0710 40.3 132 
 623  0E ES   0   2313 55.83                             111    0.1010 40.3 132 
 621  0Z IP   0   2313 50.25                             109    0.2010 42.9 179 
 621  0E ES   0   2313 56.13                             109    0.0110 42.9 179 
 624  0Z IP   0   2313 50.78                             106   -0.0510 48.2 102 
 624  0E ES   0   2313 57.64                             106    0.1710 48.2 102 
 625  0Z IP   0   2313 53.24                             100    0.2210 60.7 136 
 625  0N ES   1   2314  0.98                             100   -0.28 7 60.7 136 
 628  0Z IP   2   2313 55.01                              96   -0.44 4 78.8 103 
 628  0N ES   0   2314  5.37                              96   -0.09 9 78.8 103 
 626  0Z IP   1   2313 56.46                              95   -0.38 6 85.7 152 
 626  0E ES   2   2314  7.25                              95   -0.62 4 85.7 152 
 627  0Z IP   1   2313 57.00                              94   -0.21 6 87.5 124 
 627  0E ES   1   2314  8.15                              94   -0.35 6 87.5 124 
 629  0Z IP   0   2314  0.29                              51    0.03 8  110 129 
 629  0E ES   1   2314 13.64                              51   -0.13 6  110 129 
 630  0Z IP   1   2314  3.31                              51    0.62 5  129 114 
 630  0N ES   4   2314 19.32                              51    1.33 0  129 114 
 631  0Z IP   0   2314  6.52                              51    0.20 6  154 147 
 631  0E ES   4   2314 25.55                              51    1.29 0  154 147 
                                                                                
 2017  425 0652 22.7 L  71.952 128.034 11.5  SLT  9 0.2 1.5LSLT 1.8CSLT        1
 GAP=168        0.38       0.8     3.1  2.7 -0.1664E+00  0.4151E+01  0.2341E+00E
 ACTION:REE 25-08-04 22:18 OP:mn   STATUS:               ID:20170425065114     I
 OLDACT:REG 20-12-31 19:06 OP:elen STATUS:               ID:20170425065114     3
 2017-04-25-0651-14M.NSN___027                                                 6
 STAT SP IPHASW D HRMM SECON CODA AMPLIT PERI AZIMU VELO AIN AR TRES W  DIS CAZ7
 630  0Z IP   0    652 26.18   85                        121   -0.0210 17.0  36 
 630  0E ES   0    652 28.80                             121    0.0310 17.0  36 
 630  0E  IAML     652 29.11       220.3 0.20                          17.0  36 
 629  0Z IP   0    652 27.55   63                        110   -0.0310 25.1 265 
 629  0N ES   0    652 31.16                             110    0.0010 25.1 265 
 629  0E  IAML     652 31.82        95.0 0.25                          25.1 265 
 627  0Z IP   0    652 30.04   64                         99   -0.0610 40.6 297 
 627  0N ES   0    652 35.52                              99   -0.0010 40.6 297 
 627  0E  IAML     652 38.27        30.9 0.53                          40.6 297 
 628  0Z IP   0    652 32.83   74                         93   -0.0110 58.5 329 
 628  0N ES   0    652 40.31                              93    0.0510 58.5 329 
 628  0N  IAML     652 47.06        11.6 0.14                          58.5 329 
 631  0Z IP   0    652 35.05   90                         92   -0.03 9 67.6 204 
 631  0N ES   0    652 44.17                              92    0.04 9 67.6 204 
 631  0N  IAML     652 44.52        10.0 0.33                          67.6 204 
 625  0Z IP   1    652 35.26   67                         92   -0.25 7 70.7 291 
 625  0N ES   1    652 44.57                              92   -0.30 7 70.7 291 
 625  0N  IAML     652 48.33         6.8 0.40                          70.7 291 
 624  0Z IP   0    652 37.49   63                         91   -0.10 9 83.8 315 
 624  0N ES   0    652 48.42                              91   -0.05 9 83.8 315 
 624  0N  IAML     652 50.56        18.4 0.21                          83.8 315 
 623  0Z IP   1    652 39.13   64                         91    0.52 6 88.3 299 
 623  0E ES   3    652 51.26                              91    1.02 2 88.3 299 
 623  0N  IAML     652 57.27         5.5 0.26                          88.3 299 
 621  0Z IP   0    652 42.42   59                         91    0.06 8  111 285 
 621  0N ES   0    652 56.94                              91    0.22 8  111 285 
 621  0E  IAML     653  0.65         5.5 0.17                           111 285 
                                                                                
 2017  426 1425 20.6 L  72.067 127.218 23.5  SLT  6 0.2 0.4LSLT 0.6CSLT        1
 GAP=120        0.55       1.7     5.2  2.9  0.3512E+01 -0.1926E+01 -0.1975E+01E
 ACTION:REE 25-08-04 22:19 OP:mn   STATUS:               ID:20170426142409     I
 OLDACT:REG 21-01-02 11:34 OP:elen STATUS:               ID:20170426142409     3
 2017-04-26-1424-09M.NSN___024                                                 6
 STAT SP IPHASW D HRMM SECON CODA AMPLIT PERI AZIMU VELO AIN AR TRES W  DIS CAZ7
 627  0Z IP   1   1425 25.19   24                        156    0.24 7 9.83 305 
 627  0N ES   0   1425 28.15                             156    0.0310 9.83 305 
 627  0N  IAML    1425 28.30         9.4 0.08                          9.83 305 
 629  0Z IP   0   1425 25.70   24                        145    0.1910 15.8 168 
 629  0N ES   0   1425 29.01                             145   -0.0710 15.8 168 
 629  0E  IAML    1425 29.36         1.7 0.10                          15.8 168 
 628  0Z IP   1   1425 28.19   21                        119    0.33 7 37.2 356 
 628  0N ES   0   1425 33.32                             119    0.1710 37.2 356 
 628  0N  IAML    1425 33.55         1.7 0.10                          37.2 356 
 630  0Z IP   0   1425 28.22   24                        118   -0.0110 38.0  88 
 630  0N ES   1   1425 33.37                             118   -0.42 7 38.0  88 
 630  0N  IAML    1425 33.67         4.8 0.16                          38.0  88 
 625  0Z IP   0   1425 28.87   22                        117    0.0610 39.9 288 
 625  0N ES   1   1425 34.49                             117   -0.31 7 39.9 288 
 625  0N  IAML    1425 35.27         1.7 0.23                          39.9 288 
 624  0Z IP   0   1425 31.08   24                        108   -0.0210 55.7 325 
 624  0N ES   1   1425 38.30                             108   -0.46 7 55.7 325 
 624  0E  IAML    1425 38.99         1.1 0.28                          55.7 325 
                                                                                
 2017  426 1840 43.5 L  72.261 126.333 20.2  SLT  8 0.2 1.6LSLT 2.0CSLT        1
 GAP= 95        0.47       1.2     2.8  1.6  0.2444E+00 -0.3809E+00  0.4651E+00E
 ACTION:REE 25-08-04 22:19 OP:mn   STATUS:               ID:20170426183923     I
 OLDACT:REG 21-01-02 11:44 OP:elen STATUS:               ID:20170426183923     3
 2017-04-26-1839-23M.NSN___024                                                 6
 STAT SP IPHASW D HRMM SECON CODA AMPLIT PERI AZIMU VELO AIN AR TRES W  DIS CAZ7
 625  0Z IP   0   1840 47.88   74                        147    0.1210 12.3 219 
 625  0N ES   0   1840 50.73                             147   -0.1710 12.3 219 
 625  0E  IAML    1840 51.37       213.3 0.52                          12.3 219 
 624  0Z IP   0   1840 48.98   77                        127    0.0210 24.1 355 
 624  0N ES   1   1840 52.65                             127   -0.33 7 24.1 355 
 624  0N  IAML    1840 52.83       190.5 0.14                          24.1 355 
 627  0Z IP   0   1840 49.51   82                        123    0.2010 27.3 126 
 627  0N ES   0   1840 53.59                             123    0.0010 27.3 126 
 627  0N  IAML    1840 53.89        27.0 0.10                          27.3 126 
 628  0Z IP   1   1840 49.87   85                        119    0.25 7 31.7  60 
 628  0N ES   0   1840 54.20                             119    0.0710 31.7  60 
 628  0N  IAML    1840 54.73        51.7 0.14                          31.7  60 
 629  0Z IP   1   1840 53.07   83                        106    0.23 7 50.0 137 
 629  0E ES   0   1840 59.71                             106    0.0210 50.0 137 
 629  0E  IAML    1841  0.14        14.2 0.26                          50.0 137 
 621  0Z IP   0   1840 53.08   83                        106    0.1610 50.0 261 
 621  0N ES   0   1840 59.75                             106   -0.0810 50.0 261 
 621  0N  IAML    1841  0.04        20.1 0.21                          50.0 261 
 630  0Z IP   0   1840 56.07   88                         98   -0.10 9 71.2 106 
 630  0E ES   1   1841  4.95                              98   -0.50 7 71.2 106 
 630  0N  IAML    1841  8.11         4.4 0.16                          71.2 106 
 631  0Z IP   0   1841  1.10   83                         54   -0.00 8  101 161 
 631  0N ES   1   1841 13.69                              54   -0.30 6  101 161 
 631  0E  IAML    1841 13.87        16.2 0.28                           101 161 
                                                                                
 2017  427 0912 27.9 L  72.046 127.805 15.8  SLT  8 0.1 1.2LSLT 1.6CSLT        1
 GAP=116        0.39       0.8     2.7  1.5  0.2295E+00  0.1360E+01 -0.3776E-01E
 ACTION:REE 25-08-04 22:19 OP:mn   STATUS:               ID:20170427091104     I
 OLDACT:REG 21-01-02 12:22 OP:elen STATUS:               ID:20170427091104     3
 2017-04-27-0911-04M.NSN___024                                                 6
 STAT SP IPHASW D HRMM SECON CODA AMPLIT PERI AZIMU VELO AIN AR TRES W  DIS CAZ7
 630  0Z IP   0    912 32.08   60                        129    0.0610 18.2  79 
 630  0N ES   0    912 34.82                             129   -0.2010 18.2  79 
 630  0E  IAML     912 35.23        75.2 0.16                          18.2  79 
 629  0Z IP   0    912 32.72   51                        124    0.1310 21.4 233 
 629  0N ES   0    912 35.92                             124   -0.0810 21.4 233 
 629  0N  IAML     912 36.29        59.7 0.32                          21.4 233 
 627  0Z IP   0    912 33.91   56                        116    0.2010 29.4 286 
 627  0N ES   0    912 37.96                             116    0.0210 29.4 286 
 627  0N  IAML     912 38.62        15.6 0.11                          29.4 286 
 628  0Z IP   0    912 36.13   59                        106    0.1410 45.5 331 
 628  0E ES   0    912 41.83                             106   -0.0610 45.5 331 
 628  0N  IAML     912 43.71        13.3 0.10                          45.5 331 
 625  0Z IP   0    912 38.95   47                        101   -0.0210 60.0 285 
 625  0N ES   1    912 46.75                             101   -0.31 7 60.0 285 
 625  0E  IAML     912 48.75         5.0 0.38                          60.0 285 
 624  0Z IP   0    912 40.79   55                         98    0.14 9 70.8 313 
 624  0N ES   0    912 49.90                              98   -0.06 9 70.8 313 
 624  0E  IAML     912 52.51         7.8 0.24                          70.8 313 
 631  0Z IP   0    912 41.71   65                         98    0.12 9 74.7 195 
 631  0E ES   0    912 51.50                              98   -0.09 9 74.7 195 
 631  0N  IAML     912 56.09         4.4 0.17                          74.7 195 
 621  0Z IP   0    912 45.77   63                         52   -0.01 8  101 280 
 621  0N ES   1    912 58.51                              52   -0.32 6  101 280 
 621  0E  IAML     913  4.61         3.4 0.11                           101 280 
                                                                                
