 2016 11 5 0642 24.9 L  72.268 129.707 12.7  SLT 13 0.3 2.0LSLT 1.8CSLT        1
 GAP=270        0.44       1.9     8.4  1.9  0.6698E+01 -0.1862E+01 -0.1538E+01E
 ACTION:REE 25-08-04 21:52 OP:mn   STATUS:               ID:20161105064125     I
 2016-11-05-0641-25M.arct__039                                                 6
 STAT SP IPHASW D HRMM SECON CODA AMPLIT PERI AZIMU VELO AIN AR TRES W  DIS CAZ7
 630  0Z IP   0    642 34.23                              98   -0.0110 51.9 246 
 632  0Z IP   1    642 39.22   92                         93   -0.37 7 80.5 196 
 632  0E ES   0    642 50.38                              93    0.08 9 80.5 196 
 632  0Z  IAML     642 51.93        22.1 0.57                          80.5 196 
 628  0Z IP   1    642 40.41   64                         93    0.24 6 88.0 281 
 628  0E ES   2    642 51.87                              93    0.57 4 88.0 281 
 628  0Z  IAML     642 52.85        17.4 0.13                          88.0 281 
 629  0Z IP   0    642 41.15                              92    0.18 8 90.4 246 
 629  0N ES   0    642 52.71                              92    0.03 8 90.4 246 
 627  0Z IP   1    642 41.31                              92   -0.30 6 94.6 261 
 627  0N ES   1    642 53.41                              92   -0.37 6 94.6 261 
 624  0Z IP   2    642 44.86                              49   -0.52 4  118 283 
 624  0N ES   4    642 59.24                              49   -1.06 0  118 283 
 625  0Z IP   0    642 46.24                              49    0.09 7  123 267 
 625  0N ES   1    643  1.28                              49   -0.37 5  123 267 
 631  0Z IP   2    642 47.72                              49    0.65 3  129 223 
 631  0N ES   0    643  3.31                              49    0.08 7  129 223 
 626  0Z IP   3    642 48.00   55                         49    0.87 2  133 253 
 626  0E ES   4    643  5.00                              49    1.67 0  133 253 
 626  0Z  IAML     643  5.05         7.7 0.37                           133 253 
 623  0Z IP   0    642 47.57                              49   -0.08 7  134 275 
 623  0N ES   1    643  3.99                              49   -0.25 5  134 275 
 622  0Z IP   1    642 49.23                              49   -0.30 5  150 280 
 622  0N ES   0    643  7.53                              49    0.04 6  150 280 
 621  0Z IP   2    642 51.98                              49    0.57 3  164 269 
 621  0N ES   1    643 11.25                              49    0.52 4  164 269 
 620  0Z IP   0    642 54.08   57                         45    0.17 5  185 286 
 620  0E ES   0    643 15.04                              45   -0.02 5  185 286 
 620  0Z  IAML     643 22.25         2.5 0.46                           185 286 
                                                                                
 2016 11 5 0653 53.1 L  72.275 129.778 11.8  SLT 13 0.3 1.9LSLT 1.8CSLT        1
 GAP=272        0.41       2.1     9.0  1.7  0.6145E+01  0.1291E+01 -0.4606E+00E
 ACTION:REE 25-08-04 21:52 OP:mn   STATUS:               ID:20161105065254     I
 2016-11-05-0652-54M.arct__039                                                 6
 STAT SP IPHASW D HRMM SECON CODA AMPLIT PERI AZIMU VELO AIN AR TRES W  DIS CAZ7
 630  0Z IP   0    654  2.86                              95    0.0310 54.5 246 
 630  0N ES   4    654 11.95                              95    2.02 0 54.5 246 
 632  0Z IP   1    654  7.71                              92   -0.30 7 82.0 198 
 632  0N ES   2    654 18.63                              92   -0.26 4 82.0 198 
 628  0Z IP   0    654  8.91   70                         92    0.20 9 90.2 280 
 628  0E ES   1    654 19.86                              92   -0.25 6 90.2 280 
 628  0Z  IAML     654 21.51        31.5 0.14                          90.2 280 
 629  0Z IP   0    654  9.80                              91    0.23 8 93.0 247 
 629  0N ES   1    654 21.65                              91    0.06 6 93.0 247 
 627  0Z IP   1    654  9.96                              91   -0.24 6 97.1 261 
 627  0N ES   4    654 21.89                              91   -0.80 0 97.1 261 
 624  0Z IP   0    654 13.67                              49   -0.25 7  121 282 
 624  0N ES   4    654 27.63                              49   -1.49 0  121 282 
 625  0Z IP   0    654 14.89                              49    0.16 7  126 267 
 625  0N ES   0    654 30.61                              49    0.08 7  126 267 
 631  0Z IP   3    654 16.48   66                         49    0.86 2  132 223 
 631  0N ES   0    654 32.11                              49    0.04 7  132 223 
 631  0Z  IAML     654 33.81        16.1 0.40                           132 223 
 626  0Z IP   3    654 16.42                              49    0.70 2  136 253 
 626  0N ES   0    654 32.39                              49    0.16 7  136 253 
 623  0Z IP   2    654 16.63                              49    0.41 3  137 274 
 623  0N ES   1    654 32.63                              49   -0.46 5  137 274 
 622  0Z IP   0    654 17.91                              49   -0.17 6  152 279 
 622  0N ES   1    654 35.81                              49   -0.51 5  152 279 
 621  0Z IP   2    654 20.56   62                         47    0.58 3  167 269 
 621  0E ES   1    654 39.89                              47    0.28 4  167 269 
 621  0Z  IAML     654 41.99         5.9 0.31                           167 269 
 620  0Z IP   1    654 22.64   53                         45    0.21 3  187 286 
 620  0E ES   3    654 44.42                              45    0.58 1  187 286 
 620  0Z  IAML     654 50.90         3.2 0.39                           187 286 
                                                                                
 2016 11 5 0747 50.9 L  72.261 129.600 11.6  SLT 11 0.3 1.3LSLT 1.6CSLT        1
 GAP=267        0.44       2.5     8.5  2.3  0.8577E+01 -0.4451E+01 -0.4416E+00E
 ACTION:REE 25-08-04 21:53 OP:mn   STATUS:               ID:20161105074707     I
 2016-11-05-0747-07M.arct__039                                                 6
 STAT SP IPHASW D HRMM SECON CODA AMPLIT PERI AZIMU VELO AIN AR TRES W  DIS CAZ7
 630  0Z IP   0    747 59.45                              96   -0.0910 48.3 245 
 632  0Z IP   1    748  5.49                              92    0.25 7 78.8 194 
 632  0N ES   3    748 14.75                              92   -0.97 2 78.8 194 
 628  0Z IP   1    748  5.65                              91    0.13 6 84.6 282 
 628  0N ES   0    748 16.33                              91    0.12 9 84.6 282 
 629  0Z IP   1    748  6.43                              91    0.15 6 86.8 246 
 629  0N ES   0    748 17.72                              91    0.19 9 86.8 246 
 627  0Z IP   0    748  6.65                              91   -0.26 8 90.8 261 
 627  0N ES   1    748 18.26                              91   -0.35 6 90.8 261 
 624  0Z IP   3    748 10.12   50                         52   -0.87 2  115 284 
 624  0E ES   3    748 24.96                              52   -0.72 2  115 284 
 624  0Z  IAML     748 25.55         6.2 0.39                           115 284 
 631  0Z IP   1    748 12.98                              49    0.24 5  126 222 
 631  0N ES   0    748 28.54                              49   -0.16 7  126 222 
 626  0Z IP   3    748 13.47   50                         49    0.76 2  129 253 
 626  0N ES   4    748 29.88                              49    1.23 0  129 253 
 626  0Z  IAML     748 30.10         4.0 0.51                           129 253 
 622  0Z IP   3    748 14.32                              49   -0.83 2  147 280 
 622  0N ES   2    748 32.38                              49   -0.49 3  147 280 
 621  0Z IP   0    748 17.14   50                         49    0.14 6  161 269 
 621  0N ES   1    748 36.58                              49    0.51 4  161 269 
 621  0Z  IAML     748 38.55         2.3 0.34                           161 269 
 620  0Z IP   0    748 19.29   52                         45   -0.29 5  182 286 
 620  0E ES   1    748 40.89                              45    0.35 4  182 286 
 620  0Z  IAML     748 47.43         1.3 0.38                           182 286 
                                                                                
 2016 1116 1036  4.0 L  72.710 124.953 14.6  SLT  7 0.2 0.8LSLT 1.3CSLT        1
 GAP=221        0.48       2.2     4.9  4.7  0.1935E+01 -0.1488E+02  0.2125E+00E
 ACTION:REE 25-08-04 21:55 OP:mn   STATUS:               ID:20161116103351     I
 2016-11-16-1033-51M.arct__039                                                 6
 STAT SP IPHASW D HRMM SECON CODA AMPLIT PERI AZIMU VELO AIN AR TRES W  DIS CAZ7
 620  0Z IP   1   1036  8.25   49                        122   -0.29 7 21.1 253 
 620  0N ES   0   1036 11.86                             122    0.0210 21.1 253 
 620  0Z  IAML    1036 12.46        10.1 0.34                          21.1 253 
 622  0Z IP   0   1036 10.46                             111    0.1010 32.3 158 
 622  0N ES   0   1036 15.02                             111    0.0310 32.3 158 
 623  0Z IP   0   1036 13.76                             102    0.2010 50.7 147 
 624  0Z IP   0   1036 13.48   41                        101    0.0510 51.3 120 
 624  0E ES   0   1036 20.36                             101    0.0610 51.3 120 
 624  0Z  IAML    1036 20.79         8.1 0.18                          51.3 120 
 621  0Z IP   0   1036 14.87   44                         99    0.1210 58.8 182 
 621  0E ES   1   1036 22.33                              99   -0.26 7 58.8 182 
 621  0Z  IAML    1036 22.48         3.3 0.21                          58.8 182 
 628  0Z IP   1   1036 17.72                              95   -0.39 7 81.2 114 
 628  0N ES   1   1036 28.08                              95   -0.32 7 81.2 114 
 626  0Z IP   1   1036 21.80   39                         94    0.42 6 98.8 158 
 626  0E ES   0   1036 33.86                              94   -0.19 8 98.8 158 
 626  0Z  IAML    1036 34.58         1.8 0.45                          98.8 158 
                                                                                
 2016 1116 2215 50.1 L  72.709 124.959 12.5  SLT 12 0.3 2.4LSLT 1.8CSLT        1
 GAP=221        0.49       1.9     4.8  2.9  0.4262E+01 -0.8259E+01 -0.1728E+01E
 ACTION:REE 25-08-04 21:56 OP:mn   STATUS:               ID:20161116221424     I
 2016-11-16-2214-24M.arct__039                                                 6
 STAT SP IPHASW D HRMM SECON CODA AMPLIT PERI AZIMU VELO AIN AR TRES W  DIS CAZ7
 620  0Z IP   0   2215 54.33                             117   -0.1010 21.2 254 
 620  0N ES   0   2215 57.69                             117    0.0810 21.2 254 
 622  0Z IP   0   2215 56.36                             107    0.1110 32.0 158 
 622  0N ES   0   2216  0.83                             107    0.0710 32.0 158 
 623  0Z IP   0   2215 59.54                              98    0.0310 50.4 147 
 623  0N ES   0   2216  6.30                              98   -0.1010 50.4 147 
 624  0Z IP   0   2215 59.56   78                         97    0.1910 51.0 120 
 624  0E ES   2   2216  6.74                              97    0.58 5 51.0 120 
 624  0Z  IAML    2216  6.79        99.1 0.14                          51.0 120 
 621  0Z IP   0   2216  0.83   76                         96    0.1110 58.6 182 
 621  0N ES   0   2216  8.33                              96   -0.1710 58.6 182 
 621  0Z  IAML    2216 11.21        82.2 0.84                          58.6 182 
 625  0Z IP   0   2216  2.90                              94   -0.06 9 71.1 147 
 625  0N ES   0   2216 12.23                              94   -0.14 9 71.1 147 
 628  0Z IP   1   2216  3.65                              93   -0.44 7 80.9 114 
 628  0N ES   2   2216 13.71                              93   -0.61 4 80.9 114 
 626  0Z IP   0   2216  7.19   65                         92   -0.17 8 98.6 158 
 626  0E ES   1   2216 20.50                              92    0.51 6 98.6 158 
 626  0Z  IAML    2216 20.65        68.6 0.40                          98.6 158 
 629  0Z IP   1   2216 10.10                              49   -0.36 5  118 136 
 629  0N ES   4   2216 24.27                              49   -1.08 0  118 136 
 630  0Z IP   0   2216 12.27   49                         49   -0.10 7  134 120 
 630  0E ES   2   2216 29.41                              49    0.75 3  134 120 
 630  0Z  IAML    2216 31.39       177.1 0.37                           134 120 
 631  0Z IP   1   2216 17.26                              47    0.31 4  166 151 
 631  0N ES   3   2216 37.47                              47    0.90 1  166 151 
 632  0Z IP   2   2216 20.60                              45    0.73 2  189 130 
 632  0N ES   4   2216 43.01                              45    1.38 0  189 130 
                                                                                
 2016 1116 2253  6.1 L  72.704 125.005  6.8  SLT  8 0.3 1.3LSLT 1.1CSLT        1
 GAP=218        0.49       2.4     4.5  3.0  0.2100E+01 -0.7465E+01 -0.9576E+00E
 ACTION:REE 25-08-04 21:56 OP:mn   STATUS:               ID:20161116225147     I
 2016-11-16-2251-47M.arct__039                                                 6
 STAT SP IPHASW D HRMM SECON CODA AMPLIT PERI AZIMU VELO AIN AR TRES W  DIS CAZ7
 620  0Z IP   1   2253  9.98                             106   -0.33 7 22.5 256 
 620  0N ES   0   2253 13.47                             106    0.0910 22.5 256 
 622  0Z IP   0   2253 11.95                             102    0.1010 30.9 160 
 624  0Z IP   0   2253 15.13   39                         98    0.1210 49.4 120 
 624  0N ES   3   2253 22.46                              98    0.95 2 49.4 120 
 624  0Z  IAML    2253 22.46        23.5 0.22                          49.4 120 
 621  0Z IP   1   2253 16.89   31                         97    0.30 7 58.1 184 
 621  0E ES   0   2253 24.07                              97   -0.1810 58.1 184 
 621  0Z  IAML    2253 24.15         7.7 0.26                          58.1 184 
 628  0Z IP   2   2253 19.41                              95   -0.47 4 79.3 114 
 628  0N ES   1   2253 29.65                              95   -0.28 7 79.3 114 
 626  0Z IP   0   2253 23.43   42                         94    0.10 8 97.5 158 
 626  0E ES   4   2253 34.43                              94   -1.48 0 97.5 158 
 626  0Z  IAML    2253 36.43         3.4 0.28                          97.5 158 
 630  0Z IP   2   2253 28.22   31                         47   -0.66 3  132 120 
 630  0N ES   0   2253 45.49                              47   -0.02 7  132 120 
 630  0Z  IAML    2253 46.99        11.5 0.29                           132 120 
 632  0Z IP   1   2253 36.73                              43    0.28 3  188 130 
 632  0N ES   2   2253 59.25                              43    0.65 2  188 130 
                                                                                
 2016 1116 2316 11.4 L  72.706 124.935 13.8  SLT 10 0.3 1.9LSLT 1.4CSLT        1
 GAP=220        0.49       2.1     5.2  3.0  0.3988E+01 -0.9913E+01 -0.1220E+01E
 ACTION:REE 25-08-04 21:56 OP:mn   STATUS:               ID:20161116231520     I
 2016-11-16-2315-20M.arct__039                                                 6
 STAT SP IPHASW D HRMM SECON CODA AMPLIT PERI AZIMU VELO AIN AR TRES W  DIS CAZ7
 620  0Z IP   0   2316 15.63                             122   -0.1110 20.4 254 
 620  0N ES   0   2316 18.99                             122    0.0810 20.4 254 
 622  0Z IP   0   2316 17.62                             110   -0.0210 32.0 157 
 623  0Z IP   0   2316 21.04                             100    0.1510 50.6 146 
 623  0N ES   0   2316 27.96                             100    0.1310 50.6 146 
 624  0Z IP   0   2316 20.75   44                        100   -0.0710 51.6 119 
 624  0Z  IAML    2316 28.11        69.9 0.25                          51.6 119 
 624  0N ES   2   2316 28.40                             100    0.69 5 51.6 119 
 621  0Z IP   0   2316 22.07   54                         98    0.0610 58.2 182 
 621  0N ES   0   2316 29.73                              98   -0.0410 58.2 182 
 621  0Z  IAML    2316 29.80        31.3 0.24                          58.2 182 
 628  0Z IP   2   2316 25.01                              94   -0.52 4 81.5 114 
 628  0N ES   2   2316 35.25                              94   -0.60 4 81.5 114 
 626  0Z IP   0   2316 28.62   54                         93   -0.08 8 98.6 157 
 626  0E ES   1   2316 40.86                              93   -0.47 6 98.6 157 
 626  0Z  IAML    2316 41.89        18.4 0.48                          98.6 157 
 629  0Z IP   0   2316 31.87                              49    0.19 7  118 136 
 629  0Z ES   4   2316 45.34                              49   -1.15 0  118 136 
 630  0Z IP   0   2316 33.52   36                         49   -0.10 7  134 120 
 630  0N ES   4   2316 51.10                              49    1.26 0  134 120 
 630  0Z  IAML    2316 52.63        44.8 0.27                           134 120 
 632  0Z IP   2   2316 41.91                              45    0.83 2  190 130 
 632  0Z ES   4   2317  4.70                              45    1.94 0  190 130 
                                                                                
