 2017  317 1007 13.9 L  72.236 125.986  4.1  SLT  9 0.3                        1
 GAP= 84        0.57       1.2     3.8  5.0  0.1256E+01  0.4592E+00 -0.1344E+01E
 ACTION:ARG 20-12-21 03:09 OP:mn   STATUS:               ID:20170317100556     I
 2017-03-17-1005-56M.a_____039                                                 6
 STAT SP IPHASW D HRMM SECON CODA AMPLIT PERI AZIMU VELO AIN AR TRES W  DIS CAZ7
 625  0Z IP   0   10 7 15.55                             116   -0.1110 8.03 149 
 625  0E ES   0   10 7 16.97                             116   -0.0010 8.03 149 
 623  0Z IP   0   10 7 16.27                             107   -0.2310 12.7 323 
 623  0E ES   1   10 7 18.62                             107    0.18 7 12.7 323 
 624  0Z IP   0   10 7 19.15                              98    0.1310 28.5  20 
 624  0E ES   3   10 7 21.82                              98   -0.98 2 28.5  20 
 622  0Z IP   0   10 7 19.87                              97    0.0910 32.4 316 
 621  0E IP   1   10 7 20.40                              96   -0.33 7 37.9 262 
 621  0N ES   0   10 7 25.84                              96    0.1010 37.9 262 
 626  0Z IP   0   10 7 20.63                              96   -0.0510 38.8 177 
 626  0E ES   1   10 7 26.15                              96    0.49 7 38.8 177 
 628  0Z IP   0   10 7 21.20                              95   -0.0510 43.4  64 
 628  0E ES   2   10 7 27.42                              95    0.78 5 43.4  64 
 629  0Z IP   1   10 7 23.70                              94   -0.33 7 57.0 126 
 629  0E ES   1   10 7 31.28                              94   -0.17 7 57.0 126 
 630  0Z IP   3   10 7 29.36                              93    1.04 2 82.0 102 
                                                                                
 2017  320 1900 34.1 L  72.401 126.102 17.4  SLT  9 0.2                        1
 GAP= 98        0.44       0.9     2.7  1.7  0.1508E+00  0.9140E+00  0.2025E+00E
 ACTION:ARG 20-12-21 03:09 OP:mn   STATUS:               ID:20170320190000     I
 2017-03-20-1900-00M.a_____039                                                 6
 STAT SP IPHASW D HRMM SECON CODA AMPLIT PERI AZIMU VELO AIN AR TRES W  DIS CAZ7
 624  0Z IP   0   19 0 37.65                             148   -0.0010 10.2  35 
 624  0N ES   0   19 0 40.26                             148    0.0010 10.2  35 
 623  0Z IP   0   19 0 38.41                             138    0.1110 14.3 234 
 623  0N ES   0   19 0 41.36                             138   -0.0210 14.3 234 
 625  0Z IP   0   19 0 39.69                             120    0.0210 25.3 180 
 625  0N ES   0   19 0 43.86                             120    0.1210 25.3 180 
 622  0Z IP   0   19 0 39.70                             118   -0.1310 27.0 280 
 622  0N ES   1   19 0 43.81                             118   -0.21 7 27.0 280 
 628  0Z IP   1   19 0 40.71                             110    0.09 7 35.3  90 
 628  0N ES   0   19 0 45.37                             110   -0.0110 35.3  90 
 621  0Z IP   0   19 0 43.05                             101   -0.0510 47.8 240 
 621  0N ES   1   19 0 49.32                             101   -0.35 7 47.8 240 
 626  0Z IP   2   19 0 44.86                              96    0.42 5 57.3 182 
 626  0E ES   0   19 0 52.06                              96    0.0610 57.3 182 
 620  0Z IP   0   19 0 46.03                              93    0.13 9 65.2 296 
 620  0N ES   0   19 0 54.73                              93    0.21 9 65.2 296 
 630  0Z IP   1   19 0 48.34                              91   -0.56 6 84.0 115 
 630  0N ES   4   19 0 58.33                              91   -1.38 0 84.0 115 
                                                                                
 2017  326 0836 33.4 L  71.976 127.674 18.9  SLT 12 0.3                        1
 GAP= 84        0.52       1.0     3.2  1.7  0.2777E+00  0.8557E+00  0.6630E-01E
 ACTION:ARG 20-12-21 03:09 OP:mn   STATUS:               ID:20170326083527     I
 2017-03-26-0835-27M.a_____039                                                 6
 STAT SP IPHASW D HRMM SECON CODA AMPLIT PERI AZIMU VELO AIN AR TRES W  DIS CAZ7
 629  0Z IP   1    836 37.76                             142    0.33 7 13.6 247 
 629  0N ES   0    836 40.50                             142    0.1010 13.6 247 
 630  0Z IP   0    836 38.93                             123    0.2210 25.0  64 
 630  0N ES   0    836 42.51                             123   -0.1110 25.0  64 
 627  0Z IP   0    836 39.41                             119    0.1310 28.5 304 
 627  0N ES   1    836 43.27                             119   -0.33 7 28.5 304 
 628  0Z IP   0    836 42.34                             103   -0.0710 50.6 339 
 628  0E ES   0    836 48.96                             103   -0.0610 50.6 339 
 626  0Z IP   0    836 43.96                             100    0.1610 57.6 261 
 626  0N ES   0    836 51.36                             100   -0.0610 57.6 261 
 625  0Z IP   0    836 44.25                             100    0.0410 58.2 293 
 625  0N ES   2    836 51.44                             100   -0.69 5 58.2 293 
 631  0Z IP   0    836 45.78                              97    0.14 9 66.1 193 
 631  0E ES   0    836 54.34                              97   -0.27 9 66.1 193 
 632  0Z IP   0    836 45.58                              97   -0.13 9 66.3 132 
 632  0N ES   2    836 54.22                              97   -0.51 5 66.3 132 
 624  0Z IP   3    836 47.58                              95    1.01 2 73.4 320 
 624  0N ES   1    836 55.89                              95   -0.31 7 73.4 320 
 623  0Z IP   2    836 47.90                              95    0.62 4 76.2 302 
 622  0Z IP   0    836 50.40                              54    0.19 8 95.8 304 
 622  0N ES   3    837  1.80                              54   -0.71 2 95.8 304 
 621  0Z IP   0    836 50.66                              54    0.10 8 98.4 285 
 621  0N ES   3    837  2.37                              54   -0.75 2 98.4 285 
 620  0Z IP   4    836 56.79                              51    1.45 0  136 305 
 620  0N ES   4    837 13.42                              51    2.04 0  136 305 
                                                                                
 2017  4 2 0422  1.2 L  72.684 125.649 20.4  SLT 13 0.3                        1
 GAP=215        0.57       2.3     4.7  2.1  0.2483E+01 -0.1688E+01 -0.8759E+00E
 ACTION:UP  20-12-20 22:46 OP:elen STATUS:               ID:20170402042039     I
 OLDACT:UP  20-12-20 00:44 OP:elen STATUS:               ID:20170402042039     3
 OLDACT:UP  20-12-16 20:09 OP:elen STATUS:               ID:20170402042039     3
 OLDACT:UP  20-12-16 14:06 OP:elen STATUS:               ID:20170402042039     3
 OLDACT:REG 20-12-12 10:59 OP:elen STATUS:               ID:20170402042039     3
 2017-04-02-0420-39M.NSN___039                                                 6
 STAT SP IPHASW D HRMM SECON CODA AMPLIT PERI AZIMU VELO AIN AR TRES W  DIS CAZ7
 622  0Z IP   1    422  7.87                             121    0.31 7 29.3 203 
 622  0N ES   2    422 12.68                             121    0.52 5 29.3 203 
 624  0Z IP   0    422  7.93                             119    0.1610 31.2 138 
 624  0N ES   1    422 12.72                             119    0.19 7 31.2 138 
 623  0Z IP   0    422  9.48                             112    0.1410 40.1 175 
 623  0E ES   0    422 15.32                             112    0.0710 40.1 175 
 620  0Z IP   1    422  9.31                             110   -0.29 7 43.4 266 
 620  0E ES   1    422 15.33                             110   -0.36 7 43.4 266 
 625  0Z IP   0    422 12.32                             102    0.0510 59.0 165 
 625  0E ES   1    422 20.08                             102   -0.24 7 59.0 165 
 628  0Z IP   0    422 11.52                             102   -0.2610 59.3 122 
 628  0N ES   0    422 19.31                             102   -0.1510 59.3 122 
 621  0Z IP   1    422 13.07                             102    0.49 7 61.4 205 
 621  0E ES   1    422 20.50                             102   -0.35 7 61.4 205 
 627  0Z IP   0    422 15.23                              97    0.13 9 77.6 144 
 627  0E ES   2    422 24.48                              97   -0.73 4 77.6 144 
 626  0Z IP   1    422 16.68                              54   -0.24 6 89.8 171 
 626  0Z ES   1    422 28.14                              54   -0.22 6 89.8 171 
 629  0Z IP   0    422 18.83                              54    0.22 8  101 145 
 630  0Z IP   1    422 19.72                              51   -0.30 6  113 126 
 630  0N ES   3    422 33.07                              51   -0.65 2  113 126 
 631  0Z IP   1    422 26.19                              51    0.52 4  154 158 
 631  0E ES   3    422 44.71                              51    1.21 1  154 158 
 632  0Z IP   2    422 28.57                              49    0.72 3  171 135 
 632  0Z ES   4    422 49.10                              49    1.84 0  171 135 
                                                                                
 2017  4 5 0307 35.9 L  71.673 128.838  9.4  SLT 11 0.3                        1
 GAP=164        0.45       1.1     4.7  1.7 -0.4732E-01  0.2475E+01 -0.5454E+00E
 ACTION:UP  20-12-21 00:10 OP:elen STATUS:               ID:20170405030618     I
 OLDACT:UP  20-12-20 01:44 OP:elen STATUS:               ID:20170405030618     3
 OLDACT:UP  20-12-16 21:32 OP:elen STATUS:               ID:20170405030618     3
 OLDACT:REG 20-12-13 13:11 OP:elen STATUS:               ID:20170405030618     3
 2017-04-05-0306-18M.NSN___039                                                 6
 STAT SP IPHASW D HRMM SECON CODA AMPLIT PERI AZIMU VELO AIN AR TRES W  DIS CAZ7
 632  0Z IP   0    3 7 39.22                             124   -0.0110 13.8 143 
 630  0Z IP   0    3 7 44.60                             101    0.0810 48.2 339 
 630  0E ES   0    3 7 50.81                             101   -0.0110 48.2 339 
 629  0N IP   3    3 7 47.79                              99    1.02 2 60.3 299 
 629  0E ES   1    3 7 55.11                              99    0.41 7 60.3 299 
 631  0Z IP   0    3 7 47.79                              98    0.08 9 64.0 242 
 631  0N ES   0    3 7 56.19                              98   -0.14 9 64.0 242 
 628  0Z IP   1    3 7 52.89                              76   -0.33 6 99.8 325 
 628  0E ES   1    3 8  5.38                              76   -0.47 6 99.8 325 
 626  0Z IP   1    3 7 53.32                              76   -0.29 6  101 285 
 626  0N ES   0    3 8  6.48                              76   -0.05 8  101 285 
 625  0Z IP   1    3 7 55.21                              76   -0.29 6  110 302 
 625  0N ES   3    3 8  8.99                              76   -0.81 2  110 302 
 624  0Z IP   1    3 7 57.43                              47   -0.23 5  126 317 
 624  0E ES   0    3 8 13.52                              47   -0.02 7  126 317 
 623  0Z IP   1    3 7 58.66                              47    0.36 5  129 306 
 623  0N ES   0    3 8 14.72                              47    0.07 7  129 306 
 622  0Z IP   0    3 8  0.83                              47    0.14 6  148 307 
 622  0N ES   3    3 8 19.58                              47    0.80 2  148 307 
 621  0Z IP   1    3 8  1.02                              47    0.37 5  148 294 
 621  0E ES   1    3 8 19.03                              47    0.32 5  148 294 
                                                                                
 2017  4 8 1004 44.6 L  72.570 124.909 14.4  SLT 13 0.3                        1
 GAP=165        0.53       1.6     4.4  2.2  0.3380E+01 -0.3303E+01  0.2109E+00E
 ACTION:UP  20-12-21 14:32 OP:elen STATUS:               ID:20170408100319     I
 OLDACT:UP  20-12-20 16:21 OP:elen STATUS:               ID:20170408100319     3
 OLDACT:UP  20-12-19 02:06 OP:elen STATUS:               ID:20170408100319     3
 OLDACT:REG 20-12-15 20:09 OP:elen STATUS:               ID:20170408100319     3
 2017-04-08-1003-19M.NSN___039                                                 6
 STAT SP IPHASW D HRMM SECON CODA AMPLIT PERI AZIMU VELO AIN AR TRES W  DIS CAZ7
 622  0Z IP   1   10 4 49.31                             124    0.27 7 19.7 136 
 622  0E ES   2   10 4 52.71                             124    0.46 5 19.7 136 
 620  0Z IP   0   10 4 49.10                             122   -0.0210 21.0 297 
 620  0N ES   0   10 4 52.37                             122   -0.0310 21.0 297 
 623  0Z IP   0   10 4 52.25                             106   -0.0610 39.5 133 
 623  0N ES   0   10 4 57.99                             106    0.0710 39.5 133 
 621  0Z IP   2   10 4 53.23                             105    0.50 5 43.1 181 
 621  0N ES   0   10 4 58.56                             105   -0.0810 43.1 181 
 624  0Z IP   0   10 4 53.23                             103   -0.0910 47.0 102 
 624  0Z ES   2   10 5  0.44                             103    0.79 5 47.0 102 
 625  0Z IP   1   10 4 55.44                              99   -0.23 7 59.9 137 
 625  0N ES   2   10 5  3.16                              99   -0.56 5 59.9 137 
 628  0Z IP   2   10 4 57.57                              96   -0.54 4 77.5 103 
 628  0N ES   0   10 5  7.96                              96    0.01 9 77.5 103 
 626  0Z IP   0   10 4 59.90                              95    0.23 9 85.2 153 
 626  0E ES   2   10 5 10.06                              95   -0.58 4 85.2 153 
 627  0Z IP   0   10 4 59.81                              95   -0.14 9 86.5 125 
 627  0E ES   1   10 5 10.80                              95   -0.33 6 86.5 125 
 629  0Z IP   1   10 5  3.42                              52   -0.17 6  109 130 
 629  0N ES   1   10 5 17.36                              52   -0.06 6  109 130 
 630  0Z IP   1   10 5  5.84                              49   -0.18 5  128 114 
 630  0E ES   4   10 5 23.00                              49    1.37 0  128 114 
 631  0Z IP   1   10 5 10.20                              49    0.48 4  154 147 
 631  0E ES   1   10 5 28.65                              49    0.63 4  154 147 
 632  0Z IP   2   10 5 14.07                              45    0.84 2  181 126 
 632  0E ES   4   10 5 35.68                              45    1.57 0  181 126 
                                                                                
 2017  416 0523 41.2 L  71.944 127.082 20.6  SLT 12 0.3                        1
 GAP= 86        0.58       1.1     3.7  2.5  0.6065E+00  0.1135E+01  0.1228E+00E
 ACTION:UP  20-12-26 19:23 OP:elen STATUS:               ID:20170416052232     I
 OLDACT:REG 20-12-24 20:31 OP:elen STATUS:               ID:20170416052232     3
 2017-04-16-0522-32M.NSN___039                                                 6
 STAT SP IPHASW D HRMM SECON CODA AMPLIT PERI AZIMU VELO AIN AR TRES W  DIS CAZ7
 629  0Z IP   1    523 45.44                             157    0.36 7 8.17 102 
 629  0E ES   1    523 48.02                             157    0.14 7 8.17 102 
 627  0Z IP   1    523 46.36                             134    0.26 7 19.5 350 
 627  0E ES   0    523 49.61                             134   -0.0510 19.5 350 
 626  0Z IP   1    523 48.76                             115    0.32 7 36.8 261 
 626  0N ES   0    523 53.71                             115    0.0110 36.8 261 
 625  0Z IP   0    523 49.72                             111    0.1410 42.2 308 
 625  0N ES   2    523 54.90                             111   -0.77 5 42.2 308 
 630  0Z IP   0    523 49.92                             109    0.1710 45.3  71 
 630  0N ES   0    523 55.85                             109   -0.1210 45.3  71 
 628  0Z IP   0    523 50.39                             106   -0.0010 50.9   2 
 628  0E ES   0    523 56.86                             106   -0.2210 50.9   2 
 631  0Z IP   0    523 52.66                             102   -0.0710 61.1 174 
 631  0E ES   1    524  0.63                             102   -0.49 7 61.1 174 
 623  0Z IP   0    523 52.77                             102   -0.0910 62.2 314 
 623  0N ES   2    524  0.55                             102   -0.80 5 62.2 314 
 624  0Z IP   1    523 53.61                             101    0.46 7 65.4 335 
 624  0N ES   0    524  1.79                             101   -0.07 9 65.4 335 
 632  0Z IP   1    523 55.84                              97   -0.18 7 80.9 120 
 632  0E ES   3    524  6.13                              97   -0.70 2 80.9 120 
 622  0Z IP   0    523 56.19                              97    0.21 9 82.0 313 
 622  0N ES   3    524  5.76                              97   -0.98 2 82.0 313 
 620  0Z IP   3    524  2.20                              51    0.95 2  122 312 
 620  0N ES   3    524 17.06                              51    1.19 2  122 312 
                                                                                
 2017  416 1821  5.6 L  72.837 125.041 14.5  SLT 13 0.3                        1
 GAP=255        0.51       2.6     5.5  2.2  0.2669E+01 -0.5826E+01 -0.2224E+01E
 ACTION:UP  20-12-27 00:47 OP:elen STATUS:               ID:20170416181941     I
 OLDACT:REG 20-12-24 20:59 OP:elen STATUS:               ID:20170416181941     3
 2017-04-16-1819-41M.NSN___039                                                 6
 STAT SP IPHASW D HRMM SECON CODA AMPLIT PERI AZIMU VELO AIN AR TRES W  DIS CAZ7
 620  0Z IP   0   1821 11.57                             112   -0.0210 30.7 229 
 620  0E ES   1   1821 16.25                             112    0.28 7 30.7 229 
 622  0Z IP   1   1821 14.36                             104    0.33 7 45.0 168 
 622  0N ES   0   1821 20.28                             104    0.1010 45.0 168 
 624  0Z IP   0   1821 16.17                              99    0.1110 57.5 134 
 624  0E ES   2   1821 24.11                              99    0.42 5 57.5 134 
 623  0Z IP   0   1821 17.02                              98   -0.0210 61.9 157 
 623  0E ES   1   1821 25.60                              98    0.22 7 61.9 157 
 621  0Z IP   1   1821 18.44                              96   -0.33 7 73.0 184 
 621  0N ES   1   1821 27.98                              96   -0.39 7 73.0 184 
 625  0Z IP   1   1821 19.95                              95   -0.47 7 82.2 154 
 625  0E ES   2   1821 30.59                              95   -0.65 4 82.2 154 
 628  0Z IP   1   1821 20.01                              95   -0.42 6 85.5 124 
 628  0N ES   0   1821 31.26                              95    0.00 9 85.5 124 
 627  0Z IP   1   1821 23.55                              52   -0.22 6  103 140 
 627  0N ES   0   1821 36.98                              52   -0.06 8  103 140 
 626  0Z IP   2   1821 24.46                              52   -0.28 4  111 162 
 626  0E ES   3   1821 38.21                              52   -0.50 2  111 162 
 629  0Z IP   0   1821 27.00                              49    0.06 7  127 142 
 629  0N ES   3   1821 43.66                              49    1.14 2  127 142 
 630  0Z IP   1   1821 28.15                              49   -0.26 5  139 126 
 630  0N ES   0   1821 45.43                              49    0.38 6  139 126 
 631  0Z IP   1   1821 34.17                              47    0.49 4  177 154 
 631  0E ES   4   1821 55.93                              47    1.75 0  177 154 
 632  0Z IP   1   1821 36.64                              45    0.57 3  197 134 
 632  0N ES   4   1822  0.61                              45    2.29 0  197 134 
                                                                                
