 2016 1126 1456 11.8 L  72.697 124.987 11.3  SLT 11 0.3 1.1LSLT 1.8CSLT        1
 GAP=216        0.57       3.1     5.4  3.5  0.3309E+01 -0.8375E+01 -0.9990E+00E
 ACTION:REE 25-08-04 22:01 OP:mn   STATUS:               ID:20161126145445     I
 2016-11-26-1454-45M.arct__039                                                 6
 STAT SP IPHASW D HRMM SECON CODA AMPLIT PERI AZIMU VELO AIN AR TRES W  DIS CAZ7
 620  0Z IP   1   1456 15.80   67                        113   -0.41 7 21.8 258 
 620  0E ES   1   1456 19.72                             113    0.32 7 21.8 258 
 620  0Z  IAML    1456 20.57        36.0 0.22                          21.8 258 
 622  0Z IP   0   1456 17.79   73                        105    0.0710 30.5 159 
 622  0E ES   3   1456 22.90                             105    0.89 2 30.5 159 
 622  0Z  IAML    1456 26.55        13.2 0.28                          30.5 159 
 624  0Z IP   0   1456 20.80   67                         94   -0.0910 49.6 119 
 624  0E ES   1   1456 28.06                              94    0.57 7 49.6 119 
 624  0Z  IAML    1456 28.27        26.9 0.17                          49.6 119 
 621  0Z IP   0   1456 22.26                              93   -0.0210 57.3 183 
 621  0E ES   1   1456 29.67                              93   -0.22 7 57.3 183 
 625  0N IP   4   1456 25.66                              92    1.20 0 69.5 147 
 625  0E ES   3   1456 32.98                              92   -0.69 2 69.5 147 
 628  0Z IP   2   1456 25.12                              91   -0.51 4 79.6 114 
 628  0N ES   1   1456 35.32                              91   -0.37 7 79.6 114 
 627  0Z IP   0   1456 28.55                              91    0.23 8 93.4 133 
 627  0N ES   1   1456 39.97                              91   -0.37 6 93.4 133 
 629  0Z IP   0   1456 32.09                              52   -0.09 7  116 136 
 629  0N ES   4   1456 45.73                              52   -1.28 0  116 136 
 630  0Z IP   0   1456 34.08                              49   -0.03 7  132 120 
 630  0N ES   4   1456 51.40                              49    1.04 0  132 120 
 631  0Z IP   0   1456 38.91                              49    0.24 5  164 151 
 631  0N ES   2   1456 58.80                              49    0.55 3  164 151 
 632  0Z IP   1   1456 42.04                              45    0.42 3  188 130 
 632  0N ES   4   1457  4.64                              45    1.29 0  188 130 
                                                                                
 2016 1228 2250 24.0 L  71.589 127.532  0.0  SLT 10 0.3 1.9LSLT 2.0CSLT        1
 GAP=115        0.54       1.2     4.2  3.9  0.2539E+00  0.2159E+01  0.1830E+01E
 ACTION:REE 25-08-04 22:04 OP:mn   STATUS:               ID:20161228224921     I
 2016-12-28-2249-21M.arct__039                                                 6
 STAT SP IPHASW D HRMM SECON CODA AMPLIT PERI AZIMU VELO AIN AR TRES W  DIS CAZ7
 631  0Z IP   0   2250 28.59   77                         75    0.0710 23.5 206 
 631  0N ES   1   2250 32.09                              75    0.28 7 23.5 206 
 631  0Z  IAML    2250 33.05       162.0 0.45                          23.5 206 
 629  0Z IP   0   2250 30.78                              90   -0.1410 38.7 349 
 629  0N ES   0   2250 36.02                              90    0.0510 38.7 349 
 632  0Z IP   1   2250 33.78   84                         75   -0.25 7 54.4  91 
 632  0N ES   1   2250 40.97                              75   -0.38 7 54.4  91 
 632  0Z  IAML    2250 42.34        30.3 0.26                          54.4  91 
 630  0Z IP   1   2250 35.00   83                         90    0.28 7 60.8  27 
 630  0N ES   1   2250 43.00                              90    0.47 7 60.8  27 
 630  0Z  IAML    2250 43.81        19.2 0.62                          60.8  27 
 627  0Z IP   1   2250 35.35                              90    0.38 7 61.9 342 
 626  0Z IP   0   2250 34.81                              75   -0.1110 62.1 303 
 626  0N ES   1   2250 42.41                              75   -0.48 7 62.1 303 
 628  0Z IP   0   2250 39.83                              75   -0.07 8 91.5 352 
 623  0Z IP   0   2250 42.52                              90    0.02 8  103 324 
 622  0Z IP   0   2250 45.89                              90    0.08 7  122 322 
 622  0E ES   3   2251  0.71                              90   -1.01 2  122 322 
 620  0Z IP   1   2250 51.19                              45   -0.31 4  161 319 
 620  0Z ES   0   2251 11.71                              45    0.15 6  161 319 
                                                                                
 2016 1230 1909 41.3 L  72.275 129.744 11.1  SLT 13 0.3 2.1LSLT 1.9CSLT        1
 GAP=271        0.49       2.3     9.1  2.2  0.9085E+01 -0.2968E+01 -0.1183E+01E
 ACTION:REE 25-08-04 22:04 OP:mn   STATUS:               ID:20161230190840     I
 2016-12-30-1908-40M.arct__039                                                 6
 STAT SP IPHASW D HRMM SECON CODA AMPLIT PERI AZIMU VELO AIN AR TRES W  DIS CAZ7
 630  0Z  IAML    19 9 58.64        21.9 0.21                          53.4 246 
 632  0Z IP   1   19 9 56.07   62                         91   -0.12 8 81.6 197 
 632  0E ES   1   1910  6.80                              91   -0.23 8 81.6 197 
 632  0Z  IAML    1910  8.71        35.4 0.59                          81.6 197 
 628  0Z IP   1   19 9 57.07                              91    0.32 7 89.1 280 
 628  0N ES   0   1910  7.97                              91   -0.0410 89.1 280 
 629  0Z IP   1   19 9 57.98                              91    0.35 7 91.9 246 
 629  0N ES   1   1910  9.91                              91    0.39 7 91.9 246 
 627  0Z IP   0   19 9 58.10   68                         91   -0.1410 95.9 261 
 627  0N ES   1   1910 10.16                              91   -0.43 7 95.9 261 
 627  0Z  IAML    1910 11.42        18.2 0.20                          95.9 261 
 624  0Z IP   1   1910  1.63                              49   -0.47 6  119 282 
 624  0N ES   4   1910 16.11                              49   -1.14 0  119 282 
 625  0Z IP   0   1910  3.05                              49    0.14 8  124 267 
 625  0N ES   1   1910 19.01                              49    0.35 6  124 267 
 631  0Z IP   2   1910  4.41   78                         49    0.56 4  131 223 
 631  0E ES   0   1910 20.21                              49   -0.07 8  131 223 
 631  0Z  IAML    1910 21.23        17.9 0.61                           131 223 
 623  0Z IP   0   1910  4.28                              49   -0.11 8  135 274 
 623  0N ES   0   1910 20.97                              49   -0.25 8  135 274 
 626  0Z IP   2   1910  4.60                              49    0.70 4  135 253 
 626  0N ES   1   1910 20.74                              49    0.37 6  135 253 
 622  0Z IP   0   1910  6.04                              49   -0.22 7  151 279 
 622  0N ES   1   1910 23.93                              49   -0.52 5  151 279 
 621  0Z IP   1   1910  8.59                              49    0.43 5  166 269 
 621  0N ES   0   1910 27.82                              49    0.08 6  166 269 
 620  0Z IP   0   1910 10.81                              45    0.18 5  186 286 
                                                                                
 2017  110 0630 46.8 L  72.247 129.932 11.4  SLT 11 0.4 3.1LSLT 2.3CSLT        1
 GAP=276        0.47       2.7    16.0  3.5  0.1147E+02  0.6526E+01 -0.4903E+01E
 ACTION:REE 25-08-04 22:06 OP:mn   STATUS:               ID:20170110062948     I
 2017-01-10-0629-48M.a_____039                                                 6
 STAT SP IPHASW D HRMM SECON CODA AMPLIT PERI AZIMU VELO AIN AR TRES W  DIS CAZ7
 630  0Z IP   2    630 57.75                              93    0.59 6 58.2 252 
 632  0Z IP   1    631  1.33                              91   -0.17 7 80.8 202 
 632  0N ES   0    631 12.24                              91    0.0110 80.8 202 
 629  0Z IP   1    631  4.09                              91    0.19 7 96.7 250 
 629  0N ES   2    631 16.44                              91    0.06 5 96.7 250 
 627  0Z IP   2 D  631  4.01                              91   -0.70 5  102 263 
 627  0N ES   3    631 16.31                              91   -1.48 2  102 263 
 627  0Z  IAML     631 57.64       196.6 1.02                           102 263 
 624  0Z IP   1    631  8.03                              49   -0.39 6  126 283 
 624  0N ES   4    631 22.80                              49   -1.40 0  126 283 
 625  0Z IP   1    631  9.55                              49    0.41 6  131 268 
 625  0N ES   2    631 25.79                              49    0.34 4  131 268 
 631  0Z IP   2    631  9.24                              49   -0.32 4  133 226 
 631  0N ES   1    631 26.07                              49   -0.10 6  133 226 
 626  0Z IP   4    631 11.08                              49    1.07 0  140 255 
 626  0N ES   3    631 27.69                              49    0.74 2  140 255 
 622  0Z IP   0 D  631 12.51   88                         49   -0.06 6  158 280 
 622  0N ES   2    631 30.66                              49   -0.72 3  158 280 
 622  0Z  IAML     632  1.26       157.4 0.93                           158 280 
 621  0Z IP   1 D  631 14.81   89                         47    0.43 4  172 270 
 621  0N ES   1    631 34.85                              47    0.32 4  172 270 
 621  0Z  IAML     632  3.32       228.3 1.39                           172 270 
 620  0Z IP   1 D  631 17.20  112                         45    0.31 4  193 286 
 620  0N ES   0    631 38.63                              45   -0.23 5  193 286 
 620  0Z  IAML     632 24.41       174.3 1.64                           193 286 
                                                                                
 2017  3 4 2135  3.0 L  72.649 124.948 10.6  SLT 11 0.2                        1
 GAP=198        0.48       1.7     3.8  3.1  0.1622E+01 -0.6014E+01  0.7660E+00E
 ACTION:ARG 20-12-21 03:09 OP:mn   STATUS:               ID:20170304213342     I
 2017-03-04-2133-42M.a_____039                                                 6
 STAT SP IPHASW D HRMM SECON CODA AMPLIT PERI AZIMU VELO AIN AR TRES W  DIS CAZ7
 620  0Z IP   0   2135  6.89                             114   -0.1510 20.0 272 
 620  0N ES   0   2135  9.97                             114   -0.0210 20.0 272 
 622  0Z IP   0   2135  8.40                             107    0.2710 26.1 152 
 622  0Z ES   2   2135 12.52                             107    0.65 5 26.1 152 
 623  0Z IP   0   2135 11.59                              91    0.0610 45.2 142 
 623  0E ES   0   2135 17.76                              91    0.0210 45.2 142 
 624  0Z IP   1   2135 11.59                              91   -0.25 7 48.4 113 
 624  0N ES   0   2135 18.14                              91   -0.1510 48.4 113 
 621  0Z IP   0   2135 12.49                              91   -0.0210 51.9 182 
 621  0E ES   0   2135 19.36                              91   -0.0810 51.9 182 
 625  0Z IP   1   2135 15.37                              90    0.37 7 65.9 143 
 625  0N ES   2   2135 23.10                              90   -0.65 5 65.9 143 
 628  0Z IP   1   2135 16.91                              90    0.25 7 78.8 110 
 628  0N ES   0   2135 26.46                              90   -0.16 9 78.8 110 
 626  0Z IP   0   2135 19.31                              90    0.03 8 92.6 156 
 626  0E ES   1   2135 30.76                              90   -0.39 6 92.6 156 
 629  0Z IP   2   2135 23.36                              90    0.34 4  114 134 
 629  0E ES   4   2135 36.05                              90   -1.57 0  114 134 
 630  0Z IP   1   2135 25.40                              49    0.24 5  131 118 
 630  0N ES   2   2135 41.51                              49    0.18 3  131 118 
 631  0Z IP   0   2135 29.38                              49   -0.01 6  160 149 
 631  0N ES   2   2135 48.84                              49    0.19 3  160 149 
                                                                                
 2017  3 7 0447 20.9 L  72.664 124.977 10.6  SLT 12 0.3                        1
 GAP=204        0.56       2.2     4.5  3.2  0.3649E+01 -0.7035E+01  0.2754E+00E
 ACTION:ARG 20-12-21 03:09 OP:mn   STATUS:               ID:20170307044601     I
 2017-03-07-0446-01M.a_____039                                                 6
 STAT SP IPHASW D HRMM SECON CODA AMPLIT PERI AZIMU VELO AIN AR TRES W  DIS CAZ7
 620  0Z IP   0    447 25.09                             112   -0.0310 21.0 267 
 620  0N ES   0    447 28.21                             112    0.0310 21.0 267 
 622  0Z IP   1    447 26.58                             105    0.36 7 27.2 155 
 622  0N ES   2    447 30.76                             105    0.67 5 27.2 155 
 623  0Z IP   0    447 29.77                              91    0.2010 45.9 145 
 623  0E ES   0    447 36.14                              91    0.2610 45.9 145 
 624  0Z IP   0    447 29.62                              91   -0.1010 48.2 115 
 624  0E ES   0    447 36.27                              91    0.1310 48.2 115 
 621  0Z IP   0    447 30.66                              90   -0.0510 53.6 183 
 621  0E ES   1    447 37.40                              90   -0.46 7 53.6 183 
 625  0Z IP   2    447 33.65                              90    0.61 5 66.6 145 
 625  0N ES   2    447 41.29                              90   -0.60 5 66.6 145 
 628  0Z IP   1    447 34.27                              90   -0.25 7 78.4 111 
 628  0N ES   1    447 44.02                              90   -0.42 7 78.4 111 
 627  0Z IP   1    447 36.61                              90   -0.40 6 91.1 131 
 627  0N ES   0    447 48.59                              90   -0.16 8 91.1 131 
 626  0Z IP   0    447 37.35                              90   -0.04 8 93.7 157 
 626  0E ES   1    447 49.14                              90   -0.26 6 93.7 157 
 630  0Z IP   2    447 42.58                              49   -0.49 3  131 119 
 630  0N ES   1    447 59.57                              49    0.34 5  131 119 
 631  0Z IP   0    447 47.46                              49    0.03 6  161 150 
 631  0N ES   1    448  7.08                              49    0.31 4  161 150 
 632  0Z IP   1    447 50.90                              45    0.37 3  186 129 
 632  0N ES   4    448 13.79                              45    1.65 0  186 129 
                                                                                
 2017  313 0553 59.4 L  72.658 124.957  9.4  SLT 12 0.4                        1
 GAP=201        0.62       2.3     5.6  3.1  0.5807E+01 -0.1010E+02 -0.1448E+01E
 ACTION:ARG 20-12-21 03:09 OP:mn   STATUS:               ID:20170313055233     I
 2017-03-13-0552-33M.a_____039                                                 6
 STAT SP IPHASW D HRMM SECON CODA AMPLIT PERI AZIMU VELO AIN AR TRES W  DIS CAZ7
 620  0Z IP   0    554  3.30                             114   -0.0610 20.3 269 
 620  0N ES   0    554  6.35                             114    0.0810 20.3 269 
 622  0Z IP   1    554  4.92                             109    0.37 7 26.9 153 
 622  0E ES   3    554  9.27                             109    0.94 2 26.9 153 
 623  0Z IP   1    554  8.38                             101    0.41 7 45.8 144 
 623  0E ES   0    554 14.44                             101    0.2010 45.8 144 
 624  0Z IP   0    554  8.01                             101   -0.1910 48.5 114 
 624  0N ES   2    554 15.14                             101    0.50 5 48.5 114 
 621  0Z IP   0    554  8.87                             100   -0.1610 52.9 183 
 621  0E ES   0    554 15.88                             100   -0.1910 52.9 183 
 625  0Z IP   3    554 12.43                              98    0.93 2 66.5 144 
 625  0E ES   2    554 19.90                              98   -0.45 5 66.5 144 
 628  0Z IP   1    554 12.54                              76   -0.55 7 78.9 110 
 628  0N ES   1    554 22.67                              76   -0.43 7 78.9 110 
 627  0Z IP   2    554 15.10                              76   -0.43 4 91.2 130 
 627  0N ES   2    554 26.94                              76   -0.38 4 91.2 130 
 626  0Z IP   0    554 16.01                              76    0.17 8 93.4 156 
 626  0E ES   2    554 27.31                              76   -0.54 4 93.4 156 
 630  0Z IP   2    554 21.29                              47   -0.42 3  131 118 
 630  0E ES   1    554 38.85                              47    0.84 5  131 118 
 631  0Z IP   1    554 25.93                              47   -0.08 4  161 150 
 631  0N ES   2    554 45.42                              47   -0.02 3  161 150 
 632  0Z IP   0    554 29.51                              43    0.35 5  186 129 
 632  0N ES   2    554 52.08                              43    1.18 2  186 129 
                                                                                
 2017  313 0809  5.7 L  72.449 125.108  9.0  SLT 13 0.2                        1
 GAP=133        0.50       1.1     3.0  1.8  0.1262E+01  0.2509E+00  0.3839E+00E
 ACTION:ARG 20-12-21 03:09 OP:mn   STATUS:               ID:20170313080741     I
 2017-03-13-0807-41M.a_____039                                                 6
 STAT SP IPHASW D HRMM SECON CODA AMPLIT PERI AZIMU VELO AIN AR TRES W  DIS CAZ7
 622  0Z IP   0    8 9  7.76                             141   -0.0110 6.95  97 
 622  0N ES   0    8 9  9.32                             141    0.0010 6.95  97 
 623  0Z IP   0    8 9 10.65                             109   -0.1610 26.0 122 
 623  0N ES   1    8 9 14.89                             109    0.31 7 26.0 122 
 621  0Z IP   0    8 9 11.42                             106    0.0210 30.5 194 
 621  0N ES   1    8 9 15.96                             106    0.36 7 30.5 194 
 620  0Z IP   0    8 9 11.73                             104   -0.2310 34.2 312 
 620  0E ES   0    8 9 16.77                             104    0.2110 34.2 312 
 624  0Z IP   0    8 9 12.86                             103   -0.0110 39.4  85 
 624  0E ES   0    8 9 18.19                             103    0.0610 39.4  85 
 625  0Z IP   1    8 9 13.81                             101   -0.32 7 45.7 132 
 625  0E ES   0    8 9 20.38                             101    0.0710 45.7 132 
 628  0Z IP   0    8 9 17.50                              97   -0.14 9 69.0  94 
 628  0N ES   0    8 9 26.57                              97    0.18 9 69.0  94 
 626  0Z IP   1    8 9 17.81                              97   -0.29 7 70.2 153 
 626  0E ES   1    8 9 26.75                              97   -0.43 7 70.2 153 
 627  0Z IP   0    8 9 18.62                              97   -0.16 9 73.7 119 
 627  0E ES   0    8 9 28.34                              97   -0.02 9 73.7 119 
 629  0Z IP   2    8 9 23.22                              76    0.68 4 95.1 127 
 629  0E ES   0    8 9 35.02                              76    0.15 8 95.1 127 
 630  0Z IP   1    8 9 25.92                              49   -0.28 5  117 109 
 630  0N ES   4    8 9 42.64                              49    1.45 0  117 109 
 631  0Z IP   0    8 9 29.68                              47    0.26 6  139 147 
 631  0E ES   4    8 9 45.58                              47   -1.19 0  139 147 
 632  0Z IP   2    8 9 34.08                              47    0.83 3  168 124 
 632  0N ES   4    8 9 54.84                              47    1.45 0  168 124 
                                                                                
