 2016  819 0959 26.6 L  71.904 129.742 10.1  SLT 13 0.3 4.3LSLT                1
 GAP=270        0.42       1.4     7.0  1.7  0.3279E+01  0.1268E+00 -0.1038E+01E
 ACTION:REG 25-04-10 18:57 OP:mn   STATUS:               ID:20160819095900     I
 2016_08_19T09-59-00.mseed                                                     6
 STAT SP IPHASW D HRMM SECON CODA AMPLIT PERI AZIMU VELO AIN AR TRES W  DIS CAZ7
 632  0Z IP   0    959 34.86                             103   -0.0210 43.6 213 
 632  0N ES   0    959 41.02                             103    0.0810 43.6 213 
 632  0Z  IAML     959 42.18      3428.8 0.50                          43.6 213 
 630  0Z IP   0    959 35.80                             101   -0.1710 52.5 292 
 630  0N ES   1    959 43.04                             101    0.22 7 52.5 292 
 630  0Z  IAML     959 46.28      6337.0 0.50                          52.5 292 
 629  0Z IP   0    959 41.37                              76   -0.19 9 84.2 273 
 629  0N ES   0    959 52.67                              76    0.17 9 84.2 273 
 629  0Z  IAML     959 54.20      5388.4 0.68                          84.2 273 
 627  0Z IP   1    959 44.19                              76    0.31 6 98.1 285 
 627  0N ES   0    959 56.45                              76   -0.05 8 98.1 285 
 627  0Z  IAML     959 57.52      6764.5 0.60                          98.1 285 
 631  0Z IP   0    959 45.21                              76   -0.08 8  104 238 
 631  0N ES   2    959 58.31                              76   -0.64 4  104 238 
 631  0Z  IAML    10 0  1.28      2471.1 0.60                           104 238 
 628  0Z IP   0    959 44.86                              76    0.16 8  105 303 
 628  0N ES   1    959 57.50                              76   -0.42 6  105 303 
 628  0Z  IAML     959 57.78     13245.6 0.30                           105 303 
 625  0N ES   1   10 0  4.69                              47   -0.36 5  129 285 
 626  0Z IP   0    959 48.52                              47    0.02 7  129 271 
 626  0N ES   0   10 0  4.58                              47    0.09 7  129 271 
 626  0Z  IAML    10 0 10.30      1873.9 0.66                           129 271 
 625  0Z IP   1    959 48.49                              47   -0.33 5  129 285 
 625  0Z  IAML    10 0 10.74      3132.8 1.06                           129 285 
 624  0Z IP   0    959 49.35                              47   -0.06 7  135 300 
 624  0N ES   4   10 0  5.15                              47   -0.92 0  135 300 
 624  0Z  IAML    10 0  8.14      5852.5 0.52                           135 300 
 623  0Z IP   0    959 51.19                              47    0.26 6  144 291 
 623  0N ES   0   10 0  8.74                              47    0.05 6  144 291 
 623  0Z  IAML    10 0 14.06      3312.3 0.94                           144 291 
 622  0Z IP   2    959 53.97                              47    0.83 3  163 294 
 622  0N ES   0   10 0 12.65                              47    0.12 5  163 294 
 622  0Z  IAML    10 0 18.96      1931.4 0.68                           163 294 
 621  0Z IP   3    959 55.14                              45    1.09 1  170 283 
 621  0N ES   4   10 0 15.63                              45    1.53 0  170 283 
 621  0Z  IAML    10 0 16.65      3571.0 0.48                           170 283 
 620  0Z IP   2    959 58.52                              43    0.70 2  201 297 
 620  0N ES   3   10 0 21.63                              43    1.01 1  201 297 
 620  0Z  IAML    10 0 30.94      2333.6 0.54                           201 297 
                                                                                
 2016  820 1506 15.5 L  71.913 129.715 10.2  SLT 12 0.3                        1
 GAP=268        0.47       1.9     8.7  2.5  0.6318E+01 -0.4617E+01 -0.2888E+01E
 ACTION:ARG 20-05-11 21:31 OP:mn   STATUS:               ID:20160820150518     I
 2016-08-20-1505-18M.arct__039                                                 6
 STAT SP IPHASW D HRMM SECON CODA AMPLIT PERI AZIMU VELO AIN AR TRES W  DIS CAZ7
 632  0Z IP   1   15 6 23.53                             103   -0.31 7 44.0 211 
 632  0N ES   0   15 6 30.00                             103    0.0510 44.0 211 
 630  0N ES   1   15 6 31.53                             101    0.18 7 51.3 291 
 629  0Z IP   0   15 6 30.49                              76    0.21 9 83.3 272 
 629  0N ES   0   15 6 41.29                              76    0.20 9 83.3 272 
 627  0Z IP   0   15 6 32.40                              76   -0.16 8 96.9 285 
 627  0N ES   1   15 6 44.74                              76   -0.30 6 96.9 285 
 628  0Z IP   1   15 6 33.09                              76   -0.26 6  103 303 
 628  0N ES   2   15 6 45.70                              76   -0.70 4  103 303 
 631  0Z IP   4   15 6 35.44                              76    1.31 0  104 238 
 631  0N ES   2   15 6 47.30                              76   -0.45 4  104 238 
 625  0Z IP   0   15 6 37.52                              47   -0.02 7  128 285 
 625  0N ES   2   15 6 53.22                              47   -0.43 3  128 285 
 626  0Z IP   0   15 6 37.36                              47    0.11 7  128 271 
 626  0N ES   1   15 6 53.10                              47   -0.04 5  128 271 
 624  0Z IP   1   15 6 37.83                              47   -0.28 5  133 300 
 624  0N ES   2   15 6 54.31                              47   -0.33 3  133 300 
 623  0Z IP   0   15 6 39.93                              47    0.29 6  143 291 
 623  0N ES   1   15 6 57.20                              47   -0.08 5  143 291 
 622  0Z IP   0   15 6 42.30                              47    0.45 6  162 294 
 622  0Z ES   4   15 7  2.57                              47    1.46 0  162 294 
 621  0Z IP   1   15 6 43.40                              45    0.62 4  169 283 
 621  0N ES   4   15 7  4.06                              45    1.34 0  169 283 
 620  0Z IP   4   15 6 48.42                              43    1.89 0  200 297 
 620  0N ES   4   15 7 10.83                              43    1.62 0  200 297 
                                                                                
 2016  822 1318 49.0 L  72.355 127.056 19.0  SLT  8 0.2 0.8CSLT                1
 GAP= 94        0.52       1.4     3.5  2.3  0.1637E+01  0.2502E+01  0.1287E+01E
 ACTION:UP  21-01-08 22:12 OP:elen STATUS:               ID:20160822131743     I
 OLDACT:REG 21-01-08 15:24 OP:elen STATUS:               ID:20160822131743     3
 2016-08-22-1317-43M.arct__039                                                 6
 STAT SP IPHASW D HRMM SECON CODA AMPLIT PERI AZIMU VELO AIN AR TRES W  DIS CAZ7
 628  0Z IP   0A  1318 52.27   29                        162    0.1410 5.87  32 
 628  0N IS   0A  1318 54.48                             162    0.0910 5.87  32 
 627  0Z IP   1AD 1318 54.94                             122    0.25 7 26.7 185 
 627  0E IS   0A  1318 58.78                             122   -0.0410 26.7 185 
 624  0Z IP   0   1318 55.19                             119   -0.0110 29.6 297 
 624  0E ES   0   1318 59.46                             119   -0.2410 29.6 297 
 625  0Z IP   0   1318 56.66                             111    0.0210 38.1 238 
 625  0N ES   0   1319  2.22                             111    0.0210 38.1 238 
 630  0Z IP   0   1318 58.88                             102    0.0910 53.4 125 
 630  0E ES   1   1319  5.54                             102   -0.37 7 53.4 125 
 630  0E IS   1A  1319  5.56                             102   -0.35 7 53.4 125 
 622  0Z IP   1   1319  0.53                             100    0.49 7 59.6 280 
 622  0N ES   0   1319  7.83                             100   -0.2410 59.6 280 
 626  0Z IP   0   1319  0.52                              99    0.20 9 62.8 214 
 626  0N ES   0   1319  8.58                              99    0.01 9 62.8 214 
 621  0Z IP   0   1319  2.86                              95    0.10 9 76.1 256 
 621  0N ES   2   1319 12.21                              95   -0.57 4 76.1 256 
                                                                                
 2016 10 5 1619 47.1 L  72.849 125.036 13.9  SLT 11 0.3 1.3LSLT                1
 GAP=258        0.43       2.1     3.9  2.1  0.1143E+01 -0.3235E+01 -0.1569E+01E
 ACTION:ARG 20-04-11 14:12 OP:mn   STATUS:               ID:20161005161823     I
 2016-10-05-1618-23M.SIOLA_039                                                 6
 STAT SP IPHASW D HRMM SECON CODA AMPLIT PERI AZIMU VELO AIN AR TRES W  DIS CAZ7
 620  0Z IP   0   1619 53.23                             110    0.0910 31.5 227 
 620  0N ES   0   1619 57.63                             110    0.0510 31.5 227 
 620  0Z  IAML    1619 58.01        11.3 0.26                          31.5 227 
 622  0Z IP   0   1619 55.77                             102    0.0810 46.4 168 
 622  0Z  IAML    1620  2.11        13.0 0.30                          46.4 168 
 622  0N ES   1   1620  2.15                             102    0.16 7 46.4 168 
 624  0Z IP   0   1619 57.69                              98    0.0110 58.6 135 
 624  0N ES   0   1620  5.56                              98    0.1210 58.6 135 
 624  0Z  IAML    1620  5.84        11.9 0.16                          58.6 135 
 623  0Z IP   0   1619 58.60                              97   -0.10 9 63.2 157 
 623  0N ES   0   1620  7.19                              97   -0.01 9 63.2 157 
 623  0Z  IAML    1620  7.57         8.4 0.68                          63.2 157 
 621  0Z IP   1   1620  0.07                              95   -0.37 7 74.4 184 
 621  0N ES   0   1620 10.15                              95   -0.06 9 74.4 184 
 621  0Z  IAML    1620 10.56         9.7 0.26                          74.4 184 
 625  0Z IP   4   1620  3.32                              94    1.23 0 83.5 154 
 625  0N ES   3   1620 12.17                              94   -0.90 2 83.5 154 
 625  0Z  IAML    1620 12.36         4.3 0.80                          83.5 154 
 628  0Z IP   1   1620  1.66                              94   -0.37 6 86.4 124 
 628  0N ES   0   1620 12.97                              94    0.00 9 86.4 124 
 628  0Z  IAML    1620 13.46         8.2 0.52                          86.4 124 
 626  0Z IP   1   1620  6.07                              52   -0.37 6  112 162 
 626  0N ES   2   1620 19.87                              52   -0.72 4  112 162 
 629  0Z IP   0   1620  8.81                              49    0.19 7  128 142 
 629  0N ES   1   1620 24.67                              49    0.31 5  128 142 
 629  0Z  IAML    1620 25.99         4.7 0.18                           128 142 
 630  0Z IP   0   1620 10.00                              49   -0.05 6  140 126 
 630  0N ES   2   1620 27.46                              49    0.62 3  140 126 
 630  0Z  IAML    1620 27.89         3.9 0.22                           140 126 
 631  0Z IP   1   1620 15.85                              47    0.48 4  179 154 
 631  0N ES   3   1620 36.91                              47    0.87 1  179 154 
 631  0Z  IAML    1620 37.91         6.1 0.21                           179 154 
                                                                                
 2016 10 6 0156 56.1 L  72.833 125.019 14.1  SLT 11 0.3                        1
 GAP=255        0.52       2.8     5.1  2.9  0.2981E+01 -0.5862E+01 -0.3246E+01E
 ACTION:ARG 20-04-11 14:12 OP:mn   STATUS:               ID:20161006015532     I
 2016-10-06-0155-32M.SIOLA_039                                                 6
 STAT SP IPHASW D HRMM SECON CODA AMPLIT PERI AZIMU VELO AIN AR TRES W  DIS CAZ7
 620  0Z IP   0    157  1.81                             112   -0.1010 29.9 228 
 620  0N ES   1    157  6.52                             112    0.34 7 29.9 228 
 622  0Z IP   0    157  4.39                             103   -0.0610 44.7 167 
 622  0N ES   0    157 10.63                             103    0.0710 44.7 167 
 624  0Z IP   0    157  6.69                              99    0.1210 57.8 133 
 624  0N ES   0    157 14.36                              99    0.1310 57.8 133 
 623  0Z IP   0    157  7.49                              98    0.0010 61.8 156 
 623  0N ES   1    157 16.15                              98    0.33 7 61.8 156 
 621  0Z IP   0    157  8.98                              96   -0.18 9 72.6 184 
 621  0N ES   1    157 18.32                              96   -0.39 7 72.6 184 
 625  0Z IP   2    157 11.58                              95    0.70 4 82.1 153 
 625  0N ES   2    157 21.00                              95   -0.70 4 82.1 153 
 628  0Z IP   1    157 10.67                              94   -0.30 6 85.9 123 
 628  0N ES   0    157 21.64                              94   -0.20 9 85.9 123 
 626  0Z IP   1    157 15.01                              52   -0.22 6  111 161 
 626  0N ES   3    157 28.53                              52   -0.69 2  111 161 
 630  0Z IP   1    157 18.68                              49   -0.28 5  140 126 
 630  0N ES   0    157 36.02                              49    0.35 6  140 126 
 631  0Z IP   0    157 24.49                              47    0.30 5  177 153 
 631  0N ES   4    157 46.17                              47    1.45 0  177 153 
 632  0Z IP   2    157 27.40                              45    0.78 2  197 134 
 632  0Z ES   4    157 51.48                              45    2.56 0  197 134 
                                                                                
 2016 10 9 0036 45.0 L  72.840 125.051 12.7  SLT 11 0.3                        1
 GAP=255        0.44       2.5     4.2  2.8  0.3799E+01 -0.6074E+01 -0.3699E+01E
 ACTION:ARG 20-04-11 14:12 OP:mn   STATUS:               ID:20161009003553     I
 2016-10-09-0035-53M.SIOLA_039                                                 6
 STAT SP IPHASW D HRMM SECON CODA AMPLIT PERI AZIMU VELO AIN AR TRES W  DIS CAZ7
 620  0Z IP   0    036 50.80                             108   -0.2010 31.2 229 
 620  0N ES   0    036 55.35                             108    0.0110 31.2 229 
 622  0Z IP   0    036 53.63                             100    0.1910 45.2 169 
 622  0N ES   0    036 59.62                             100    0.0510 45.2 169 
 624  0Z IP   0    036 55.49                              96    0.0410 57.5 134 
 624  0N ES   0    037  3.09                              96    0.0410 57.5 134 
 623  0Z IP   1    036 56.77                              95    0.31 7 62.0 157 
 623  0N ES   0    037  4.84                              95    0.0410 62.0 157 
 625  0Z IP   3    037  0.75                              93    0.89 2 82.3 154 
 625  0N ES   1    037 10.17                              93   -0.50 7 82.3 154 
 628  0Z IP   1    036 59.69                              93   -0.14 6 85.4 124 
 628  0N ES   0    037 10.49                              93   -0.14 9 85.4 124 
 626  0Z IP   2    037  3.87                              52   -0.52 4  111 162 
 626  0N ES   4    037 17.49                              52   -1.03 0  111 162 
 629  0Z IP   0    037  6.51                              49   -0.08 7  127 142 
 629  0N ES   3    037 23.23                              49    0.91 2  127 142 
 630  0Z IP   0    037  8.10                              49    0.07 6  139 126 
 630  0N ES   1    037 24.59                              49   -0.23 5  139 126 
 631  0Z IP   0    037 13.69                              47    0.35 5  177 154 
 631  0N ES   4    037 35.36                              47    1.35 0  177 154 
 632  0Z IP   2    037 16.45                              45    0.72 2  197 134 
 632  0N ES   4    037 39.68                              45    1.55 0  197 134 
                                                                                
 2016 1012 0800 21.9 L  72.721 126.013 15.0  SLT 12 0.3                        1
 GAP=228        0.56       2.5     4.6  3.5  0.4112E+01 -0.5520E+01 -0.3542E+01E
 ACTION:ARG 20-04-11 14:12 OP:mn   STATUS:               ID:20161012080000     I
 2016-10-12-0800-00M.SIOLA_039                                                 6
 STAT SP IPHASW D HRMM SECON CODA AMPLIT PERI AZIMU VELO AIN AR TRES W  DIS CAZ7
 624  0Z IP   1    8 0 27.96                             115    0.29 7 28.7 162 
 624  0N ES   2    8 0 32.34                             115    0.49 5 28.7 162 
 622  0Z IP   0    8 0 29.61                             108    0.2210 38.9 217 
 622  0N ES   0    8 0 34.99                             108    0.1610 38.9 217 
 623  0Z IP   0    8 0 30.71                             105    0.1810 44.9 191 
 623  0N ES   1    8 0 37.06                             105    0.26 7 44.9 191 
 628  0Z IP   0    8 0 30.92                             102   -0.1910 52.2 133 
 628  0N ES   0    8 0 37.84                             102    0.0310 52.2 133 
 620  0Z IP   0    8 0 31.96                             101   -0.1610 55.9 263 
 620  0N ES   1    8 0 39.36                             101   -0.18 7 55.9 263 
 625  0Z IP   1    8 0 32.91                              99   -0.27 7 61.1 177 
 625  0N ES   1    8 0 40.91                              99   -0.48 7 61.1 177 
 621  0Z IP   0    8 0 34.69                              97   -0.06 9 70.9 213 
 621  0N ES   1    8 0 43.73                              97   -0.36 7 70.9 213 
 627  0Z IP   1    8 0 35.60                              97    0.32 7 74.9 154 
 627  0E ES   1    8 0 44.48                              97   -0.53 7 74.9 154 
 626  0Z IP   2    8 0 38.96                              95    0.66 4 92.9 180 
 626  0N ES   3    8 0 49.33                              95   -0.91 2 92.9 180 
 630  0Z IP   0    8 0 40.24                              52   -0.13 8  106 132 
 630  0N ES   4    8 0 52.64                              52   -1.17 0  106 132 
 631  0Z IP   1    8 0 47.21                              49    0.27 4  153 163 
 631  0N ES   3    8 1  6.06                              49    0.88 1  153 163 
 632  0Z IP   3    8 0 49.44                              47    0.95 1  165 139 
 632  0N ES   2    8 1  8.39                              47    0.52 3  165 139 
                                                                                
