 2016 1015 1013 35.9 L  72.050 126.953 14.9  SLT 13 0.2                        1
 GAP= 76        0.47       0.9     2.4  1.5  0.8736E+00  0.6716E+00 -0.1022E-01E
 ACTION:ARG 20-04-11 14:12 OP:mn   STATUS:               ID:20161015101225     I
 2016-10-15-1012-25M.SIOLA_039                                                 6
 STAT SP IPHASW D HRMM SECON CODA AMPLIT PERI AZIMU VELO AIN AR TRES W  DIS CAZ7
 627  0Z IP   0   1013 38.86                             152    0.0910 7.59   7 
 627  0N ES   1   1013 40.65                             152   -0.21 7 7.59   7 
 629  0Z IP   0   1013 40.18                             127    0.1210 18.3 137 
 629  0Z ES   0   1013 43.13                             127    0.0410 18.3 137 
 625  0Z IP   0   1013 42.39                             112    0.0610 32.2 296 
 625  0N ES   0   1013 46.82                             112   -0.2010 32.2 296 
 626  0Z IP   1   1013 43.03                             109    0.32 7 36.5 241 
 626  0N ES   1   1013 47.98                             109    0.30 7 36.5 241 
 628  0Z IP   0   1013 43.01                             107    0.0210 39.7   9 
 628  0N ES   0   1013 48.22                             107    0.0610 39.7   9 
 630  0Z IP   0   1013 44.61                             103    0.1210 47.2  86 
 630  0N ES   0   1013 50.64                             103   -0.1210 47.2  86 
 623  0Z IP   0   1013 45.75                             102    0.2210 51.1 308 
 623  0N ES   0   1013 52.58                             102    0.0210 51.1 308 
 624  0Z IP   0   1013 45.77                             101    0.1810 52.9 334 
 624  0N ES   0   1013 52.66                             101   -0.0010 52.9 334 
 622  0Z IP   0   1013 48.64                              97   -0.10 9 71.0 309 
 622  0N ES   1   1013 57.74                              97   -0.37 7 71.0 309 
 621  0Z IP   0   1013 49.10                              97    0.14 9 72.3 283 
 621  0N ES   1   1013 57.96                              97   -0.53 7 72.3 283 
 631  0Z IP   0   1013 49.10                              97   -0.23 9 73.3 172 
 631  0N ES   3   1013 58.06                              97   -1.07 2 73.3 172 
 632  0Z IP   0   1013 52.19                              95   -0.19 8 90.9 125 
 632  0N ES   0   1014  4.38                              95   -0.03 8 90.9 125 
 620  0Z IP   0   1013 54.93                              52   -0.19 8  111 309 
 620  0N ES   0   1014  9.29                              52    0.14 8  111 309 
                                                                                
 2016 1029 0831 55.1 L  72.032 127.667 12.8  SLT 11 0.3 1.9LSLT 1.7CSLT        1
 GAP=114        0.53       1.1     3.1  2.1  0.2266E+00  0.1256E+01 -0.2639E+00E
 ACTION:REE 25-08-04 21:46 OP:mn   STATUS:               ID:20161029083048     I
 OLDACT:UP  20-04-26 21:33 OP:alex STATUS:               ID:20161029083048     3
 OLDACT:ARG 20-04-26 14:49 OP:alex STATUS:               ID:20161029083048     3
 2016-10-29-0830-48M.SIOLA_039                                                 6
 STAT SP IPHASW D HRMM SECON CODA AMPLIT PERI AZIMU VELO AIN AR TRES W  DIS CAZ7
 629  0Z IP   1 D  831 59.17   58                        125    0.28 7 16.8 227 
 629  0E IS   1    832  1.87                             125    0.25 7 16.8 227 
 629  0Z  IAML     832  2.25       315.8 0.32                          16.8 227 
 630  0Z IP   0    831 59.66                             116   -0.0310 23.1  78 
 630  0N ES   0    832  2.95                             116   -0.0610 23.1  78 
 627  0Z EP   1 C  832  0.41   37                        113    0.30 7 25.4 292 
 627  0E ES   0    832  3.48                             113   -0.2510 25.4 292 
 627  0Z ES        832  4.05                             113    0.3210 25.4 292 
 628  0Z IP   0    832  2.86                             101   -0.1210 44.7 337 
 628  0N ES   0    832  8.64                             101   -0.0610 44.7 337 
 625  0Z EP   0 C  832  5.37   99                         97   -0.0610 55.8 287 
 625  0E ES   1    832 12.61                              97   -0.33 7 55.8 287 
 625  0Z  IAML     832 16.70        18.1 1.02                          55.8 287 
 626  0Z IP   0    832  5.72                              96    0.1210 58.7 255 
 626  0N ES   0    832 13.09                              96   -0.1510 58.7 255 
 624  0Z IP   1    832  7.82                              94    0.37 7 68.5 317 
 624  0N ES   0    832 16.34                              94   -0.09 9 68.5 317 
 631  0Z EP   0 C  832  8.24   77                         94   -0.11 9 72.2 192 
 631  0E ES   2    832 17.24                              94   -0.75 5 72.2 192 
 631  0Z  IAML     832 19.49        65.7 0.34                          72.2 192 
 623  0Z IP   3    832  9.37                              94    0.93 2 72.9 298 
 623  0N ES   1    832 17.84                              94   -0.31 7 72.9 298 
 622  0Z IP   0    832 11.79                              92    0.19 8 92.3 301 
 622  0N ES   3    832 22.69                              92   -0.93 2 92.3 301 
 620  0Z IP   1    832 17.65                              49    0.33 5  132 303 
 620  0N ES   0    832 33.70                              49    0.18 7  132 303 
                                                                                
 2016 1030 1322 37.4 L  72.540 126.520 10.6  SLT 12 0.3 2.2LSLT                1
 GAP=205        0.52       1.5     3.5  2.0  0.2557E+01 -0.1720E+01 -0.1145E+00E
 ACTION:REE 25-08-04 21:47 OP:mn   STATUS:               ID:20161030132120     I
 OLDACT:ARG 20-04-26 14:49 OP:alex STATUS:               ID:20161030132120     3
 2016-10-30-1321-20M.SIOLA_039                                                 6
 STAT SP IPHASW D HRMM SECON CODA AMPLIT PERI AZIMU VELO AIN AR TRES W  DIS CAZ7
 624  0Z EP   0 C 1322 40.12                             132   -0.0210 10.8 229 
 624  0E ES   1   1322 41.68                             132   -0.46 7 10.8 229 
 624  0Z  IAML    1322 42.72       707.3 0.21                          10.8 229 
 628  0Z EP   0 C 1322 42.27                             107    0.1910 26.2 126 
 628  0N ES   2   1322 46.16                             107    0.67 5 26.2 126 
 628  0Z  IAML    1322 46.61       182.7 0.30                          26.2 126 
 623  0Z IP   0   1322 44.27                              99    0.0910 35.0 227 
 623  0N ES   1   1322 49.46                              99    0.33 7 35.0 227 
 622  0Z IP   0   1322 45.24                              93    0.0210 42.0 256 
 622  0N ES   0   1322 51.03                              93    0.1210 42.0 256 
 625  0Z IP   0   1322 45.46                              92   -0.0410 43.1 199 
 625  0N ES   0   1322 51.31                              92   -0.0910 43.1 199 
 627  0Z IP   0   1322 46.47                              91    0.0910 49.7 161 
 627  0E ES   0   1322 53.05                              91    0.1310 49.7 161 
 629  0Z IP   1   1322 50.21                              90   -0.29 7 73.3 158 
 629  0E ES   0   1323  0.08                              90    0.03 9 73.3 158 
 620  0Z IP   0   1322 50.31                              90   -0.25 9 73.7 281 
 620  0N ES   0   1323  0.27                              90    0.11 9 73.7 281 
 626  0Z EP   0 C 1322 50.70                              90    0.12 9 74.6 193 
 626  0N ES   0   1322 59.97                              90   -0.22 9 74.6 193 
 626  0Z  IAML    1323  1.87        36.2 0.58                          74.6 193 
 630  0Z IP   1   1322 51.12                              90   -0.45 7 80.2 129 
 630  0E ES   2   1323  1.13                              90   -0.76 4 80.2 129 
 631  0Z EP   0 C 1322 59.88                              49    0.04 7  130 168 
 631  0N ES   1   1323 16.50                              49    0.30 5  130 168 
 631  0Z  IAML    1323 22.17        29.5 0.65                           130 168 
 632  0Z IP   0   1323  1.17                              49    0.10 6  139 140 
 632  0E ES   1   1323 17.99                              49   -0.34 5  139 140 
                                                                                
 2016 11 5 0556 46.8 L  72.277 129.709 11.7  SLT 13 0.3 2.4LSLT 2.0CSLT        1
 GAP=270        0.48       2.0     9.1  2.3  0.6516E+01 -0.5574E+01 -0.1513E+01E
 ACTION:REE 25-08-04 21:51 OP:mn   STATUS:               ID:20161105055546     I
 2016-11-05-0555-46M.arct__039                                                 6
 STAT SP IPHASW D HRMM SECON CODA AMPLIT PERI AZIMU VELO AIN AR TRES W  DIS CAZ7
 630  0Z IP   0    556 56.31                              95    0.1110 52.4 245 
 630  0N ES   2    557  3.72                              95    0.67 5 52.4 245 
 632  0Z IP   2    557  1.07   70                         92   -0.59 4 81.5 196 
 632  0Z  IAML     557 12.36       104.1 0.21                          81.5 196 
 632  0E ES   0    557 12.38                              92   -0.10 9 81.5 196 
 628  0Z IP   1    557  2.31                              91    0.27 6 87.8 280 
 628  0N ES   1    557 12.89                              91   -0.25 6 87.8 280 
 629  0Z IP   1    557  3.20                              91    0.26 6 90.9 246 
 629  0N ES   0    557 14.64                              91   -0.07 8 90.9 246 
 627  0Z IP   0    557  3.36                              91   -0.18 8 94.8 260 
 627  0N ES   2    557 15.29                              91   -0.45 4 94.8 260 
 624  0Z IP   1    557  6.88                              49   -0.47 6  118 282 
 624  0N ES   4    557 21.08                              49   -1.26 0  118 282 
 625  0Z IP   0    557  8.18                              49    0.01 7  123 266 
 625  0N ES   2    557 23.14                              49   -0.61 4  123 266 
 631  0Z IP   1    557  9.61                              49    0.43 5  130 222 
 631  0N ES   0    557 25.40                              49   -0.09 7  130 222 
 626  0Z IP   2    557  9.79                              49    0.62 3  133 253 
 626  0E ES   1    557 25.78                              49    0.30 5  133 253 
 623  0Z IP   0    557  9.58                              49   -0.07 7  134 274 
 623  0N ES   3    557 25.54                              49   -0.77 2  134 274 
 622  0Z IP   0    557 11.44   84                         49   -0.08 6  150 279 
 622  0E ES   4    557 31.74                              49    2.20 0  150 279 
 622  0Z  IAML     557 33.03        18.6 0.28                           150 279 
 621  0Z IP   1    557 13.87   63                         49    0.45 4  165 269 
 621  0E ES   2    557 33.44                              49    0.61 3  165 269 
 621  0Z  IAML     557 35.39        26.2 0.37                           165 269 
 620  0Z IP   1    557 16.11   68                         45    0.22 3  185 286 
 620  0E ES   0    557 37.04                              45   -0.06 5  185 286 
 620  0Z  IAML     557 41.20        10.7 0.43                           185 286 
                                                                                
 2016 11 5 0610 51.5 L  72.264 129.694 11.8  SLT 13 0.3 1.4LSLT 1.5CSLT        1
 GAP=270        0.44       2.5    11.1  1.9  0.9226E+01  0.2474E+01 -0.7839E+00E
 ACTION:REE 25-08-04 21:51 OP:mn   STATUS:               ID:20161105061008     I
 2016-11-05-0610-08M.arct__039                                                 6
 STAT SP IPHASW D HRMM SECON CODA AMPLIT PERI AZIMU VELO AIN AR TRES W  DIS CAZ7
 630  0Z IP   0    611  0.74                              95    0.0710 51.3 246 
 630  0N ES   4    611  9.46                              95    2.08 0 51.3 246 
 632  0Z IP   2    611  5.41   62                         92   -0.63 4 79.9 196 
 632  0E ES   2    611 16.45                              92   -0.22 4 79.9 196 
 632  0Z  IAML     611 18.64        11.0 0.54                          79.9 196 
 628  0Z IP   1    611  6.96                              92    0.31 6 87.6 281 
 628  0N ES   2    611 17.44                              92   -0.28 4 87.6 281 
 629  0Z IP   0    611  7.58                              91    0.17 8 89.9 247 
 629  0N ES   2    611 19.02                              91   -0.02 4 89.9 247 
 627  0Z IP   0    611  7.98                              91   -0.08 8 94.1 261 
 627  0N ES   2    611 19.90                              91   -0.27 4 94.1 261 
 624  0Z IP   1    611 11.44   39                         49   -0.53 5  118 283 
 624  0N ES   4    611 25.75                              49   -1.19 0  118 283 
 624  0Z  IAML     611 27.76         8.5 0.79                           118 283 
 625  0Z IP   2    611 13.16                              49    0.42 4  123 267 
 625  0N ES   0    611 28.15                              49   -0.11 7  123 267 
 631  0Z IP   2    611 14.16                              49    0.53 3  129 223 
 631  0N ES   0    611 29.82                              49    0.01 7  129 223 
 626  0Z IP   2    611 14.29                              49    0.59 3  133 253 
 626  0N ES   1    611 30.28                              49    0.36 5  133 253 
 623  0Z IP   1    611 14.42                              49    0.18 5  134 275 
 623  0N ES   0    611 30.68                              49   -0.18 7  134 275 
 622  0Z IP   0    611 15.81                              49   -0.32 6  150 280 
 622  0N ES   1    611 33.75                              49   -0.37 5  150 280 
 621  0Z IP   1    611 18.29   47                         49    0.30 4  164 269 
 621  0N ES   1    611 37.85                              49    0.50 4  164 269 
 621  0Z  IAML     611 39.92         2.3 0.21                           164 269 
 620  0Z IP   1    611 20.51   47                         45   -0.01 3  185 286 
 620  0E ES   1    611 41.99                              45    0.27 3  185 286 
 620  0Z  IAML     611 45.61         1.3 0.61                           185 286 
                                                                                
 2016 11 5 0626 28.8 L  72.266 129.716 12.2  SLT 13 0.3 2.9LSLT 2.1CSLT        1
 GAP=270        0.46       2.1     8.1  2.0  0.6551E+01 -0.3014E+01 -0.1191E+01E
 ACTION:REE 25-08-04 21:51 OP:mn   STATUS:               ID:20161105062528     I
 2016-11-05-0625-28M.arct__039                                                 6
 STAT SP IPHASW D HRMM SECON CODA AMPLIT PERI AZIMU VELO AIN AR TRES W  DIS CAZ7
 630  0Z IP   0    626 38.35                              96    0.1710 52.1 247 
 632  0Z IP   1    626 43.28   81                         92   -0.20 7 80.4 196 
 632  0E ES   1    626 53.82                              92   -0.35 7 80.4 196 
 632  0Z  IAML     626 56.13       266.0 0.58                          80.4 196 
 628  0Z IP   0    626 44.05  104                         92   -0.09 9 88.3 281 
 628  0N ES   0    626 55.36                              92    0.06 9 88.3 281 
 628  0Z  IAML     626 57.07       211.3 0.18                          88.3 281 
 629  0Z IP   1    626 45.26                              92    0.35 6 90.7 247 
 629  0N ES   0    626 56.78                              92    0.13 8 90.7 247 
 627  0Z IP   0    626 45.54                              92   -0.02 8 94.8 261 
 627  0N ES   1    626 57.37                              92   -0.40 6 94.8 261 
 624  0Z IP   1    626 49.11                              49   -0.27 5  119 283 
 624  0N ES   4    627  2.97                              49   -1.40 0  119 283 
 625  0Z IP   0    626 50.07                              49   -0.08 7  123 267 
 625  0N ES   0    627  5.57                              49   -0.14 7  123 267 
 631  0Z IP   2    626 51.81                              49    0.77 3  129 223 
 631  0N ES   1    627  7.55                              49    0.31 5  129 223 
 626  0Z IP   2    626 51.82                              49    0.70 3  133 253 
 626  0N ES   1    627  7.66                              49    0.28 5  133 253 
 623  0Z IP   0    626 51.64                              49   -0.01 7  134 275 
 623  0N ES   2    627  7.68                              49   -0.63 3  134 275 
 622  0Z IP   0    626 53.38                              49   -0.15 6  150 280 
 622  0N ES   1    627 11.09                              49   -0.47 5  150 280 
 621  0Z IP   2    626 56.09   82                         49    0.68 3  165 269 
 621  0N ES   3    627 15.57                              49    0.77 1  165 269 
 621  0Z  IAML     627 17.54        48.7 0.40                           165 269 
 620  0Z IP   1    626 58.20   67                         45    0.29 3  186 286 
 620  0N ES   2    627 19.60                              45    0.47 2  186 286 
 620  0Z  IAML     627 23.30        25.7 0.39                           186 286 
                                                                                
 2016 11 5 0629  6.4 L  72.252 129.777 13.1  SLT 13 0.4 2.8LSLT 2.1CSLT        1
 GAP=272        0.45       2.1     8.4  2.3  0.3132E+01 -0.5945E+01 -0.1762E+01E
 ACTION:REE 25-08-04 21:52 OP:mn   STATUS:               ID:20161105062806     I
 2016-11-05-0628-06M.arct__039                                                 6
 STAT SP IPHASW D HRMM SECON CODA AMPLIT PERI AZIMU VELO AIN AR TRES W  DIS CAZ7
 630  0Z IP   0    629 15.99                              98    0.0510 53.4 249 
 630  0N ES   0    629 22.93                              98   -0.0110 53.4 249 
 632  0Z IP   1    629 20.72   80                         94   -0.14 7 79.5 198 
 632  0E ES   1    629 31.30                              94   -0.14 7 79.5 198 
 632  0Z  IAML     629 33.37       233.2 0.65                          79.5 198 
 628  0Z IP   0    629 22.14   75                         93    0.07 8 90.7 282 
 628  0N ES   2    629 34.02                              93    0.49 4 90.7 282 
 628  0Z  IAML     629 34.83       210.9 0.37                          90.7 282 
 629  0Z IP   1    629 22.93                              93    0.26 6 91.9 248 
 629  0N ES   0    629 34.54                              93   -0.02 8 91.9 248 
 627  0Z IP   1    629 23.02                              93   -0.38 6 96.7 262 
 627  0N ES   3    629 34.80                              93   -1.04 2 96.7 262 
 624  0Z IP   2    629 26.62                              49   -0.49 4  121 284 
 624  0N ES   4    629 40.85                              49   -1.41 0  121 284 
 625  0Z IP   0    629 27.88                              49    0.05 7  125 268 
 625  0N ES   2    629 42.67                              49   -0.84 4  125 268 
 631  0Z IP   3    629 29.41                              49    0.91 2  130 224 
 631  0N ES   1    629 45.07                              49    0.41 5  130 224 
 626  0Z IP   2    629 29.37                              49    0.63 3  135 254 
 626  0N ES   1    629 45.29                              49    0.21 5  135 254 
 623  0Z IP   0    629 29.35                              49   -0.01 7  137 275 
 623  0N ES   3    629 45.18                              49   -0.97 2  137 275 
 622  0Z IP   1    629 30.90                              49   -0.36 4  153 280 
 622  0N ES   2    629 48.68                              49   -0.75 3  153 280 
 621  0Z IP   1    629 33.52   77                         47    0.43 4  167 270 
 621  0E ES   4    629 54.24                              47    1.64 0  167 270 
 621  0Z  IAML     630  3.58        42.6 0.33                           167 270 
 620  0Z IP   0    629 35.78   84                         45    0.16 5  188 286 
 620  0E ES   4    629 59.11                              45    2.13 0  188 286 
 620  0Z  IAML     630  4.05        23.6 0.49                           188 286 
                                                                                
