 2017  317 1007 13.9 L  72.240 125.978  2.4  SLT  9 0.4                        1
 GAP= 84        1.14       1.7     5.9 15.1  0.1883E+01 -0.8482E+01 -0.2277E+01E
 ACTION:ARG 20-12-21 03:09 OP:mn   STATUS:               ID:20170317100556     I
 2017-03-17-1005-56M.a_____039                                                 6
 STAT SP IPHASW D HRMM SECON CODA AMPLIT PERI AZIMU VELO AIN AR TRES W  DIS CAZ7
 625  0Z IP   0   10 7 15.55                             104   -0.1610 8.56 149 
 625  0E ES   0   10 7 16.97                             104   -0.0410 8.56 149 
 623  0Z IP   0   10 7 16.27                             100   -0.1410 12.1 323 
 623  0E ES   1   10 7 18.62                             100    0.4010 12.1 323 
 624  0Z IP   0   10 7 19.15                              95    0.1510 28.2  21 
 624  0E ES   3   10 7 21.82                              95   -0.8810 28.2  21 
 622  0Z IP   0   10 7 19.87                              94    0.1410 31.9 315 
 621  0E IP   1   10 7 20.40                              93   -0.3310 37.7 261 
 621  0N ES   0   10 7 25.84                              93    0.1410 37.7 261 
 626  0Z IP   0   10 7 20.63                              93   -0.1710 39.3 177 
 626  0E ES   1   10 7 26.15                              93    0.3310 39.3 177 
 628  0Z IP   0   10 7 21.20                              93   -0.1010 43.5  65 
 628  0E ES   2   10 7 27.42                              93    0.7310 43.5  65 
 629  0Z IP   1   10 7 23.70                              92   -0.4610 57.5 126 
 629  0E ES   1   10 7 31.28                              92   -0.3610 57.5 126 
 630  0Z IP   3   10 7 29.36                              92    0.92 9 82.4 102 
                                                                                
 2017  320 1900 33.9 L  72.401 126.122 18.6  SLT  9 0.3                        1
 GAP= 95        0.87       1.8     4.4  3.1  0.6699E+00 -0.5590E-01  0.1139E+01E
 ACTION:ARG 20-12-21 03:09 OP:mn   STATUS:               ID:20170320190000     I
 2017-03-20-1900-00M.a_____039                                                 6
 STAT SP IPHASW D HRMM SECON CODA AMPLIT PERI AZIMU VELO AIN AR TRES W  DIS CAZ7
 624  0Z IP   0   19 0 37.65                             150    0.0510 9.84  32 
 624  0N ES   0   19 0 40.26                             150   -0.0410 9.84  32 
 623  0Z IP   0   19 0 38.41                             139    0.0910 14.8 236 
 623  0N ES   0   19 0 41.36                             139   -0.1810 14.8 236 
 625  0Z IP   0   19 0 39.69                             122    0.1210 25.3 181 
 625  0N ES   0   19 0 43.86                             122    0.1410 25.3 181 
 622  0Z IP   0   19 0 39.70                             120   -0.1310 27.7 280 
 622  0N ES   1   19 0 43.81                             120   -0.3410 27.7 280 
 628  0Z IP   1   19 0 40.71                             113    0.3210 34.6  90 
 628  0N ES   0   19 0 45.37                             113    0.2410 34.6  90 
 621  0Z IP   0   19 0 43.05                             104    0.0110 48.4 241 
 621  0N ES   1   19 0 49.32                             104   -0.3910 48.4 241 
 626  0Z IP   2   19 0 44.86                             100    0.5810 57.3 183 
 626  0E ES   0   19 0 52.06                             100    0.2010 57.3 183 
 620  0Z IP   0   19 0 46.03                              96    0.20 9 65.9 296 
 620  0N ES   0   19 0 54.73                              96    0.20 9 65.9 296 
 630  0Z IP   1   19 0 48.34                              93   -0.27 9 83.4 115 
 630  0N ES   4   19 0 58.33                              93   -1.02 9 83.4 115 
                                                                                
 2017  326 0836 33.4 L  71.973 127.669 18.3  SLT 13 0.6                        1
 GAP= 83        1.30       2.3     7.1  3.1  0.4302E+01  0.4472E+01 -0.2665E+00E
 ACTION:ARG 20-12-21 03:09 OP:mn   STATUS:               ID:20170326083527     I
 2017-03-26-0835-27M.a_____039                                                 6
 STAT SP IPHASW D HRMM SECON CODA AMPLIT PERI AZIMU VELO AIN AR TRES W  DIS CAZ7
 629  0Z IP   1    836 37.76                             142    0.3810 13.2 248 
 629  0N ES   0    836 40.50                             142    0.2310 13.2 248 
 630  0Z IP   0    836 38.93                             122    0.1610 25.3  63 
 630  0N ES   0    836 42.51                             122   -0.1510 25.3  63 
 627  0Z IP   0    836 39.41                             118    0.1110 28.6 305 
 627  0N ES   1    836 43.27                             118   -0.3210 28.6 305 
 628  0Z IP   0    836 42.34                             102   -0.1610 50.9 340 
 628  0E ES   0    836 48.96                             102   -0.1610 50.9 340 
 626  0Z IP   0    836 43.96                              99    0.1610 57.3 261 
 626  0N ES   0    836 51.36                              99   -0.0210 57.3 261 
 625  0Z IP   0    836 44.25                              98   -0.0110 58.2 293 
 625  0N ES   2    836 51.44                              98   -0.7210 58.2 293 
 631  0Z IP   0    836 45.78                              96    0.16 9 65.7 193 
 631  0E ES   0    836 54.34                              96   -0.19 9 65.7 193 
 632  0Z IP   0    836 45.58                              96   -0.16 9 66.2 132 
 632  0N ES   2    836 54.22                              96   -0.51 9 66.2 132 
 624  0Z IP   3    836 47.58                              94    0.93 9 73.5 320 
 624  0N ES   1    836 55.89                              94   -0.41 9 73.5 320 
 623  0Z IP   2    836 47.90                              94    0.55 9 76.3 302 
 622  0Z IP   0    836 50.40                              54    0.06 8 95.9 304 
 622  0N ES   3    837  1.80                              54   -0.89 8 95.9 304 
 621  0Z IP   0    836 50.66                              54   -0.01 8 98.4 285 
 621  0N ES   3    837  2.37                              54   -0.90 8 98.4 285 
 620  0Z IP   4    836 56.79                              51    1.31 7  136 306 
 620  0N ES   4    837 13.42                              51    1.84 7  136 306 
                                                                                
 2017  4 2 0422  1.2 L  72.688 125.656 19.5  SLT 13 0.5                        1
 GAP=216        1.04       3.4     7.0  2.7  0.7175E+01 -0.6162E+01 -0.1834E+01E
 ACTION:UP  20-12-20 22:46 OP:elen STATUS:               ID:20170402042039     I
 OLDACT:UP  20-12-20 00:44 OP:elen STATUS:               ID:20170402042039     3
 OLDACT:UP  20-12-16 20:09 OP:elen STATUS:               ID:20170402042039     3
 OLDACT:UP  20-12-16 14:06 OP:elen STATUS:               ID:20170402042039     3
 OLDACT:REG 20-12-12 10:59 OP:elen STATUS:               ID:20170402042039     3
 2017-04-02-0420-39M.NSN___039                                                 6
 STAT SP IPHASW D HRMM SECON CODA AMPLIT PERI AZIMU VELO AIN AR TRES W  DIS CAZ7
 622  0Z IP   1    422  7.87                             119    0.3410 29.7 203 
 622  0N ES   2    422 12.68                             119    0.5410 29.7 203 
 624  0Z IP   0    422  7.93                             118    0.2310 31.4 139 
 624  0N ES   1    422 12.72                             118    0.2910 31.4 139 
 623  0Z IP   0    422  9.48                             110    0.1410 40.5 175 
 623  0E ES   0    422 15.32                             110    0.0710 40.5 175 
 620  0Z IP   1    422  9.31                             108   -0.2710 43.7 266 
 620  0E ES   1    422 15.33                             108   -0.3410 43.7 266 
 625  0Z IP   0    422 12.32                             101    0.0410 59.3 165 
 625  0E ES   1    422 20.08                             101   -0.2710 59.3 165 
 628  0Z IP   0    422 11.52                             101   -0.2110 59.4 122 
 628  0N ES   0    422 19.31                             101   -0.0910 59.4 122 
 621  0Z IP   1    422 13.07                             100    0.4610 61.9 205 
 621  0E ES   1    422 20.50                             100   -0.4210 61.9 205 
 627  0Z IP   0    422 15.23                              96    0.13 9 77.8 144 
 627  0E ES   2    422 24.48                              96   -0.74 9 77.8 144 
 626  0Z IP   1    422 16.68                              54   -0.36 8 90.2 172 
 626  0Z ES   1    422 28.14                              54   -0.45 8 90.2 172 
 629  0Z IP   0    422 18.83                              54    0.12 8  102 146 
 630  0Z IP   1    422 19.72                              51   -0.38 7  113 126 
 630  0N ES   3    422 33.07                              51   -0.81 7  113 126 
 631  0Z IP   1    422 26.19                              51    0.40 6  154 158 
 631  0E ES   3    422 44.71                              51    0.99 6  154 158 
 632  0Z IP   2    422 28.57                              49    0.63 5  171 135 
 632  0Z ES   4    422 49.10                              49    1.66 5  171 135 
                                                                                
 2017  4 5 0307 36.0 L  71.675 128.836  9.6  SLT 11 0.4                        1
 GAP=165        0.90       2.2     8.6  2.8  0.1309E+01  0.5836E+01 -0.1591E+01E
 ACTION:UP  20-12-21 00:10 OP:elen STATUS:               ID:20170405030618     I
 OLDACT:UP  20-12-20 01:44 OP:elen STATUS:               ID:20170405030618     3
 OLDACT:UP  20-12-16 21:32 OP:elen STATUS:               ID:20170405030618     3
 OLDACT:REG 20-12-13 13:11 OP:elen STATUS:               ID:20170405030618     3
 2017-04-05-0306-18M.NSN___039                                                 6
 STAT SP IPHASW D HRMM SECON CODA AMPLIT PERI AZIMU VELO AIN AR TRES W  DIS CAZ7
 632  0Z IP   0    3 7 39.22                             124   -0.1210 14.0 143 
 630  0Z IP   0    3 7 44.60                             101    0.0210 48.1 339 
 630  0E ES   0    3 7 50.81                             101   -0.0410 48.1 339 
 629  0N IP   3    3 7 47.79                              99    0.9610 60.2 299 
 629  0E ES   1    3 7 55.11                              99    0.3710 60.2 299 
 631  0Z IP   0    3 7 47.79                              98   -0.00 9 64.1 242 
 631  0N ES   0    3 7 56.19                              98   -0.23 9 64.1 242 
 628  0Z IP   1    3 7 52.89                              76   -0.37 8 99.7 325 
 628  0E ES   1    3 8  5.38                              76   -0.49 8 99.7 325 
 626  0Z IP   1    3 7 53.32                              76   -0.34 8  101 285 
 626  0N ES   0    3 8  6.48                              76   -0.08 8  101 285 
 625  0Z IP   1    3 7 55.21                              76   -0.33 8  110 302 
 625  0N ES   3    3 8  8.99                              76   -0.84 8  110 302 
 624  0Z IP   1    3 7 57.43                              47   -0.26 7  125 317 
 624  0E ES   0    3 8 13.52                              47   -0.02 7  125 317 
 623  0Z IP   1    3 7 58.66                              47    0.32 7  129 306 
 623  0N ES   0    3 8 14.72                              47    0.06 7  129 306 
 622  0Z IP   0    3 8  0.83                              47    0.11 6  148 307 
 622  0N ES   3    3 8 19.58                              47    0.79 6  148 307 
 621  0Z IP   1    3 8  1.02                              47    0.34 6  148 294 
 621  0E ES   1    3 8 19.03                              47    0.31 6  148 294 
                                                                                
 2017  4 8 1004 44.8 L  72.564 124.902 13.2  SLT 13 0.5                        1
 GAP=163        1.03       2.6     7.1  2.7  0.7793E+01 -0.4979E+01  0.5437E-01E
 ACTION:UP  20-12-21 14:32 OP:elen STATUS:               ID:20170408100319     I
 OLDACT:UP  20-12-20 16:21 OP:elen STATUS:               ID:20170408100319     3
 OLDACT:UP  20-12-19 02:06 OP:elen STATUS:               ID:20170408100319     3
 OLDACT:REG 20-12-15 20:09 OP:elen STATUS:               ID:20170408100319     3
 2017-04-08-1003-19M.NSN___039                                                 6
 STAT SP IPHASW D HRMM SECON CODA AMPLIT PERI AZIMU VELO AIN AR TRES W  DIS CAZ7
 622  0Z IP   1   10 4 49.31                             122    0.2810 19.4 134 
 622  0E ES   2   10 4 52.71                             122    0.5710 19.4 134 
 620  0Z IP   0   10 4 49.10                             119   -0.0810 21.0 299 
 620  0N ES   0   10 4 52.37                             119   -0.0210 21.0 299 
 623  0Z IP   0   10 4 52.25                             104   -0.1110 39.3 132 
 623  0N ES   0   10 4 57.99                             104    0.0910 39.3 132 
 621  0Z IP   2   10 4 53.23                             103    0.5110 42.4 181 
 621  0N ES   0   10 4 58.56                             103    0.0410 42.4 181 
 624  0Z IP   0   10 4 53.23                             100   -0.2110 47.1 101 
 624  0Z ES   2   10 5  0.44                             100    0.6810 47.1 101 
 625  0Z IP   1   10 4 55.44                              97   -0.2910 59.6 136 
 625  0N ES   2   10 5  3.16                              97   -0.5610 59.6 136 
 628  0Z IP   2   10 4 57.57                              94   -0.68 9 77.6 103 
 628  0N ES   0   10 5  7.96                              94   -0.13 9 77.6 103 
 626  0Z IP   0   10 4 59.90                              93    0.18 9 84.8 152 
 626  0E ES   2   10 5 10.06                              93   -0.56 9 84.8 152 
 627  0Z IP   0   10 4 59.81                              93   -0.24 9 86.3 124 
 627  0E ES   1   10 5 10.80                              93   -0.40 9 86.3 124 
 629  0Z IP   1   10 5  3.42                              52   -0.40 8  108 130 
 629  0N ES   1   10 5 17.36                              52   -0.36 8  108 130 
 630  0Z IP   1   10 5  5.84                              49   -0.45 7  128 114 
 630  0E ES   4   10 5 23.00                              49    1.01 7  128 114 
 631  0Z IP   1   10 5 10.20                              49    0.26 6  153 147 
 631  0E ES   1   10 5 28.65                              49    0.35 6  153 147 
 632  0Z IP   2   10 5 14.07                              45    0.58 5  181 126 
 632  0E ES   4   10 5 35.68                              45    1.23 5  181 126 
                                                                                
 2017  416 0523 41.3 L  71.943 127.071 19.3  SLT 12 0.5                        1
 GAP= 87        1.14       1.9     6.0  3.3  0.4117E+01  0.3876E+01  0.1740E+00E
 ACTION:UP  20-12-26 19:23 OP:elen STATUS:               ID:20170416052232     I
 OLDACT:REG 20-12-24 20:31 OP:elen STATUS:               ID:20170416052232     3
 2017-04-16-0522-32M.NSN___039                                                 6
 STAT SP IPHASW D HRMM SECON CODA AMPLIT PERI AZIMU VELO AIN AR TRES W  DIS CAZ7
 629  0Z IP   1    523 45.44                             155    0.4910 8.51 101 
 629  0E ES   1    523 48.02                             155    0.3910 8.51 101 
 627  0Z IP   1    523 46.36                             132    0.3410 19.6 351 
 627  0E ES   0    523 49.61                             132    0.1310 19.6 351 
 626  0Z IP   1    523 48.76                             113    0.4210 36.4 261 
 626  0N ES   0    523 53.71                             113    0.2210 36.4 261 
 625  0Z IP   0    523 49.72                             109    0.2010 42.0 308 
 625  0N ES   2    523 54.90                             109   -0.6410 42.0 308 
 630  0Z IP   0    523 49.92                             107    0.1310 45.7  71 
 630  0N ES   0    523 55.85                             107   -0.1610 45.7  71 
 628  0Z IP   0    523 50.39                             104   -0.0210 51.0   3 
 628  0E ES   0    523 56.86                             104   -0.2210 51.0   3 
 631  0Z IP   0    523 52.66                             100   -0.0510 61.0 174 
 631  0E ES   1    524  0.63                             100   -0.4410 61.0 174 
 623  0Z IP   0    523 52.77                              99   -0.0710 62.0 314 
 623  0N ES   2    524  0.55                              99   -0.7310 62.0 314 
 624  0Z IP   1    523 53.61                              98    0.45 9 65.4 336 
 624  0N ES   0    524  1.79                              98   -0.05 9 65.4 336 
 632  0Z IP   1    523 55.84                              95   -0.25 9 81.2 120 
 632  0E ES   3    524  6.13                              95   -0.78 9 81.2 120 
 622  0Z IP   0    523 56.19                              95    0.22 9 81.9 314 
 622  0N ES   3    524  5.76                              95   -0.95 9 81.9 314 
 620  0Z IP   3    524  2.20                              51    0.79 7  122 312 
 620  0N ES   3    524 17.06                              51    0.96 7  122 312 
                                                                                
 2017  416 1821  5.6 L  72.839 125.048 12.5  SLT 13 0.5                        1
 GAP=255        1.02       4.0     8.1  3.4  0.4079E+01 -0.9734E+01 -0.3786E+01E
 ACTION:UP  20-12-27 00:47 OP:elen STATUS:               ID:20170416181941     I
 OLDACT:REG 20-12-24 20:59 OP:elen STATUS:               ID:20170416181941     3
 2017-04-16-1819-41M.NSN___039                                                 6
 STAT SP IPHASW D HRMM SECON CODA AMPLIT PERI AZIMU VELO AIN AR TRES W  DIS CAZ7
 620  0Z IP   0   1821 11.57                             108    0.0410 31.0 229 
 620  0E ES   1   1821 16.25                             108    0.4010 31.0 229 
 622  0Z IP   1   1821 14.36                             100    0.3810 45.1 169 
 622  0N ES   0   1821 20.28                             100    0.1810 45.1 169 
 624  0Z IP   0   1821 16.17                              96    0.1610 57.5 134 
 624  0E ES   2   1821 24.11                              96    0.5010 57.5 134 
 623  0Z IP   0   1821 17.02                              95    0.0110 61.9 157 
 623  0E ES   1   1821 25.60                              95    0.2610 61.9 157 
 621  0Z IP   1   1821 18.44                              93   -0.33 9 73.2 184 
 621  0N ES   1   1821 27.98                              93   -0.40 9 73.2 184 
 625  0Z IP   1   1821 19.95                              93   -0.46 9 82.2 154 
 625  0E ES   2   1821 30.59                              93   -0.63 9 82.2 154 
 628  0Z IP   1   1821 20.01                              93   -0.39 9 85.4 124 
 628  0N ES   0   1821 31.26                              93    0.06 9 85.4 124 
 627  0Z IP   1   1821 23.55                              92   -0.26 8  103 140 
 627  0N ES   0   1821 36.98                              92   -0.12 8  103 140 
 626  0Z IP   2   1821 24.46                              52   -0.51 8  111 162 
 626  0E ES   3   1821 38.21                              52   -0.90 8  111 162 
 629  0Z IP   0   1821 27.00                              49   -0.17 7  127 142 
 629  0N ES   3   1821 43.66                              49    0.75 7  127 142 
 630  0Z IP   1   1821 28.15                              49   -0.47 6  139 126 
 630  0N ES   0   1821 45.43                              49    0.00 6  139 126 
 631  0Z IP   1   1821 34.17                              47    0.25 5  177 154 
 631  0E ES   4   1821 55.93                              47    1.33 5  177 154 
 632  0Z IP   1   1821 36.64                              45    0.33 4  197 134 
 632  0N ES   4   1822  0.61                              45    1.88 4  197 134 
                                                                                
