 2016 1126 1456 11.9 L  72.700 124.986 11.7  SLT 11 0.6 1.1LSLT 1.8CSLT        1
 GAP=217        1.34       4.8     9.6  4.6  0.1336E+02 -0.1983E+02 -0.3635E+01E
 ACTION:REE 25-08-04 22:01 OP:mn   STATUS:               ID:20161126145445     I
 2016-11-26-1454-45M.arct__039                                                 6
 STAT SP IPHASW D HRMM SECON CODA AMPLIT PERI AZIMU VELO AIN AR TRES W  DIS CAZ7
 620  0Z IP   1   1456 15.80   67                        114   -0.4610 21.8 257 
 620  0E ES   1   1456 19.72                             114    0.2510 21.8 257 
 620  0Z  IAML    1456 20.57        36.0 0.22                          21.8 257 
 622  0Z IP   0   1456 17.79   73                        106   -0.0210 30.8 159 
 622  0E ES   3   1456 22.90                             106    0.7510 30.8 159 
 622  0Z  IAML    1456 26.55        13.2 0.28                          30.8 159 
 624  0Z IP   0   1456 20.80   67                         96   -0.1510 49.8 120 
 624  0E ES   1   1456 28.06                              96    0.4810 49.8 120 
 624  0Z  IAML    1456 28.27        26.9 0.17                          49.8 120 
 621  0Z IP   0   1456 22.26                              94   -0.1010 57.7 183 
 621  0E ES   1   1456 29.67                              94   -0.3510 57.7 183 
 625  0N IP   4   1456 25.66                              92    1.13 9 69.8 147 
 625  0E ES   3   1456 32.98                              92   -0.80 9 69.8 147 
 628  0Z IP   2   1456 25.12                              92   -0.56 9 79.7 114 
 628  0N ES   1   1456 35.32                              92   -0.45 9 79.7 114 
 627  0Z IP   0   1456 28.55                              91    0.17 8 93.7 133 
 627  0N ES   1   1456 39.97                              91   -0.47 8 93.7 133 
 629  0Z IP   0   1456 32.09                              49   -0.10 7  117 136 
 629  0N ES   4   1456 45.73                              49   -1.30 7  117 136 
 630  0Z IP   0   1456 34.08                              49   -0.03 7  133 120 
 630  0N ES   4   1456 51.40                              49    1.05 7  133 120 
 631  0Z IP   0   1456 38.91                              49    0.23 5  165 151 
 631  0N ES   2   1456 58.80                              49    0.54 5  165 151 
 632  0Z IP   1   1456 42.04                              45    0.42 4  188 130 
 632  0N ES   4   1457  4.64                              45    1.30 4  188 130 
                                                                                
 2016 1228 2250 24.0 L  71.590 127.525  0.2  SLT 10 0.3 1.9LSLT 2.0CSLT        1
 GAP=114        0.81       1.5     4.8  5.3  0.6288E+00  0.2993E+01  0.3800E+01E
 ACTION:REE 25-08-04 22:04 OP:mn   STATUS:               ID:20161228224921     I
 2016-12-28-2249-21M.arct__039                                                 6
 STAT SP IPHASW D HRMM SECON CODA AMPLIT PERI AZIMU VELO AIN AR TRES W  DIS CAZ7
 631  0Z IP   0   2250 28.59   77                         75    0.0710 23.5 205 
 631  0N ES   1   2250 32.09                              75    0.2910 23.5 205 
 631  0Z  IAML    2250 33.05       162.0 0.45                          23.5 205 
 629  0Z IP   0   2250 30.78                              90   -0.1010 38.5 349 
 629  0N ES   0   2250 36.02                              90    0.1310 38.5 349 
 632  0Z IP   1   2250 33.78   84                         75   -0.2910 54.6  91 
 632  0N ES   1   2250 40.97                              75   -0.4510 54.6  91 
 632  0Z  IAML    2250 42.34        30.3 0.26                          54.6  91 
 630  0Z IP   1   2250 35.00   83                         90    0.2910 60.8  27 
 630  0N ES   1   2250 43.00                              90    0.4810 60.8  27 
 630  0Z  IAML    2250 43.81        19.2 0.62                          60.8  27 
 627  0Z IP   1   2250 35.35                              90    0.4210 61.7 342 
 626  0Z IP   0   2250 34.81                              75   -0.0510 61.8 303 
 626  0N ES   1   2250 42.41                              75   -0.3810 61.8 303 
 628  0Z IP   0   2250 39.83                              75   -0.03 8 91.3 352 
 623  0Z IP   0   2250 42.52                              90    0.07 8  102 324 
 622  0Z IP   0   2250 45.89                              90    0.14 7  122 322 
 622  0E ES   3   2251  0.71                              90   -0.92 7  122 322 
 620  0Z IP   1   2250 51.19                              45   -0.26 6  161 319 
 620  0Z ES   0   2251 11.71                              45    0.24 6  161 319 
                                                                                
 2016 1230 1909 41.5 L  72.277 129.727 11.6  SLT 13 0.4 2.1LSLT 1.9CSLT        1
 GAP=271        0.79       3.1    11.9  2.9  0.1660E+02 -0.4765E+01 -0.3177E+01E
 ACTION:REE 25-08-04 22:04 OP:mn   STATUS:               ID:20161230190840     I
 2016-12-30-1908-40M.arct__039                                                 6
 STAT SP IPHASW D HRMM SECON CODA AMPLIT PERI AZIMU VELO AIN AR TRES W  DIS CAZ7
 630  0Z  IAML    19 9 58.64        21.9 0.21                          53.0 245 
 632  0Z IP   1   19 9 56.07   62                         92   -0.2610 81.7 196 
 632  0E ES   1   1910  6.80                              92   -0.3810 81.7 196 
 632  0Z  IAML    1910  8.71        35.4 0.59                          81.7 196 
 628  0Z IP   1   19 9 57.07                              91    0.2910 88.5 280 
 628  0N ES   0   1910  7.97                              91    0.0110 88.5 280 
 629  0Z IP   1   19 9 57.98                              91    0.3010 91.5 246 
 629  0N ES   1   1910  9.91                              91    0.4010 91.5 246 
 627  0Z IP   0   19 9 58.10   68                         91   -0.18 9 95.4 261 
 627  0N ES   1   1910 10.16                              91   -0.40 9 95.4 261 
 627  0Z  IAML    1910 11.42        18.2 0.20                          95.4 261 
 624  0Z IP   1   1910  1.63                              49   -0.45 8  119 282 
 624  0N ES   4   1910 16.11                              49   -1.02 8  119 282 
 625  0Z IP   0   1910  3.05                              49    0.15 8  124 266 
 625  0N ES   1   1910 19.01                              49    0.46 8  124 266 
 631  0Z IP   2   1910  4.41   78                         49    0.53 8  131 223 
 631  0E ES   0   1910 20.21                              49   -0.03 8  131 223 
 631  0Z  IAML    1910 21.23        17.9 0.61                           131 223 
 626  0Z IP   2   1910  4.60                              49    0.70 8  134 253 
 626  0N ES   1   1910 20.74                              49    0.46 8  134 253 
 623  0Z IP   0   1910  4.28                              49   -0.10 8  135 274 
 623  0N ES   0   1910 20.97                              49   -0.14 8  135 274 
 622  0Z IP   0   1910  6.04                              49   -0.21 7  150 279 
 622  0N ES   1   1910 23.93                              49   -0.41 7  150 279 
 621  0Z IP   1   1910  8.59                              49    0.44 6  165 269 
 621  0N ES   0   1910 27.82                              49    0.19 6  165 269 
 620  0Z IP   0   1910 10.81                              45    0.20 5  186 286 
                                                                                
 2017  110 0630 47.1 L  72.255 129.841 10.3  SLT 11 0.6 3.1LSLT 2.3CSLT        1
 GAP=274        1.15       4.7    19.6  6.1  0.2667E+02  0.1752E+02 -0.9483E+01E
 ACTION:REE 25-08-04 22:06 OP:mn   STATUS:               ID:20170110062948     I
 2017-01-10-0629-48M.a_____039                                                 6
 STAT SP IPHASW D HRMM SECON CODA AMPLIT PERI AZIMU VELO AIN AR TRES W  DIS CAZ7
 630  0Z IP   2    630 57.75                              76    0.7310 55.6 249 
 632  0Z IP   1    631  1.33                              76   -0.44 9 80.6 200 
 632  0N ES   0    631 12.24                              76   -0.24 9 80.6 200 
 629  0Z IP   1    631  4.09                              76    0.33 8 94.1 248 
 629  0N ES   2    631 16.44                              76    0.51 8 94.1 248 
 627  0Z IP   2 D  631  4.01                              76   -0.50 8 98.9 262 
 627  0N ES   3    631 16.31                              76   -0.91 8 98.9 262 
 627  0Z  IAML     631 57.64       196.6 1.02                          98.9 262 
 624  0Z IP   1    631  8.03                              47   -0.39 7  123 283 
 624  0N ES   4    631 22.80                              47   -1.18 7  123 283 
 625  0Z IP   1    631  9.55                              47    0.39 7  128 268 
 625  0N ES   2    631 25.79                              47    0.52 7  128 268 
 631  0Z IP   2    631  9.24                              47   -0.54 7  131 225 
 631  0N ES   1    631 26.07                              47   -0.26 7  131 225 
 626  0Z IP   4    631 11.08                              47    1.01 7  137 254 
 626  0N ES   3    631 27.69                              47    0.85 7  137 254 
 622  0Z IP   0 D  631 12.51   88                         47   -0.06 6  155 280 
 622  0N ES   2    631 30.66                              47   -0.51 6  155 280 
 622  0Z  IAML     632  1.26       157.4 0.93                           155 280 
 621  0Z IP   1 D  631 14.81   89                         45    0.39 5  169 270 
 621  0N ES   1    631 34.85                              45    0.48 5  169 270 
 621  0Z  IAML     632  3.32       228.3 1.39                           169 270 
 620  0Z IP   1 D  631 17.20  112                         43    0.27 4  190 286 
 620  0N ES   0    631 38.63                              43   -0.08 4  190 286 
 620  0Z  IAML     632 24.41       174.3 1.64                           190 286 
                                                                                
 2017  3 4 2135  3.0 L  72.647 124.943 12.2  SLT 11 0.4                        1
 GAP=197        0.93       2.8     6.7  3.1  0.6988E+01 -0.8514E+01 -0.8523E+00E
 ACTION:ARG 20-12-21 03:09 OP:mn   STATUS:               ID:20170304213342     I
 2017-03-04-2133-42M.a_____039                                                 6
 STAT SP IPHASW D HRMM SECON CODA AMPLIT PERI AZIMU VELO AIN AR TRES W  DIS CAZ7
 620  0Z IP   0   2135  6.89                             118   -0.2310 19.9 273 
 620  0N ES   0   2135  9.97                             118   -0.1610 19.9 273 
 622  0Z IP   0   2135  8.40                             111    0.2210 26.0 151 
 622  0Z ES   2   2135 12.52                             111    0.5510 26.0 151 
 623  0Z IP   0   2135 11.59                              99    0.0710 45.1 142 
 623  0E ES   0   2135 17.76                              99    0.0210 45.1 142 
 624  0Z IP   1   2135 11.59                              98   -0.2610 48.5 113 
 624  0N ES   0   2135 18.14                              98   -0.1810 48.5 113 
 621  0Z IP   0   2135 12.49                              97    0.0310 51.7 182 
 621  0E ES   0   2135 19.36                              97   -0.0210 51.7 182 
 625  0Z IP   1   2135 15.37                              94    0.40 9 65.8 143 
 625  0N ES   2   2135 23.10                              94   -0.62 9 65.8 143 
 628  0Z IP   1   2135 16.91                              92    0.25 9 78.9 109 
 628  0N ES   0   2135 26.46                              92   -0.18 9 78.9 109 
 626  0Z IP   0   2135 19.31                              92    0.08 8 92.5 156 
 626  0E ES   1   2135 30.76                              92   -0.33 8 92.5 156 
 629  0Z IP   2   2135 23.36                              52    0.54 7  114 134 
 629  0E ES   4   2135 36.05                              52   -1.25 7  114 134 
 630  0Z IP   1   2135 25.40                              49    0.44 7  131 118 
 630  0N ES   2   2135 41.51                              49    0.51 7  131 118 
 631  0Z IP   0   2135 29.38                              49    0.21 6  160 149 
 631  0N ES   2   2135 48.84                              49    0.55 6  160 149 
                                                                                
 2017  3 7 0447 20.9 L  72.664 124.978 10.4  SLT 12 0.4                        1
 GAP=204        0.93       2.8     6.8  3.0  0.6275E+01 -0.1065E+02 -0.5789E+00E
 ACTION:ARG 20-12-21 03:09 OP:mn   STATUS:               ID:20170307044601     I
 2017-03-07-0446-01M.a_____039                                                 6
 STAT SP IPHASW D HRMM SECON CODA AMPLIT PERI AZIMU VELO AIN AR TRES W  DIS CAZ7
 620  0Z IP   0    447 25.09                             116   -0.0410 21.0 267 
 620  0N ES   0    447 28.21                             116    0.0310 21.0 267 
 622  0Z IP   1    447 26.58                             111    0.3510 27.2 155 
 622  0N ES   2    447 30.76                             111    0.6710 27.2 155 
 623  0Z IP   0    447 29.77                             103    0.1810 45.9 145 
 623  0E ES   0    447 36.14                             103    0.2410 45.9 145 
 624  0Z IP   0    447 29.62                              76   -0.1210 48.2 115 
 624  0E ES   0    447 36.27                              76    0.1110 48.2 115 
 621  0Z IP   0    447 30.66                              76   -0.0810 53.6 183 
 621  0E ES   1    447 37.40                              76   -0.4910 53.6 183 
 625  0Z IP   2    447 33.65                              76    0.59 9 66.6 145 
 625  0N ES   2    447 41.29                              76   -0.62 9 66.6 145 
 628  0Z IP   1    447 34.27                              76   -0.27 9 78.4 111 
 628  0N ES   1    447 44.02                              76   -0.44 9 78.4 111 
 627  0Z IP   1    447 36.61                              76   -0.42 8 91.1 131 
 627  0N ES   0    447 48.59                              76   -0.18 8 91.1 131 
 626  0Z IP   0    447 37.35                              76   -0.06 8 93.7 157 
 626  0E ES   1    447 49.14                              76   -0.29 8 93.7 157 
 630  0Z IP   2    447 42.58                              47   -0.52 7  131 119 
 630  0N ES   1    447 59.57                              47    0.29 7  131 119 
 631  0Z IP   0    447 47.46                              47   -0.01 6  161 150 
 631  0N ES   1    448  7.08                              47    0.25 6  161 150 
 632  0Z IP   1    447 50.90                              43    0.33 5  186 129 
 632  0N ES   4    448 13.79                              43    1.60 5  186 129 
                                                                                
 2017  313 0553 59.3 L  72.663 124.956 10.6  SLT 12 0.5                        1
 GAP=203        1.09       3.3     7.3  3.7  0.9260E+01 -0.1036E+02 -0.2267E+01E
 ACTION:ARG 20-12-21 03:09 OP:mn   STATUS:               ID:20170313055233     I
 2017-03-13-0552-33M.a_____039                                                 6
 STAT SP IPHASW D HRMM SECON CODA AMPLIT PERI AZIMU VELO AIN AR TRES W  DIS CAZ7
 620  0Z IP   0    554  3.30                             117   -0.0710 20.3 267 
 620  0N ES   0    554  6.35                             117    0.0110 20.3 267 
 622  0Z IP   1    554  4.92                             111    0.3010 27.4 154 
 622  0E ES   3    554  9.27                             111    0.7610 27.4 154 
 623  0Z IP   1    554  8.38                             103    0.3810 46.3 144 
 623  0E ES   0    554 14.44                             103    0.0810 46.3 144 
 624  0Z IP   0    554  8.01                              98   -0.0710 48.8 115 
 624  0N ES   2    554 15.14                              98    0.6510 48.8 115 
 621  0Z IP   0    554  8.87                              97   -0.0910 53.5 182 
 621  0E ES   0    554 15.88                              97   -0.1510 53.5 182 
 625  0Z IP   3    554 12.43                              99    0.91 9 67.0 144 
 625  0E ES   2    554 19.90                              99   -0.55 9 67.0 144 
 628  0Z IP   1    554 12.54                              95   -0.48 9 79.1 111 
 628  0N ES   1    554 22.67                              95   -0.37 9 79.1 111 
 627  0Z IP   2    554 15.10                              96   -0.51 8 91.6 131 
 627  0N ES   2    554 26.94                              96   -0.58 8 91.6 131 
 626  0Z IP   0    554 16.01                              94    0.13 8 93.9 156 
 626  0E ES   2    554 27.31                              94   -0.69 8 93.9 156 
 630  0Z IP   2    554 21.29                              47   -0.69 7  131 118 
 630  0E ES   1    554 38.85                              47    0.31 7  131 118 
 631  0Z IP   1    554 25.93                              47   -0.37 6  162 150 
 631  0N ES   2    554 45.42                              47   -0.60 6  162 150 
 632  0Z IP   0    554 29.51                              45    0.06 5  186 129 
 632  0N ES   2    554 52.08                              45    0.61 5  186 129 
                                                                                
 2017  313 0809  5.7 L  72.447 125.097  8.2  SLT 13 0.5                        1
 GAP=132        1.00       2.0     5.5  2.8  0.2925E+01 -0.1760E+00  0.1113E+01E
 ACTION:ARG 20-12-21 03:09 OP:mn   STATUS:               ID:20170313080741     I
 2017-03-13-0807-41M.a_____039                                                 6
 STAT SP IPHASW D HRMM SECON CODA AMPLIT PERI AZIMU VELO AIN AR TRES W  DIS CAZ7
 622  0Z IP   0    8 9  7.76                             138    0.0010 7.28  94 
 622  0N ES   0    8 9  9.32                             138    0.0610 7.28  94 
 623  0Z IP   0    8 9 10.65                             107   -0.2010 26.1 121 
 623  0N ES   1    8 9 14.89                             107    0.2910 26.1 121 
 621  0Z IP   0    8 9 11.42                             105    0.0610 30.1 194 
 621  0N ES   1    8 9 15.96                             105    0.4810 30.1 194 
 620  0Z IP   0    8 9 11.73                             103   -0.2310 34.2 313 
 620  0E ES   0    8 9 16.77                             103    0.2410 34.2 313 
 624  0Z IP   0    8 9 12.86                             101   -0.1010 39.8  85 
 624  0E ES   0    8 9 18.19                             101   -0.0610 39.8  85 
 625  0Z IP   1    8 9 13.81                             100   -0.3610 45.8 131 
 625  0E ES   0    8 9 20.38                             100    0.0310 45.8 131 
 628  0Z IP   0    8 9 17.50                              97   -0.24 9 69.3  93 
 628  0N ES   0    8 9 26.57                              97    0.05 9 69.3  93 
 626  0Z IP   1    8 9 17.81                              97   -0.30 9 70.1 152 
 626  0E ES   1    8 9 26.75                              97   -0.42 9 70.1 152 
 627  0Z IP   0    8 9 18.62                              96   -0.23 9 73.8 119 
 627  0E ES   0    8 9 28.34                              96   -0.10 9 73.8 119 
 629  0Z IP   2    8 9 23.22                              76    0.57 8 95.2 126 
 629  0E ES   0    8 9 35.02                              76    0.00 8 95.2 126 
 630  0Z IP   1    8 9 25.92                              76   -0.41 7  117 109 
 630  0N ES   4    8 9 42.64                              76    1.26 7  117 109 
 631  0Z IP   0    8 9 29.68                              47    0.12 6  139 146 
 631  0E ES   4    8 9 45.58                              47   -1.39 6  139 146 
 632  0Z IP   2    8 9 34.08                              47    0.67 5  168 123 
 632  0N ES   4    8 9 54.84                              47    1.21 5  168 123 
                                                                                
