 2016 1117 0337  1.3 L  72.725 124.950 11.6  SLT 13 0.5 2.1LSLT 1.8CSLT        1
 GAP=226        0.94       3.5     6.9  3.4  0.6017E+01 -0.1059E+02 -0.1675E+01E
 ACTION:REE 25-08-04 21:57 OP:mn   STATUS:               ID:20161117033653     I
 2016-11-17-0336-53M.arct__039                                                 6
 STAT SP IPHASW D HRMM SECON CODA AMPLIT PERI AZIMU VELO AIN AR TRES W  DIS CAZ7
 620  0Z IP   0    337  5.70                             114    0.0610 21.5 249 
 620  0N ES   0    337  8.90                             114    0.0910 21.5 249 
 622  0Z IP   0    337  7.74                             103    0.0010 33.8 159 
 623  0Z IP   1    337 10.76                              94   -0.2510 52.1 148 
 623  0E ES   1    337 18.44                              94    0.3310 52.1 148 
 624  0Z IP   0    337 10.92   66                         94    0.1310 52.2 121 
 624  0E ES   1    337 18.10                              94    0.3810 52.2 121 
 624  0Z  IAML     337 18.92        55.9 0.17                          52.2 121 
 621  0Z IP   0    337 12.08   68                         93   -0.1710 60.4 182 
 621  0N ES   0    337 20.43                              93    0.1810 60.4 182 
 621  0Z  IAML     337 22.58        42.2 0.97                          60.4 182 
 625  0Z IP   1    337 14.18                              92   -0.29 9 72.8 147 
 625  0E ES   1    337 23.73                              92   -0.36 9 72.8 147 
 628  0Z IP   0    337 15.26   67                         91   -0.23 9 82.0 115 
 628  0N ES   0    337 26.02                              91    0.16 9 82.0 115 
 628  0Z  IAML     337 26.36        44.0 0.48                          82.0 115 
 627  0Z IP   1    337 18.53                              91    0.25 8 96.4 134 
 627  0N ES   2    337 30.05                              91   -0.64 8 96.4 134 
 626  0Z IP   0    337 18.79   68                         91   -0.11 8  100 158 
 626  0N ES   0    337 31.97                              91    0.22 8  100 158 
 626  0Z  IAML     337 31.98        32.2 0.35                           100 158 
 629  0Z IP   1    337 21.53                              49   -0.46 7  120 137 
 629  0N ES   4    337 35.85                              49   -1.25 7  120 137 
 630  0Z IP   0    337 23.74   66                         49   -0.12 7  135 121 
 630  0N ES   2    337 41.06                              49    0.72 7  135 121 
 630  0Z  IAML     337 42.82        77.8 0.39                           135 121 
 631  0Z IP   0    337 28.67                              47    0.16 5  168 151 
 631  0N ES   2    337 49.09                              47    0.72 5  168 151 
 632  0Z IP   2    337 31.99                              45    0.61 4  191 130 
 632  0N ES   4    337 54.99                              45    1.64 4  191 130 
                                                                                
 2016 1124 2250 46.2 L  72.707 124.976 11.3  SLT 13 0.5                        1
 GAP=220        1.01       3.4     7.2  3.5  0.7531E+01 -0.1148E+02 -0.2379E+01E
 ACTION:REG 18-11-20 00:07 OP:art  STATUS:               ID:20161124224841     I
 2016-11-24-2248-41M.arct__039                                                 6
 STAT SP IPHASW D HRMM SECON CODA AMPLIT PERI AZIMU VELO AIN AR TRES W  DIS CAZ7
 620  0Z IP   0   2250 50.52                             113   -0.0210 21.7 254 
 620  0N ES   0   2250 53.88                             113    0.1610 21.7 254 
 622  0Z IP   1   2250 52.65                             104    0.3910 31.6 159 
 622  0N ES   1   2250 57.01                             104    0.3210 31.6 159 
 623  0Z IP   1   2250 55.22                              94   -0.3210 50.0 148 
 623  0N ES   1   2251  2.63                              94    0.2710 50.0 148 
 624  0Z IP   1   2250 55.66                              94    0.2810 50.5 120 
 624  0N ES   2   2251  2.67                              94    0.5810 50.5 120 
 621  0Z IP   0   2250 56.85                              93    0.0410 58.4 183 
 621  0E ES   0   2251  4.33                              93   -0.2410 58.4 183 
 625  0Z IP   2   2250 58.49                              91   -0.51 9 70.6 147 
 625  0N ES   0   2251  8.14                              91   -0.21 9 70.6 147 
 628  0Z IP   1   2250 59.80                              91   -0.31 9 80.3 114 
 628  0N ES   0   2251 10.06                              91   -0.21 9 80.3 114 
 627  0Z IP   1   2251  2.50                              91   -0.34 8 94.4 133 
 627  0N ES   2   2251 14.39                              91   -0.60 8 94.4 133 
 626  0Z IP   0   2251  3.33                              91   -0.09 8 98.2 158 
 626  0Z ES   0   2251 16.02                              91    0.02 8 98.2 158 
 629  0Z IP   1   2251  6.20                              49   -0.46 7  118 136 
 629  0N ES   4   2251 20.52                              49   -1.08 7  118 136 
 630  0Z IP   0   2251  8.39                              49   -0.17 7  133 120 
 630  0Z ES   3   2251 25.77                              49    0.87 7  133 120 
 631  0Z IP   0   2251 13.33                              49    0.17 5  166 151 
 631  0N ES   3   2251 33.82                              49    0.97 5  166 151 
 632  0Z IP   2   2251 16.75                              45    0.67 4  189 130 
 632  0N ES   4   2251 39.33                              45    1.43 4  189 130 
                                                                                
 2016 1124 2302 57.8 L  72.719 124.973 11.4  SLT 13 0.5 2.1LSLT 1.9CSLT        1
 GAP=224        1.04       3.7     7.6  3.7  0.7419E+01 -0.1291E+02 -0.2732E+01E
 ACTION:REE 25-08-04 21:59 OP:mn   STATUS:               ID:20161124230145     I
 2016-11-24-2301-45M.arct__039                                                 6
 STAT SP IPHASW D HRMM SECON CODA AMPLIT PERI AZIMU VELO AIN AR TRES W  DIS CAZ7
 620  0Z IP   0   23 3  2.24                             113    0.0310 22.0 251 
 620  0N ES   0   23 3  5.52                             113    0.0910 22.0 251 
 622  0Z IP   0   23 3  4.25                             103    0.1610 33.0 160 
 622  0E ES   0   23 3  8.88                             103    0.1910 33.0 160 
 623  0Z IP   0   23 3  7.23                              94   -0.1210 51.2 149 
 623  0N ES   1   23 3 14.72                              94    0.3910 51.2 149 
 624  0Z IP   0   23 3  7.34   65                         94    0.2210 51.3 121 
 624  0E ES   1   23 3 14.42                              94    0.4910 51.3 121 
 624  0Z  IAML    23 3 14.65        66.2 0.44                          51.3 121 
 621  0Z IP   0   23 3  8.68   60                         93    0.0310 59.8 183 
 621  0E ES   1   23 3 16.23                              93   -0.3510 59.8 183 
 621  0Z  IAML    23 3 19.33        53.8 0.60                          59.8 183 
 625  0Z IP   0   23 3 10.60                              92   -0.21 9 71.8 147 
 628  0Z IP   0   23 3 11.59                              91   -0.24 9 81.0 115 
 628  0N ES   1   23 3 21.64                              91   -0.43 9 81.0 115 
 627  0Z IP   1   23 3 14.21                              91   -0.41 8 95.4 134 
 627  0N ES   2   23 3 26.24                              91   -0.66 8 95.4 134 
 626  0Z IP   0   23 3 15.22   86                         91   -0.03 8 99.5 158 
 626  0E ES   0   23 3 28.20                              91    0.20 8 99.5 158 
 626  0Z  IAML    23 3 28.45        34.5 0.47                          99.5 158 
 629  0Z IP   1   23 3 17.92                              49   -0.47 7  119 137 
 629  0N ES   4   23 3 32.05                              49   -1.37 7  119 137 
 630  0Z IP   0   23 3 20.19   73                         49   -0.07 7  134 121 
 630  0E ES   4   23 3 37.94                              49    1.29 7  134 121 
 630  0Z  IAML    23 3 39.21        83.6 0.32                           134 121 
 631  0Z IP   0   23 3 25.15                              49    0.24 5  167 151 
 631  0N ES   2   23 3 45.23                              49    0.52 5  167 151 
 632  0Z IP   2   23 3 28.44                              45    0.65 4  190 130 
 632  0N ES   4   23 3 50.95                              45    1.27 4  190 130 
                                                                                
 2016 1124 2316 14.4 L  72.696 124.979 11.1  SLT 12 0.5 1.9LSLT 1.9CSLT        1
 GAP=216        0.95       3.2     6.8  3.4  0.6317E+01 -0.1072E+02 -0.1626E+01E
 ACTION:REE 25-08-04 21:59 OP:mn   STATUS:               ID:20161124231448     I
 2016-11-24-2314-48M.arct__039                                                 6
 STAT SP IPHASW D HRMM SECON CODA AMPLIT PERI AZIMU VELO AIN AR TRES W  DIS CAZ7
 620  0Z IP   0   2316 18.56                             113   -0.1110 21.5 258 
 620  0N ES   0   2316 21.82                             113    0.0010 21.5 258 
 622  0Z IP   0   2316 20.47                             104    0.2410 30.5 158 
 622  0N ES   1   2316 24.79                             104    0.2810 30.5 158 
 624  0Z IP   0   2316 23.59   67                         93    0.1610 49.8 119 
 624  0E ES   2   2316 30.60                              93    0.5510 49.8 119 
 624  0Z  IAML    2316 30.90        59.3 0.25                          49.8 119 
 621  0Z IP   0   2316 24.77   89                         92   -0.0010 57.2 183 
 621  0N ES   0   2316 32.50                              92    0.1210 57.2 183 
 621  0Z  IAML    2316 35.59        32.5 0.61                          57.2 183 
 625  0Z IP   0   2316 27.00                              91    0.01 9 69.6 146 
 625  0E ES   1   2316 35.74                              91   -0.46 9 69.6 146 
 628  0Z IP   1   2316 27.87                              91   -0.31 9 79.7 113 
 628  0N ES   1   2316 38.01                              91   -0.26 9 79.7 113 
 627  0Z IP   0   2316 31.03                              91    0.18 8 93.5 133 
 627  0E ES   2   2316 42.37                              91   -0.52 8 93.5 133 
 626  0Z IP   0   2316 31.28   70                         91   -0.11 8 97.1 158 
 626  0E ES   0   2316 43.70                              91   -0.13 8 97.1 158 
 626  0Z  IAML    2316 44.70        17.6 0.47                          97.1 158 
 629  0Z IP   2   2316 34.21                              52   -0.52 7  117 136 
 629  0N ES   4   2316 48.44                              52   -1.15 7  117 136 
 630  0Z IP   1   2316 36.36   66                         49   -0.31 7  133 120 
 630  0N ES   2   2316 53.62                              49    0.67 7  133 120 
 630  0Z  IAML    2316 55.52        52.5 0.35                           133 120 
 631  0Z IP   1   2316 41.48                              49    0.27 5  164 151 
 631  0N ES   2   2317  1.49                              49    0.68 5  164 151 
 632  0Z IP   2   2316 44.76                              45    0.59 4  188 130 
 632  0N ES   4   2317  7.56                              45    1.62 4  188 130 
                                                                                
 2016 1125 0156 34.2 L  72.717 124.985  8.8  SLT  9 0.4                        1
 GAP=223        1.04       4.0     7.7  3.7  0.7265E+01 -0.1426E+02 -0.2160E+01E
 ACTION:REG 18-11-20 15:40 OP:art  STATUS:               ID:20161125015508     I
 2016-11-25-0155-08M.arct__039                                                 6
 STAT SP IPHASW D HRMM SECON CODA AMPLIT PERI AZIMU VELO AIN AR TRES W  DIS CAZ7
 620  0Z IP   0    156 38.27                             111   -0.1810 22.3 252 
 620  0N ES   1    156 41.96                             111    0.3810 22.3 252 
 623  0Z IP   0    156 43.61                             100    0.0110 50.8 149 
 623  0N ES   3    156 51.35                             100    0.8710 50.8 149 
 624  0Z IP   0    156 43.50                             100    0.1410 50.8 121 
 624  0E ES   0    156 50.11                             100    0.0410 50.8 121 
 621  0Z IP   1    156 44.59                              98   -0.3710 59.5 183 
 621  0E ES   2    156 52.31                              98   -0.5310 59.5 183 
 628  0Z IP   2    156 47.68                              76   -0.51 9 80.5 115 
 628  0N ES   1    156 58.01                              76   -0.41 9 80.5 115 
 626  0Z IP   0    156 51.76                              76    0.13 8 99.1 158 
 626  0E ES   2    157  3.75                              76   -0.62 8 99.1 158 
 629  0Z IP   1    156 54.73                              49   -0.26 7  118 137 
 629  0N ES   3    157 11.17                              49    0.97 7  118 137 
 630  0Z IP   1    156 57.14                              47    0.27 7  134 121 
 630  0N ES   0    157 13.21                              47   -0.23 7  134 121 
 631  0Z IP   1    157  1.82                              47    0.29 5  166 151 
 631  0N ES   1    157 21.99                              47    0.48 5  166 151 
                                                                                
 2016 1125 0619  0.7 L  72.714 124.989 12.4  SLT 13 0.5 2.7LSLT 1.8CSLT        1
 GAP=222        1.01       3.4     7.3  3.4  0.7819E+01 -0.1089E+02 -0.2655E+01E
 ACTION:REE 25-08-04 22:00 OP:mn   STATUS:               ID:20161125061718     I
 2016-11-25-0617-18M.arct__039                                                 6
 STAT SP IPHASW D HRMM SECON CODA AMPLIT PERI AZIMU VELO AIN AR TRES W  DIS CAZ7
 620  0Z IP   0    619  5.16   64                        116   -0.0310 22.3 253 
 620  0N ES   0    619  8.47                             116   -0.0210 22.3 253 
 620  0Z  IAML     619  9.38      1098.9 0.59                          22.3 253 
 622  0Z IP   0    619  6.92                             106    0.0510 32.2 160 
 622  0N ES   1    619 11.74                             106    0.3410 32.2 160 
 623  0Z IP   0    619  9.91                              97   -0.1910 50.4 149 
 623  0N ES   1    619 17.29                              97    0.3110 50.4 149 
 624  0Z IP   1    619 10.20   71                         97    0.3310 50.5 121 
 624  0E ES   2    619 17.31                              97    0.7210 50.5 121 
 624  0Z  IAML     619 17.37       482.5 0.57                          50.5 121 
 621  0Z IP   0    619 11.63   67                         95    0.2110 59.2 183 
 621  0N ES   1    619 19.55                              95    0.2710 59.2 183 
 621  0Z  IAML     619 22.77       387.8 1.17                          59.2 183 
 625  0Z IP   1    619 13.16                              93   -0.39 9 71.0 147 
 625  0E ES   1    619 22.51                              93   -0.44 9 71.0 147 
 628  0Z IP   0    619 14.43                              93   -0.14 9 80.2 115 
 628  0N ES   1    619 24.35                              93   -0.38 9 80.2 115 
 627  0Z IP   0    619 17.11                              92   -0.24 8 94.6 134 
 627  0N ES   2    619 28.99                              92   -0.53 8 94.6 134 
 626  0Z IP   0    619 17.82   66                         92   -0.17 8 98.7 158 
 626  0E ES   2    619 29.99                              92   -0.65 8 98.7 158 
 626  0Z  IAML     619 31.33       173.9 0.37                          98.7 158 
 629  0Z IP   2    619 20.53                              49   -0.51 7  118 137 
 629  0N ES   3    619 34.93                              49   -0.99 7  118 137 
 630  0Z IP   0    619 22.97                              49    0.05 7  133 121 
 630  0N ES   2    619 39.75                              49    0.59 7  133 121 
 631  0Z IP   0    619 27.80                              47    0.23 5  166 151 
 631  0N ES   2    619 47.92                              47    0.71 5  166 151 
 632  0Z IP   2    619 31.00                              45    0.56 4  189 130 
 632  0N ES   4    619 53.88                              45    1.70 4  189 130 
                                                                                
 2016 1125 1638 37.7 L  72.717 124.976  9.4  SLT  9 0.3 1.1LSLT 2.3CSLT        1
 GAP=223        0.76       3.0     5.8  2.9  0.5991E+01 -0.9040E+01 -0.3232E+01E
 ACTION:REE 25-08-04 22:00 OP:mn   STATUS:               ID:20161125163711     I
 2016-11-25-1637-11M.arct__039                                                 6
 STAT SP IPHASW D HRMM SECON CODA AMPLIT PERI AZIMU VELO AIN AR TRES W  DIS CAZ7
 620  0Z IP   0   1638 41.87   99                        113   -0.1110 22.1 252 
 620  0N ES   0   1638 45.25                             113    0.1510 22.1 252 
 620  0Z  IAML    1638 46.64        24.4 0.21                          22.1 252 
 622  0Z IP   0   1638 43.96                             106    0.1010 32.7 160 
 622  0N ES   0   1638 48.26                             106   -0.1010 32.7 160 
 623  0Z IP   0   1638 47.26                             100    0.0810 51.0 149 
 623  0N ES   1   1638 54.54                             100    0.4410 51.0 149 
 624  0Z IP   0   1638 47.16  114                        100    0.2010 51.0 121 
 624  0E ES   1   1638 54.03                             100    0.3110 51.0 121 
 624  0Z  IAML    1638 54.30        25.4 0.17                          51.0 121 
 621  0Z IP   0   1638 48.39  102                         99   -0.1210 59.6 183 
 621  0E ES   1   1638 55.93                              99   -0.4710 59.6 183 
 621  0Z  IAML    1638 56.04         9.0 0.26                          59.6 183 
 628  0Z IP   2   1638 51.20                              76   -0.54 9 80.8 115 
 628  0N ES   2   1639  1.36                              76   -0.64 9 80.8 115 
 630  0Z IP   0   1639  0.34                              47   -0.03 7  134 121 
 630  0N ES   1   1639 17.25                              47    0.33 7  134 121 
 631  0Z IP   0   1639  5.04                              47    0.02 5  167 151 
 631  0N ES   0   1639 25.12                              47    0.16 5  167 151 
 632  0Z IP   0   1639  8.13                              43    0.21 4  190 130 
 632  0N ES   3   1639 30.86                              43    0.88 4  190 130 
                                                                                
