 2017  418 1500 13.4 L  72.725 124.652 16.7  SLT 10 0.5                        1
 GAP=240        1.02       5.7    12.0  3.0  0.2209E+02 -0.2400E+02 -0.2264E+01E
 ACTION:UP  20-12-29 20:35 OP:elen STATUS:               ID:20170418150000     I
 OLDACT:REG 20-12-27 21:06 OP:elen STATUS:               ID:20170418150000     3
 2017-04-18-1500-00M.NSN___039                                                 6
 STAT SP IPHASW D HRMM SECON CODA AMPLIT PERI AZIMU VELO AIN AR TRES W  DIS CAZ7
 620  0Z IP   0   15 0 17.03                             141   -0.1010 12.9 232 
 620  0E ES   1   15 0 20.16                             141    0.3310 12.9 232 
 622  0Z IP   0   15 0 20.78                             111   -0.1310 38.5 145 
 622  0E ES   1   15 0 26.67                             111    0.3010 38.5 145 
 623  0Z IP   1   15 0 23.88                             102   -0.4110 58.0 140 
 623  0N ES   0   15 0 32.00                             102   -0.2110 58.0 140 
 624  0Z IP   0   15 0 24.31                             102   -0.2310 60.9 116 
 624  0N ES   1   15 0 33.06                             102    0.4210 60.9 116 
 628  0Z IP   1   15 0 28.79                              76   -0.39 8 91.0 112 
 628  0N ES   0   15 0 40.61                              76   -0.06 8 91.0 112 
 627  0Z IP   2   15 0 32.05                              52    0.63 8  104 130 
 627  0N ES   1   15 0 44.24                              52   -0.30 8  104 130 
 626  0Z IP   3   15 0 30.69                              52   -0.77 8  105 153 
 626  0E ES   3   15 0 43.85                              52   -0.77 8  105 153 
 629  0Z IP   1   15 0 34.77                              49    0.31 7  127 133 
 629  0N ES   1   15 0 50.10                              49    0.29 7  127 133 
 630  0Z IP   0   15 0 36.65                              49    0.11 6  144 119 
 630  0N ES   4   15 0 54.59                              49    1.19 6  144 119 
 631  0Z IP   0   15 0 40.50                              47   -0.19 5  173 148 
 631  0E ES   4   15 1  1.79                              47    1.21 5  173 148 
                                                                                
 2017  423 2313 41.9 L  72.567 124.875 18.7  SLT 12 0.4                        1
 GAP=162        1.01       2.8     7.6  2.7  0.7832E+01 -0.6112E+01  0.4661E+00E
 ACTION:UP  21-01-01 14:08 OP:elen STATUS:               ID:20170423231216     I
 OLDACT:REG 20-12-30 23:59 OP:elen STATUS:               ID:20170423231216     3
 2017-04-23-2312-16M.NSN___036                                                 6
 STAT SP IPHASW D HRMM SECON CODA AMPLIT PERI AZIMU VELO AIN AR TRES W  DIS CAZ7
 620  0Z IP   0   2313 46.51                             130   -0.1610 20.1 299 
 620  0E ES   0   2313 50.11                             130   -0.0710 20.1 299 
 622  0Z IP   1   2313 47.03                             129    0.2510 20.2 133 
 622  0E ES   3   2313 51.34                             129    0.9810 20.2 133 
 623  0Z IP   0   2313 49.75                             109   -0.1110 40.1 132 
 623  0E ES   0   2313 55.83                             109    0.1310 40.1 132 
 621  0Z IP   0   2313 50.25                             108    0.1410 42.7 179 
 621  0E ES   0   2313 56.13                             108    0.0110 42.7 179 
 624  0Z IP   0   2313 50.78                             104   -0.1110 48.0 101 
 624  0E ES   0   2313 57.64                             104    0.1610 48.0 101 
 625  0Z IP   0   2313 53.24                              98    0.1510 60.4 136 
 625  0N ES   1   2314  0.98                              98   -0.2910 60.4 136 
 628  0Z IP   2   2313 55.01                              94   -0.53 9 78.6 103 
 628  0N ES   0   2314  5.37                              94   -0.14 9 78.6 103 
 626  0Z IP   1   2313 56.46                              93   -0.46 9 85.4 152 
 626  0E ES   2   2314  7.25                              93   -0.66 9 85.4 152 
 627  0Z IP   1   2313 57.00                              93   -0.29 9 87.2 124 
 627  0E ES   1   2314  8.15                              93   -0.39 9 87.2 124 
 629  0Z IP   0   2314  0.29                              51   -0.16 8  109 129 
 629  0E ES   1   2314 13.64                              51   -0.38 8  109 129 
 630  0Z IP   1   2314  3.31                              51    0.42 7  129 113 
 630  0N ES   4   2314 19.32                              51    1.08 7  129 113 
 631  0Z IP   0   2314  6.52                              51    0.01 6  154 147 
 631  0E ES   4   2314 25.55                              51    1.05 6  154 147 
                                                                                
 2017  425 0652 22.7 L  71.950 128.041 11.1  SLT  9 0.3 1.5LSLT 1.8CSLT        1
 GAP=170        0.67       1.4     5.5  4.8 -0.2774E+00  0.1401E+02  0.6946E+00E
 ACTION:REE 25-08-04 22:18 OP:mn   STATUS:               ID:20170425065114     I
 OLDACT:REG 20-12-31 19:06 OP:elen STATUS:               ID:20170425065114     3
 2017-04-25-0651-14M.NSN___027                                                 6
 STAT SP IPHASW D HRMM SECON CODA AMPLIT PERI AZIMU VELO AIN AR TRES W  DIS CAZ7
 630  0Z IP   0    652 26.18   85                        120    0.0110 17.1  35 
 630  0E ES   0    652 28.80                             120    0.0810 17.1  35 
 630  0E  IAML     652 29.11       220.3 0.20                          17.1  35 
 629  0Z IP   0    652 27.55   63                        109   -0.0510 25.3 265 
 629  0N ES   0    652 31.16                             109   -0.0210 25.3 265 
 629  0E  IAML     652 31.82        95.0 0.25                          25.3 265 
 627  0Z IP   0    652 30.04   64                         97   -0.1110 41.0 298 
 627  0N ES   0    652 35.52                              97   -0.0910 41.0 298 
 627  0E  IAML     652 38.27        30.9 0.53                          41.0 298 
 628  0Z IP   0    652 32.83   74                         92   -0.0710 58.8 329 
 628  0N ES   0    652 40.31                              92   -0.0510 58.8 329 
 628  0N  IAML     652 47.06        11.6 0.14                          58.8 329 
 631  0Z IP   0    652 35.05   90                         91   -0.01 9 67.5 205 
 631  0N ES   0    652 44.17                              91    0.07 9 67.5 205 
 631  0N  IAML     652 44.52        10.0 0.33                          67.5 205 
 625  0Z IP   1    652 35.26   67                         91   -0.30 9 71.0 292 
 625  0N ES   1    652 44.57                              91   -0.39 9 71.0 292 
 625  0N  IAML     652 48.33         6.8 0.40                          71.0 292 
 624  0Z IP   0    652 37.49   63                         91   -0.16 9 84.1 315 
 624  0N ES   0    652 48.42                              91   -0.15 9 84.1 315 
 624  0N  IAML     652 50.56        18.4 0.21                          84.1 315 
 623  0Z IP   1    652 39.13   64                         91    0.46 8 88.7 299 
 623  0E ES   3    652 51.26                              91    0.92 8 88.7 299 
 623  0N  IAML     652 57.27         5.5 0.26                          88.7 299 
 621  0Z IP   0    652 42.42   59                         90    0.01 8  111 285 
 621  0N ES   0    652 56.94                              90    0.13 8  111 285 
 621  0E  IAML     653  0.65         5.5 0.17                           111 285 
                                                                                
 2017  426 1425 20.6 L  72.068 127.219 23.4  SLT  6 0.2 0.4LSLT 0.6CSLT        1
 GAP=120        0.68       2.0     5.3  3.5  0.4381E+01 -0.2470E+01 -0.3098E+01E
 ACTION:REE 25-08-04 22:19 OP:mn   STATUS:               ID:20170426142409     I
 OLDACT:REG 21-01-02 11:34 OP:elen STATUS:               ID:20170426142409     3
 2017-04-26-1424-09M.NSN___024                                                 6
 STAT SP IPHASW D HRMM SECON CODA AMPLIT PERI AZIMU VELO AIN AR TRES W  DIS CAZ7
 627  0Z IP   1   1425 25.19   24                        156    0.2610 9.79 304 
 627  0N ES   0   1425 28.15                             156    0.0610 9.79 304 
 627  0N  IAML    1425 28.30         9.4 0.08                          9.79 304 
 629  0Z IP   0   1425 25.70   24                        144    0.1910 15.9 168 
 629  0N ES   0   1425 29.01                             144   -0.0710 15.9 168 
 629  0E  IAML    1425 29.36         1.7 0.10                          15.9 168 
 628  0Z IP   1   1425 28.19   21                        119    0.3610 37.1 356 
 628  0N ES   0   1425 33.32                             119    0.2210 37.1 356 
 628  0N  IAML    1425 33.55         1.7 0.10                          37.1 356 
 630  0Z IP   0   1425 28.22   24                        118    0.0110 38.0  88 
 630  0N ES   1   1425 33.37                             118   -0.3910 38.0  88 
 630  0N  IAML    1425 33.67         4.8 0.16                          38.0  88 
 625  0Z IP   0   1425 28.87   22                        117    0.0710 39.9 288 
 625  0N ES   1   1425 34.49                             117   -0.2910 39.9 288 
 625  0N  IAML    1425 35.27         1.7 0.23                          39.9 288 
 624  0Z IP   0   1425 31.08   24                        108    0.0010 55.7 325 
 624  0N ES   1   1425 38.30                             108   -0.4210 55.7 325 
 624  0E  IAML    1425 38.99         1.1 0.28                          55.7 325 
                                                                                
 2017  426 1840 43.4 L  72.261 126.335 20.4  SLT  8 0.2 1.6LSLT 2.0CSLT        1
 GAP= 94        0.56       1.3     3.2  1.8  0.3276E+00 -0.5918E+00  0.7878E+00E
 ACTION:REE 25-08-04 22:19 OP:mn   STATUS:               ID:20170426183923     I
 OLDACT:REG 21-01-02 11:44 OP:elen STATUS:               ID:20170426183923     3
 2017-04-26-1839-23M.NSN___024                                                 6
 STAT SP IPHASW D HRMM SECON CODA AMPLIT PERI AZIMU VELO AIN AR TRES W  DIS CAZ7
 625  0Z IP   0   1840 47.88   74                        147    0.1210 12.5 219 
 625  0N ES   0   1840 50.73                             147   -0.2010 12.5 219 
 625  0E  IAML    1840 51.37       213.3 0.52                          12.5 219 
 624  0Z IP   0   1840 48.98   77                        127    0.0410 24.0 355 
 624  0N ES   1   1840 52.65                             127   -0.3110 24.0 355 
 624  0N  IAML    1840 52.83       190.5 0.14                          24.0 355 
 627  0Z IP   0   1840 49.51   82                        123    0.2110 27.4 126 
 627  0N ES   0   1840 53.59                             123    0.0010 27.4 126 
 627  0N  IAML    1840 53.89        27.0 0.10                          27.4 126 
 628  0Z IP   1   1840 49.87   85                        119    0.2810 31.6  60 
 628  0N ES   0   1840 54.20                             119    0.1010 31.6  60 
 628  0N  IAML    1840 54.73        51.7 0.14                          31.6  60 
 621  0Z IP   0   1840 53.08   83                        107    0.1710 50.0 261 
 621  0N ES   0   1840 59.75                             107   -0.0910 50.0 261 
 621  0N  IAML    1841  0.04        20.1 0.21                          50.0 261 
 629  0Z IP   1   1840 53.07   83                        106    0.2510 50.0 137 
 629  0E ES   0   1840 59.71                             106    0.0310 50.0 137 
 629  0E  IAML    1841  0.14        14.2 0.26                          50.0 137 
 630  0Z IP   0   1840 56.07   88                         99   -0.07 9 71.2 106 
 630  0E ES   1   1841  4.95                              99   -0.47 9 71.2 106 
 630  0N  IAML    1841  8.11         4.4 0.16                          71.2 106 
 631  0Z IP   0   1841  1.10   83                         54    0.03 8  101 161 
 631  0N ES   1   1841 13.69                              54   -0.27 8  101 161 
 631  0E  IAML    1841 13.87        16.2 0.28                           101 161 
                                                                                
 2017  427 0912 27.9 L  72.046 127.802 16.0  SLT  8 0.1 1.2LSLT 1.6CSLT        1
 GAP=116        0.42       0.8     2.9  1.4  0.2927E+00  0.1457E+01 -0.3253E-01E
 ACTION:REE 25-08-04 22:19 OP:mn   STATUS:               ID:20170427091104     I
 OLDACT:REG 21-01-02 12:22 OP:elen STATUS:               ID:20170427091104     3
 2017-04-27-0911-04M.NSN___024                                                 6
 STAT SP IPHASW D HRMM SECON CODA AMPLIT PERI AZIMU VELO AIN AR TRES W  DIS CAZ7
 630  0Z IP   0    912 32.08   60                        129    0.0510 18.3  79 
 630  0N ES   0    912 34.82                             129   -0.2410 18.3  79 
 630  0E  IAML     912 35.23        75.2 0.16                          18.3  79 
 629  0Z IP   0    912 32.72   51                        125    0.1410 21.3 233 
 629  0N ES   0    912 35.92                             125   -0.0810 21.3 233 
 629  0N  IAML     912 36.29        59.7 0.32                          21.3 233 
 627  0Z IP   0    912 33.91   56                        116    0.2210 29.3 286 
 627  0N ES   0    912 37.96                             116    0.0310 29.3 286 
 627  0N  IAML     912 38.62        15.6 0.11                          29.3 286 
 628  0Z IP   0    912 36.13   59                        106    0.1610 45.4 331 
 628  0E ES   0    912 41.83                             106   -0.0510 45.4 331 
 628  0N  IAML     912 43.71        13.3 0.10                          45.4 331 
 625  0Z IP   0    912 38.95   47                        101    0.0010 59.9 285 
 625  0N ES   1    912 46.75                             101   -0.2710 59.9 285 
 625  0E  IAML     912 48.75         5.0 0.38                          59.9 285 
 624  0Z IP   0    912 40.79   55                         99    0.16 9 70.7 313 
 624  0N ES   0    912 49.90                              99   -0.03 9 70.7 313 
 624  0E  IAML     912 52.51         7.8 0.24                          70.7 313 
 631  0Z IP   0    912 41.71   65                         98    0.13 9 74.7 195 
 631  0E ES   0    912 51.50                              98   -0.08 9 74.7 195 
 631  0N  IAML     912 56.09         4.4 0.17                          74.7 195 
 621  0Z IP   0    912 45.77   63                         52    0.04 8  101 280 
 621  0N ES   1    912 58.51                              52   -0.25 8  101 280 
 621  0E  IAML     913  4.61         3.4 0.11                           101 280 
                                                                                
