 2016  819 0959 26.7 L  71.901 129.717  9.7  SLT 13 0.5 4.3LSLT                1
 GAP=268        0.85       2.4    12.3  2.7  0.9299E+01 -0.1478E+01 -0.2634E+01E
 ACTION:REG 25-04-10 18:57 OP:mn   STATUS:               ID:20160819095900     I
 2016_08_19T09-59-00.mseed                                                     6
 STAT SP IPHASW D HRMM SECON CODA AMPLIT PERI AZIMU VELO AIN AR TRES W  DIS CAZ7
 632  0Z IP   0    959 34.86                             103   -0.0410 42.8 212 
 632  0N ES   0    959 41.02                             103    0.1710 42.8 212 
 632  0Z  IAML     959 42.18      3428.8 0.50                          42.8 212 
 630  0Z IP   0    959 35.80                             100   -0.2010 51.8 293 
 630  0N ES   1    959 43.04                             100    0.2910 51.8 293 
 630  0Z  IAML     959 46.28      6337.0 0.50                          51.8 293 
 629  0Z IP   0    959 41.37                              76   -0.22 9 83.4 273 
 629  0N ES   0    959 52.67                              76    0.24 9 83.4 273 
 629  0Z  IAML     959 54.20      5388.4 0.68                          83.4 273 
 627  0Z IP   1    959 44.19                              76    0.27 8 97.3 286 
 627  0N ES   0    959 56.45                              76   -0.02 8 97.3 286 
 627  0Z  IAML     959 57.52      6764.5 0.60                          97.3 286 
 631  0Z IP   0    959 45.21                              76   -0.10 8  103 238 
 631  0N ES   2    959 58.31                              76   -0.55 8  103 238 
 631  0Z  IAML    10 0  1.28      2471.1 0.60                           103 238 
 628  0Z IP   0    959 44.86                              76    0.08 8  104 304 
 628  0N ES   1    959 57.50                              76   -0.44 8  104 304 
 628  0Z  IAML     959 57.78     13245.6 0.30                           104 304 
 625  0N ES   1   10 0  4.69                              47   -0.42 7  128 285 
 626  0Z IP   0    959 48.52                              47   -0.07 7  128 271 
 626  0N ES   0   10 0  4.58                              47    0.05 7  128 271 
 626  0Z  IAML    10 0 10.30      1873.9 0.66                           128 271 
 625  0Z IP   1    959 48.49                              47   -0.43 7  128 285 
 625  0Z  IAML    10 0 10.74      3132.8 1.06                           128 285 
 624  0Z IP   0    959 49.35                              47   -0.19 7  134 300 
 624  0N ES   4   10 0  5.15                              47   -1.02 7  134 300 
 624  0Z  IAML    10 0  8.14      5852.5 0.52                           134 300 
 623  0Z IP   0    959 51.19                              47    0.15 6  144 291 
 623  0N ES   0   10 0  8.74                              47   -0.03 6  144 291 
 623  0Z  IAML    10 0 14.06      3312.3 0.94                           144 291 
 622  0Z IP   2    959 53.97                              47    0.71 6  162 294 
 622  0N ES   0   10 0 12.65                              47    0.04 6  162 294 
 622  0Z  IAML    10 0 18.96      1931.4 0.68                           162 294 
 621  0Z IP   3    959 55.14                              45    0.98 5  169 283 
 621  0N ES   4   10 0 15.63                              45    1.46 5  169 283 
 621  0Z  IAML    10 0 16.65      3571.0 0.48                           169 283 
 620  0Z IP   2    959 58.52                              43    0.57 4  201 297 
 620  0N ES   3   10 0 21.63                              43    0.91 4  201 297 
 620  0Z  IAML    10 0 30.94      2333.6 0.54                           201 297 
                                                                                
 2016  820 1506 15.7 L  71.916 129.685  8.9  SLT 13 0.6                        1
 GAP=267        1.10       3.3    16.1  4.0  0.2042E+02 -0.7476E+01 -0.6444E+01E
 ACTION:ARG 20-05-11 21:31 OP:mn   STATUS:               ID:20160820150518     I
 2016-08-20-1505-18M.arct__039                                                 6
 STAT SP IPHASW D HRMM SECON CODA AMPLIT PERI AZIMU VELO AIN AR TRES W  DIS CAZ7
 632  0Z IP   1   15 6 23.53                             101   -0.4010 43.7 210 
 632  0N ES   0   15 6 30.00                             101    0.0210 43.7 210 
 630  0N ES   1   15 6 31.53                             100    0.4010 50.2 291 
 629  0Z IP   0   15 6 30.49                              76    0.15 9 82.2 272 
 629  0N ES   0   15 6 41.29                              76    0.23 9 82.2 272 
 627  0Z IP   0   15 6 32.40                              76   -0.22 8 95.8 285 
 627  0N ES   1   15 6 44.74                              76   -0.26 8 95.8 285 
 628  0Z IP   1   15 6 33.09                              76   -0.32 8  102 303 
 628  0N ES   2   15 6 45.70                              76   -0.67 8  102 303 
 631  0Z IP   4   15 6 35.44                              76    1.19 8  103 237 
 631  0N ES   2   15 6 47.30                              76   -0.53 8  103 237 
 625  0Z IP   0   15 6 37.52                              47   -0.22 7  126 285 
 625  0N ES   2   15 6 53.22                              47   -0.65 7  126 285 
 626  0Z IP   0   15 6 37.36                              47   -0.10 7  127 270 
 626  0N ES   1   15 6 53.10                              47   -0.27 7  127 270 
 624  0Z IP   1   15 6 37.83                              47   -0.49 7  132 300 
 624  0N ES   2   15 6 54.31                              47   -0.55 7  132 300 
 623  0Z IP   0   15 6 39.93                              47    0.09 6  142 291 
 623  0N ES   1   15 6 57.20                              47   -0.30 6  142 291 
 622  0Z IP   0   15 6 42.30                              47    0.24 6  161 294 
 622  0Z ES   4   15 7  2.57                              47    1.24 6  161 294 
 621  0Z IP   1   15 6 43.40                              47    0.41 5  168 283 
 621  0N ES   4   15 7  4.06                              47    1.12 5  168 283 
 620  0Z IP   4   15 6 48.42                              43    1.66 4  199 297 
 620  0N ES   4   15 7 10.83                              43    1.37 4  199 297 
                                                                                
 2016  822 1318 49.1 L  72.355 127.050 18.8  SLT  8 0.3 0.8CSLT                1
 GAP= 95        0.63       2.0     4.2  4.2  0.3114E+01  0.4113E+01  0.3508E+01E
 ACTION:UP  21-01-08 22:12 OP:elen STATUS:               ID:20160822131743     I
 OLDACT:REG 21-01-08 15:24 OP:elen STATUS:               ID:20160822131743     3
 2016-08-22-1317-43M.arct__039                                                 6
 STAT SP IPHASW D HRMM SECON CODA AMPLIT PERI AZIMU VELO AIN AR TRES W  DIS CAZ7
 628  0Z IP   0A  1318 52.27   29                        161    0.1410 6.03  33 
 628  0N IS   0A  1318 54.48                             161    0.11 2 6.03  33 
 627  0Z IP   1AD 1318 54.94                             121    0.2510 26.6 185 
 627  0E IS   0A  1318 58.78                             121   -0.02 2 26.6 185 
 624  0Z IP   0   1318 55.19                             118   -0.0010 29.4 298 
 624  0E ES   0   1318 59.46                             118   -0.2110 29.4 298 
 625  0Z IP   0   1318 56.66                             111    0.0310 37.9 238 
 625  0N ES   0   1319  2.22                             111    0.0610 37.9 238 
 630  0Z IP   0   1318 58.88                             102    0.0510 53.5 125 
 630  0E ES   1   1319  5.54                             102   -0.4310 53.5 125 
 630  0E IS   1A  1319  5.56                             102   -0.41 2 53.5 125 
 622  0Z IP   1   1319  0.53                              99    0.4910 59.4 280 
 622  0N ES   0   1319  7.83                              99   -0.2110 59.4 280 
 626  0Z IP   0   1319  0.52                              98    0.20 9 62.6 214 
 626  0N ES   0   1319  8.58                              98    0.04 9 62.6 214 
 621  0Z IP   0   1319  2.86                              95    0.11 9 75.9 257 
 621  0N ES   2   1319 12.21                              95   -0.53 9 75.9 257 
                                                                                
 2016 10 5 1619 47.3 L  72.838 125.035 13.9  SLT 11 0.4 1.3LSLT                1
 GAP=255        0.98       4.0     8.2  3.3  0.3909E+01 -0.9717E+01 -0.3538E+01E
 ACTION:ARG 20-04-11 14:12 OP:mn   STATUS:               ID:20161005161823     I
 2016-10-05-1618-23M.SIOLA_039                                                 6
 STAT SP IPHASW D HRMM SECON CODA AMPLIT PERI AZIMU VELO AIN AR TRES W  DIS CAZ7
 620  0Z IP   0   1619 53.23                             111   -0.0010 30.7 228 
 620  0N ES   0   1619 57.63                             111    0.0610 30.7 228 
 620  0Z  IAML    1619 58.01        11.3 0.26                          30.7 228 
 622  0Z IP   0   1619 55.77                             102    0.0510 45.1 168 
 622  0Z  IAML    1620  2.11        13.0 0.30                          45.1 168 
 622  0N ES   1   1620  2.15                             102    0.2810 45.1 168 
 624  0Z IP   0   1619 57.69                              98   -0.0810 57.7 134 
 624  0N ES   0   1620  5.56                              98    0.1410 57.7 134 
 624  0Z  IAML    1620  5.84        11.9 0.16                          57.7 134 
 623  0Z IP   0   1619 58.60                              97   -0.1410 62.0 157 
 623  0N ES   0   1620  7.19                              97    0.0910 62.0 157 
 623  0Z  IAML    1620  7.57         8.4 0.68                          62.0 157 
 621  0Z IP   1   1620  0.07                              95   -0.39 9 73.1 184 
 621  0N ES   0   1620 10.15                              95    0.07 9 73.1 184 
 621  0Z  IAML    1620 10.56         9.7 0.26                          73.1 184 
 625  0Z IP   4   1620  3.32                              94    1.19 9 82.4 154 
 625  0N ES   3   1620 12.17                              94   -0.80 9 82.4 154 
 625  0Z  IAML    1620 12.36         4.3 0.80                          82.4 154 
 628  0Z IP   1   1620  1.66                              94   -0.49 9 85.7 124 
 628  0N ES   0   1620 12.97                              94   -0.03 9 85.7 124 
 628  0Z  IAML    1620 13.46         8.2 0.52                          85.7 124 
 626  0Z IP   1   1620  6.07                              52   -0.45 8  111 162 
 626  0N ES   2   1620 19.87                              52   -0.69 8  111 162 
 629  0Z IP   0   1620  8.81                              49    0.08 7  127 142 
 629  0N ES   1   1620 24.67                              49    0.29 7  127 142 
 629  0Z  IAML    1620 25.99         4.7 0.18                           127 142 
 630  0Z IP   0   1620 10.00                              49   -0.20 6  140 126 
 630  0N ES   2   1620 27.46                              49    0.54 6  140 126 
 630  0Z  IAML    1620 27.89         3.9 0.22                           140 126 
 631  0Z IP   1   1620 15.85                              47    0.38 5  178 154 
 631  0N ES   3   1620 36.91                              47    0.87 5  178 154 
 631  0Z  IAML    1620 37.91         6.1 0.21                           178 154 
                                                                                
 2016 10 6 0156 56.3 L  72.826 125.026 13.3  SLT 11 0.6                        1
 GAP=253        1.05       4.3     8.7  3.8  0.4527E+01 -0.1187E+02 -0.4182E+01E
 ACTION:ARG 20-04-11 14:12 OP:mn   STATUS:               ID:20161006015532     I
 2016-10-06-0155-32M.SIOLA_039                                                 6
 STAT SP IPHASW D HRMM SECON CODA AMPLIT PERI AZIMU VELO AIN AR TRES W  DIS CAZ7
 620  0Z IP   0    157  1.81                             110   -0.1810 29.6 230 
 620  0N ES   1    157  6.52                             110    0.3410 29.6 230 
 622  0Z IP   0    157  4.39                             102   -0.0710 43.9 167 
 622  0N ES   0    157 10.63                             102    0.1810 43.9 167 
 624  0Z IP   0    157  6.69                              97    0.0710 57.1 133 
 624  0N ES   0    157 14.36                              97    0.1910 57.1 133 
 623  0Z IP   0    157  7.49                              96   -0.0310 61.0 156 
 623  0N ES   1    157 16.15                              96    0.4110 61.0 156 
 621  0Z IP   0    157  8.98                              95   -0.22 9 71.8 184 
 621  0N ES   1    157 18.32                              95   -0.32 9 71.8 184 
 625  0Z IP   2    157 11.58                              94    0.66 9 81.3 153 
 625  0N ES   2    157 21.00                              94   -0.62 9 81.3 153 
 628  0Z IP   1    157 10.67                              93   -0.37 9 85.3 123 
 628  0N ES   0    157 21.64                              93   -0.19 9 85.3 123 
 626  0Z IP   1    157 15.01                              52   -0.39 8  110 161 
 626  0N ES   3    157 28.53                              52   -0.84 8  110 161 
 630  0Z IP   1    157 18.68                              49   -0.49 6  139 125 
 630  0N ES   0    157 36.02                              49    0.13 6  139 125 
 631  0Z IP   0    157 24.49                              47    0.11 5  177 153 
 631  0N ES   4    157 46.17                              47    1.26 5  177 153 
 632  0Z IP   2    157 27.40                              45    0.57 4  196 133 
 632  0Z ES   4    157 51.48                              45    2.33 4  196 133 
                                                                                
 2016 10 9 0036 45.2 L  72.832 125.044 12.4  SLT 11 0.5                        1
 GAP=254        1.02       4.6     8.7  3.5  0.8269E+01 -0.1158E+02 -0.4617E+01E
 ACTION:ARG 20-04-11 14:12 OP:mn   STATUS:               ID:20161009003553     I
 2016-10-09-0035-53M.SIOLA_039                                                 6
 STAT SP IPHASW D HRMM SECON CODA AMPLIT PERI AZIMU VELO AIN AR TRES W  DIS CAZ7
 620  0Z IP   0    036 50.80                             108   -0.2410 30.4 230 
 620  0N ES   0    036 55.35                             108    0.0610 30.4 230 
 622  0Z IP   0    036 53.63                             100    0.1610 44.4 168 
 622  0N ES   0    036 59.62                             100    0.1210 44.4 168 
 624  0Z IP   0    036 55.49                              96   -0.0610 57.0 133 
 624  0N ES   0    037  3.09                              96   -0.0110 57.0 133 
 623  0Z IP   1    036 56.77                              95    0.2510 61.3 157 
 623  0N ES   0    037  4.84                              95    0.0810 61.3 157 
 625  0Z IP   3    037  0.75                              93    0.83 9 81.6 154 
 625  0N ES   1    037 10.17                              93   -0.48 9 81.6 154 
 628  0Z IP   1    036 59.69                              92   -0.27 9 85.1 123 
 628  0N ES   0    037 10.49                              92   -0.23 9 85.1 123 
 626  0Z IP   2    037  3.87                              52   -0.63 8  111 162 
 626  0N ES   4    037 17.49                              52   -1.09 8  111 162 
 629  0Z IP   0    037  6.51                              49   -0.22 7  127 142 
 629  0N ES   3    037 23.23                              49    0.80 7  127 142 
 630  0Z IP   0    037  8.10                              49   -0.10 6  139 126 
 630  0N ES   1    037 24.59                              49   -0.39 6  139 126 
 631  0Z IP   0    037 13.69                              47    0.22 5  177 154 
 631  0N ES   4    037 35.36                              47    1.26 5  177 154 
 632  0Z IP   2    037 16.45                              45    0.56 4  196 134 
 632  0N ES   4    037 39.68                              45    1.40 4  196 134 
                                                                                
 2016 1012 0800 22.1 L  72.715 126.012 15.0  SLT 12 0.5                        1
 GAP=228        1.06       3.4     7.2  3.3  0.8632E+01 -0.8873E+01 -0.3057E+01E
 ACTION:ARG 20-04-11 14:12 OP:mn   STATUS:               ID:20161012080000     I
 2016-10-12-0800-00M.SIOLA_039                                                 6
 STAT SP IPHASW D HRMM SECON CODA AMPLIT PERI AZIMU VELO AIN AR TRES W  DIS CAZ7
 624  0Z IP   1    8 0 27.96                             115    0.2810 28.1 162 
 624  0N ES   2    8 0 32.34                             115    0.5510 28.1 162 
 622  0Z IP   0    8 0 29.61                             108    0.2110 38.4 218 
 622  0N ES   0    8 0 34.99                             108    0.2210 38.4 218 
 623  0Z IP   0    8 0 30.71                             105    0.1810 44.2 191 
 623  0N ES   1    8 0 37.06                             105    0.3510 44.2 191 
 628  0Z IP   0    8 0 30.92                             102   -0.2310 51.7 132 
 628  0N ES   0    8 0 37.84                             102    0.0410 51.7 132 
 620  0Z IP   0    8 0 31.96                             101   -0.2410 55.7 264 
 620  0N ES   1    8 0 39.36                             101   -0.2510 55.7 264 
 625  0Z IP   1    8 0 32.91                              99   -0.2710 60.4 177 
 625  0N ES   1    8 0 40.91                              99   -0.3910 60.4 177 
 621  0Z IP   0    8 0 34.69                              98   -0.06 9 70.3 213 
 621  0N ES   1    8 0 43.73                              98   -0.29 9 70.3 213 
 627  0Z IP   1    8 0 35.60                              97    0.31 9 74.3 153 
 627  0E ES   1    8 0 44.48                              97   -0.47 9 74.3 153 
 626  0Z IP   2    8 0 38.96                              95    0.67 8 92.3 179 
 626  0N ES   3    8 0 49.33                              95   -0.81 8 92.3 179 
 630  0Z IP   0    8 0 40.24                              52   -0.18 8  106 131 
 630  0N ES   4    8 0 52.64                              52   -1.19 8  106 131 
 631  0Z IP   1    8 0 47.21                              49    0.25 6  153 163 
 631  0N ES   3    8 1  6.06                              49    0.92 6  153 163 
 632  0Z IP   3    8 0 49.44                              47    0.90 5  165 139 
 632  0N ES   2    8 1  8.39                              47    0.51 5  165 139 
                                                                                
