 2016 11 5 0642 24.8 L  72.275 129.725 12.1  SLT 13 0.5 2.0LSLT 1.8CSLT        1
 GAP=271        1.00       3.8    14.9  3.4  0.2609E+02 -0.6436E+01 -0.4905E+01E
 ACTION:REE 25-08-04 21:52 OP:mn   STATUS:               ID:20161105064125     I
 2016-11-05-0641-25M.arct__039                                                 6
 STAT SP IPHASW D HRMM SECON CODA AMPLIT PERI AZIMU VELO AIN AR TRES W  DIS CAZ7
 630  0Z IP   0    642 34.23                              96   -0.0210 52.8 246 
 632  0Z IP   1    642 39.22   92                         92   -0.40 9 81.4 196 
 632  0E ES   0    642 50.38                              92   -0.06 9 81.4 196 
 632  0Z  IAML     642 51.93        22.1 0.57                          81.4 196 
 628  0Z IP   1    642 40.41   64                         92    0.30 9 88.4 280 
 628  0E ES   2    642 51.87                              92    0.58 9 88.4 280 
 628  0Z  IAML     642 52.85        17.4 0.13                          88.4 280 
 629  0Z IP   0    642 41.15                              92    0.16 8 91.3 246 
 629  0N ES   0    642 52.71                              92   -0.09 8 91.3 246 
 627  0Z IP   1    642 41.31                              92   -0.29 8 95.3 261 
 627  0N ES   1    642 53.41                              92   -0.45 8 95.3 261 
 624  0Z IP   2    642 44.86                              49   -0.50 7  119 283 
 624  0N ES   4    642 59.24                              49   -1.12 7  119 283 
 625  0Z IP   0    642 46.24                              49    0.07 7  124 266 
 625  0N ES   1    643  1.28                              49   -0.49 7  124 266 
 631  0Z IP   2    642 47.72                              49    0.59 7  130 223 
 631  0N ES   0    643  3.31                              49   -0.12 7  130 223 
 626  0Z IP   3    642 48.00   55                         49    0.84 7  134 253 
 626  0E ES   4    643  5.00                              49    1.51 7  134 253 
 626  0Z  IAML     643  5.05         7.7 0.37                           134 253 
 623  0Z IP   0    642 47.57                              49   -0.08 7  135 274 
 623  0N ES   1    643  3.99                              49   -0.34 7  135 274 
 622  0Z IP   1    642 49.23                              49   -0.29 6  150 279 
 622  0N ES   0    643  7.53                              49   -0.04 6  150 279 
 621  0Z IP   2    642 51.98                              49    0.56 5  165 269 
 621  0N ES   1    643 11.25                              49    0.40 5  165 269 
 620  0Z IP   0    642 54.08   57                         45    0.20 5  186 286 
 620  0E ES   0    643 15.04                              45   -0.08 5  186 286 
 620  0Z  IAML     643 22.25         2.5 0.46                           186 286 
                                                                                
 2016 11 5 0653 53.0 L  72.290 129.810 12.8  SLT 13 0.6 1.9LSLT 1.8CSLT        1
 GAP=273        1.34       5.1    18.5  4.5  0.3418E+02 -0.1859E+02 -0.1038E+02E
 ACTION:REE 25-08-04 21:52 OP:mn   STATUS:               ID:20161105065254     I
 2016-11-05-0652-54M.arct__039                                                 6
 STAT SP IPHASW D HRMM SECON CODA AMPLIT PERI AZIMU VELO AIN AR TRES W  DIS CAZ7
 630  0Z IP   0    654  2.86                              97   -0.1310 56.1 245 
 630  0N ES   4    654 11.95                              97    1.6410 56.1 245 
 632  0Z IP   1    654  7.71                              93   -0.49 9 83.8 198 
 632  0N ES   2    654 18.63                              93   -0.69 9 83.8 198 
 628  0Z IP   0    654  8.91   70                         93    0.19 9 91.0 279 
 628  0E ES   1    654 19.86                              93   -0.37 9 91.0 279 
 628  0Z  IAML     654 21.51        31.5 0.14                          91.0 279 
 629  0Z IP   0    654  9.80                              92    0.08 8 94.6 246 
 629  0N ES   1    654 21.65                              92   -0.30 8 94.6 246 
 627  0Z IP   1    654  9.96                              92   -0.34 8 98.4 260 
 627  0N ES   4    654 21.89                              92   -1.07 8 98.4 260 
 624  0Z IP   0    654 13.67                              49   -0.10 7  121 282 
 624  0N ES   4    654 27.63                              49   -1.33 7  121 282 
 625  0Z IP   0    654 14.89                              49    0.24 7  127 266 
 625  0N ES   0    654 30.61                              49    0.14 7  127 266 
 631  0Z IP   3    654 16.48   66                         49    0.85 7  133 223 
 631  0N ES   0    654 32.11                              49   -0.06 7  133 223 
 631  0Z  IAML     654 33.81        16.1 0.40                           133 223 
 626  0Z IP   3    654 16.42                              49    0.75 7  137 253 
 626  0N ES   0    654 32.39                              49    0.14 7  137 253 
 623  0Z IP   2    654 16.63                              49    0.53 7  137 274 
 623  0N ES   1    654 32.63                              49   -0.36 7  137 274 
 622  0Z IP   0    654 17.91                              49   -0.04 6  153 279 
 622  0N ES   1    654 35.81                              49   -0.38 6  153 279 
 621  0Z IP   2    654 20.56   62                         47    0.68 5  168 268 
 621  0E ES   1    654 39.89                              47    0.37 5  168 268 
 621  0Z  IAML     654 41.99         5.9 0.31                           168 268 
 620  0Z IP   1    654 22.64   53                         45    0.39 5  188 285 
 620  0E ES   3    654 44.42                              45    0.78 5  188 285 
 620  0Z  IAML     654 50.90         3.2 0.39                           188 285 
                                                                                
 2016 11 5 0747 50.6 L  72.261 129.628 10.9  SLT 11 0.5 1.3LSLT 1.6CSLT        1
 GAP=268        1.04       4.0    16.1  4.0  0.3314E+02 -0.9708E+01 -0.5180E+01E
 ACTION:REE 25-08-04 21:53 OP:mn   STATUS:               ID:20161105074707     I
 2016-11-05-0747-07M.arct__039                                                 6
 STAT SP IPHASW D HRMM SECON CODA AMPLIT PERI AZIMU VELO AIN AR TRES W  DIS CAZ7
 630  0Z IP   0    747 59.45                              93    0.0410 49.1 246 
 632  0Z IP   1    748  5.49                              91    0.48 9 79.0 194 
 632  0N ES   3    748 14.75                              91   -0.77 9 79.0 194 
 628  0Z IP   1    748  5.65                              91    0.25 9 85.5 282 
 628  0N ES   0    748 16.33                              91    0.12 9 85.5 282 
 629  0Z IP   1    748  6.43                              91    0.28 8 87.7 246 
 629  0N ES   0    748 17.72                              91    0.21 8 87.7 246 
 627  0Z IP   0    748  6.65                              90   -0.14 8 91.8 261 
 627  0N ES   1    748 18.26                              90   -0.35 8 91.8 261 
 624  0Z IP   3    748 10.12   50                         52   -0.79 7  116 284 
 624  0E ES   3    748 24.96                              52   -0.78 7  116 284 
 624  0Z  IAML     748 25.55         6.2 0.39                           116 284 
 631  0Z IP   1    748 12.98                              49    0.35 7  127 222 
 631  0N ES   0    748 28.54                              49   -0.17 7  127 222 
 626  0Z IP   3    748 13.47   50                         49    0.84 7  130 253 
 626  0N ES   4    748 29.88                              49    1.17 7  130 253 
 626  0Z  IAML     748 30.10         4.0 0.51                           130 253 
 622  0Z IP   3    748 14.32                              49   -0.75 6  147 280 
 622  0N ES   2    748 32.38                              49   -0.55 6  147 280 
 621  0Z IP   0    748 17.14   50                         49    0.22 6  162 269 
 621  0N ES   1    748 36.58                              49    0.45 6  162 269 
 621  0Z  IAML     748 38.55         2.3 0.34                           162 269 
 620  0Z IP   0    748 19.29   52                         45   -0.21 5  183 286 
 620  0E ES   1    748 40.89                              45    0.30 5  183 286 
 620  0Z  IAML     748 47.43         1.3 0.38                           183 286 
                                                                                
 2016 1116 1036  4.0 L  72.712 124.955 14.5  SLT  7 0.2 0.8LSLT 1.3CSLT        1
 GAP=222        0.58       2.3     5.4  5.4  0.1551E+01 -0.1896E+02  0.5406E+00E
 ACTION:REE 25-08-04 21:55 OP:mn   STATUS:               ID:20161116103351     I
 2016-11-16-1033-51M.arct__039                                                 6
 STAT SP IPHASW D HRMM SECON CODA AMPLIT PERI AZIMU VELO AIN AR TRES W  DIS CAZ7
 620  0Z IP   1   1036  8.25   49                        122   -0.2510 21.2 253 
 620  0N ES   0   1036 11.86                             122    0.0610 21.2 253 
 620  0Z  IAML    1036 12.46        10.1 0.34                          21.2 253 
 622  0Z IP   0   1036 10.46                             111    0.1310 32.4 158 
 622  0N ES   0   1036 15.02                             111    0.0610 32.4 158 
 623  0Z IP   0   1036 13.76                             101    0.2310 50.8 148 
 624  0Z IP   0   1036 13.48   41                        101    0.0910 51.3 120 
 624  0E ES   0   1036 20.36                             101    0.1010 51.3 120 
 624  0Z  IAML    1036 20.79         8.1 0.18                          51.3 120 
 621  0Z IP   0   1036 14.87   44                         99    0.1410 58.9 182 
 621  0E ES   1   1036 22.33                              99   -0.2610 58.9 182 
 621  0Z  IAML    1036 22.48         3.3 0.21                          58.9 182 
 628  0Z IP   1   1036 17.72                              95   -0.35 9 81.2 114 
 628  0N ES   1   1036 28.08                              95   -0.28 9 81.2 114 
 626  0Z IP   1   1036 21.80   39                         94    0.45 8 99.0 158 
 626  0E ES   0   1036 33.86                              94   -0.18 8 99.0 158 
 626  0Z  IAML    1036 34.58         1.8 0.45                          99.0 158 
                                                                                
 2016 1116 2215 50.0 L  72.712 124.963 12.0  SLT 12 0.4 2.4LSLT 1.8CSLT        1
 GAP=222        0.93       3.2     6.9  3.2  0.6646E+01 -0.1016E+02 -0.2174E+01E
 ACTION:REE 25-08-04 21:56 OP:mn   STATUS:               ID:20161116221424     I
 2016-11-16-2214-24M.arct__039                                                 6
 STAT SP IPHASW D HRMM SECON CODA AMPLIT PERI AZIMU VELO AIN AR TRES W  DIS CAZ7
 620  0Z IP   0   2215 54.33                             116   -0.0710 21.5 253 
 620  0N ES   0   2215 57.69                             116    0.1010 21.5 253 
 622  0Z IP   0   2215 56.36                             105    0.1110 32.3 159 
 622  0N ES   0   2216  0.83                             105    0.0510 32.3 159 
 623  0Z IP   0   2215 59.54                              96    0.0310 50.6 148 
 623  0N ES   0   2216  6.30                              96   -0.1210 50.6 148 
 624  0Z IP   0   2215 59.56   78                         96    0.2110 51.1 120 
 624  0E ES   2   2216  6.74                              96    0.6010 51.1 120 
 624  0Z  IAML    2216  6.79        99.1 0.14                          51.1 120 
 621  0Z IP   0   2216  0.83   76                         94    0.0810 58.9 182 
 621  0N ES   0   2216  8.33                              94   -0.2410 58.9 182 
 621  0Z  IAML    2216 11.21        82.2 0.84                          58.9 182 
 625  0Z IP   0   2216  2.90                              93   -0.07 9 71.3 147 
 625  0N ES   0   2216 12.23                              93   -0.17 9 71.3 147 
 628  0Z IP   1   2216  3.65                              92   -0.42 9 80.9 114 
 628  0N ES   2   2216 13.71                              92   -0.60 9 80.9 114 
 626  0Z IP   0   2216  7.19   65                         92   -0.19 8 98.8 158 
 626  0E ES   1   2216 20.50                              92    0.46 8 98.8 158 
 626  0Z  IAML    2216 20.65        68.6 0.40                          98.8 158 
 629  0Z IP   1   2216 10.10                              49   -0.41 7  118 136 
 629  0N ES   4   2216 24.27                              49   -1.18 7  118 136 
 630  0Z IP   0   2216 12.27   49                         49   -0.14 7  134 120 
 630  0E ES   2   2216 29.41                              49    0.67 7  134 120 
 630  0Z  IAML    2216 31.39       177.1 0.37                           134 120 
 631  0Z IP   1   2216 17.26                              49    0.25 5  166 151 
 631  0N ES   3   2216 37.47                              49    0.77 5  166 151 
 632  0Z IP   2   2216 20.60                              45    0.68 4  189 130 
 632  0N ES   4   2216 43.01                              45    1.28 4  189 130 
                                                                                
 2016 1116 2253  6.2 L  72.691 124.989  7.2  SLT  8 0.5 1.3LSLT 1.1CSLT        1
 GAP=214        1.20       4.6     8.3  5.5  0.8878E+01 -0.1901E+02 -0.3522E+01E
 ACTION:REE 25-08-04 21:56 OP:mn   STATUS:               ID:20161116225147     I
 2016-11-16-2251-47M.arct__039                                                 6
 STAT SP IPHASW D HRMM SECON CODA AMPLIT PERI AZIMU VELO AIN AR TRES W  DIS CAZ7
 620  0Z IP   1   2253  9.98                             108   -0.3210 21.7 259 
 620  0N ES   0   2253 13.47                             108    0.1910 21.7 259 
 622  0Z IP   0   2253 11.95                             103    0.1710 29.8 158 
 624  0Z IP   0   2253 15.13   39                         98    0.0410 49.2 119 
 624  0N ES   3   2253 22.46                              98    0.8910 49.2 119 
 624  0Z  IAML    2253 22.46        23.5 0.22                          49.2 119 
 621  0Z IP   1   2253 16.89   31                         97    0.4410 56.6 183 
 621  0E ES   0   2253 24.07                              97    0.1410 56.6 183 
 621  0Z  IAML    2253 24.15         7.7 0.26                          56.6 183 
 628  0Z IP   2   2253 19.41                              95   -0.57 9 79.2 113 
 628  0N ES   1   2253 29.65                              95   -0.37 9 79.2 113 
 626  0Z IP   0   2253 23.43   42                         94    0.19 8 96.4 158 
 626  0E ES   4   2253 34.43                              94   -1.25 8 96.4 158 
 626  0Z  IAML    2253 36.43         3.4 0.28                          96.4 158 
 630  0Z IP   2   2253 28.22   31                         47   -0.69 7  132 120 
 630  0N ES   0   2253 45.49                              47    0.02 7  132 120 
 630  0Z  IAML    2253 46.99        11.5 0.29                           132 120 
 632  0Z IP   1   2253 36.73                              43    0.29 4  187 130 
 632  0N ES   2   2253 59.25                              43    0.74 4  187 130 
                                                                                
 2016 1116 2316 11.5 L  72.702 124.936 13.1  SLT 10 0.6 1.9LSLT 1.4CSLT        1
 GAP=219        1.15       4.4     8.9  4.2  0.9300E+01 -0.1902E+02 -0.2072E+01E
 ACTION:REE 25-08-04 21:56 OP:mn   STATUS:               ID:20161116231520     I
 2016-11-16-2315-20M.arct__039                                                 6
 STAT SP IPHASW D HRMM SECON CODA AMPLIT PERI AZIMU VELO AIN AR TRES W  DIS CAZ7
 620  0Z IP   0   2316 15.63                             120   -0.1010 20.3 255 
 620  0N ES   0   2316 18.99                             120    0.1410 20.3 255 
 622  0Z IP   0   2316 17.62                             108   -0.0010 31.7 156 
 623  0Z IP   0   2316 21.04                              99    0.1510 50.3 146 
 623  0N ES   0   2316 27.96                              99    0.1810 50.3 146 
 624  0Z IP   0   2316 20.75   44                         99   -0.0910 51.4 119 
 624  0Z  IAML    2316 28.11        69.9 0.25                          51.4 119 
 624  0N ES   2   2316 28.40                              99    0.7110 51.4 119 
 621  0Z IP   0   2316 22.07   54                         97    0.0610 57.9 182 
 621  0N ES   0   2316 29.73                              97    0.0210 57.9 182 
 621  0Z  IAML    2316 29.80        31.3 0.24                          57.9 182 
 628  0Z IP   2   2316 25.01                              93   -0.56 9 81.4 113 
 628  0N ES   2   2316 35.25                              93   -0.62 9 81.4 113 
 626  0Z IP   0   2316 28.62   54                         93   -0.09 8 98.2 157 
 626  0E ES   1   2316 40.86                              93   -0.44 8 98.2 157 
 626  0Z  IAML    2316 41.89        18.4 0.48                          98.2 157 
 629  0Z IP   0   2316 31.87                              49    0.07 7  118 136 
 629  0Z ES   4   2316 45.34                              49   -1.31 7  118 136 
 630  0Z IP   0   2316 33.52   36                         49   -0.23 7  134 120 
 630  0N ES   4   2316 51.10                              49    1.08 7  134 120 
 630  0Z  IAML    2316 52.63        44.8 0.27                           134 120 
 632  0Z IP   2   2316 41.91                              45    0.69 4  189 130 
 632  0Z ES   4   2317  4.70                              45    1.76 4  189 130 
                                                                                
