 2016 1015 1013 35.8 L  72.046 126.952 15.0  SLT 13 0.3                        1
 GAP= 76        0.72       1.1     3.3  2.0  0.1351E+01  0.1405E+01  0.9319E-01E
 ACTION:ARG 20-04-11 14:12 OP:mn   STATUS:               ID:20161015101225     I
 2016-10-15-1012-25M.SIOLA_039                                                 6
 STAT SP IPHASW D HRMM SECON CODA AMPLIT PERI AZIMU VELO AIN AR TRES W  DIS CAZ7
 627  0Z IP   0   1013 38.86                             151    0.1010 8.04   7 
 627  0N ES   1   1013 40.65                             151   -0.2510 8.04   7 
 629  0Z IP   0   1013 40.18                             128    0.2110 18.0 136 
 629  0Z ES   0   1013 43.13                             128    0.1510 18.0 136 
 625  0Z IP   0   1013 42.39                             112    0.0910 32.3 297 
 625  0N ES   0   1013 46.82                             112   -0.1910 32.3 297 
 626  0Z IP   1   1013 43.03                             109    0.4210 36.2 241 
 626  0N ES   1   1013 47.98                             109    0.4310 36.2 241 
 628  0Z IP   0   1013 43.01                             107    0.0110 40.1   9 
 628  0N ES   0   1013 48.22                             107   -0.0110 40.1   9 
 630  0Z IP   0   1013 44.61                             104    0.1610 47.3  85 
 630  0N ES   0   1013 50.64                             104   -0.0910 47.3  85 
 623  0Z IP   0   1013 45.75                             102    0.2410 51.3 308 
 623  0N ES   0   1013 52.58                             102    0.0110 51.3 308 
 624  0Z IP   0   1013 45.77                             102    0.1810 53.3 335 
 624  0N ES   0   1013 52.66                             102   -0.0610 53.3 335 
 622  0Z IP   0   1013 48.64                              97   -0.07 9 71.2 309 
 622  0N ES   1   1013 57.74                              97   -0.37 9 71.2 309 
 621  0Z IP   0   1013 49.10                              97    0.20 9 72.4 283 
 621  0N ES   1   1013 57.96                              97   -0.48 9 72.4 283 
 631  0Z IP   0   1013 49.10                              97   -0.09 9 72.9 172 
 631  0N ES   3   1013 58.06                              97   -0.88 9 72.9 172 
 632  0Z IP   0   1013 52.19                              95   -0.09 8 90.7 124 
 632  0N ES   0   1014  4.38                              95    0.09 8 90.7 124 
 620  0Z IP   0   1013 54.93                              52   -0.14 8  111 309 
 620  0N ES   0   1014  9.29                              52    0.18 8  111 309 
                                                                                
 2016 1029 0831 55.2 L  72.031 127.657 12.6  SLT 11 0.4 1.9LSLT 1.7CSLT        1
 GAP=114        0.93       1.6     5.2  3.5  0.6524E+00  0.4047E+01 -0.1126E+01E
 ACTION:REE 25-08-04 21:46 OP:mn   STATUS:               ID:20161029083048     I
 OLDACT:UP  20-04-26 21:33 OP:alex STATUS:               ID:20161029083048     3
 OLDACT:ARG 20-04-26 14:49 OP:alex STATUS:               ID:20161029083048     3
 2016-10-29-0830-48M.SIOLA_039                                                 6
 STAT SP IPHASW D HRMM SECON CODA AMPLIT PERI AZIMU VELO AIN AR TRES W  DIS CAZ7
 629  0Z IP   1 D  831 59.17   58                        125    0.3310 16.4 226 
 629  0E IS   1    832  1.87                             125    0.3510 16.4 226 
 629  0Z  IAML     832  2.25       315.8 0.32                          16.4 226 
 630  0Z IP   0    831 59.66                             115   -0.1110 23.5  78 
 630  0N ES   0    832  2.95                             115   -0.1710 23.5  78 
 627  0Z EP   1 C  832  0.41   37                        113    0.3310 25.1 293 
 627  0E ES   0    832  3.48                             113   -0.1810 25.1 293 
 627  0Z ES        832  4.05                             100           25.1 293 
 628  0Z IP   0    832  2.86                             100   -0.1510 44.7 337 
 628  0N ES   0    832  8.64                             100   -0.0910 44.7 337 
 625  0Z EP   0 C  832  5.37   99                         96   -0.0410 55.5 287 
 625  0E ES   1    832 12.61                              96   -0.2710 55.5 287 
 625  0Z  IAML     832 16.70        18.1 1.02                          55.5 287 
 626  0Z IP   0    832  5.72                              96    0.1610 58.3 255 
 626  0N ES   0    832 13.09                              96   -0.0510 58.3 255 
 624  0Z IP   1    832  7.82                              94    0.37 9 68.4 317 
 624  0N ES   0    832 16.34                              94   -0.08 9 68.4 317 
 631  0Z EP   0 C  832  8.24   77                         94   -0.09 9 71.9 192 
 631  0E ES   2    832 17.24                              94   -0.69 9 71.9 192 
 631  0Z  IAML     832 19.49        65.7 0.34                          71.9 192 
 623  0Z IP   3    832  9.37                              94    0.94 9 72.7 298 
 623  0N ES   1    832 17.84                              94   -0.27 9 72.7 298 
 622  0Z IP   0    832 11.79                              92    0.20 8 92.1 301 
 622  0N ES   3    832 22.69                              92   -0.89 8 92.1 301 
 620  0Z IP   1    832 17.65                              49    0.30 7  132 303 
 620  0N ES   0    832 33.70                              49    0.16 7  132 303 
                                                                                
 2016 1030 1322 37.4 L  72.541 126.523 10.6  SLT 12 0.3 2.2LSLT                1
 GAP=206        0.75       2.1     4.1  1.9  0.3324E+01 -0.1791E+01  0.5162E+00E
 ACTION:REE 25-08-04 21:47 OP:mn   STATUS:               ID:20161030132120     I
 OLDACT:ARG 20-04-26 14:49 OP:alex STATUS:               ID:20161030132120     3
 2016-10-30-1321-20M.SIOLA_039                                                 6
 STAT SP IPHASW D HRMM SECON CODA AMPLIT PERI AZIMU VELO AIN AR TRES W  DIS CAZ7
 624  0Z EP   0 C 1322 40.12                             131   -0.0110 11.0 229 
 624  0E ES   1   1322 41.68                             131   -0.4610 11.0 229 
 624  0Z  IAML    1322 42.72       707.3 0.21                          11.0 229 
 628  0Z EP   0 C 1322 42.27                             107    0.2310 26.2 127 
 628  0N ES   2   1322 46.16                             107    0.7210 26.2 127 
 628  0Z  IAML    1322 46.61       182.7 0.30                          26.2 127 
 623  0Z IP   0   1322 44.27                              99    0.0910 35.2 227 
 623  0N ES   1   1322 49.46                              99    0.3110 35.2 227 
 622  0Z IP   0   1322 45.24                              93    0.0310 42.1 255 
 622  0N ES   0   1322 51.03                              93    0.1110 42.1 255 
 625  0Z IP   0   1322 45.46                              92   -0.0310 43.3 199 
 625  0N ES   0   1322 51.31                              92   -0.1010 43.3 199 
 627  0Z IP   0   1322 46.47                              91    0.1110 49.8 162 
 627  0E ES   0   1322 53.05                              91    0.1410 49.8 162 
 629  0Z IP   1   1322 50.21                              90   -0.27 9 73.4 158 
 629  0E ES   0   1323  0.08                              90    0.03 9 73.4 158 
 620  0Z IP   0   1322 50.31                              90   -0.23 9 73.8 281 
 620  0N ES   0   1323  0.27                              90    0.12 9 73.8 281 
 626  0Z EP   0 C 1322 50.70                              90    0.13 9 74.7 193 
 626  0N ES   0   1322 59.97                              90   -0.24 9 74.7 193 
 626  0Z  IAML    1323  1.87        36.2 0.58                          74.7 193 
 630  0Z IP   1   1322 51.12                              90   -0.41 9 80.3 130 
 630  0E ES   2   1323  1.13                              90   -0.73 9 80.3 130 
 631  0Z EP   0 C 1322 59.88                              49    0.07 7  130 169 
 631  0N ES   1   1323 16.50                              49    0.31 7  130 169 
 631  0Z  IAML    1323 22.17        29.5 0.65                           130 169 
 632  0Z IP   0   1323  1.17                              49    0.14 6  139 140 
 632  0E ES   1   1323 17.99                              49   -0.31 6  139 140 
                                                                                
 2016 11 5 0556 46.7 L  72.280 129.723 11.9  SLT 13 0.6 2.4LSLT 2.0CSLT        1
 GAP=271        1.16       4.2    15.5  3.9  0.2493E+02 -0.1278E+02 -0.7420E+01E
 ACTION:REE 25-08-04 21:51 OP:mn   STATUS:               ID:20161105055546     I
 2016-11-05-0555-46M.arct__039                                                 6
 STAT SP IPHASW D HRMM SECON CODA AMPLIT PERI AZIMU VELO AIN AR TRES W  DIS CAZ7
 630  0Z IP   0    556 56.31                              95    0.1010 53.0 245 
 630  0N ES   2    557  3.72                              95    0.5910 53.0 245 
 632  0Z IP   2    557  1.07   70                         92   -0.58 9 82.0 196 
 632  0Z  IAML     557 12.36       104.1 0.21                          82.0 196 
 632  0E ES   0    557 12.38                              92   -0.15 9 82.0 196 
 628  0Z IP   1    557  2.31                              92    0.29 9 88.3 280 
 628  0N ES   1    557 12.89                              92   -0.28 9 88.3 280 
 629  0Z IP   1    557  3.20                              92    0.25 8 91.5 246 
 629  0N ES   0    557 14.64                              92   -0.15 8 91.5 246 
 627  0Z IP   0    557  3.36                              91   -0.18 8 95.3 260 
 627  0N ES   2    557 15.29                              91   -0.51 8 95.3 260 
 624  0Z IP   1    557  6.88                              49   -0.42 7  119 282 
 624  0N ES   4    557 21.08                              49   -1.23 7  119 282 
 625  0Z IP   0    557  8.18                              49    0.05 7  124 266 
 625  0N ES   2    557 23.14                              49   -0.61 7  124 266 
 631  0Z IP   1    557  9.61                              49    0.46 7  131 222 
 631  0N ES   0    557 25.40                              49   -0.10 7  131 222 
 626  0Z IP   2    557  9.79                              49    0.65 7  134 253 
 626  0E ES   1    557 25.78                              49    0.28 7  134 253 
 623  0Z IP   0    557  9.58                              49   -0.02 7  135 274 
 623  0N ES   3    557 25.54                              49   -0.76 7  135 274 
 622  0Z IP   0    557 11.44   84                         49   -0.03 6  150 279 
 622  0E ES   4    557 31.74                              49    2.22 6  150 279 
 622  0Z  IAML     557 33.03        18.6 0.28                           150 279 
 621  0Z IP   1    557 13.87   63                         49    0.49 5  165 269 
 621  0E ES   2    557 33.44                              49    0.62 5  165 269 
 621  0Z  IAML     557 35.39        26.2 0.37                           165 269 
 620  0Z IP   1    557 16.11   68                         45    0.28 5  186 286 
 620  0E ES   0    557 37.04                              45   -0.02 5  186 286 
 620  0Z  IAML     557 41.20        10.7 0.43                           186 286 
                                                                                
 2016 11 5 0610 51.0 L  72.280 129.777 12.7  SLT 13 0.6 1.5LSLT 1.5CSLT        1
 GAP=272        1.23       4.6    16.9  4.1  0.2929E+02 -0.1579E+02 -0.8583E+01E
 ACTION:REE 25-08-04 21:51 OP:mn   STATUS:               ID:20161105061008     I
 2016-11-05-0610-08M.arct__039                                                 6
 STAT SP IPHASW D HRMM SECON CODA AMPLIT PERI AZIMU VELO AIN AR TRES W  DIS CAZ7
 630  0Z IP   0    611  0.74                              97   -0.0610 54.6 246 
 630  0N ES   4    611  9.46                              97    1.5210 54.6 246 
 632  0Z IP   2    611  5.41   62                         93   -0.61 9 82.4 198 
 632  0E ES   2    611 16.45                              93   -0.52 9 82.4 198 
 632  0Z  IAML     611 18.64        11.0 0.54                          82.4 198 
 628  0Z IP   1    611  6.96                              93    0.33 9 90.1 280 
 628  0N ES   2    611 17.44                              93   -0.58 9 90.1 280 
 629  0Z IP   0    611  7.58                              92    0.05 8 93.2 246 
 629  0N ES   2    611 19.02                              92   -0.56 8 93.2 246 
 627  0Z IP   0    611  7.98                              92   -0.17 8 97.1 261 
 627  0N ES   2    611 19.90                              92   -0.74 8 97.1 261 
 624  0Z IP   1    611 11.44   39                         49   -0.29 7  120 282 
 624  0N ES   4    611 25.75                              49   -1.10 7  120 282 
 624  0Z  IAML     611 27.76         8.5 0.79                           120 282 
 625  0Z IP   2    611 13.16                              49    0.60 7  126 266 
 625  0N ES   0    611 28.15                              49   -0.14 7  126 266 
 631  0Z IP   2    611 14.16                              49    0.66 7  132 223 
 631  0N ES   0    611 29.82                              49   -0.08 7  132 223 
 626  0Z IP   2    611 14.29                              49    0.73 7  136 253 
 626  0N ES   1    611 30.28                              49    0.27 7  136 253 
 623  0Z IP   1    611 14.42                              49    0.38 7  136 274 
 623  0N ES   0    611 30.68                              49   -0.16 7  136 274 
 622  0Z IP   0    611 15.81                              49   -0.09 6  152 279 
 622  0N ES   1    611 33.75                              49   -0.31 6  152 279 
 621  0Z IP   1    611 18.29   47                         47    0.48 5  167 269 
 621  0N ES   1    611 37.85                              47    0.49 5  167 269 
 621  0Z  IAML     611 39.92         2.3 0.21                           167 269 
 620  0Z IP   1    611 20.51   47                         45    0.28 5  187 285 
 620  0E ES   1    611 41.99                              45    0.44 5  187 285 
 620  0Z  IAML     611 45.61         1.3 0.61                           187 285 
                                                                                
 2016 11 5 0626 29.0 L  72.267 129.685 12.5  SLT 13 0.5 2.9LSLT 2.1CSLT        1
 GAP=270        0.89       3.4    13.2  3.0  0.2085E+02 -0.5073E+01 -0.3774E+01E
 ACTION:REE 25-08-04 21:51 OP:mn   STATUS:               ID:20161105062528     I
 2016-11-05-0625-28M.arct__039                                                 6
 STAT SP IPHASW D HRMM SECON CODA AMPLIT PERI AZIMU VELO AIN AR TRES W  DIS CAZ7
 630  0Z IP   0    626 38.35                              97    0.1510 51.2 246 
 632  0Z IP   1    626 43.28   81                         93   -0.35 9 80.2 196 
 632  0E ES   1    626 53.82                              93   -0.48 9 80.2 196 
 632  0Z  IAML     626 56.13       266.0 0.58                          80.2 196 
 628  0Z IP   0    626 44.05  104                         92   -0.09 9 87.3 281 
 628  0N ES   0    626 55.36                              92    0.19 9 87.3 281 
 628  0Z  IAML     626 57.07       211.3 0.18                          87.3 281 
 629  0Z IP   1    626 45.26                              92    0.32 8 89.7 246 
 629  0N ES   0    626 56.78                              92    0.23 8 89.7 246 
 627  0Z IP   0    626 45.54                              92   -0.03 8 93.8 261 
 627  0N ES   1    626 57.37                              92   -0.28 8 93.8 261 
 624  0Z IP   1    626 49.11                              49   -0.28 7  118 283 
 624  0N ES   4    627  2.97                              49   -1.30 7  118 283 
 625  0Z IP   0    626 50.07                              49   -0.10 7  122 267 
 625  0N ES   0    627  5.57                              49   -0.03 7  122 267 
 631  0Z IP   2    626 51.81                              49    0.70 7  129 222 
 631  0N ES   1    627  7.55                              49    0.32 7  129 222 
 626  0Z IP   2    626 51.82                              49    0.68 7  132 253 
 626  0N ES   1    627  7.66                              49    0.37 7  132 253 
 623  0Z IP   0    626 51.64                              49   -0.03 7  133 275 
 623  0N ES   2    627  7.68                              49   -0.52 7  133 275 
 622  0Z IP   0    626 53.38                              49   -0.17 6  149 280 
 622  0N ES   1    627 11.09                              49   -0.37 6  149 280 
 621  0Z IP   2    626 56.09   82                         49    0.67 5  164 269 
 621  0N ES   3    627 15.57                              49    0.88 5  164 269 
 621  0Z  IAML     627 17.54        48.7 0.40                           164 269 
 620  0Z IP   1    626 58.20   67                         45    0.27 5  185 286 
 620  0N ES   2    627 19.60                              45    0.56 5  185 286 
 620  0Z  IAML     627 23.30        25.7 0.39                           185 286 
                                                                                
 2016 11 5 0629  6.6 L  72.253 129.729 13.2  SLT 13 0.7 2.8LSLT 2.1CSLT        1
 GAP=271        1.26       4.6    17.0  4.1  0.3165E+02 -0.1690E+02 -0.8339E+01E
 ACTION:REE 25-08-04 21:52 OP:mn   STATUS:               ID:20161105062806     I
 2016-11-05-0628-06M.arct__039                                                 6
 STAT SP IPHASW D HRMM SECON CODA AMPLIT PERI AZIMU VELO AIN AR TRES W  DIS CAZ7
 630  0Z IP   0    629 15.99                              99    0.0510 52.0 248 
 630  0N ES   0    629 22.93                              99    0.1810 52.0 248 
 632  0Z IP   1    629 20.72   80                         94   -0.32 9 79.1 197 
 632  0E ES   1    629 31.30                              94   -0.28 9 79.1 197 
 632  0Z  IAML     629 33.37       233.2 0.65                          79.1 197 
 628  0Z IP   0    629 22.14   75                         93    0.11 9 89.0 282 
 628  0N ES   2    629 34.02                              93    0.73 9 89.0 282 
 628  0Z  IAML     629 34.83       210.9 0.37                          89.0 282 
 629  0Z IP   1    629 22.93                              93    0.27 8 90.5 248 
 629  0N ES   0    629 34.54                              93    0.16 8 90.5 248 
 627  0Z IP   1    629 23.02                              93   -0.35 8 95.1 262 
 627  0N ES   3    629 34.80                              93   -0.81 8 95.1 262 
 624  0Z IP   2    629 26.62                              49   -0.51 7  119 284 
 624  0N ES   4    629 40.85                              49   -1.26 7  119 284 
 625  0Z IP   0    629 27.88                              49    0.03 7  124 268 
 625  0N ES   2    629 42.67                              49   -0.70 7  124 268 
 631  0Z IP   3    629 29.41                              49    0.81 7  129 223 
 631  0N ES   1    629 45.07                              49    0.42 7  129 223 
 626  0Z IP   2    629 29.37                              49    0.60 7  133 254 
 626  0N ES   1    629 45.29                              49    0.33 7  133 254 
 623  0Z IP   0    629 29.35                              49   -0.03 7  135 275 
 623  0N ES   3    629 45.18                              49   -0.83 7  135 275 
 622  0Z IP   1    629 30.90                              49   -0.38 6  151 280 
 622  0N ES   2    629 48.68                              49   -0.61 6  151 280 
 621  0Z IP   1    629 33.52   77                         47    0.40 5  165 270 
 621  0E ES   4    629 54.24                              47    1.77 5  165 270 
 621  0Z  IAML     630  3.58        42.6 0.33                           165 270 
 620  0Z IP   0    629 35.78   84                         45    0.12 5  187 286 
 620  0E ES   4    629 59.11                              45    2.25 5  187 286 
 620  0Z  IAML     630  4.05        23.6 0.49                           187 286 
                                                                                
