 2017  320 1900 34.3 L  72.415 126.129 18.0  BER  7 0.1 0.6LBER 0.5CBER        1
 GAP=119        0.38       1.2     2.8  2.0 -0.5913E+00 -0.8801E-01  0.9422E+00E
 ACTION:ARG 20-12-21 03:09 OP:mn   STATUS:               ID:20170320190000     I
 2017-03-20-1900-00M.a_____039                                                 6
 STAT SP IPHASW D HRMM SECON CODA AMPLIT PERI AZIMU VELO AIN AR TRES W  DIS CAZ7
 624  0Z IP     D 19 0 37.68   22                        154    0.1210 8.41  36 
 624  0E ES       19 0 40.10                             154    0.0410 8.41  36 
 624  0Z  IAML    19 0 40.49        27.4 0.14                          8.41  36 
 623  0Z IP     C 19 0 38.40   17                        137    0.1510 15.9 232 
 623  0N ES       19 0 41.37                             137    0.0910 15.9 232 
 623  0Z  IAML    19 0 41.66        25.9 0.19                          15.9 232 
 625  0Z IP     D 19 0 39.68   20                        122    0.05 9 26.9 182 
 625  0N ES       19 0 43.66                             122   -0.04 9 26.9 182 
 625  0Z  IAML    19 0 44.10         2.9 0.17                          26.9 182 
 622  0Z IP     C 19 0 39.71   25                        121   -0.02 9 27.7 277 
 622  0N ES       19 0 43.71                             121   -0.18 9 27.7 277 
 622  0Z  IAML    19 0 44.04         5.4 0.12                          27.7 277 
 628  0Z IP     D 19 0 40.69   25                        115   -0.00 9 34.4  92 
 628  0N ES       19 0 45.33                             115   -0.25 9 34.4  92 
 628  0Z  IAML    19 0 46.85         8.3 0.26                          34.4  92 
 621  0Z IP     D 19 0 43.02   27                        108    0.08 9 49.3 239 
 621  0N ES       19 0 49.31                             108   -0.22 9 49.3 239 
 621  0Z  IAML    19 0 49.89         2.7 0.30                          49.3 239 
 626  0Z IP     C 19 0 44.66   24                        105    0.24 8 58.9 183 
 626  0N ES       19 0 52.05                             105   -0.09 8 58.9 183 
 626  0Z  IAML    19 0 52.41         4.2 0.32                          58.9 183 

 2017  323 1612 49.7 L  72.453 125.112  8.3  BER  6 0.1 0.5LBER 0.7CBER        1
 GAP=134        0.31       0.9     2.3  1.8  0.4060E+00  0.7866E+00 -0.1659E-02E
 ACTION:ARG 20-12-21 03:09 OP:mn   STATUS:               ID:20170323161125     I
 2017-03-23-1611-25M.a_____039                                                 6
 STAT SP IPHASW D HRMM SECON CODA AMPLIT PERI AZIMU VELO AIN AR TRES W  DIS CAZ7
 622  0Z IP     C 1612 51.41   22                        137   -0.1410 6.88 100 
 622  0E ES       1612 52.97                             137    0.0210 6.88 100 
 622  0Z  IAML    1612 53.39        63.5 0.21                          6.88 100 
 623  0Z IP     D 1612 54.32   36                        101   -0.02 9 26.1 123 
 623  0E ES       1612 58.05                             101    0.18 9 26.1 123 
 623  0Z  IAML    1612 59.14         5.2 0.24                          26.1 123 
 621  0Z IP     D 1612 55.02   23                         99   -0.10 9 30.9 194 
 621  0E ES       1612 59.28                              99    0.04 9 30.9 194 
 621  0Z  IAML    1613  1.01         3.2 0.17                          30.9 194 
 620  0Z IP     D 1612 55.59   21                         98   -0.02 9 34.0 312 
 620  0N ES       1613  0.20                              98    0.10 9 34.0 312 
 620  0Z  IAML    1613  1.52         5.5 0.15                          34.0 312 
 624  0Z IP     D 1612 56.50   21                         96    0.06 9 39.2  86 
 624  0N ES       1613  1.64                              96    0.08 9 39.2  86 
 624  0Z  IAML    1613  2.27         5.5 0.14                          39.2  86 
 628  0Z IP     C 1613  1.10   26                         93   -0.10 8 68.8  94 
 628  0N ES       1613  9.81                              93   -0.14 8 68.8  94 
 628  0Z  IAML    1613 11.19         2.5 0.25                          68.8  94 

 2017  412 1507  0.6 L  71.507 129.720  0.0  BER  6 0.5 0.7LBER 1.5CBER        1
 GAP=300        0.92       5.4    18.5  7.5 -0.1888E+02 -0.3945E+01 -0.9758E+01E
 ACTION:UP  20-12-23 19:18 OP:elen STATUS:               ID:20170412150615     I
 OLDACT:REG 20-12-21 22:40 OP:elen STATUS:               ID:20170412150615     3
 2017-04-12-1506-15M.NSN___039                                                 6
 STAT SP IPHASW D HRMM SECON CODA AMPLIT PERI AZIMU VELO AIN AR TRES W  DIS CAZ7
 632  0Z IP       15 7  4.64   45                         90   -0.2910 24.0 288 
 632  0N ES       15 7  8.05                              90   -0.1510 24.0 288 
 632  0E  IAML    15 7  8.99        28.2 0.08                          24.0 288 
 630  0Z IP       15 7 14.54   43                         65    0.25 8 79.9 323 
 630  0E ES       15 7 25.17                              65    0.51 8 79.9 323 
 630  0E  IAML    15 7 25.98         2.1 0.16                          79.9 323 
 631  0Z IP       15 7 15.68   55                         65   -0.02 8 88.6 263 
 631  0E ES       15 7 27.10                              65   -0.05 8 88.6 263 
 631  0N  IAML    15 7 28.47         3.1 0.24                          88.6 263 
 628  0Z IP       15 7 22.26   45                         65   -0.69 6  134 319 
 628  0N ES       15 7 38.50                              65   -1.40 6  134 319 
 628  0N  IAML    15 7 40.00         1.0 0.15                           134 319 
 626  0Z IP       15 7 23.77   43                         65    0.44 6  136 290 
 626  0N ES       15 7 41.09                              65    0.51 6  136 290 
 626  0N  IAML    15 7 41.90         1.7 0.18                           136 290 
 625  0Z IP       15 7 25.58   45                         65    0.62 6  146 302 
 625  0N ES       15 7 44.16                              65    0.71 6  146 302 
 625  0N  IAML    15 7 46.35         2.0 0.22                           146 302 

 2017  414 1656 23.4 L  72.185 127.400 15.5  BER  6 0.1 0.2LBER 1.1CBER        1
 GAP=130        0.39       1.1     2.9  2.9  0.3556E+00 -0.8649E-01 -0.6829E-01E
 ACTION:UP  20-12-24 19:41 OP:elen STATUS:               ID:20170414165510     I
 OLDACT:REG 20-12-22 00:00 OP:elen STATUS:               ID:20170414165510     3
 2017-04-14-1655-10M.NSN___039                                                 6
 STAT SP IPHASW D HRMM SECON CODA AMPLIT PERI AZIMU VELO AIN AR TRES W  DIS CAZ7
 627  0Z IP       1656 27.22   26                        132    0.0510 16.2 242 
 627  0N ES       1656 30.13                             132    0.1210 16.2 242 
 627  0E  IAML    1656 30.77        22.6 0.16                          16.2 242 
 628  0Z IP       1656 28.27   30                        119   -0.1210 25.4 340 
 628  0N ES       1656 31.94                             119   -0.2210 25.4 340 
 628  0E  IAML    1656 32.81         5.0 0.14                          25.4 340 
 630  0Z IP       1656 29.67   39                        112    0.03 9 34.0 111 
 630  0N ES       1656 34.38                             112    0.02 9 34.0 111 
 630  0E  IAML    1656 34.60         4.9 0.10                          34.0 111 
 625  0Z IP       1656 31.21   34                        106    0.01 9 44.2 269 
 625  0N ES       1656 37.05                             106   -0.05 9 44.2 269 
 625  0E  IAML    1656 37.41         1.1 0.27                          44.2 269 
 624  0Z IP       1656 32.30   31                        104    0.19 9 50.0 311 
 624  0N ES       1656 38.94                             104    0.24 9 50.0 311 
 624  0N  IAML    1656 39.46         1.5 0.38                          50.0 311 
 626  0Z IP       1656 33.22   41                        102   -0.06 9 57.5 235 
 626  0N ES       1656 40.52                             102   -0.24 9 57.5 235 
 626  0N  IAML    1656 44.59         0.7 0.20                          57.5 235 

 2017  426 1840 44.1 L  72.271 126.367 18.1  BER  8 0.1 1.3LBER 2.4CBER        1
 GAP= 93        0.30       0.7     2.1  1.7  0.9789E-01 -0.6935E+00  0.2460E+00E
 ACTION:UP  21-01-02 22:25 OP:elen STATUS:               ID:20170426183923     I
 OLDACT:REG 21-01-02 11:44 OP:elen STATUS:               ID:20170426183923     3
 2017-04-26-1839-23M.NSN___024                                                 6
 STAT SP IPHASW D HRMM SECON CODA AMPLIT PERI AZIMU VELO AIN AR TRES W  DIS CAZ7
 625  0Z IP       1840 47.88   74                        141    0.0210 14.0 219 
 625  0N ES       1840 50.73                             141   -0.0110 14.0 219 
 625  0E  IAML    1840 51.37       213.3 0.52                          14.0 219 
 624  0Z IP       1840 48.98   77                        126    0.0510 23.1 352 
 624  0N ES       1840 52.65                             126    0.0210 23.1 352 
 624  0N  IAML    1840 52.83       190.5 0.14                          23.1 352 
 627  0Z IP       1840 49.51   82                        122    0.0410 27.1 129 
 627  0N ES       1840 53.59                             122    0.0110 27.1 129 
 627  0N  IAML    1840 53.89        27.0 0.10                          27.1 129 
 628  0Z IP       1840 49.87   85                        119   -0.02 9 30.1  61 
 628  0N ES       1840 54.20                             119   -0.11 9 30.1  61 
 628  0N  IAML    1840 54.73        51.7 0.14                          30.1  61 
 629  0Z IP       1840 53.07   83                        107    0.20 9 50.1 139 
 629  0E ES       1840 59.71                             107    0.16 9 50.1 139 
 629  0E  IAML    1841  0.14        14.2 0.26                          50.1 139 
 621  0Z IP       1840 53.08   83                        107    0.03 9 51.3 260 
 621  0N ES       1840 59.75                             107   -0.12 9 51.3 260 
 621  0N  IAML    1841  0.04        20.1 0.21                          51.3 260 
 630  0Z IP       1840 56.07   88                        102    0.03 8 70.4 107 
 630  0E ES       1841  4.95                             102   -0.18 8 70.4 107 
 630  0N  IAML    1841  8.11         4.4 0.16                          70.4 107 
 631  0Z IP       1841  1.10   83                         98    0.04 7  102 162 
 631  0N ES       1841 13.69                              98   -0.28 7  102 162 
 631  0E  IAML    1841 13.87        16.2 0.28                           102 162 

 2017  427 0912 28.8 L  72.063 127.796  2.7  BER  8 0.2 0.9LBER 1.8CBER        1
 GAP=116        0.46       1.1     2.8  2.2 -0.2069E+00  0.2273E+01 -0.7922E+00E
 ACTION:UP  21-01-03 00:37 OP:elen STATUS:               ID:20170427091104     I
 OLDACT:REG 21-01-02 12:22 OP:elen STATUS:               ID:20170427091104     3
 2017-04-27-0911-04M.NSN___024                                                 6
 STAT SP IPHASW D HRMM SECON CODA AMPLIT PERI AZIMU VELO AIN AR TRES W  DIS CAZ7
 630  0Z IP        912 32.08   60                         99   -0.0510 18.2  85 
 630  0N ES        912 34.82                              99    0.1910 18.2  85 
 630  0E  IAML     912 35.23        75.2 0.16                          18.2  85 
 629  0Z IP        912 32.72   51                         97   -0.1510 22.4 228 
 629  0N ES        912 35.92                              97   -0.0110 22.4 228 
 629  0N  IAML     912 36.29        59.7 0.32                          22.4 228 
 627  0Z IP        912 33.91   56                         95   -0.0710 28.6 283 
 627  0N ES        912 37.96                              95    0.0810 28.6 283 
 627  0N  IAML     912 38.62        15.6 0.11                          28.6 283 
 628  0Z IP        912 36.13   59                         65   -0.31 9 43.6 330 
 628  0E ES        912 41.83                              65   -0.39 9 43.6 330 
 628  0N  IAML     912 43.71        13.3 0.10                          43.6 330 
 625  0Z IP        912 38.95   47                         65   -0.00 9 59.2 283 
 625  0N ES        912 46.75                              65    0.11 9 59.2 283 
 625  0E  IAML     912 48.75         5.0 0.38                          59.2 283 
 624  0Z IP        912 40.79   55                         65    0.21 8 69.3 312 
 624  0N ES        912 49.90                              65    0.40 8 69.3 312 
 624  0E  IAML     912 52.51         7.8 0.24                          69.3 312 
 631  0Z IP        912 41.71   65                         65   -0.03 8 76.5 195 
 631  0E ES        912 51.50                              65   -0.05 8 76.5 195 
 631  0N  IAML     912 56.09         4.4 0.17                          76.5 195 
 621  0Z IP        912 45.77   63                         65    0.15 7  101 279 
 621  0N ES        912 58.51                              65    0.14 7  101 279 
 621  0E  IAML     913  4.61         3.4 0.11                           101 279 

 2017  427 0912 28.8 L  72.064 127.797  2.6  BER  8 0.2 0.9LBER 2.1CBER        1
 GAP=116        0.45       1.1     2.7  2.2 -0.1853E+00  0.2147E+01 -0.7569E+00E
 ACTION:UP  21-01-03 02:00 OP:elen STATUS:               ID:20170427091134     I
 OLDACT:REG 21-01-02 12:26 OP:elen STATUS:               ID:20170427091134     3
 2017-04-27-0911-34M.NSN___024                                                 6
 STAT SP IPHASW D HRMM SECON CODA AMPLIT PERI AZIMU VELO AIN AR TRES W  DIS CAZ7
 630  0Z IP        912 32.09   73                         98   -0.0210 18.2  86 
 630  0N ES        912 34.77                              98    0.1610 18.2  86 
 630  0E  IAML     912 35.23        73.7 0.16                          18.2  86 
 629  0Z IP        912 32.76   63                         97   -0.1110 22.5 228 
 629  0N ES        912 35.91                              97   -0.0410 22.5 228 
 629  0N  IAML     912 36.50        46.4 0.25                          22.5 228 
 627  0Z IP        912 33.89   69                         95   -0.0710 28.6 282 
 627  0N ES        912 37.90                              95    0.0510 28.6 282 
 627  0N  IAML     912 38.62        15.3 0.11                          28.6 282 
 628  0Z IP        912 36.13   71                         65   -0.28 9 43.5 330 
 628  0E ES        912 41.77                              65   -0.41 9 43.5 330 
 628  0N  IAML     912 43.71        13.4 0.10                          43.5 330 
 625  0Z IP        912 39.00   64                         65    0.06 9 59.2 283 
 625  0N ES        912 46.73                              65    0.10 9 59.2 283 
 625  0E  IAML     912 48.75         5.0 0.37                          59.2 283 
 624  0Z IP        912 40.79   61                         65    0.23 8 69.2 312 
 624  0E ES        912 49.82                              65    0.35 8 69.2 312 
 624  0N  IAML     912 53.81        11.0 0.23                          69.2 312 
 631  0Z IP        912 41.74   76                         65   -0.02 8 76.7 195 
 631  0E ES        912 51.50                              65   -0.09 8 76.7 195 
 631  0N  IAML     912 56.09         4.4 0.17                          76.7 195 
 621  0Z IP        912 45.78   68                         65    0.17 7  101 279 
 621  0N ES        912 58.52                              65    0.16 7  101 279 
 621  0E  IAML     913  4.61         3.4 0.10                           101 279 

