 2016  9 6 1514 39.7 L  72.508 125.684 12.1  BER  6 0.1 0.9LBER-0.4CBER        1
 GAP=169        0.29       0.9     2.1  2.1  0.4338E+00  0.4279E+00 -0.2841E+00E
 ACTION:ARG 20-04-02 17:38 OP:mn   STATUS:               ID:20160906151318     I
 2016-09-06-1513-18M.SIOLA_039                                                 6
 STAT SP IPHASW D HRMM SECON CODA AMPLIT PERI AZIMU VELO AIN AR TRES W  DIS CAZ7
 622  0Z IP     C 1514 42.78    7                        127   -0.0510 14.5 240 
 622  0N ES       1514 45.31                             127    0.0710 14.5 240 
 622  0Z  IAML    1514 45.95        16.0 0.13                          14.5 240 
 624  0Z IP     C 1514 43.55    4                        118   -0.0610 20.2 100 
 624  0N ES       1514 46.71                             118    0.1010 20.2 100 
 624  0Z  IAML    1514 46.87       161.8 0.17                          20.2 100 
 623  0Z IP     D 1514 43.56                             117   -0.0910 20.5 173 
 623  0E ES       1514 46.57                             117   -0.1210 20.5 173 
 623  0Z  IAML    1514 46.77        26.6 0.14                          20.5 173 
 625  0Z IP     C 1514 46.57   25                        103   -0.05 9 39.9 159 
 625  0E ES       1514 51.99                             103    0.08 9 39.9 159 
 625  0Z  IAML    1514 53.15         6.1 0.55                          39.9 159 
 621  0Z IP     D 1514 47.54   15                        101    0.11 9 45.1 217 
 621  0N ES       1514 53.37                             101    0.04 9 45.1 217 
 621  0Z  IAML    1514 54.45         6.5 0.39                          45.1 217 
 620  0Z IP     C 1514 47.89   21                        101    0.07 9 47.5 291 
 620  0N ES       1514 53.95                             101   -0.07 9 47.5 291 
 620  0Z  IAML    1514 54.31        10.0 0.36                          47.5 291 

 2016 10 5 1619 46.9 L  72.877 125.015 19.0  BER  9 0.2 1.0LBER 0.4CBER        1
 GAP=264        0.50       3.0     5.9  3.0  0.3465E+01 -0.9131E+01 -0.3363E+01E
 ACTION:ARG 20-04-11 14:12 OP:mn   STATUS:               ID:20161005161823     I
 2016-10-05-1618-23M.SIOLA_039                                                 6
 STAT SP IPHASW D HRMM SECON CODA AMPLIT PERI AZIMU VELO AIN AR TRES W  DIS CAZ7
 620  0Z IP     C 1619 53.22   14                        118   -0.0110 33.3 222 
 620  0E ES       1619 57.77                             118   -0.2810 33.3 222 
 620  0Z  IAML    1619 58.27        10.0 0.26                          33.3 222 
 622  0Z IP     C 1619 55.67   24                        109    0.03 9 49.5 168 
 622  0N ES       1620  2.15                             109   -0.15 9 49.5 168 
 622  0Z  IAML    1620  2.41        12.4 0.26                          49.5 168 
 624  0Z IP     C 1619 57.78   12                        105    0.32 9 61.3 136 
 624  0E ES       1620  5.66                             105    0.17 9 61.3 136 
 624  0Z  IAML    1620  6.07        13.9 0.20                          61.3 136 
 623  0Z IP     D 1619 58.49   14                        104    0.25 9 66.3 158 
 623  0E ES       1620  7.08                             104    0.20 9 66.3 158 
 623  0Z  IAML    1620  8.02         7.1 0.21                          66.3 158 
 621  0Z IP     D 1620  0.03   18                        102    0.04 8 77.4 183 
 621  0N ES       1620 10.27                             102    0.31 8 77.4 183 
 621  0Z  IAML    1620 10.74         9.1 0.26                          77.4 183 
 628  0Z IP     D 1620  1.57   24                        100   -0.21 8 88.7 126 
 628  0E ES       1620 12.86                             100   -0.25 8 88.7 126 
 628  0Z  IAML    1620 13.38         4.9 0.14                          88.7 126 
 627  0Z IP     D 1620  4.99   37                         98    0.22 7  107 141 
 627  0E ES       1620 17.78                              98   -0.58 7  107 141 
 627  0Z  IAML    1620 18.01         3.3 0.70                           107 141 
 629  0Z IP     D 1620  8.38   25                         58    0.15 6  131 143 
 629  0E ES       1620 24.46                              58    0.01 6  131 143 
 629  0Z  IAML    1620 25.99         5.6 0.17                           131 143 
 630  0Z IP     D 1620  9.67   29                         58   -0.15 6  143 127 
 630  0E ES       1620 26.89                              58   -0.36 6  143 127 
 630  0Z  IAML    1620 27.89         4.1 0.22                           143 127 

 2017  117 0846 48.6 L  72.213 127.347 22.0  BER  6 0.2 0.3LBER 0.2CBER        1
 GAP=132        0.46       1.3     3.8  3.0  0.3461E+00 -0.9174E-01  0.6118E+00E
 ACTION:ARG 20-09-30 09:42 OP:mn   STATUS:               ID:20170117084544     I
 2017-01-17-0845-44M.a_____039                                                 6
 STAT SP IPHASW D HRMM SECON CODA AMPLIT PERI AZIMU VELO AIN AR TRES W  DIS CAZ7
 627  0Z IP     D  846 53.34   16                        142    0.1510 16.5 229 
 627  0N ES        846 56.65                             142    0.0110 16.5 229 
 627  0Z  IAML     846 56.82         5.9 0.18                          16.5 229 
 628  0Z IP     D  846 53.86   16                        134    0.0810 21.9 342 
 628  0N ES        846 57.60                             134   -0.0810 21.9 342 
 628  0Z  IAML     846 57.84        14.0 0.17                          21.9 342 
 629  0Z IP     D  846 55.24   18                        123    0.22 9 31.7 182 
 629  0Z  IAML     846 59.97         1.1 0.10                          31.7 182 
 629  0E ES        847  0.04                             123    0.18 9 31.7 182 
 630  0Z IP     C  846 55.71   14                        119   -0.02 9 36.9 114 
 630  0N ES        847  0.86                             119   -0.25 9 36.9 114 
 630  0Z  IAML     847  0.98         3.0 0.19                          36.9 114 
 625  0Z IP     C  846 56.67   17                        116    0.13 9 42.6 265 
 625  0N ES        847  2.52                             116   -0.02 9 42.6 265 
 625  0Z  IAML     847  2.83         1.8 0.19                          42.6 265 
 626  0Z IP     C  846 58.73   23                        109   -0.11 9 57.9 232 
 626  0E ES        847  6.16                             109   -0.42 9 57.9 232 
 626  0Z  IAML     847  6.61         1.9 0.17                          57.9 232 

 2017  122 1614 27.6 L  71.967 128.047 10.3  BER  6 0.1 0.9LBER 0.9CBER        1
 GAP=103        0.29       0.9     2.2  3.5  0.7142E+00  0.3562E+01  0.2106E+01E
 ACTION:ARG 20-09-30 09:42 OP:mn   STATUS:               ID:20170122161342     I
 2017-01-22-1613-42M.a_____039                                                 6
 STAT SP IPHASW D HRMM SECON CODA AMPLIT PERI AZIMU VELO AIN AR TRES W  DIS CAZ7
 630  0Z IP     C 1614 30.75   14                        120   -0.0210 15.3  38 
 630  0E ES       1614 33.21                             120    0.0610 15.3  38 
 630  0Z  IAML    1614 33.46       104.3 0.12                          15.3  38 
 629  0Z IP     D 1614 32.13   30                        107   -0.1910 25.8 261 
 629  0E ES       1614 35.84                             107   -0.0310 25.8 261 
 629  0Z  IAML    1614 36.23        18.5 0.10                          25.8 261 
 627  0Z IP     C 1614 34.55   30                        100   -0.05 9 40.3 295 
 627  0N ES       1614 39.89                             100    0.00 9 40.3 295 
 627  0Z  IAML    1614 40.61        14.7 0.22                          40.3 295 
 632  0Z IP     C 1614 37.17   34                         96   -0.05 9 56.7 140 
 632  0E ES       1614 44.47                              96   -0.02 9 56.7 140 
 632  0Z  IAML    1614 44.94         8.0 0.10                          56.7 140 
 631  0Z IP     D 1614 39.26   55                         95    0.01 8 69.4 204 
 631  0E ES       1614 48.25                              95    0.17 8 69.4 204 
 631  0Z  IAML    1614 50.83         5.8 0.32                          69.4 204 
 625  0Z IP     D 1614 39.55   29                         95    0.10 8 70.5 290 
 625  0E ES       1614 48.51                              95    0.10 8 70.5 290 
 625  0Z  IAML    1614 51.05         2.4 0.27                          70.5 290 

 2017  125 2244  0.2 L  72.444 126.025 13.1  BER  6 0.1 0.8LBER 0.9CBER        1
 GAP=157        0.30       1.1     2.4  2.1 -0.1727E-01  0.3363E+00  0.1359E+01E
 ACTION:ARG 20-09-30 09:42 OP:mn   STATUS:               ID:20170125224241     I
 2017-01-25-2242-41M.a_____039                                                 6
 STAT SP IPHASW D HRMM SECON CODA AMPLIT PERI AZIMU VELO AIN AR TRES W  DIS CAZ7
 624  0Z IP     D 2244  2.91   25                        144    0.0210 9.15  67 
 624  0E ES       2244  4.95                             144    0.0210 9.15  67 
 624  0Z  IAML    2244  5.20       124.5 0.16                          9.15  67 
 622  0Z IP     C 2244  4.78   25                        115   -0.01 9 24.0 270 
 622  0E ES       2244  8.28                             115    0.02 9 24.0 270 
 622  0Z  IAML    2244  9.10        14.6 0.20                          24.0 270 
 625  0Z IP     C 2244  5.66   21                        110   -0.06 9 30.2 175 
 625  0N ES       2244  9.88                             110   -0.02 9 30.2 175 
 625  0Z  IAML    2244 10.97         6.7 0.21                          30.2 175 
 628  0Z IP     D 2244  6.90   31                        105   -0.03 9 38.1  97 
 628  0E ES       2244 11.99                             105   -0.05 9 38.1  97 
 628  0Z  IAML    2244 12.68         7.1 0.16                          38.1  97 
 626  0Z IP     C 2244 10.68   36                         99   -0.02 8 62.0 180 
 626  0N ES       2244 18.54                              99   -0.13 8 62.0 180 
 626  0Z  IAML    2244 20.43         3.8 0.33                          62.0 180 
 631  0Z IP     D 2244 20.79   35                         94    0.14 6  124 159 
 631  0N ES       2244 36.54                              94    0.36 6  124 159 
 631  0Z  IAML    2244 39.67         1.7 0.16                           124 159 

 2017  3 7 2016 50.8 L  72.691 124.915 15.3  BER  6 0.2 1.1LBER 1.0CBER        1
 GAP=214        0.40       2.3     5.6  4.8  0.6988E+01 -0.1939E+02 -0.3214E+01E
 ACTION:ARG 20-12-21 03:09 OP:mn   STATUS:               ID:20170307201532     I
 2017-03-07-2015-32M.a_____039                                                 6
 STAT SP IPHASW D HRMM SECON CODA AMPLIT PERI AZIMU VELO AIN AR TRES W  DIS CAZ7
 620  0Z IP     D 2016 54.89   27                        126   -0.0110 19.3 258 
 620  0N ES       2016 58.01                             126   -0.0110 19.3 258 
 620  0Z  IAML    2016 58.22        65.2 0.16                          19.3 258 
 622  0Z IP     D 2016 56.37   24                        114   -0.1310 30.8 154 
 622  0E ES       2017  0.78                             114   -0.0610 30.8 154 
 622  0Z  IAML    2017  0.95        37.3 0.29                          30.8 154 
 623  0Z IP     D 2016 59.49   30                        104    0.11 9 49.6 145 
 623  0E ES       2017  6.12                             104    0.21 9 49.6 145 
 623  0Z  IAML    2017  7.13         6.9 0.23                          49.6 145 
 624  0Z IP     C 2016 59.78   34                        104    0.12 9 51.4 117 
 624  0N ES       2017  6.58                             104    0.18 9 51.4 117 
 624  0Z  IAML    2017  7.53        13.6 0.15                          51.4 117 
 628  0Z IP     D 2017  4.31   28                         98   -0.12 8 81.5 112 
 628  0E ES       2017 14.48                              98   -0.32 8 81.5 112 
 628  0Z  IAML    2017 14.92         9.4 0.24                          81.5 112 
 626  0Z IP     D 2017  7.15   41                         97    0.18 7 97.3 156 
 626  0E ES       2017 19.03                              97   -0.23 7 97.3 156 
 626  0Z  IAML    2017 19.78         3.2 0.39                          97.3 156 

 2017  311 0430 55.4 L  72.313 126.509 24.5  BER  6 0.1 0.3LBER 0.3CBER        1
 GAP=134        0.33       1.1     3.2  2.2 -0.1112E+01  0.6409E-01  0.8122E+00E
 ACTION:ARG 20-12-21 03:09 OP:mn   STATUS:               ID:20170311042943     I
 2017-03-11-0429-43M.a_____039                                                 6
 STAT SP IPHASW D HRMM SECON CODA AMPLIT PERI AZIMU VELO AIN AR TRES W  DIS CAZ7
 624  0Z IP     D  431  0.62   19                        140    0.0510 19.8 337 
 624  0E ES        431  4.51                             140   -0.0110 19.8 337 
 624  0Z  IAML     431  4.88         9.8 0.22                          19.8 337 
 625  0Z IP     D  431  0.81   19                        139    0.1510 20.7 222 
 625  0N ES        431  4.79                             139    0.1210 20.7 222 
 625  0Z  IAML     431  5.71         3.1 0.25                          20.7 222 
 628  0Z IP     C  431  0.99   16                        135    0.0010 23.7  65 
 628  0N ES        431  5.13                             135   -0.1210 23.7  65 
 628  0Z  IAML     431  5.32         5.8 0.25                          23.7  65 
 623  0Z IP     D  431  1.28   19                        133    0.0910 25.4 274 
 623  0N ES        431  5.59                             133   -0.0210 25.4 274 
 623  0Z  IAML     431  5.87         3.5 0.19                          25.4 274 
 626  0Z IP     D  431  4.59   20                        114    0.04 9 50.1 199 
 626  0N ES        431 11.37                             114   -0.14 9 50.1 199 
 626  0Z  IAML     431 11.76         1.9 0.36                          50.1 199 
 621  0Z IP     D  431  5.57   18                        112    0.00 9 57.0 256 
 621  0N ES        431 13.07                             112   -0.24 9 57.0 256 
 621  0Z  IAML     431 13.26         1.6 0.15                          57.0 256 

 2017  313 0809  5.6 L  72.450 125.088 14.9  BER  7 0.1 1.2LBER 1.3CBER        1
 GAP=132        0.28       0.7     2.2  3.0  0.4656E+00 -0.1236E+01 -0.2307E+00E
 ACTION:ARG 20-12-21 03:09 OP:mn   STATUS:               ID:20170313080741     I
 2017-03-13-0807-41M.a_____039                                                 6
 STAT SP IPHASW D HRMM SECON CODA AMPLIT PERI AZIMU VELO AIN AR TRES W  DIS CAZ7
 623  0Z IP     D  8 9 10.61   38                        117   -0.1010 26.6 121 
 623  0E ES        8 9 14.56                             117   -0.0110 26.6 121 
 623  0Z  IAML     8 9 15.47        41.9 0.23                          26.6 121 
 621  0Z IP     D  8 9 11.20   33                        113   -0.0810 30.5 193 
 621  0E ES        8 9 15.58                             113    0.0110 30.5 193 
 621  0Z  IAML     8 9 17.34        23.5 0.15                          30.5 193 
 620  0Z IP     D  8 9 11.72   34                        111   -0.0410 33.7 313 
 620  0N ES        8 9 16.45                             111    0.0410 33.7 313 
 620  0Z  IAML     8 9 17.87        44.7 0.14                          33.7 313 
 624  0Z IP     D  8 9 12.75   25                        107    0.0210 40.0  85 
 624  0N ES        8 9 18.26                             107    0.1410 40.0  85 
 624  0Z  IAML     8 9 18.61        42.4 0.14                          40.0  85 
 625  0Z IP     C  8 9 13.68   53                        105   -0.02 9 46.3 131 
 625  0N ES        8 9 19.84                             105    0.01 9 46.3 131 
 625  0Z  IAML     8 9 21.34        10.0 0.26                          46.3 131 
 628  0Z IP     D  8 9 17.39   42                         99    0.01 8 69.6  94 
 628  0N ES        8 9 26.13                              99   -0.18 8 69.6  94 
 628  0Z  IAML     8 9 27.51        18.6 0.24                          69.6  94 
 626  0Z IP     D  8 9 17.71   45                         99    0.17 8 70.6 152 
 626  0E ES        8 9 26.64                              99    0.06 8 70.6 152 
 626  0Z  IAML     8 9 26.87         6.5 0.21                          70.6 152 

 2017  317 1007 14.1 L  72.235 125.988  3.9  BER  7 0.2 0.5LBER 0.9CBER        1
 GAP=113        0.51       1.1     3.2  1.6  0.1304E+01 -0.7183E+00 -0.5991E+00E
 ACTION:ARG 20-12-21 03:09 OP:mn   STATUS:               ID:20170317100556     I
 2017-03-17-1005-56M.a_____039                                                 6
 STAT SP IPHASW D HRMM SECON CODA AMPLIT PERI AZIMU VELO AIN AR TRES W  DIS CAZ7
 625  0Z IP     C 10 7 15.52   28                        116   -0.1410 7.94 149 
 625  0E ES       10 7 17.05                             116    0.1910 7.94 149 
 625  0Z  IAML    10 7 17.31        20.4 0.18                          7.94 149 
 623  0Z IP     D 10 7 16.27   23                        107   -0.2010 12.8 323 
 623  0E ES       10 7 18.51                             107    0.2310 12.8 323 
 623  0Z  IAML    10 7 19.03        21.6 0.25                          12.8 323 
 624  0Z IP     C 10 7 19.09   37                         65   -0.07 9 28.6  20 
 624  0E ES       10 7 23.21                              65    0.19 9 28.6  20 
 624  0Z  IAML    10 7 23.77         9.2 0.17                          28.6  20 
 622  0Z IP     D 10 7 19.65   28                         65   -0.14 9 32.5 316 
 622  0E ES       10 7 24.34                              65    0.21 9 32.5 316 
 622  0Z  IAML    10 7 28.80         4.3 0.60                          32.5 316 
 621  0Z IP     C 10 7 20.43   28                         65   -0.24 9 37.9 262 
 621  0N ES       10 7 25.73                              65    0.06 9 37.9 262 
 621  0Z  IAML    10 7 27.08         9.0 0.28                          37.9 262 
 628  0Z IP     D 10 7 21.20   28                         65   -0.35 9 43.4  64 
 628  0N ES       10 7 27.17                              65   -0.06 9 43.4  64 
 628  0Z  IAML    10 7 28.42         8.2 0.15                          43.4  64 
 629  0Z IP     D 10 7 23.73   40                         65    0.00 8 56.9 126 
 629  0E ES       10 7 31.37                              65    0.31 8 56.9 126 
 629  0Z  IAML    10 7 32.24         3.3 0.27                          56.9 126 

