 2017  313 0553 59.6 L  72.693 124.906 11.6  BER 12 0.4                        1
 GAP=215        0.83       3.5     7.3  5.2  0.8595E+01 -0.1795E+02 -0.1061E+01E
 ACTION:ARG 20-12-21 03:09 OP:mn   STATUS:               ID:20170313055233     I
 2017-03-13-0552-33M.a_____039                                                 6
 STAT SP IPHASW D HRMM SECON CODA AMPLIT PERI AZIMU VELO AIN AR TRES W  DIS CAZ7
 620  0Z  P        554  3.30                             118   -0.0610 19.1 257 
 620  0N  S        554  6.35                             118    0.2710 19.1 257 
 622  0Z  P        554  4.92                             107   -0.2310 31.1 154 
 622  0E  S        554  9.27                             107    0.0810 31.1 154 
 623  0Z  P        554  8.38                             100    0.26 9 50.0 145 
 623  0E  S        554 14.44                             100    0.12 9 50.0 145 
 624  0Z  P        554  8.01                             100   -0.39 9 51.7 117 
 624  0N  S        554 15.14                             100    0.33 9 51.7 117 
 621  0Z  P        554  8.87                              99   -0.35 9 56.8 181 
 621  0E  S        554 15.88                              99   -0.35 9 56.8 181 
 625  0Z  P        554 12.43                              97    1.02 8 70.6 144 
 625  0E  S        554 19.90                              97   -0.12 8 70.6 144 
 628  0Z  P        554 12.54                              96   -0.68 8 81.8 112 
 628  0N  S        554 22.67                              96   -0.47 8 81.8 112 
 627  0Z  P        554 15.10                              95   -0.24 7 95.1 132 
 627  0N  S        554 26.94                              95    0.13 7 95.1 132 
 626  0Z  P        554 16.01                              95    0.24 7 97.7 156 
 626  0E  S        554 27.31                              95   -0.25 7 97.7 156 
 630  0Z  P        554 21.29                              93   -0.39 6  135 119 
 630  0E  S        554 38.85                              93    1.06 6  135 119 
 631  0Z  P        554 25.93                              53   -0.24 5  165 150 
 631  0N  S        554 45.42                              53   -0.14 5  165 150 
 632  0Z  P        554 29.51                              53    0.23 4  190 129 
 632  0N  S        554 52.08                              53    1.15 4  190 129 

 2017  313 0809  6.1 L  72.454 125.049  1.2  BER 13 0.6                        1
 GAP=132        1.17       2.6     7.8  5.1  0.4806E+01 -0.1468E+02  0.1266E+01E
 ACTION:ARG 20-12-21 03:09 OP:mn   STATUS:               ID:20170313080741     I
 2017-03-13-0807-41M.a_____039                                                 6
 STAT SP IPHASW D HRMM SECON CODA AMPLIT PERI AZIMU VELO AIN AR TRES W  DIS CAZ7
 622  0Z  P        8 9  7.76                              98    0.0210 8.97  98 
 622  0N  S        8 9  9.32                              98    0.3910 8.97  98 
 623  0Z  P        8 9 10.65                              93   -0.47 9 27.9 120 
 623  0N  S        8 9 14.89                              93    0.13 9 27.9 120 
 621  0Z  P        8 9 11.42                              93   -0.17 9 30.6 190 
 621  0N  S        8 9 15.96                              93    0.37 9 30.6 190 
 620  0Z  P        8 9 11.73                              65   -0.19 9 32.4 314 
 620  0E  S        8 9 16.77                              65    0.61 9 32.4 314 
 624  0Z  P        8 9 12.86                              65   -0.50 9 41.3  86 
 624  0E  S        8 9 18.19                              65   -0.45 9 41.3  86 
 625  0Z  P        8 9 13.81                              65   -0.55 9 47.5 131 
 625  0E  S        8 9 20.38                              65    0.00 9 47.5 131 
 628  0Z  P        8 9 17.50                              65   -0.64 8 71.0  94 
 628  0N  S        8 9 26.57                              65   -0.34 8 71.0  94 
 626  0Z  P        8 9 17.81                              65   -0.44 8 71.6 151 
 626  0E  S        8 9 26.75                              65   -0.35 8 71.6 151 
 627  0Z  P        8 9 18.62                              65   -0.28 8 75.6 119 
 627  0E  S        8 9 28.34                              65    0.12 8 75.6 119 
 629  0Z  P        8 9 23.22                              65    0.89 7 97.0 126 
 629  0E  S        8 9 35.02                              65    0.86 7 97.0 126 
 630  0Z  P        8 9 25.92                              65    0.01 6  119 109 
 630  0N  S        8 9 42.64                              65    2.29 6  119 109 
 631  0Z  P        8 9 29.68                              65    0.38 5  140 146 
 631  0E  S        8 9 45.58                              65   -0.64 5  140 146 
 632  0Z  P        8 9 34.08                              65   -0.02 4  170 123 
 632  0N  S        8 9 54.84                              65    0.32 4  170 123 

 2017  317 1007 14.2 L  72.244 125.986  2.9  BER  9 0.5                        1
 GAP= 83        1.15       2.0     7.4  4.0  0.3824E+01 -0.5426E+01 -0.8611E+00E
 ACTION:ARG 20-12-21 03:09 OP:mn   STATUS:               ID:20170317100556     I
 2017-03-17-1005-56M.a_____039                                                 6
 STAT SP IPHASW D HRMM SECON CODA AMPLIT PERI AZIMU VELO AIN AR TRES W  DIS CAZ7
 625  0Z  P       10 7 15.55                             109   -0.3010 8.79 152 
 625  0E  S       10 7 16.97                             109   -0.0910 8.79 152 
 623  0Z  P       10 7 16.27                             104   -0.1310 12.0 320 
 623  0E  S       10 7 18.62                             104    0.6110 12.0 320 
 624  0Z  P       10 7 19.15                              65    0.04 9 27.7  21 
 624  0E  S       10 7 21.82                              65   -0.87 9 27.7  21 
 622  0Z  P       10 7 19.87                              65    0.11 9 31.8 314 
 621  0E  P       10 7 20.40                              65   -0.38 9 38.0 260 
 621  0N  S       10 7 25.84                              65    0.25 9 38.0 260 
 626  0Z  P       10 7 20.63                              65   -0.42 9 39.7 177 
 626  0E  S       10 7 26.15                              65    0.09 9 39.7 177 
 628  0Z  P       10 7 21.20                              65   -0.38 9 43.1  66 
 628  0E  S       10 7 27.42                              65    0.45 9 43.1  66 
 629  0Z  P       10 7 23.70                              65   -0.21 8 57.5 127 
 629  0E  S       10 7 31.28                              65    0.28 8 57.5 127 
 630  0Z  P       10 7 29.36                              65    1.47 7 82.2 102 

 2017  320 1900 34.5 L  72.410 126.153 17.6  BER  9 0.2                        1
 GAP= 94        0.59       1.5     3.6  2.7  0.2912E+00  0.1067E+00  0.9763E+00E
 ACTION:ARG 20-12-21 03:09 OP:mn   STATUS:               ID:20170320190000     I
 2017-03-20-1900-00M.a_____039                                                 6
 STAT SP IPHASW D HRMM SECON CODA AMPLIT PERI AZIMU VELO AIN AR TRES W  DIS CAZ7
 624  0Z  P       19 0 37.65                             154   -0.1110 8.46  29 
 624  0N  S       19 0 40.26                             154    0.1410 8.46  29 
 623  0Z  P       19 0 38.41                             136   -0.0710 16.2 235 
 623  0N  S       19 0 41.36                             136   -0.0210 16.2 235 
 625  0Z  P       19 0 39.69                             122   -0.06 9 26.3 183 
 625  0N  S       19 0 43.86                             122    0.28 9 26.3 183 
 622  0Z  P       19 0 39.70                             120   -0.35 9 28.5 278 
 622  0N  S       19 0 43.81                             120   -0.29 9 28.5 278 
 628  0Z  P       19 0 40.71                             116   -0.07 9 33.6  91 
 628  0N  S       19 0 45.37                             116    0.02 9 33.6  91 
 621  0Z  P       19 0 43.05                             108   -0.18 9 49.8 240 
 621  0N  S       19 0 49.32                             108   -0.27 9 49.8 240 
 626  0Z  P       19 0 44.86                             105    0.30 8 58.4 184 
 626  0E  S       19 0 52.06                             105    0.17 8 58.4 184 
 620  0Z  P       19 0 46.03                             103    0.24 8 66.4 295 
 620  0N  S       19 0 54.73                             103    0.70 8 66.4 295 
 630  0Z  P       19 0 48.34                             100   -0.06 7 82.9 116 
 630  0N  S       19 0 58.33                             100   -0.21 7 82.9 116 

 2017  326 0836 34.5 L  71.990 127.684 13.7  BER 13 0.3                        1
 GAP= 88        0.74       1.5     4.4  4.2  0.1610E+01  0.1441E+01 -0.5730E+00E
 ACTION:ARG 20-12-21 03:09 OP:mn   STATUS:               ID:20170326083527     I
 2017-03-26-0835-27M.a_____039                                                 6
 STAT SP IPHASW D HRMM SECON CODA AMPLIT PERI AZIMU VELO AIN AR TRES W  DIS CAZ7
 629  0Z  P        836 37.76                             132   -0.0610 14.5 242 
 629  0N  S        836 40.50                             132    0.2610 14.5 242 
 630  0Z  P        836 38.93                             117   -0.1610 24.0  66 
 630  0N  S        836 42.51                             117    0.0610 24.0  66 
 627  0Z  P        836 39.41                             113   -0.2710 28.0 301 
 627  0N  S        836 43.27                             113   -0.1910 28.0 301 
 628  0Z  P        836 42.34                             103   -0.61 9 49.3 338 
 628  0E  S        836 48.96                             103   -0.17 9 49.3 338 
 625  0Z  P        836 44.25                             101   -0.06 8 57.9 292 
 625  0N  S        836 51.44                             101   -0.04 8 57.9 292 
 626  0Z  P        836 43.96                             101   -0.41 8 58.2 260 
 626  0N  S        836 51.36                             101   -0.22 8 58.2 260 
 632  0Z  P        836 45.58                              99   -0.19 8 67.1 133 
 632  0N  S        836 54.22                              99    0.21 8 67.1 133 
 631  0Z  P        836 45.78                              99   -0.09 8 67.7 193 
 631  0E  S        836 54.34                              99    0.17 8 67.7 193 
 624  0Z  P        836 47.58                              98    0.96 8 72.4 319 
 624  0N  S        836 55.89                              98    0.41 8 72.4 319 
 623  0Z  P        836 47.90                              98    0.75 8 75.8 301 
 622  0Z  P        836 50.40                              96    0.12 7 95.3 303 
 622  0N  S        837  1.80                              96   -0.00 7 95.3 303 
 621  0Z  P        836 50.66                              96   -0.13 7 98.4 284 
 621  0N  S        837  2.37                              96   -0.32 7 98.4 284 
 620  0Z  P        836 56.79                              94    0.09 6  135 305 
 620  0N  S        837 13.42                              94    0.52 6  135 305 

 2017  4 2 0422  1.4 L  72.730 125.712 17.4  BER 13 0.4                        1
 GAP=227        0.73       3.1     6.1  3.9  0.6123E+01 -0.7123E+01 -0.3084E+01E
 ACTION:UP  20-12-20 22:46 OP:elen STATUS:               ID:20170402042039     I
 OLDACT:UP  20-12-20 00:44 OP:elen STATUS:               ID:20170402042039     3
 OLDACT:UP  20-12-16 20:09 OP:elen STATUS:               ID:20170402042039     3
 OLDACT:UP  20-12-16 14:06 OP:elen STATUS:               ID:20170402042039     3
 OLDACT:REG 20-12-12 10:59 OP:elen STATUS:               ID:20170402042039     3
 2017-04-02-0420-39M.NSN___039                                                 6
 STAT SP IPHASW D HRMM SECON CODA AMPLIT PERI AZIMU VELO AIN AR TRES W  DIS CAZ7
 624  0Z  P        422  7.93                             115    0.2610 34.0 146 
 624  0N  S        422 12.72                             115    0.4410 34.0 146 
 622  0Z  P        422  7.87                             115    0.1010 34.8 203 
 622  0N  S        422 12.68                             115    0.2210 34.8 203 
 623  0Z  P        422  9.48                             109    0.1610 45.1 178 
 623  0E  S        422 15.32                             109    0.1810 45.1 178 
 620  0Z  P        422  9.31                             109   -0.1710 46.1 260 
 620  0E  S        422 15.33                             109   -0.0710 46.1 260 
 628  0Z  P        422 11.52                             104   -0.19 9 60.5 127 
 628  0N  S        422 19.31                             104    0.04 9 60.5 127 
 625  0Z  P        422 12.32                             103    0.15 9 63.5 168 
 625  0E  S        422 20.08                             103    0.02 9 63.5 168 
 621  0Z  P        422 13.07                             103    0.33 9 66.9 205 
 621  0E  S        422 20.50                             103   -0.54 9 66.9 205 
 627  0Z  P        422 15.23                             100    0.33 8 80.7 147 
 627  0E  S        422 24.48                             100   -0.30 8 80.7 147 
 626  0Z  P        422 16.68                              99   -0.44 8 94.6 173 
 626  0Z  S        422 28.14                              99   -0.49 8 94.6 173 
 629  0Z  P        422 18.83                              98    0.13 7  105 148 
 630  0Z  P        422 19.72                              97   -0.57 7  115 128 
 630  0N  S        422 33.07                              97   -1.05 7  115 128 
 631  0Z  P        422 26.19                              53   -0.17 5  158 160 
 631  0E  S        422 44.71                              53    0.10 5  158 160 
 632  0Z  P        422 28.57                              53    0.27 5  173 137 
 632  0Z  S        422 49.10                              53    1.13 5  173 137 

 2017  4 5 0307 36.2 L  71.677 129.012 13.0  BER 11 0.3                        1
 GAP=197        0.58       1.8     8.2  3.4  0.2930E+01  0.8051E+01 -0.1162E+01E
 ACTION:UP  20-12-21 00:10 OP:elen STATUS:               ID:20170405030618     I
 OLDACT:UP  20-12-20 01:44 OP:elen STATUS:               ID:20170405030618     3
 OLDACT:UP  20-12-16 21:32 OP:elen STATUS:               ID:20170405030618     3
 OLDACT:REG 20-12-13 13:11 OP:elen STATUS:               ID:20170405030618     3
 2017-04-05-0306-18M.NSN___039                                                 6
 STAT SP IPHASW D HRMM SECON CODA AMPLIT PERI AZIMU VELO AIN AR TRES W  DIS CAZ7
 632  0Z  P        3 7 39.22                             136    0.1010 11.7 169 
 630  0Z  P        3 7 44.60                             102   -0.18 9 50.4 332 
 630  0E  S        3 7 50.81                             102   -0.25 9 50.4 332 
 629  0N  P        3 7 47.79                              99    0.60 8 65.5 296 
 629  0E  S        3 7 55.11                              99   -0.12 8 65.5 296 
 631  0Z  P        3 7 47.79                              98   -0.07 8 69.7 244 
 631  0N  S        3 7 56.19                              98   -0.20 8 69.7 244 
 628  0Z  P        3 7 52.89                              95   -0.32 7  103 322 
 628  0E  S        3 8  5.38                              95   -0.25 7  103 322 
 626  0Z  P        3 7 53.32                              95   -0.45 7  106 284 
 626  0N  S        3 8  6.48                              95   -0.13 7  106 284 
 625  0Z  P        3 7 55.21                              95    0.11 6  115 300 
 625  0N  S        3 8  8.99                              95    0.08 6  115 300 
 624  0Z  P        3 7 57.43                              94   -0.03 6  130 315 
 624  0E  S        3 8 13.52                              94    0.52 6  130 315 
 623  0Z  P        3 7 58.66                              94    0.56 6  133 304 
 623  0N  S        3 8 14.72                              94    0.63 6  133 304 
 622  0Z  P        3 8  0.83                              53   -0.20 5  153 306 
 622  0N  S        3 8 19.58                              53    0.42 5  153 306 
 621  0Z  P        3 8  1.02                              53   -0.09 5  154 294 
 621  0E  S        3 8 19.03                              53   -0.27 5  154 294 

 2017  4 8 1004 45.2 L  72.584 124.865 14.5  BER 13 0.4                        1
 GAP=169        0.76       2.6     6.6  3.6  0.7699E+01 -0.6809E+01  0.9295E+00E
 ACTION:UP  20-12-21 14:32 OP:elen STATUS:               ID:20170408100319     I
 OLDACT:UP  20-12-20 16:21 OP:elen STATUS:               ID:20170408100319     3
 OLDACT:UP  20-12-19 02:06 OP:elen STATUS:               ID:20170408100319     3
 OLDACT:REG 20-12-15 20:09 OP:elen STATUS:               ID:20170408100319     3
 2017-04-08-1003-19M.NSN___039                                                 6
 STAT SP IPHASW D HRMM SECON CODA AMPLIT PERI AZIMU VELO AIN AR TRES W  DIS CAZ7
 620  0Z  P       10 4 49.10                             126   -0.0510 18.9 295 
 620  0N  S       10 4 52.37                             126    0.3310 18.9 295 
 622  0Z  P       10 4 49.31                             122   -0.2310 21.8 136 
 622  0E  S       10 4 52.71                             122   -0.0110 21.8 136 
 623  0Z  P       10 4 52.25                             107   -0.23 9 41.7 133 
 623  0N  S       10 4 57.99                             107    0.18 9 41.7 133 
 621  0Z  P       10 4 53.23                             106    0.27 9 44.6 179 
 621  0N  S       10 4 58.56                             106   -0.08 9 44.6 179 
 624  0Z  P       10 4 53.23                             104   -0.36 9 48.8 104 
 624  0Z  S       10 5  0.44                             104    0.71 9 48.8 104 
 625  0Z  P       10 4 55.44                             101   -0.24 8 62.1 137 
 625  0N  S       10 5  3.16                             101   -0.19 8 62.1 137 
 628  0Z  P       10 4 57.57                              98   -0.86 8 79.4 104 
 628  0N  S       10 5  7.96                              98   -0.15 8 79.4 104 
 626  0Z  P       10 4 59.90                              97    0.18 8 87.3 152 
 626  0E  S       10 5 10.06                              97   -0.27 8 87.3 152 
 627  0Z  P       10 4 59.81                              97   -0.10 8 88.6 125 
 627  0E  S       10 5 10.80                              97    0.13 8 88.6 125 
 629  0Z  P       10 5  3.42                              96   -0.05 7  111 130 
 629  0N  S       10 5 17.36                              96    0.54 7  111 130 
 630  0Z  P       10 5  5.84                              95   -0.75 6  130 114 
 630  0E  S       10 5 23.00                              95    0.77 6  130 114 
 631  0Z  P       10 5 10.20                              53   -0.01 5  156 147 
 631  0E  S       10 5 28.65                              53    0.16 5  156 147 
 632  0Z  P       10 5 14.07                              53    0.33 4  183 126 
 632  0E  S       10 5 35.68                              53    1.09 4  183 126 

