 2016 11 5 0747 50.6 L  72.304 129.763 15.6  BER 11 0.4 1.1LBER 1.7CBER        1
 GAP=272        0.65       3.4    12.9  4.3  0.2202E+02 -0.1140E+02 -0.6327E+01E
 ACTION:REE 25-08-04 21:53 OP:mn   STATUS:               ID:20161105074707     I
 2016-11-05-0747-07M.arct__039                                                 6
 STAT SP IPHASW D HRMM SECON CODA AMPLIT PERI AZIMU VELO AIN AR TRES W  DIS CAZ7
 630  0Z  P        747 59.45                             103   -0.6810 55.3 243 
 632  0Z  P        748  5.49                              98    0.69 9 84.8 197 
 632  0N  S        748 14.75                              98   -0.39 9 84.8 197 
 628  0Z  P        748  5.65                              98    0.15 9 89.2 278 
 628  0N  S        748 16.33                              98   -0.01 9 89.2 278 
 629  0Z  P        748  6.43                              98    0.19 8 93.8 245 
 629  0N  S        748 17.72                              98    0.11 8 93.8 245 
 627  0Z  P        748  6.65                              97   -0.12 8 97.1 259 
 627  0N  S        748 18.26                              97   -0.27 8 97.1 259 
 624  0Z  P        748 10.12   50                         96   -0.21 7  119 281 
 624  0E  S        748 24.96                              96    0.26 7  119 281 
 631  0Z  P        748 12.98                              95    0.37 7  134 222 
 631  0N  S        748 28.54                              95   -0.11 7  134 222 
 626  0Z  P        748 13.47   50                         95    0.45 7  136 252 
 626  0N  S        748 29.88                              95    0.52 7  136 252 
 622  0Z  P        748 14.32                              53   -0.67 6  151 278 
 622  0N  S        748 32.38                              53   -0.38 6  151 278 
 621  0Z  P        748 17.14   50                         53    0.16 5  166 268 
 621  0N  S        748 36.58                              53    0.39 5  166 268 
 620  0Z  P        748 19.29   52                         53   -0.18 5  186 285 
 620  0E  S        748 40.89                              53    0.38 5  186 285 

 2016 1116 1036  4.3 L  72.746 124.940 12.3  BER  7 0.3 0.6LBER 1.5CBER        1
 GAP=234        0.59       3.2     7.3  9.2  0.3908E+01 -0.4727E+02 -0.2184E+01E
 ACTION:REE 25-08-04 21:55 OP:mn   STATUS:               ID:20161116103351     I
 2016-11-16-1033-51M.arct__039                                                 6
 STAT SP IPHASW D HRMM SECON CODA AMPLIT PERI AZIMU VELO AIN AR TRES W  DIS CAZ7
 620  0Z  P       1036  8.25   49                        116   -0.2710 22.2 243 
 620  0N  S       1036 11.86                             116    0.2510 22.2 243 
 622  0Z  P       1036 10.46                             106   -0.17 9 36.1 160 
 622  0N  S       1036 15.02                             106   -0.23 9 36.1 160 
 624  0Z  P       1036 13.48   41                        100    0.07 9 53.8 123 
 624  0E  S       1036 20.36                             100    0.29 9 53.8 123 
 623  0Z  P       1036 13.76                             100    0.27 9 54.3 149 
 621  0Z  P       1036 14.87   44                         98    0.02 9 62.7 182 
 621  0E  S       1036 22.33                              98   -0.23 9 62.7 182 
 628  0Z  P       1036 17.72                              96   -0.41 8 83.3 117 
 628  0N  S       1036 28.08                              96   -0.15 8 83.3 117 
 626  0Z  P       1036 21.80   39                         95    0.55 7  103 158 
 626  0E  S       1036 33.86                              95    0.22 7  103 158 

 2016 1116 2215 50.2 L  72.754 124.941 10.6  BER 12 0.4 2.2LBER 2.1CBER        1
 GAP=236        0.69       3.3     6.3  5.0  0.4629E+01 -0.1447E+02 -0.2290E+01E
 ACTION:REE 25-08-04 21:56 OP:mn   STATUS:               ID:20161116221424     I
 2016-11-16-2214-24M.arct__039                                                 6
 STAT SP IPHASW D HRMM SECON CODA AMPLIT PERI AZIMU VELO AIN AR TRES W  DIS CAZ7
 620  0Z  P       2215 54.33                             112   -0.0510 22.6 241 
 620  0N  S       2215 57.69                             112    0.2510 22.6 241 
 622  0Z  P       2215 56.36                             102   -0.23 9 36.9 160 
 622  0N  S       2216  0.83                             102   -0.43 9 36.9 160 
 624  0Z  P       2215 59.56   78                         98    0.22 9 54.2 124 
 624  0E  S       2216  6.74                              98    0.71 9 54.2 124 
 623  0Z  P       2215 59.54                              98    0.07 9 55.1 150 
 623  0N  S       2216  6.30                              98    0.05 9 55.1 150 
 621  0Z  P       2216  0.83   76                         97   -0.03 9 63.6 182 
 621  0N  S       2216  8.33                              97   -0.32 9 63.6 182 
 625  0Z  P       2216  2.90                              95    0.13 8 75.7 148 
 625  0N  S       2216 12.23                              95    0.27 8 75.7 148 
 628  0Z  P       2216  3.65                              95   -0.41 8 83.6 117 
 628  0N  S       2216 13.71                              95   -0.47 8 83.6 117 
 626  0Z  P       2216  7.19   65                         94   -0.07 7  104 158 
 626  0E  S       2216 20.50                              94    0.77 7  104 158 
 629  0Z  P       2216 10.10                              93   -0.15 6  122 138 
 629  0N  S       2216 24.27                              93   -0.63 6  122 138 
 630  0Z  P       2216 12.27   49                         93   -0.37 6  137 122 
 630  0E  S       2216 29.41                              93    0.38 6  137 122 
 631  0Z  P       2216 17.26                              53   -0.26 5  171 151 
 631  0N  S       2216 37.47                              53   -0.01 5  171 151 
 632  0Z  P       2216 20.60                              53    0.21 4  193 131 
 632  0N  S       2216 43.01                              53    0.57 4  193 131 

 2016 1116 2253  6.3 L  72.735 124.949  7.4  BER  8 0.4 1.2LBER 1.2CBER        1
 GAP=230        0.87       5.1     7.9 11.0  0.3189E+01 -0.4354E+02  0.1593E+01E
 ACTION:REE 25-08-04 21:56 OP:mn   STATUS:               ID:20161116225147     I
 2016-11-16-2251-47M.arct__039                                                 6
 STAT SP IPHASW D HRMM SECON CODA AMPLIT PERI AZIMU VELO AIN AR TRES W  DIS CAZ7
 620  0Z  P       2253  9.98                             103   -0.2610 21.9 246 
 620  0N  S       2253 13.47                             103    0.3610 21.9 246 
 622  0Z  P       2253 11.95                              97   -0.3610 34.9 159 
 624  0Z  P       2253 15.13   39                         94   -0.07 9 52.9 123 
 624  0N  S       2253 22.46                              94    0.78 9 52.9 123 
 621  0Z  P       2253 16.89   31                         93    0.28 9 61.6 182 
 621  0E  S       2253 24.07                              93   -0.05 9 61.6 182 
 628  0Z  P       2253 19.41                              92   -0.56 8 82.5 116 
 628  0N  S       2253 29.65                              92   -0.28 8 82.5 116 
 626  0Z  P       2253 23.43   42                         92    0.39 7  101 158 
 626  0E  S       2253 34.43                              92   -0.82 7  101 158 
 630  0Z  P       2253 28.22   31                         91   -0.32 6  136 121 
 630  0N  S       2253 45.49                              91    0.73 6  136 121 
 632  0Z  P       2253 36.73                              53    0.09 4  192 131 
 632  0N  S       2253 59.25                              53    0.48 4  192 131 

 2016 1116 2316 11.5 L  72.751 124.916 12.5  BER 10 0.5 1.8LBER 1.6CBER        1
 GAP=236        0.83       4.5     8.8  8.1  0.6115E+01 -0.4389E+02 -0.2111E+01E
 ACTION:REE 25-08-04 21:56 OP:mn   STATUS:               ID:20161116231520     I
 2016-11-16-2315-20M.arct__039                                                 6
 STAT SP IPHASW D HRMM SECON CODA AMPLIT PERI AZIMU VELO AIN AR TRES W  DIS CAZ7
 620  0Z  P       2316 15.63                             117   -0.0510 21.7 241 
 620  0N  S       2316 18.99                             117    0.2510 21.7 241 
 622  0Z  P       2316 17.62                             106   -0.35 9 36.9 159 
 624  0Z  P       2316 20.75   44                        100   -0.03 9 54.7 123 
 624  0N  S       2316 28.40                             100    0.85 9 54.7 123 
 623  0Z  P       2316 21.04                             100    0.19 9 55.2 149 
 623  0N  S       2316 27.96                             100    0.29 9 55.2 149 
 621  0Z  P       2316 22.07   54                         99   -0.08 9 63.2 181 
 621  0N  S       2316 29.73                              99   -0.19 9 63.2 181 
 628  0Z  P       2316 25.01                              96   -0.48 8 84.2 117 
 628  0N  S       2316 35.25                              96   -0.45 8 84.2 117 
 626  0Z  P       2316 28.62   54                         95    0.03 7  103 158 
 626  0E  S       2316 40.86                              95   -0.21 7  103 158 
 629  0Z  P       2316 31.87                              94    0.24 6  122 137 
 629  0Z  S       2316 45.34                              94   -0.98 6  122 137 
 630  0Z  P       2316 33.52   36                         94   -0.53 6  137 122 
 630  0N  S       2316 51.10                              94    0.59 6  137 122 
 632  0Z  P       2316 41.91                              53    0.34 4  193 131 
 632  0Z  S       2317  4.70                              53    1.18 4  193 131 

 2016 1117 0337  1.2 L  72.780 124.912 11.2  BER 13 0.3 1.9LBER 2.1CBER        1
 GAP=245        0.59       3.1     5.5  4.4  0.2513E+01 -0.1156E+02 -0.1400E+01E
 ACTION:REE 25-08-04 21:57 OP:mn   STATUS:               ID:20161117033653     I
 2016-11-17-0336-53M.arct__039                                                 6
 STAT SP IPHASW D HRMM SECON CODA AMPLIT PERI AZIMU VELO AIN AR TRES W  DIS CAZ7
 620  0Z  P        337  5.70                             112    0.1410 23.4 233 
 620  0N  S        337  8.90                             112    0.1710 23.4 233 
 622  0Z  P        337  7.74                             102   -0.39 9 40.0 160 
 624  0Z  P        337 10.92   66                         98    0.13 9 56.7 126 
 624  0E  S        337 18.10                              98    0.33 9 56.7 126 
 623  0Z  P        337 10.76                              98   -0.24 9 58.0 150 
 623  0E  S        337 18.44                              98    0.31 9 58.0 150 
 621  0Z  P        337 12.08   68                         97   -0.29 8 66.5 181 
 621  0N  S        337 20.43                              97   -0.07 8 66.5 181 
 625  0Z  P        337 14.18                              96   -0.12 8 78.6 149 
 625  0E  S        337 23.73                              96   -0.11 8 78.6 149 
 628  0Z  P        337 15.26   67                         95   -0.20 8 85.8 118 
 628  0N  S        337 26.02                              95    0.17 8 85.8 118 
 627  0Z  P        337 18.53                              94    0.54 7  102 136 
 627  0N  S        337 30.05                              94   -0.18 7  102 136 
 626  0Z  P        337 18.79   68                         94   -0.01 7  107 159 
 626  0N  S        337 31.97                              94    0.34 7  107 159 
 629  0Z  P        337 21.53                              93   -0.22 6  125 138 
 629  0N  S        337 35.85                              93   -0.87 6  125 138 
 630  0Z  P        337 23.74   66                         93   -0.33 6  139 123 
 630  0N  S        337 41.06                              93    0.32 6  139 123 
 631  0Z  P        337 28.67                              53   -0.23 5  174 151 
 631  0N  S        337 49.09                              53   -0.00 5  174 151 
 632  0Z  P        337 31.99                              53    0.27 4  196 131 
 632  0N  S        337 54.99                              53    1.02 4  196 131 

 2016 1124 2250 46.3 L  72.749 124.942 10.7  BER 13 0.3                        1
 GAP=235        0.61       2.8     5.4  4.4  0.3731E+01 -0.1089E+02 -0.1760E+01E
 ACTION:REG 18-11-20 00:07 OP:art  STATUS:               ID:20161124224841     I
 2016-11-24-2248-41M.arct__039                                                 6
 STAT SP IPHASW D HRMM SECON CODA AMPLIT PERI AZIMU VELO AIN AR TRES W  DIS CAZ7
 620  0Z  P       2250 50.52                             112    0.0110 22.4 242 
 620  0N  S       2250 53.88                             112    0.3310 22.4 242 
 622  0Z  P       2250 52.65                             103   -0.02 9 36.4 160 
 622  0N  S       2250 57.01                             103   -0.28 9 36.4 160 
 624  0Z  P       2250 55.66                              98    0.21 9 53.9 124 
 624  0N  S       2251  2.67                              98    0.57 9 53.9 124 
 623  0Z  P       2250 55.22                              98   -0.33 9 54.6 149 
 623  0N  S       2251  2.63                              98    0.35 9 54.6 149 
 621  0Z  P       2250 56.85                              97   -0.08 9 63.1 182 
 621  0E  S       2251  4.33                              97   -0.33 9 63.1 182 
 625  0Z  P       2250 58.49                              96   -0.36 8 75.2 148 
 625  0N  S       2251  8.14                              96    0.15 8 75.2 148 
 628  0Z  P       2250 59.80                              95   -0.37 8 83.4 117 
 628  0N  S       2251 10.06                              95   -0.21 8 83.4 117 
 627  0Z  P       2251  2.50                              94   -0.10 7 98.5 135 
 627  0N  S       2251 14.39                              94   -0.08 7 98.5 135 
 626  0Z  P       2251  3.33                              94   -0.01 7  103 158 
 626  0Z  S       2251 16.02                              94    0.27 7  103 158 
 629  0Z  P       2251  6.20                              93   -0.14 6  122 138 
 629  0N  S       2251 20.52                              93   -0.42 6  122 138 
 630  0Z  P       2251  8.39                              93   -0.36 6  137 122 
 630  0Z  S       2251 25.77                              93    0.67 6  137 122 
 631  0Z  P       2251 13.33                              53   -0.28 5  170 151 
 631  0N  S       2251 33.82                              53    0.30 5  170 151 
 632  0Z  P       2251 16.75                              53    0.26 4  193 131 
 632  0N  S       2251 39.33                              53    0.83 4  193 131 

 2016 1124 2302 58.0 L  72.759 124.936 11.2  BER 13 0.4 2.0LBER 2.1CBER        1
 GAP=238        0.69       3.3     6.3  4.9  0.4216E+01 -0.1440E+02 -0.2381E+01E
 ACTION:REE 25-08-04 21:59 OP:mn   STATUS:               ID:20161124230145     I
 2016-11-24-2301-45M.arct__039                                                 6
 STAT SP IPHASW D HRMM SECON CODA AMPLIT PERI AZIMU VELO AIN AR TRES W  DIS CAZ7
 620  0Z  P       23 3  2.24                             113    0.0410 22.8 239 
 620  0N  S       23 3  5.52                             113    0.2310 22.8 239 
 622  0Z  P       23 3  4.25                             103   -0.21 9 37.5 160 
 622  0E  S       23 3  8.88                             103   -0.34 9 37.5 160 
 624  0Z  P       23 3  7.34   65                         99    0.15 9 54.7 125 
 624  0E  S       23 3 14.42                              99    0.48 9 54.7 125 
 623  0Z  P       23 3  7.23                              98   -0.11 9 55.6 150 
 623  0N  S       23 3 14.72                              98    0.53 9 55.6 150 
 621  0Z  P       23 3  8.68   60                         97   -0.04 9 64.1 181 
 621  0E  S       23 3 16.23                              97   -0.35 9 64.1 181 
 625  0Z  P       23 3 10.60                              96   -0.03 8 76.2 148 
 628  0Z  P       23 3 11.59                              95   -0.31 8 84.0 117 
 628  0N  S       23 3 21.64                              95   -0.43 8 84.0 117 
 627  0Z  P       23 3 14.21                              94   -0.15 7 99.4 135 
 627  0N  S       23 3 26.24                              94   -0.10 7 99.4 135 
 626  0Z  P       23 3 15.22   86                         94    0.09 7  104 158 
 626  0E  S       23 3 28.20                              94    0.54 7  104 158 
 629  0Z  P       23 3 17.92                              93   -0.18 6  123 138 
 629  0N  S       23 3 32.05                              93   -0.76 6  123 138 
 630  0Z  P       23 3 20.19   73                         93   -0.29 6  137 122 
 630  0E  S       23 3 37.94                              93    1.02 6  137 122 
 631  0Z  P       23 3 25.15                              53   -0.16 5  171 151 
 631  0N  S       23 3 45.23                              53   -0.04 5  171 151 
 632  0Z  P       23 3 28.44                              53    0.28 4  194 131 
 632  0N  S       23 3 50.95                              53    0.73 4  194 131 

 2016 1124 2316 14.6 L  72.734 124.949  9.7  BER 12 0.3 1.8LBER 2.2CBER        1
 GAP=229        0.56       2.6     4.8  4.1  0.2908E+01 -0.8778E+01 -0.9052E+00E
 ACTION:REE 25-08-04 21:59 OP:mn   STATUS:               ID:20161124231448     I
 2016-11-24-2314-48M.arct__039                                                 6
 STAT SP IPHASW D HRMM SECON CODA AMPLIT PERI AZIMU VELO AIN AR TRES W  DIS CAZ7
 620  0Z  P       2316 18.56                             110   -0.0810 21.9 246 
 620  0N  S       2316 21.82                             110    0.2410 21.9 246 
 622  0Z  P       2316 20.47                             101   -0.1810 34.7 159 
 622  0N  S       2316 24.79                             101   -0.2510 34.7 159 
 624  0Z  P       2316 23.59   67                         97    0.07 9 52.8 122 
 624  0E  S       2316 30.60                              97    0.58 9 52.8 122 
 621  0Z  P       2316 24.77   89                         96   -0.14 9 61.4 182 
 621  0N  S       2316 32.50                              96    0.07 9 61.4 182 
 625  0Z  P       2316 27.00                              95    0.14 8 73.6 147 
 625  0E  S       2316 35.74                              95   -0.06 8 73.6 147 
 628  0Z  P       2316 27.87                              94   -0.41 8 82.4 116 
 628  0N  S       2316 38.01                              94   -0.24 8 82.4 116 
 627  0Z  P       2316 31.03                              93    0.38 7 97.1 134 
 627  0E  S       2316 42.37                              93    0.03 7 97.1 134 
 626  0Z  P       2316 31.28   70                         93   -0.06 7  101 158 
 626  0E  S       2316 43.70                              93    0.16 7  101 158 
 629  0Z  P       2316 34.21                              93   -0.17 6  120 137 
 629  0N  S       2316 48.44                              93   -0.37 6  120 137 
 630  0Z  P       2316 36.36   66                         92   -0.48 6  136 121 
 630  0N  S       2316 53.62                              92    0.56 6  136 121 
 631  0Z  P       2316 41.48                              53   -0.30 5  169 151 
 631  0N  S       2317  1.49                              53   -0.12 5  169 151 
 632  0Z  P       2316 44.76                              53    0.06 4  191 131 
 632  0N  S       2317  7.56                              53    0.90 4  191 131 

