 2016  819 0959 26.7 L  71.931 129.912  9.0  BER 13 0.3 4.0LBER                1
 GAP=276        0.53       2.0    10.2  4.0  0.8178E+01 -0.8706E+01 -0.2462E+01E
 ACTION:REG 25-04-10 18:57 OP:mn   STATUS:               ID:20160819095900     I
 2016_08_19T09-59-00.mseed                                                     6
 STAT SP IPHASW D HRMM SECON CODA AMPLIT PERI AZIMU VELO AIN AR TRES W  DIS CAZ7
 632  0Z  P        959 34.86                              97   -0.1610 49.5 217 
 632  0N  S        959 41.02                              97   -0.1110 49.5 217 
 630  0Z  P        959 35.80                              96   -0.4310 57.0 287 
 630  0N  S        959 43.04                              96   -0.1810 57.0 287 
 629  0Z  P        959 41.37                              93   -0.16 8 90.0 271 
 629  0N  S        959 52.67                              93    0.28 8 90.0 271 
 627  0Z  P        959 44.19                              93    0.55 8  103 283 
 627  0N  S        959 56.45                              93    0.42 8  103 283 
 628  0Z  P        959 44.86                              93    0.42 8  108 300 
 628  0N  S        959 57.50                              93    0.08 8  108 300 
 631  0Z  P        959 45.21                              93    0.32 8  111 239 
 631  0N  S        959 58.31                              93    0.11 8  111 239 
 625  0Z  P        959 48.49                              92   -0.08 7  134 284 
 626  0Z  P        959 48.52                              92   -0.19 7  134 270 
 626  0N  S       10 0  4.58                              92   -0.23 7  134 270 
 625  0N  S       10 0  4.69                              92    0.13 7  134 284 
 624  0Z  P        959 49.35                              92    0.05 6  138 298 
 624  0N  S       10 0  5.15                              92   -0.68 6  138 298 
 623  0Z  P        959 51.19                              92    0.16 6  149 289 
 623  0N  S       10 0  8.74                              92   -0.07 6  149 289 
 622  0Z  P        959 53.97                              53    0.29 5  167 292 
 622  0N  S       10 0 12.65                              53   -0.75 5  167 292 
 621  0Z  P        959 55.14                              53    0.41 5  175 282 
 621  0N  S       10 0 15.63                              53    0.41 5  175 282 
 620  0Z  P        959 58.52                              53   -0.07 4  205 296 
 620  0N  S       10 0 21.63                              53   -0.27 4  205 296 

 2016  820 1506 15.6 L  71.945 129.881  6.9  BER 13 0.4                        1
 GAP=275        0.70       2.6    13.7  6.8  0.1631E+02 -0.1721E+02 -0.4353E+01E
 ACTION:ARG 20-05-11 21:31 OP:mn   STATUS:               ID:20160820150518     I
 2016-08-20-1505-18M.arct__039                                                 6
 STAT SP IPHASW D HRMM SECON CODA AMPLIT PERI AZIMU VELO AIN AR TRES W  DIS CAZ7
 632  0Z  P       15 6 23.53                              94   -0.5410 50.1 215 
 632  0N  S       15 6 30.00                              94   -0.2310 50.1 215 
 630  0N  S       15 6 31.53                              93   -0.2210 55.6 286 
 629  0Z  P       15 6 30.49                              92    0.17 8 88.9 270 
 629  0N  S       15 6 41.29                              92    0.25 8 88.9 270 
 627  0Z  P       15 6 32.40                              92    0.02 8  102 282 
 627  0N  S       15 6 44.74                              92    0.14 8  102 282 
 628  0Z  P       15 6 33.09                              92   -0.05 8  106 300 
 628  0N  S       15 6 45.70                              92   -0.21 8  106 300 
 631  0Z  P       15 6 35.44                              91    1.59 8  111 238 
 631  0N  S       15 6 47.30                              91    0.16 8  111 238 
 625  0Z  P       15 6 37.52                              91    0.20 7  132 283 
 625  0N  S       15 6 53.22                              91    0.08 7  132 283 
 626  0Z  P       15 6 37.36                              91   -0.15 7  133 269 
 626  0N  S       15 6 53.10                              91   -0.38 7  133 269 
 624  0Z  P       15 6 37.83                              91   -0.17 7  137 297 
 624  0N  S       15 6 54.31                              91   -0.02 7  137 297 
 623  0Z  P       15 6 39.93                              91    0.18 6  147 289 
 623  0N  S       15 6 57.20                              91   -0.15 6  147 289 
 622  0Z  P       15 6 42.30                              91   -0.37 5  166 292 
 622  0Z  S       15 7  2.57                              91    0.17 5  166 292 
 621  0Z  P       15 6 43.40                              53   -0.35 5  174 281 
 621  0N  S       15 7  4.06                              53   -0.21 5  174 281 
 620  0Z  P       15 6 48.42                              53    0.84 4  204 295 
 620  0N  S       15 7 10.83                              53   -0.06 4  204 295 

 2016  822 1318 49.8 L  72.364 127.102 14.3  BER  8 0.2 0.9CBER                1
 GAP=106        0.40       1.5     3.3  3.6  0.2039E+01  0.3514E+01  0.2532E+01E
 ACTION:UP  21-01-08 22:12 OP:elen STATUS:               ID:20160822131743     I
 OLDACT:REG 21-01-08 15:24 OP:elen STATUS:               ID:20160822131743     3
 2016-08-22-1317-43M.arct__039                                                 6
 STAT SP IPHASW D HRMM SECON CODA AMPLIT PERI AZIMU VELO AIN AR TRES W  DIS CAZ7
 628  0Z  P    A  1318 52.27   29                        163   -0.0510 4.30  21 
 628  0N  S   3A  1318 54.48                             163    0.34 2 4.30  21 
 627  0Z  P    AD 1318 54.94                             115   -0.08 9 27.9 188 
 627  0E  S   3A  1318 58.78                             115   -0.04 2 27.9 188 
 624  0Z  P       1318 55.19                             113   -0.23 9 30.5 295 
 624  0E  S       1318 59.46                             113   -0.05 9 30.5 295 
 625  0Z  P       1318 56.66                             107   -0.17 9 39.9 238 
 625  0N  S       1319  2.22                             107    0.26 9 39.9 238 
 630  0Z  P       1318 58.88                             103    0.05 8 52.7 127 
 630  0E  S       1319  5.54                             103    0.12 8 52.7 127 
 622  0Z  P       1319  0.53                             101    0.39 8 61.0 279 
 622  0N  S       1319  7.83                             101    0.16 8 61.0 279 
 626  0Z  P       1319  0.52                             100   -0.19 8 64.5 215 
 626  0N  S       1319  8.58                             100   -0.08 8 64.5 215 
 621  0Z  P       1319  2.86                              98    0.02 7 77.8 256 
 621  0N  S       1319 12.21                              98   -0.14 7 77.8 256 

 2016 10 5 1619 47.1 L  72.889 124.996 15.4  BER 11 0.4 1.1LBER                1
 GAP=267        0.81       4.6     9.5  5.4  0.7285E+01 -0.2271E+02 -0.9226E+01E
 ACTION:ARG 20-04-11 14:12 OP:mn   STATUS:               ID:20161005161823     I
 2016-10-05-1618-23M.SIOLA_039                                                 6
 STAT SP IPHASW D HRMM SECON CODA AMPLIT PERI AZIMU VELO AIN AR TRES W  DIS CAZ7
 620  0Z  P       1619 53.23                             112   -0.0110 33.9 220 
 620  0N  S       1619 57.63                             112   -0.1110 33.9 220 
 622  0Z  P       1619 55.77                             104   -0.10 9 51.0 168 
 622  0N  S       1620  2.15                             104   -0.13 9 51.0 168 
 624  0Z  P       1619 57.69                             102   -0.02 9 62.7 137 
 624  0N  S       1620  5.56                             102    0.09 9 62.7 137 
 623  0Z  P       1619 58.60                             101    0.08 9 67.8 158 
 623  0N  S       1620  7.19                             101    0.32 9 67.8 158 
 621  0Z  P       1620  0.07                              99   -0.21 8 78.8 183 
 621  0N  S       1620 10.15                              99    0.24 8 78.8 183 
 625  0Z  P       1620  3.32                              98    1.58 8 88.1 154 
 625  0N  S       1620 12.17                              98   -0.27 8 88.1 154 
 628  0Z  P       1620  1.66                              98   -0.40 8 90.1 126 
 628  0N  S       1620 12.97                              98   -0.03 8 90.1 126 
 626  0Z  P       1620  6.07                              96   -0.34 7  117 162 
 626  0N  S       1620 19.87                              96   -0.65 7  117 162 
 629  0Z  P       1620  8.81                              95   -0.07 6  133 143 
 629  0N  S       1620 24.67                              95   -0.13 6  133 143 
 630  0Z  P       1620 10.00                              53   -0.53 6  144 127 
 630  0N  S       1620 27.46                              53   -0.19 6  144 127 
 631  0Z  P       1620 15.85                              53    0.29 4  183 154 
 631  0N  S       1620 36.91                              53    0.56 4  183 154 

 2016 10 6 0156 56.0 L  72.882 124.987 14.2  BER 11 0.5                        1
 GAP=266        0.85       4.8     9.9  5.4  0.6816E+01 -0.2353E+02 -0.9587E+01E
 ACTION:ARG 20-04-11 14:12 OP:mn   STATUS:               ID:20161006015532     I
 2016-10-06-0155-32M.SIOLA_039                                                 6
 STAT SP IPHASW D HRMM SECON CODA AMPLIT PERI AZIMU VELO AIN AR TRES W  DIS CAZ7
 620  0Z  P        157  1.81                             111   -0.1610 33.1 220 
 620  0N  S        157  6.52                             111    0.1910 33.1 220 
 622  0Z  P        157  4.39                             103   -0.24 9 50.2 167 
 622  0N  S        157 10.63                             103   -0.29 9 50.2 167 
 624  0Z  P        157  6.69                             100    0.15 9 62.3 136 
 624  0N  S        157 14.36                             100    0.14 9 62.3 136 
 623  0Z  P        157  7.49                             100    0.18 9 67.1 157 
 623  0N  S        157 16.15                             100    0.60 9 67.1 157 
 621  0Z  P        157  8.98                              98   -0.06 8 77.9 182 
 621  0N  S        157 18.32                              98   -0.23 8 77.9 182 
 625  0Z  P        157 11.58                              97    1.04 8 87.4 154 
 625  0N  S        157 21.00                              97   -0.15 8 87.4 154 
 628  0Z  P        157 10.67                              97   -0.26 8 89.8 126 
 628  0N  S        157 21.64                              97   -0.17 8 89.8 126 
 626  0Z  P        157 15.01                              95   -0.19 7  116 162 
 626  0N  S        157 28.53                              95   -0.69 7  116 162 
 630  0Z  P        157 18.68                              53   -0.87 6  144 127 
 630  0N  S        157 36.02                              53   -0.71 6  144 127 
 631  0Z  P        157 24.49                              53   -0.04 4  183 154 
 631  0N  S        157 46.17                              53    0.82 4  183 154 
 632  0Z  P        157 27.40                              53    0.44 4  202 134 
 632  0Z  S        157 51.48                              53    1.92 4  202 134 

 2016 10 9 0036 45.0 L  72.883 124.996 13.9  BER 11 0.5                        1
 GAP=266        0.87       5.4    10.4  5.6  0.1298E+02 -0.2711E+02 -0.1224E+02E
 ACTION:ARG 20-04-11 14:12 OP:mn   STATUS:               ID:20161009003553     I
 2016-10-09-0035-53M.SIOLA_039                                                 6
 STAT SP IPHASW D HRMM SECON CODA AMPLIT PERI AZIMU VELO AIN AR TRES W  DIS CAZ7
 620  0Z  P        036 50.80                             110   -0.2110 33.4 220 
 620  0N  S        036 55.35                             110   -0.0410 33.4 220 
 622  0Z  P        036 53.63                             103   -0.00 9 50.3 168 
 622  0N  S        036 59.62                             103   -0.31 9 50.3 168 
 624  0Z  P        036 55.49                             100   -0.03 9 62.2 136 
 624  0N  S        037  3.09                             100   -0.10 9 62.2 136 
 623  0Z  P        036 56.77                              99    0.46 9 67.2 157 
 623  0N  S        037  4.84                              99    0.29 9 67.2 157 
 625  0Z  P        037  0.75                              97    1.21 8 87.4 154 
 625  0N  S        037 10.17                              97    0.02 8 87.4 154 
 628  0Z  P        036 59.69                              97   -0.21 8 89.6 126 
 628  0N  S        037 10.49                              97   -0.28 8 89.6 126 
 626  0Z  P        037  3.87                              95   -0.34 7  116 162 
 626  0N  S        037 17.49                              95   -0.74 7  116 162 
 629  0Z  P        037  6.51                              94   -0.19 6  132 143 
 629  0N  S        037 23.23                              94    0.69 6  132 143 
 630  0Z  P        037  8.10                              53   -0.45 6  144 127 
 630  0N  S        037 24.59                              53   -1.15 6  144 127 
 631  0Z  P        037 13.69                              53    0.14 4  183 154 
 631  0N  S        037 35.36                              53    0.97 4  183 154 
 632  0Z  P        037 16.45                              53    0.48 4  202 134 
 632  0N  S        037 39.68                              53    1.11 4  202 134 

 2016 1012 0800 22.3 L  72.752 126.069 12.9  BER 12 0.3                        1
 GAP=234        0.58       2.5     5.0  3.6  0.4490E+01 -0.5170E+01 -0.2586E+01E
 ACTION:ARG 20-04-11 14:12 OP:mn   STATUS:               ID:20161012080000     I
 2016-10-12-0800-00M.SIOLA_039                                                 6
 STAT SP IPHASW D HRMM SECON CODA AMPLIT PERI AZIMU VELO AIN AR TRES W  DIS CAZ7
 624  0Z  P        8 0 27.96                             109    0.0110 31.5 167 
 624  0N  S        8 0 32.34                             109    0.2610 31.5 167 
 622  0Z  P        8 0 29.61                             104   -0.0710 42.8 216 
 622  0N  S        8 0 34.99                             104   -0.1010 42.8 216 
 623  0Z  P        8 0 30.71                             102    0.11 9 48.6 192 
 623  0N  S        8 0 37.06                             102    0.38 9 48.6 192 
 628  0Z  P        8 0 30.92                             101   -0.42 9 53.3 137 
 628  0N  S        8 0 37.84                             101   -0.12 9 53.3 137 
 620  0Z  P        8 0 31.96                             100   -0.16 9 58.2 260 
 620  0N  S        8 0 39.36                             100    0.07 9 58.2 260 
 625  0Z  P        8 0 32.91                              99   -0.21 9 64.5 179 
 625  0N  S        8 0 40.91                              99   -0.12 9 64.5 179 
 621  0Z  P        8 0 34.69                              97   -0.09 8 74.7 213 
 621  0N  S        8 0 43.73                              97   -0.17 8 74.7 213 
 627  0Z  P        8 0 35.60                              97    0.44 8 77.2 156 
 627  0E  S        8 0 44.48                              97   -0.08 8 77.2 156 
 626  0Z  P        8 0 38.96                              96    0.72 8 96.4 181 
 626  0N  S        8 0 49.33                              96   -0.57 8 96.4 181 
 630  0Z  P        8 0 40.24                              95    0.27 7  107 134 
 630  0N  S        8 0 52.64                              95   -0.24 7  107 134 
 631  0Z  P        8 0 47.21                              53   -0.34 5  156 164 
 631  0N  S        8 1  6.06                              53    0.06 5  156 164 
 632  0Z  P        8 0 49.44                              53    0.55 5  167 141 
 632  0N  S        8 1  8.39                              53    0.07 5  167 141 

 2016 1015 1013 37.0 L  72.055 126.973 10.0  BER 13 0.4                        1
 GAP= 78        0.86       1.6     4.8  4.1  0.3044E+01  0.4940E+01  0.1138E+01E
 ACTION:ARG 20-04-11 14:12 OP:mn   STATUS:               ID:20161015101225     I
 2016-10-15-1012-25M.SIOLA_039                                                 6
 STAT SP IPHASW D HRMM SECON CODA AMPLIT PERI AZIMU VELO AIN AR TRES W  DIS CAZ7
 627  0Z  P       1013 38.86                             144   -0.1410 6.93   3 
 627  0N  S       1013 40.65                             144    0.1510 6.93   3 
 629  0Z  P       1013 40.18                             115   -0.2810 18.3 140 
 629  0Z  S       1013 43.13                             115    0.1110 18.3 140 
 625  0Z  P       1013 42.39                             103   -0.25 9 32.5 295 
 625  0N  S       1013 46.82                             103    0.03 9 32.5 295 
 626  0Z  P       1013 43.03                             101   -0.38 9 37.3 241 
 626  0N  S       1013 47.98                             101   -0.15 9 37.3 241 
 628  0Z  P       1013 43.01                             101   -0.64 9 38.9   9 
 628  0N  S       1013 48.22                             101   -0.33 9 38.9   9 
 630  0Z  P       1013 44.61                              98   -0.25 9 46.5  87 
 630  0N  S       1013 50.64                              98    0.01 9 46.5  87 
 623  0Z  P       1013 45.75                              98    0.13 8 51.3 307 
 623  0N  S       1013 52.58                              98    0.64 8 51.3 307 
 624  0Z  P       1013 45.77                              97   -0.06 8 52.6 334 
 624  0N  S       1013 52.66                              97    0.34 8 52.6 334 
 622  0Z  P       1013 48.64                              95   -0.15 8 71.1 308 
 622  0N  S       1013 57.74                              95    0.30 8 71.1 308 
 621  0Z  P       1013 49.10                              95    0.01 8 72.9 282 
 621  0N  S       1013 57.96                              95    0.00 8 72.9 282 
 631  0Z  P       1013 49.10                              95   -0.14 8 73.8 172 
 631  0N  S       1013 58.06                              95   -0.14 8 73.8 172 
 632  0Z  P       1013 52.19                              94    0.24 7 90.7 125 
 632  0N  S       1014  4.38                              94    1.47 7 90.7 125 
 620  0Z  P       1013 54.93                              93   -0.31 6  111 308 
 620  0N  S       1014  9.29                              93    0.70 6  111 308 

