 2016 1125 0156 34.0 L  72.774 124.925 11.6  BER  9 0.6                        1
 GAP=243        1.05       5.9    10.3  9.2  0.4914E+01 -0.4799E+02 -0.2606E+00E
 ACTION:REG 18-11-20 15:40 OP:art  STATUS:               ID:20161125015508     I
 2016-11-25-0155-08M.arct__039                                                 6
 STAT SP IPHASW D HRMM SECON CODA AMPLIT PERI AZIMU VELO AIN AR TRES W  DIS CAZ7
 620  0Z  P        156 38.27                             113   -0.1210 23.4 235 
 620  0N  S        156 41.96                             113    0.3910 23.4 235 
 624  0Z  P        156 43.50                              99    0.02 9 56.0 126 
 624  0E  S        156 50.11                              99   -0.27 9 56.0 126 
 623  0Z  P        156 43.61                              98   -0.07 9 57.3 150 
 623  0N  S        156 51.35                              98    0.62 9 57.3 150 
 621  0Z  P        156 44.59                              97   -0.48 8 65.9 181 
 621  0E  S        156 52.31                              97   -0.83 8 65.9 181 
 628  0Z  P        156 47.68                              95   -0.47 8 85.2 118 
 628  0N  S        156 58.01                              95   -0.45 8 85.2 118 
 626  0Z  P        156 51.76                              94    0.28 7  106 159 
 626  0E  S        157  3.75                              94   -0.47 7  106 159 
 629  0Z  P        156 54.73                              94    0.31 6  124 138 
 629  0N  S        157 11.17                              94    1.86 6  124 138 
 630  0Z  P        156 57.14                              93    0.39 6  139 123 
 630  0N  S        157 13.21                              93   -0.13 6  139 123 
 631  0Z  P        157  1.82                              53    0.26 5  173 151 
 631  0N  S        157 21.99                              53    0.34 5  173 151 

 2016 1125 0619  0.8 L  72.757 124.960 11.5  BER 13 0.3 2.6LBER 2.1CBER        1
 GAP=237        0.60       2.8     5.4  4.2  0.3745E+01 -0.1066E+02 -0.1908E+01E
 ACTION:REE 25-08-04 22:00 OP:mn   STATUS:               ID:20161125061718     I
 2016-11-25-0617-18M.arct__039                                                 6
 STAT SP IPHASW D HRMM SECON CODA AMPLIT PERI AZIMU VELO AIN AR TRES W  DIS CAZ7
 620  0Z  P        619  5.16   64                        113    0.0210 23.3 241 
 620  0N  S        619  8.47                             113    0.1610 23.3 241 
 622  0Z  P        619  6.92                             104   -0.3210 37.0 161 
 622  0N  S        619 11.74                             104   -0.2110 37.0 161 
 624  0Z  P        619 10.20   71                         99    0.29 9 53.9 125 
 624  0E  S        619 17.31                              99    0.74 9 53.9 125 
 623  0Z  P        619  9.91                              99   -0.18 9 55.0 150 
 623  0N  S        619 17.29                              99    0.42 9 55.0 150 
 621  0Z  P        619 11.63   67                         98    0.10 9 63.9 182 
 621  0N  S        619 19.55                              98    0.18 9 63.9 182 
 625  0Z  P        619 13.16                              96   -0.22 8 75.6 149 
 625  0E  S        619 22.51                              96   -0.06 8 75.6 149 
 628  0Z  P        619 14.43                              96   -0.17 8 83.2 118 
 628  0N  S        619 24.35                              96   -0.34 8 83.2 118 
 627  0Z  P        619 17.11                              95    0.03 7 98.7 135 
 627  0N  S        619 28.99                              95    0.01 7 98.7 135 
 626  0Z  P        619 17.82   66                         94   -0.06 7  104 159 
 626  0E  S        619 29.99                              94   -0.38 7  104 159 
 629  0Z  P        619 20.53                              94   -0.30 6  122 138 
 629  0N  S        619 34.93                              94   -0.53 6  122 138 
 630  0Z  P        619 22.97                              93   -0.22 6  137 122 
 630  0N  S        619 39.75                              93    0.21 6  137 122 
 631  0Z  P        619 27.80                              53   -0.23 5  171 151 
 631  0N  S        619 47.92                              53    0.00 5  171 151 
 632  0Z  P        619 31.00                              53    0.14 4  193 131 
 632  0N  S        619 53.88                              53    1.06 4  193 131 

 2016 1125 1638 37.9 L  72.749 124.934 10.0  BER  9 0.4 1.1LBER 2.7CBER        1
 GAP=235        0.75       3.9     6.8  5.5  0.4522E+01 -0.1680E+02 -0.2386E+01E
 ACTION:REE 25-08-04 22:00 OP:mn   STATUS:               ID:20161125163711     I
 2016-11-25-1637-11M.arct__039                                                 6
 STAT SP IPHASW D HRMM SECON CODA AMPLIT PERI AZIMU VELO AIN AR TRES W  DIS CAZ7
 620  0Z  P       1638 41.87   99                        110   -0.1010 22.2 242 
 620  0N  S       1638 45.25                             110    0.3010 22.2 242 
 622  0Z  P       1638 43.96                             101   -0.24 9 36.5 160 
 622  0N  S       1638 48.26                             101   -0.54 9 36.5 160 
 624  0Z  P       1638 47.16  114                         97    0.15 9 54.1 124 
 624  0E  S       1638 54.03                              97    0.37 9 54.1 124 
 623  0Z  P       1638 47.26                              97    0.16 9 54.7 149 
 623  0N  S       1638 54.54                              97    0.72 9 54.7 149 
 621  0Z  P       1638 48.39  102                         96   -0.06 9 63.0 181 
 621  0E  S       1638 55.93                              96   -0.23 9 63.0 181 
 628  0Z  P       1638 51.20                              94   -0.54 8 83.6 117 
 628  0N  S       1639  1.36                              94   -0.49 8 83.6 117 
 630  0Z  P       1639  0.34                              93    0.02 6  137 122 
 630  0N  S       1639 17.25                              93    0.56 6  137 122 
 631  0Z  P       1639  5.04                              53   -0.19 5  170 151 
 631  0N  S       1639 25.12                              53   -0.07 5  170 151 
 632  0Z  P       1639  8.13                              53    0.01 4  193 131 
 632  0N  S       1639 30.86                              53    0.67 4  193 131 

 2016 1126 1456 12.1 L  72.737 124.950 11.7  BER 11 0.5 1.1LBER 2.1CBER        1
 GAP=231        0.96       4.8     8.6  6.5  0.1000E+02 -0.2731E+02 -0.3482E+01E
 ACTION:REE 25-08-04 22:01 OP:mn   STATUS:               ID:20161126145445     I
 2016-11-26-1454-45M.arct__039                                                 6
 STAT SP IPHASW D HRMM SECON CODA AMPLIT PERI AZIMU VELO AIN AR TRES W  DIS CAZ7
 620  0Z  P       1456 15.80   67                        115   -0.4210 22.1 245 
 620  0E  S       1456 19.72                             115    0.4610 22.1 245 
 622  0Z  P       1456 17.79   73                        105   -0.4110 35.1 160 
 622  0E  S       1456 22.90                             105    0.2110 35.1 160 
 624  0Z  P       1456 20.80   67                         99   -0.23 9 53.0 123 
 624  0E  S       1456 28.06                              99    0.48 9 53.0 123 
 621  0Z  P       1456 22.26                              98   -0.18 9 61.7 182 
 621  0E  S       1456 29.67                              98   -0.36 9 61.7 182 
 625  0N  P       1456 25.66                              96    1.29 8 73.9 148 
 625  0E  S       1456 32.98                              96   -0.39 8 73.9 148 
 628  0Z  P       1456 25.12                              96   -0.64 8 82.5 116 
 628  0N  S       1456 35.32                              96   -0.45 8 82.5 116 
 627  0Z  P       1456 28.55                              95    0.41 7 97.4 134 
 627  0N  S       1456 39.97                              95    0.09 7 97.4 134 
 629  0Z  P       1456 32.09                              94    0.22 6  121 137 
 629  0N  S       1456 45.73                              94   -0.61 6  121 137 
 630  0Z  P       1456 34.08                              93   -0.23 6  136 121 
 630  0N  S       1456 51.40                              93    0.83 6  136 121 
 631  0Z  P       1456 38.91                              53   -0.15 5  169 151 
 631  0N  S       1456 58.80                              53    0.03 5  169 151 
 632  0Z  P       1456 42.04                              53    0.07 4  192 131 
 632  0N  S       1457  4.64                              53    0.83 4  192 131 

 2016 1228 2250 24.6 L  71.590 127.532  0.0  BER 10 0.5 1.5LBER 2.3CBER        1
 GAP=114        0.99       3.7     8.1 13.1  0.9280E+01 -0.4114E+02 -0.4012E+02E
 ACTION:REE 25-08-04 22:04 OP:mn   STATUS:               ID:20161228224921     I
 2016-12-28-2249-21M.arct__039                                                 6
 STAT SP IPHASW D HRMM SECON CODA AMPLIT PERI AZIMU VELO AIN AR TRES W  DIS CAZ7
 631  0Z  P       2250 28.59   77                         90   -0.1810 23.6 205 
 631  0N  S       2250 32.09                              90    0.2410 23.6 205 
 629  0Z  P       2250 30.78                              65   -0.65 9 38.5 349 
 629  0N  S       2250 36.02                              65   -0.44 9 38.5 349 
 632  0Z  P       2250 33.78   84                         65   -0.21 9 54.4  91 
 632  0N  S       2250 40.97                              65    0.09 9 54.4  91 
 630  0Z  P       2250 35.00   83                         65   -0.01 9 60.7  27 
 630  0N  S       2250 43.00                              65    0.36 9 60.7  27 
 627  0Z  P       2250 35.35                              65    0.16 9 61.8 342 
 626  0Z  P       2250 34.81                              65   -0.42 9 62.0 303 
 626  0N  S       2250 42.41                              65   -0.61 9 62.0 303 
 628  0Z  P       2250 39.83                              65   -0.12 8 91.3 352 
 623  0Z  P       2250 42.52                              65    0.78 7  102 324 
 622  0Z  P       2250 45.89                              65    1.00 6  122 322 
 622  0E  S       2251  0.71                              65    0.98 6  122 322 
 620  0Z  P       2250 51.19                              65   -0.03 5  161 319 
 620  0Z  S       2251 11.71                              65    1.03 5  161 319 

 2016 1230 1909 41.7 L  72.319 129.851 16.7  BER 13 0.3 1.6LBER 2.1CBER        1
 GAP=274        0.45       2.3     8.8  2.1  0.1022E+02 -0.3554E+01 -0.1041E+01E
 ACTION:REE 25-08-04 22:04 OP:mn   STATUS:               ID:20161230190840     I
 2016-12-30-1908-40M.arct__039                                                 6
 STAT SP IPHASW D HRMM SECON CODA AMPLIT PERI AZIMU VELO AIN AR TRES W  DIS CAZ7
 632  0Z  P       19 9 56.07   62                         99   -0.1810 87.4 198 
 632  0E  S       1910  6.80                              99   -0.1010 87.4 198 
 628  0Z  P       19 9 57.07                              98    0.1010 91.9 277 
 628  0N  S       1910  7.97                              98   -0.1810 91.9 277 
 629  0Z  P       19 9 57.98                              98    0.1610 97.3 245 
 629  0N  S       1910  9.91                              98    0.3010 97.3 245 
 627  0Z  P       19 9 58.10   68                         98   -0.22 9  100 258 
 627  0N  S       1910 10.16                              98   -0.32 9  100 258 
 624  0Z  P       1910  1.63                              96   -0.15 8  122 280 
 624  0N  S       1910 16.11                              96   -0.36 8  122 280 
 625  0Z  P       1910  3.05                              96    0.24 8  128 265 
 625  0N  S       1910 19.01                              96    0.75 8  128 265 
 631  0Z  P       1910  4.41   78                         53    0.35 8  137 223 
 631  0E  S       1910 20.21                              53   -0.21 8  137 223 
 626  0N  S       1910 20.74                              53   -0.28 8  139 252 
 623  0Z  P       1910  4.28                              53   -0.01 8  139 272 
 623  0N  S       1910 20.97                              53    0.16 8  139 272 
 626  0Z  P       1910  4.60                              53    0.19 8  139 252 
 622  0Z  P       1910  6.04                              53   -0.20 7  154 277 
 622  0N  S       1910 23.93                              53   -0.26 7  154 277 
 621  0Z  P       1910  8.59                              53    0.32 6  170 267 
 621  0N  S       1910 27.82                              53    0.13 6  170 267 
 620  0Z  P       1910 10.81                              53    0.13 5  189 284 

 2017  110 0630 47.1 L  72.297 129.997 15.6  BER 11 0.4 2.9LBER 2.6CBER        1
 GAP=278        0.68       3.8    14.8  3.5  0.2640E+02 -0.7519E+01 -0.3484E+01E
 ACTION:REE 25-08-04 22:06 OP:mn   STATUS:               ID:20170110062948     I
 2017-01-10-0629-48M.a_____039                                                 6
 STAT SP IPHASW D HRMM SECON CODA AMPLIT PERI AZIMU VELO AIN AR TRES W  DIS CAZ7
 630  0Z  P        630 57.75                             102    0.0810 62.3 247 
 632  0Z  P        631  1.33                              98   -0.25 9 86.8 202 
 632  0N  S        631 12.24                              98    0.10 9 86.8 202 
 629  0Z  P        631  4.09                              97    0.28 8  101 247 
 629  0N  S        631 16.44                              97    0.44 8  101 247 
 627  0Z  P     D  631  4.01                              97   -0.44 8  105 260 
 627  0N  S        631 16.31                              97   -0.81 8  105 260 
 624  0Z  P        631  8.03                              95   -0.03 7  127 281 
 624  0N  S        631 22.80                              95   -0.56 7  127 281 
 625  0Z  P        631  9.55                              95    0.54 7  133 266 
 625  0N  S        631 25.79                              95    0.79 7  133 266 
 631  0Z  P        631  9.24                              53   -0.59 7  139 225 
 631  0N  S        631 26.07                              53   -0.36 7  139 225 
 626  0Z  P        631 11.08                              53    0.60 7  143 253 
 626  0N  S        631 27.69                              53    0.15 7  143 253 
 622  0Z  P     D  631 12.51   88                         53    0.04 6  159 278 
 622  0N  S        631 30.66                              53   -0.33 6  159 278 
 621  0Z  P     D  631 14.81   89                         53    0.36 5  174 268 
 621  0N  S        631 34.85                              53    0.44 5  174 268 
 620  0Z  P     D  631 17.20  112                         53    0.27 4  194 285 
 620  0N  S        631 38.63                              53   -0.08 4  194 285 

 2017  3 4 2135  3.3 L  72.676 124.915 11.9  BER 11 0.3                        1
 GAP=208        0.55       2.3     4.9  3.9  0.3883E+01 -0.8989E+01  0.4247E-01E
 ACTION:ARG 20-12-21 03:09 OP:mn   STATUS:               ID:20170304213342     I
 2017-03-04-2133-42M.a_____039                                                 6
 STAT SP IPHASW D HRMM SECON CODA AMPLIT PERI AZIMU VELO AIN AR TRES W  DIS CAZ7
 620  0Z  P       2135  6.89                             119   -0.2010 19.1 263 
 620  0N  S       2135  9.97                             119    0.1410 19.1 263 
 622  0Z  P       2135  8.40                             109   -0.2110 29.3 153 
 622  0Z  S       2135 12.52                             109    0.0710 29.3 153 
 623  0Z  P       2135 11.59                             101    0.02 9 48.2 144 
 623  0E  S       2135 17.76                             101    0.18 9 48.2 144 
 624  0Z  P       2135 11.59                             100   -0.36 9 50.6 115 
 624  0N  S       2135 18.14                             100   -0.10 9 50.6 115 
 621  0Z  P       2135 12.49                              99   -0.15 9 54.9 181 
 621  0E  S       2135 19.36                              99   -0.08 9 54.9 181 
 625  0Z  P       2135 15.37                              97    0.50 8 68.9 144 
 625  0N  S       2135 23.10                              97   -0.18 8 68.9 144 
 628  0Z  P       2135 16.91                              96    0.13 8 80.9 111 
 628  0N  S       2135 26.46                              96   -0.13 8 80.9 111 
 626  0Z  P       2135 19.31                              95    0.12 7 95.8 156 
 626  0E  S       2135 30.76                              95   -0.01 7 95.8 156 
 629  0Z  P       2135 23.36                              94    0.86 7  116 135 
 629  0E  S       2135 36.05                              94   -0.44 7  116 135 
 630  0Z  P       2135 25.40                              93    0.18 6  133 119 
 630  0N  S       2135 41.51                              93    0.32 6  133 119 
 631  0Z  P       2135 29.38                              53   -0.26 5  164 149 
 631  0N  S       2135 48.84                              53    0.00 5  164 149 

 2017  3 7 0447 21.2 L  72.697 124.947 11.0  BER 12 0.4                        1
 GAP=216        0.68       2.9     5.9  4.4  0.5624E+01 -0.1164E+02 -0.9601E+00E
 ACTION:ARG 20-12-21 03:09 OP:mn   STATUS:               ID:20170307044601     I
 2017-03-07-0446-01M.a_____039                                                 6
 STAT SP IPHASW D HRMM SECON CODA AMPLIT PERI AZIMU VELO AIN AR TRES W  DIS CAZ7
 620  0Z  P        447 25.09                             115   -0.0310 20.5 257 
 620  0N  S        447 28.21                             115    0.2510 20.5 257 
 622  0Z  P        447 26.58                             106   -0.1210 31.0 157 
 622  0N  S        447 30.76                             106    0.0610 31.0 157 
 623  0Z  P        447 29.77                              99    0.13 9 49.6 146 
 623  0E  S        447 36.14                              99    0.36 9 49.6 146 
 624  0Z  P        447 29.62                              99   -0.21 9 50.8 118 
 624  0E  S        447 36.27                              99    0.15 9 50.8 118 
 621  0Z  P        447 30.66                              98   -0.22 9 57.3 182 
 621  0E  S        447 37.40                              98   -0.53 9 57.3 182 
 625  0Z  P        447 33.65                              96    0.71 8 70.2 146 
 625  0N  S        447 41.29                              96   -0.20 8 70.2 146 
 628  0Z  P        447 34.27                              95   -0.37 8 80.8 113 
 628  0N  S        447 44.02                              95   -0.41 8 80.8 113 
 627  0Z  P        447 36.61                              94   -0.21 7 94.4 132 
 627  0N  S        447 48.59                              94    0.39 7 94.4 132 
 626  0Z  P        447 37.35                              94    0.01 7 97.5 157 
 626  0E  S        447 49.14                              94    0.03 7 97.5 157 
 630  0Z  P        447 42.58                              93   -0.55 6  134 120 
 630  0N  S        447 59.57                              93    0.45 6  134 120 
 631  0Z  P        447 47.46                              53   -0.34 5  165 150 
 631  0N  S        448  7.08                              53   -0.12 5  165 150 
 632  0Z  P        447 50.90                              53    0.05 4  189 130 
 632  0N  S        448 13.79                              53    1.32 4  189 130 

