 2017  416 0523 42.2 L  71.953 127.085 18.0  BER 12 0.3                        1
 GAP= 84        0.58       1.2     3.7  2.5  0.1620E+01  0.1918E+01  0.1052E+00E
 ACTION:UP  20-12-26 19:23 OP:elen STATUS:               ID:20170416052232     I
 OLDACT:REG 20-12-24 20:31 OP:elen STATUS:               ID:20170416052232     3
 2017-04-16-0522-32M.NSN___039                                                 6
 STAT SP IPHASW D HRMM SECON CODA AMPLIT PERI AZIMU VELO AIN AR TRES W  DIS CAZ7
 629  0Z  P        523 45.44                             154   -0.0010 8.35 109 
 629  0E  S        523 48.02                             154    0.1810 8.35 109 
 627  0Z  P        523 46.36                             133   -0.0810 18.6 349 
 627  0E  S        523 49.61                             133    0.0410 18.6 349 
 626  0Z  P        523 48.76                             114   -0.22 9 37.1 259 
 626  0N  S        523 53.71                             114   -0.24 9 37.1 259 
 625  0Z  P        523 49.72                             111    0.08 9 41.7 307 
 625  0N  S        523 54.90                             111   -0.20 9 41.7 307 
 630  0Z  P        523 49.92                             110   -0.20 9 44.9  72 
 630  0N  S        523 55.85                             110   -0.09 9 44.9  72 
 628  0Z  P        523 50.39                             108   -0.50 9 49.9   2 
 628  0E  S        523 56.86                             108   -0.41 9 49.9   2 
 623  0Z  P        523 52.77                             104    0.07 8 61.5 313 
 623  0N  S        524  0.55                             104    0.16 8 61.5 313 
 631  0Z  P        523 52.66                             104   -0.13 8 62.1 175 
 631  0E  S        524  0.63                             104    0.07 8 62.1 175 
 624  0Z  P        523 53.61                             104    0.44 8 64.5 335 
 624  0N  S        524  1.79                             104    0.58 8 64.5 335 
 632  0Z  P        523 55.84                             101    0.02 7 81.3 120 
 632  0E  S        524  6.13                             101    0.34 7 81.3 120 
 622  0Z  P        523 56.19                             101    0.36 7 81.4 313 
 622  0N  S        524  5.76                             101   -0.05 7 81.4 313 
 620  0Z  P        524  2.20                              97   -0.01 6  121 311 
 620  0N  S        524 17.06                              97    0.21 6  121 311 

 2017  416 1821  5.3 L  72.893 124.992 14.9  BER 13 0.4                        1
 GAP=268        0.69       3.8     7.9  4.4  0.5057E+01 -0.1478E+02 -0.6393E+01E
 ACTION:UP  20-12-27 00:47 OP:elen STATUS:               ID:20170416181941     I
 OLDACT:REG 20-12-24 20:59 OP:elen STATUS:               ID:20170416181941     3
 2017-04-16-1819-41M.NSN___039                                                 6
 STAT SP IPHASW D HRMM SECON CODA AMPLIT PERI AZIMU VELO AIN AR TRES W  DIS CAZ7
 620  0Z  P       1821 11.57                             111    0.0610 34.2 219 
 620  0E  S       1821 16.25                             111    0.2310 34.2 219 
 622  0Z  P       1821 14.36                             104    0.17 9 51.5 168 
 622  0N  S       1821 20.28                             104   -0.36 9 51.5 168 
 624  0Z  P       1821 16.17                             101    0.14 9 63.1 137 
 624  0E  S       1821 24.11                             101    0.28 9 63.1 137 
 623  0Z  P       1821 17.02                             100    0.18 9 68.3 158 
 623  0E  S       1821 25.60                             100    0.36 9 68.3 158 
 621  0Z  P       1821 18.44                              99   -0.16 8 79.2 183 
 621  0N  S       1821 27.98                              99   -0.30 8 79.2 183 
 625  0Z  P       1821 19.95                              98   -0.12 8 88.5 154 
 625  0E  S       1821 30.59                              98   -0.23 8 88.5 154 
 628  0Z  P       1821 20.01                              97   -0.37 8 90.4 126 
 628  0N  S       1821 31.26                              97   -0.09 8 90.4 126 
 627  0Z  P       1821 23.55                              96    0.14 7  109 141 
 627  0N  S       1821 36.98                              96    0.38 7  109 141 
 626  0Z  P       1821 24.46                              96   -0.28 7  118 162 
 626  0E  S       1821 38.21                              96   -0.69 7  118 162 
 629  0Z  P       1821 27.00                              95   -0.21 6  133 143 
 629  0N  S       1821 43.66                              95    0.48 6  133 143 
 630  0Z  P       1821 28.15                              53   -0.75 6  144 128 
 630  0N  S       1821 45.43                              53   -0.67 6  144 128 
 631  0Z  P       1821 34.17                              53    0.23 4  184 154 
 631  0E  S       1821 55.93                              53    1.12 4  184 154 
 632  0Z  P       1821 36.64                              53    0.31 4  202 135 
 632  0N  S       1822  0.61                              53    1.66 4  202 135 

 2017  418 1500 13.3 L  72.755 124.569 18.8  BER 10 0.4                        1
 GAP=260        0.73       5.1    10.2  2.9  0.1787E+02 -0.1679E+02 -0.3897E+01E
 ACTION:UP  20-12-29 20:35 OP:elen STATUS:               ID:20170418150000     I
 OLDACT:REG 20-12-27 21:06 OP:elen STATUS:               ID:20170418150000     3
 2017-04-18-1500-00M.NSN___039                                                 6
 STAT SP IPHASW D HRMM SECON CODA AMPLIT PERI AZIMU VELO AIN AR TRES W  DIS CAZ7
 620  0Z  P       15 0 17.03                             144   -0.1010 13.5 213 
 620  0E  S       15 0 20.16                             144    0.2310 13.5 213 
 622  0Z  P       15 0 20.78                             112   -0.24 9 42.8 144 
 622  0E  S       15 0 26.67                             112    0.03 9 42.8 144 
 623  0Z  P       15 0 23.88                             105   -0.12 8 62.3 140 
 623  0N  S       15 0 32.00                             105    0.19 8 62.3 140 
 624  0Z  P       15 0 24.31                             104   -0.09 8 64.8 118 
 624  0N  S       15 0 33.06                             104    0.56 8 64.8 118 
 628  0Z  P       15 0 28.79                             100   -0.35 7 94.8 113 
 628  0N  S       15 0 40.61                             100   -0.08 7 94.8 113 
 627  0Z  P       15 0 32.05                              98    0.81 7  108 130 
 627  0N  S       15 0 44.24                              98   -0.09 7  108 130 
 626  0Z  P       15 0 30.69                              98   -0.68 7  109 152 
 626  0E  S       15 0 43.85                              98   -0.71 7  109 152 
 629  0Z  P       15 0 34.77                              53    0.04 6  131 133 
 629  0N  S       15 0 50.10                              53   -0.26 6  131 133 
 630  0Z  P       15 0 36.65                              53   -0.23 5  148 119 
 630  0N  S       15 0 54.59                              53    0.50 5  148 119 
 631  0Z  P       15 0 40.50                              53   -0.16 4  177 147 
 631  0E  S       15 1  1.79                              53    1.17 4  177 147 

 2017  423 2313 42.0 L  72.588 124.837 21.1  BER 12 0.3                        1
 GAP=169        0.67       2.4     6.4  2.5  0.6709E+01 -0.5212E+01  0.2544E+00E
 ACTION:UP  21-01-01 14:08 OP:elen STATUS:               ID:20170423231216     I
 OLDACT:REG 20-12-30 23:59 OP:elen STATUS:               ID:20170423231216     3
 2017-04-23-2312-16M.NSN___036                                                 6
 STAT SP IPHASW D HRMM SECON CODA AMPLIT PERI AZIMU VELO AIN AR TRES W  DIS CAZ7
 620  0Z  P       2313 46.51                             139   -0.0810 17.9 294 
 620  0E  S       2313 50.11                             139    0.1910 17.9 294 
 622  0Z  P       2313 47.03                             132   -0.1110 22.8 135 
 622  0E  S       2313 51.34                             132    0.4610 22.8 135 
 623  0Z  P       2313 49.75                             115   -0.10 9 42.7 133 
 623  0E  S       2313 55.83                             115    0.27 9 42.7 133 
 621  0Z  P       2313 50.25                             114    0.02 9 45.1 178 
 621  0E  S       2313 56.13                             114   -0.10 9 45.1 178 
 624  0Z  P       2313 50.78                             111   -0.13 9 49.8 104 
 624  0E  S       2313 57.64                             111    0.24 9 49.8 104 
 625  0Z  P       2313 53.24                             107    0.31 8 63.1 137 
 625  0N  S       2314  0.98                             107    0.09 8 63.1 137 
 628  0Z  P       2313 55.01                             103   -0.62 8 80.4 104 
 628  0N  S       2314  5.37                             103   -0.20 8 80.4 104 
 626  0Z  P       2313 56.46                             102   -0.41 8 88.1 152 
 626  0E  S       2314  7.25                             102   -0.46 8 88.1 152 
 627  0Z  P       2313 57.00                             102   -0.09 7 89.6 125 
 627  0E  S       2314  8.15                             102    0.06 7 89.6 125 
 629  0Z  P       2314  0.29                              99   -0.32 7  112 130 
 629  0E  S       2314 13.64                              99   -0.53 7  112 130 
 630  0Z  P       2314  3.31                              53    0.04 6  131 114 
 630  0N  S       2314 19.32                              53    0.53 6  131 114 
 631  0Z  P       2314  6.52                              53   -0.00 5  157 147 
 631  0E  S       2314 25.55                              53    1.14 5  157 147 

 2017  425 0652 23.4 L  71.956 128.060  0.0  BER  9 0.6 1.2LBER 2.1CBER        1
 GAP=171        1.35       3.4    11.9  8.7 -0.1475E+02  0.5367E+02 -0.5078E+01E
 ACTION:REE 25-08-04 22:18 OP:mn   STATUS:               ID:20170425065114     I
 OLDACT:REG 20-12-31 19:06 OP:elen STATUS:               ID:20170425065114     3
 2017-04-25-0651-14M.NSN___027                                                 6
 STAT SP IPHASW D HRMM SECON CODA AMPLIT PERI AZIMU VELO AIN AR TRES W  DIS CAZ7
 630  0Z  P        652 26.18   85                         90   -0.1110 16.1  34 
 630  0E  S        652 28.80                              90    0.4110 16.1  34 
 629  0Z  P        652 27.55   63                         90   -0.5110 26.0 264 
 629  0N  S        652 31.16                              90   -0.2910 26.0 264 
 627  0Z  P        652 30.04   64                         65   -0.68 9 41.2 296 
 627  0N  S        652 35.52                              65   -0.54 9 41.2 296 
 628  0Z  P        652 32.83   74                         65   -0.69 8 58.5 328 
 628  0N  S        652 40.31                              65   -0.58 8 58.5 328 
 631  0Z  P        652 35.05   90                         65   -0.06 8 68.4 205 
 631  0N  S        652 44.17                              65    0.52 8 68.4 205 
 625  0Z  P        652 35.26   67                         65   -0.33 8 71.4 291 
 625  0N  S        652 44.57                              65    0.09 8 71.4 291 
 624  0Z  P        652 37.49   63                         65   -0.15 8 84.1 314 
 624  0N  S        652 48.42                              65    0.40 8 84.1 314 
 623  0Z  P        652 39.13   64                         65    0.72 7 88.9 299 
 623  0E  S        652 51.26                              65    1.90 7 88.9 299 
 621  0Z  P        652 42.42   59                         65    0.28 7  112 285 
 621  0N  S        652 56.94                              65    1.13 7  112 285 

 2017  426 1425 21.2 L  72.075 127.261 21.8  BER  6 0.0 0.1LBER 0.6CBER        1
 GAP=112        0.22       0.8     2.1  1.4  0.6139E+00 -0.4714E+00 -0.4469E+00E
 ACTION:REE 25-08-04 22:19 OP:mn   STATUS:               ID:20170426142409     I
 OLDACT:REG 21-01-02 11:34 OP:elen STATUS:               ID:20170426142409     3
 2017-04-26-1424-09M.NSN___024                                                 6
 STAT SP IPHASW D HRMM SECON CODA AMPLIT PERI AZIMU VELO AIN AR TRES W  DIS CAZ7
 627  0Z  P       1425 25.19   24                        153   -0.0410 10.7 296 
 627  0N  S       1425 28.15                             153   -0.0110 10.7 296 
 629  0Z  P       1425 25.70   24                        142   -0.0210 16.4 174 
 629  0N  S       1425 29.01                             142    0.0110 16.4 174 
 630  0Z  P       1425 28.22   24                        119   -0.00 9 36.5  89 
 630  0N  S       1425 33.37                             119    0.04 9 36.5  89 
 628  0Z  P       1425 28.19   21                        120   -0.03 9 36.5 354 
 628  0N  S       1425 33.32                             120   -0.01 9 36.5 354 
 625  0Z  P       1425 28.87   22                        117    0.00 9 41.1 286 
 625  0N  S       1425 34.49                             117    0.04 9 41.1 286 
 624  0Z  P       1425 31.08   24                        110    0.00 8 55.9 324 
 624  0N  S       1425 38.30                             110    0.03 8 55.9 324 

 2017  426 1840 44.2 L  72.274 126.360 18.4  BER  8 0.1 1.4LBER 2.4CBER        1
 GAP= 93        0.30       0.7     2.1  1.7  0.8941E-01 -0.6921E+00  0.2685E+00E
 ACTION:REE 25-08-04 22:19 OP:mn   STATUS:               ID:20170426183923     I
 OLDACT:REG 21-01-02 11:44 OP:elen STATUS:               ID:20170426183923     3
 2017-04-26-1839-23M.NSN___024                                                 6
 STAT SP IPHASW D HRMM SECON CODA AMPLIT PERI AZIMU VELO AIN AR TRES W  DIS CAZ7
 625  0Z  P       1840 47.88   74                        141   -0.1110 14.1 218 
 625  0N  S       1840 50.73                             141   -0.0510 14.1 218 
 624  0Z  P       1840 48.98   77                        128    0.0010 22.7 353 
 624  0N  S       1840 52.65                             128    0.1510 22.7 353 
 627  0Z  P       1840 49.51   82                        122   -0.1110 27.6 129 
 627  0N  S       1840 53.59                             122   -0.0310 27.6 129 
 628  0Z  P       1840 49.87   85                        120   -0.11 9 30.1  62 
 628  0N  S       1840 54.20                             120   -0.03 9 30.1  62 
 629  0Z  P       1840 53.07   83                        108    0.07 9 50.5 139 
 629  0E  S       1840 59.71                             108    0.25 9 50.5 139 
 621  0Z  P       1840 53.08   83                        108   -0.03 9 51.1 259 
 621  0N  S       1840 59.75                             108    0.09 9 51.1 259 
 630  0Z  P       1840 56.07   88                        103   -0.08 8 70.7 107 
 630  0E  S       1841  4.95                             103    0.04 8 70.7 107 
 631  0Z  P       1841  1.10   83                         99   -0.08 7  102 162 
 631  0N  S       1841 13.69                              99    0.07 7  102 162 

 2017  427 0912 29.1 L  72.060 127.824  6.2  BER  8 0.3 0.9LBER 1.8CBER        1
 GAP=115        0.72       1.7     5.7 17.9 -0.2594E+00  0.6359E+02 -0.4453E+01E
 ACTION:REE 25-08-04 22:19 OP:mn   STATUS:               ID:20170427091104     I
 OLDACT:REG 21-01-02 12:22 OP:elen STATUS:               ID:20170427091104     3
 2017-04-27-0911-04M.NSN___024                                                 6
 STAT SP IPHASW D HRMM SECON CODA AMPLIT PERI AZIMU VELO AIN AR TRES W  DIS CAZ7
 630  0Z  P        912 32.08   60                        102   -0.1410 17.3  84 
 630  0N  S        912 34.82                             102    0.3010 17.3  84 
 629  0Z  P        912 32.72   51                         98   -0.3910 22.9 231 
 629  0N  S        912 35.92                              98   -0.1510 22.9 231 
 627  0Z  P        912 33.91   56                         95   -0.2710 29.6 283 
 627  0N  S        912 37.96                              95    0.0310 29.6 283 
 628  0Z  P        912 36.13   59                         93   -0.43 9 44.4 329 
 628  0E  S        912 41.83                              93   -0.21 9 44.4 329 
 625  0Z  P        912 38.95   47                         92   -0.16 8 60.2 283 
 625  0N  S        912 46.75                              92    0.30 8 60.2 283 
 624  0Z  P        912 40.79   55                         92    0.07 8 70.2 312 
 624  0N  S        912 49.90                              92    0.66 8 70.2 312 
 631  0Z  P        912 41.71   65                         92   -0.03 8 76.5 196 
 631  0E  S        912 51.50                              92    0.50 8 76.5 196 
 621  0Z  P        912 45.77   63                         91   -0.02 7  102 279 
 621  0N  S        912 58.51                              91    0.50 7  102 279 

