 2016 1029 0831 55.9 L  72.043 127.692  1.5  BER 11 0.4 1.7LBER 2.0CBER        1
 GAP=112        0.89       1.9     5.4  4.3 -0.7650E+00  0.8988E+01 -0.2471E+01E
 ACTION:REE 25-08-04 21:46 OP:mn   STATUS:               ID:20161029083048     I
 OLDACT:UP  20-04-26 21:33 OP:alex STATUS:               ID:20161029083048     3
 OLDACT:ARG 20-04-26 14:49 OP:alex STATUS:               ID:20161029083048     3
 2016-10-29-0830-48M.SIOLA_039                                                 6
 STAT SP IPHASW D HRMM SECON CODA AMPLIT PERI AZIMU VELO AIN AR TRES W  DIS CAZ7
 629  0Z  P     D  831 59.17   58                         95   -0.0110 18.3 226 
 629  0E  S        832  1.87                              95    0.3010 18.3 226 
 630  0Z  P        831 59.66                              94   -0.1810 22.0  80 
 630  0N  S        832  2.95                              94    0.2310 22.0  80 
 627  0Z  P     C  832  0.41   37                         94   -0.1010 25.7 289 
 627  0E  S        832  3.48                              94   -0.3910 25.7 289 
 628  0Z  P        832  2.86                              65   -0.67 9 43.9 335 
 628  0N  S        832  8.64                              65   -0.46 9 43.9 335 
 625  0Z  P     C  832  5.37   99                         65   -0.15 9 56.3 286 
 625  0E  S        832 12.61                              65    0.06 9 56.3 286 
 626  0Z  P        832  5.72                              65   -0.39 9 59.8 254 
 626  0N  S        832 13.09                              65   -0.47 9 59.8 254 
 624  0Z  P        832  7.82                              65    0.37 8 68.2 316 
 624  0N  S        832 16.34                              65    0.45 8 68.2 316 
 623  0Z  P        832  9.37                              65    1.13 8 73.2 296 
 623  0N  S        832 17.84                              65    0.59 8 73.2 296 
 631  0Z  P     C  832  8.24   77                         65   -0.07 8 73.6 192 
 631  0E  S        832 17.24                              65   -0.14 8 73.6 192 
 622  0Z  P        832 11.79                              65    0.44 7 92.4 300 
 622  0N  S        832 22.69                              65    0.06 7 92.4 300 
 620  0Z  P        832 17.65                              65   -0.11 6  132 303 
 620  0N  S        832 33.70                              65   -0.02 6  132 303 

 2016 1030 1322 37.7 L  72.557 126.559  0.0  BER 12 0.3 1.9LBER                1
 GAP=212        0.59       2.0     3.6  2.8  0.2620E+01 -0.4313E+00  0.3781E+00E
 ACTION:REE 25-08-04 21:47 OP:mn   STATUS:               ID:20161030132120     I
 OLDACT:ARG 20-04-26 14:49 OP:alex STATUS:               ID:20161030132120     3
 2016-10-30-1321-20M.SIOLA_039                                                 6
 STAT SP IPHASW D HRMM SECON CODA AMPLIT PERI AZIMU VELO AIN AR TRES W  DIS CAZ7
 624  0Z  P     C 1322 40.12                              90    0.0610 13.2 226 
 624  0E  S       1322 41.68                              90   -0.0910 13.2 226 
 628  0Z  P     C 1322 42.27                              90   -0.1610 26.4 131 
 628  0N  S       1322 46.16                              90    0.2810 26.4 131 
 623  0Z  P       1322 44.27                              90   -0.10 9 37.3 227 
 623  0N  S       1322 49.46                              90    0.23 9 37.3 227 
 622  0Z  P       1322 45.24                              65   -0.19 9 43.8 253 
 622  0N  S       1322 51.03                              65   -0.03 9 43.8 253 
 625  0Z  P       1322 45.46                              65   -0.24 9 45.4 200 
 625  0N  S       1322 51.31                              65   -0.22 9 45.4 200 
 627  0Z  P       1322 46.47                              65   -0.16 9 51.2 164 
 627  0E  S       1322 53.05                              65   -0.09 9 51.2 164 
 620  0Z  P       1322 50.31                              65   -0.09 8 74.6 279 
 620  0N  S       1323  0.27                              65    0.60 8 74.6 279 
 629  0Z  P       1322 50.21                              65   -0.20 8 74.7 160 
 629  0E  S       1323  0.08                              65    0.39 8 74.7 160 
 626  0Z  P     C 1322 50.70                              65   -0.07 8 76.8 194 
 626  0N  S       1322 59.97                              65   -0.34 8 76.8 194 
 630  0Z  P       1322 51.12                              65   -0.24 8 80.5 131 
 630  0E  S       1323  1.13                              65   -0.19 8 80.5 131 
 631  0Z  P     C 1322 59.88                              65    0.31 6  131 169 
 631  0N  S       1323 16.50                              65    0.97 6  131 169 
 632  0Z  P       1323  1.17                              65    0.27 6  140 141 
 632  0E  S       1323 17.99                              65    0.16 6  140 141 

 2016 11 5 0556 47.0 L  72.322 129.807 11.1  BER 13 0.4 2.0LBER 2.2CBER        1
 GAP=273        0.64       3.0    11.0  4.5  0.1453E+02 -0.1147E+02 -0.5852E+01E
 ACTION:REE 25-08-04 21:51 OP:mn   STATUS:               ID:20161105055546     I
 2016-11-05-0555-46M.arct__039                                                 6
 STAT SP IPHASW D HRMM SECON CODA AMPLIT PERI AZIMU VELO AIN AR TRES W  DIS CAZ7
 630  0Z  P        556 56.31                              98   -0.4010 57.6 242 
 630  0N  S        557  3.72                              98   -0.0710 57.6 242 
 632  0Z  P        557  1.07   70                         95   -0.40 9 87.2 197 
 632  0E  S        557 12.38                              95    0.36 9 87.2 197 
 628  0Z  P        557  2.31                              95    0.33 9 90.4 277 
 628  0N  S        557 12.89                              95   -0.01 9 90.4 277 
 629  0Z  P        557  3.20                              94    0.32 8 96.0 244 
 629  0N  S        557 14.64                              94    0.18 8 96.0 244 
 627  0Z  P        557  3.36                              94    0.00 8 99.0 258 
 627  0N  S        557 15.29                              94    0.00 8 99.0 258 
 624  0Z  P        557  6.88                              93    0.06 7  120 280 
 624  0N  S        557 21.08                              93   -0.19 7  120 280 
 625  0Z  P        557  8.18                              93    0.31 7  127 264 
 625  0N  S        557 23.14                              93    0.05 7  127 264 
 631  0Z  P        557  9.61                              93    0.28 7  136 222 
 631  0N  S        557 25.40                              93   -0.22 7  136 222 
 623  0Z  P        557  9.58                              93    0.08 7  137 272 
 623  0N  S        557 25.54                              93   -0.38 7  137 272 
 626  0Z  P        557  9.79                              93    0.12 7  138 251 
 626  0E  S        557 25.78                              93   -0.43 7  138 251 
 622  0Z  P        557 11.44   84                         53   -0.52 6  152 277 
 622  0E  S        557 31.74                              53    1.57 6  152 277 
 621  0Z  P        557 13.87   63                         53   -0.12 5  168 267 
 621  0E  S        557 33.44                              53   -0.24 5  168 267 
 620  0Z  P        557 16.11   68                         53   -0.29 5  187 284 
 620  0E  S        557 37.04                              53   -0.81 5  187 284 

 2016 11 5 0610 51.3 L  72.314 129.857 16.1  BER 13 0.4 1.2LBER 1.6CBER        1
 GAP=274        0.65       3.1    11.8  2.8  0.1622E+02 -0.7975E+01 -0.2772E+01E
 ACTION:REE 25-08-04 21:51 OP:mn   STATUS:               ID:20161105061008     I
 2016-11-05-0610-08M.arct__039                                                 6
 STAT SP IPHASW D HRMM SECON CODA AMPLIT PERI AZIMU VELO AIN AR TRES W  DIS CAZ7
 630  0Z  P        611  0.74                             103   -0.6010 58.7 244 
 630  0N  S        611  9.46                             103    0.8010 58.7 244 
 632  0Z  P        611  5.41   62                         99   -0.41 9 86.9 199 
 632  0E  S        611 16.45                              99    0.05 9 86.9 199 
 628  0Z  P        611  6.96                              98    0.30 9 92.2 277 
 628  0N  S        611 17.44                              98   -0.41 9 92.2 277 
 629  0Z  P        611  7.58                              98    0.13 8 97.2 245 
 629  0N  S        611 19.02                              98   -0.21 8 97.2 245 
 627  0Z  P        611  7.98                              97    0.00 8  100 259 
 627  0N  S        611 19.90                              97   -0.24 8  100 259 
 624  0Z  P        611 11.44   39                         96   -0.03 7  122 280 
 624  0N  S        611 25.75                              96   -0.44 7  122 280 
 625  0Z  P        611 13.16                              96    0.67 7  129 265 
 625  0N  S        611 28.15                              96    0.21 7  129 265 
 631  0Z  P        611 14.16                              53    0.41 7  137 223 
 631  0N  S        611 29.82                              53   -0.30 7  137 223 
 623  0Z  P        611 14.42                              53    0.39 7  139 272 
 623  0N  S        611 30.68                              53    0.06 7  139 272 
 626  0Z  P        611 14.29                              53    0.16 7  139 252 
 626  0N  S        611 30.28                              53   -0.50 7  139 252 
 622  0Z  P        611 15.81                              53   -0.18 6  154 277 
 622  0N  S        611 33.75                              53   -0.26 6  154 277 
 621  0Z  P        611 18.29   47                         53    0.28 5  170 267 
 621  0N  S        611 37.85                              53    0.36 5  170 267 
 620  0Z  P        611 20.51   47                         53    0.07 5  189 284 
 620  0E  S        611 41.99                              53    0.28 5  189 284 

 2016 11 5 0626 29.1 L  72.310 129.811 16.2  BER 13 0.3 2.5LBER 2.4CBER        1
 GAP=273        0.52       2.6     9.9  2.6  0.1226E+02 -0.3931E+01 -0.2544E+01E
 ACTION:REE 25-08-04 21:51 OP:mn   STATUS:               ID:20161105062528     I
 2016-11-05-0625-28M.arct__039                                                 6
 STAT SP IPHASW D HRMM SECON CODA AMPLIT PERI AZIMU VELO AIN AR TRES W  DIS CAZ7
 630  0Z  P        626 38.35                             104   -0.4910 57.1 243 
 632  0Z  P        626 43.28   81                         99   -0.14 9 86.0 198 
 632  0E  S        626 53.82                              99   -0.08 9 86.0 198 
 628  0Z  P        626 44.05  104                         98   -0.12 9 90.7 278 
 628  0N  S        626 55.36                              98    0.16 9 90.7 278 
 629  0Z  P        626 45.26                              98    0.31 8 95.6 245 
 629  0N  S        626 56.78                              98    0.24 8 95.6 245 
 627  0Z  P        626 45.54                              98    0.07 8 98.9 259 
 627  0N  S        626 57.37                              98   -0.08 8 98.9 259 
 624  0Z  P        626 49.11                              96    0.12 7  121 280 
 624  0N  S        627  2.97                              96   -0.57 7  121 280 
 625  0Z  P        626 50.07                              96    0.09 7  127 265 
 625  0N  S        627  5.57                              96    0.32 7  127 265 
 631  0Z  P        626 51.81                              95    0.51 7  135 222 
 631  0N  S        627  7.55                              95    0.02 7  135 222 
 623  0Z  P        626 51.64                              53    0.06 7  137 273 
 623  0N  S        627  7.68                              53   -0.34 7  137 273 
 626  0Z  P        626 51.82                              53    0.16 7  138 252 
 626  0N  S        627  7.66                              53   -0.50 7  138 252 
 622  0Z  P        626 53.38                              53   -0.17 6  153 278 
 622  0N  S        627 11.09                              53   -0.33 6  153 278 
 621  0Z  P        626 56.09   82                         53    0.54 5  168 268 
 621  0N  S        627 15.57                              53    0.68 5  168 268 
 620  0Z  P        626 58.20   67                         53    0.19 5  188 284 
 620  0N  S        627 19.60                              53    0.46 5  188 284 

 2016 11 5 0629  6.8 L  72.297 129.811 12.6  BER 13 0.5 2.4LBER 2.3CBER        1
 GAP=273        0.87       4.1    15.1  5.9  0.2782E+02 -0.2270E+02 -0.1072E+02E
 ACTION:REE 25-08-04 21:52 OP:mn   STATUS:               ID:20161105062806     I
 2016-11-05-0628-06M.arct__039                                                 6
 STAT SP IPHASW D HRMM SECON CODA AMPLIT PERI AZIMU VELO AIN AR TRES W  DIS CAZ7
 630  0Z  P        629 15.99                             100   -0.3810 56.5 245 
 630  0N  S        629 22.93                             100   -0.4210 56.5 245 
 632  0Z  P        629 20.72   80                         96   -0.16 9 84.7 198 
 632  0E  S        629 31.30                              96    0.16 9 84.7 198 
 628  0Z  P        629 22.14   75                         96    0.26 9 90.9 279 
 628  0N  S        629 34.02                              96    1.14 9 90.9 279 
 629  0Z  P        629 22.93                              96    0.40 8 95.0 246 
 629  0N  S        629 34.54                              96    0.53 8 95.0 246 
 627  0Z  P        629 23.02                              95   -0.09 8 98.6 260 
 627  0N  S        629 34.80                              95   -0.21 8 98.6 260 
 624  0Z  P        629 26.62                              94   -0.11 7  121 281 
 624  0N  S        629 40.85                              94   -0.42 7  121 281 
 625  0Z  P        629 27.88                              94    0.22 7  127 266 
 625  0N  S        629 42.67                              94   -0.21 7  127 266 
 631  0Z  P        629 29.41                              94    0.58 7  134 223 
 631  0N  S        629 45.07                              94    0.16 7  134 223 
 623  0N  S        629 45.18                              94   -0.64 7  137 273 
 626  0Z  P        629 29.37                              94    0.00 7  137 252 
 626  0N  S        629 45.29                              94   -0.54 7  137 252 
 623  0Z  P        629 29.35                              94   -0.01 7  137 273 
 622  0Z  P        629 30.90                              53   -0.77 6  153 278 
 622  0N  S        629 48.68                              53   -1.14 6  153 278 
 621  0Z  P        629 33.52   77                         53   -0.12 5  168 268 
 621  0E  S        629 54.24                              53    1.01 5  168 268 
 620  0Z  P        629 35.78   84                         53   -0.38 5  188 285 
 620  0E  S        629 59.11                              53    1.53 5  188 285 

 2016 11 5 0642 24.8 L  72.320 129.850 15.1  BER 13 0.3 1.4LBER 2.0CBER        1
 GAP=274        0.55       2.8    10.3  3.7  0.1443E+02 -0.8510E+01 -0.4334E+01E
 ACTION:REE 25-08-04 21:52 OP:mn   STATUS:               ID:20161105064125     I
 2016-11-05-0641-25M.arct__039                                                 6
 STAT SP IPHASW D HRMM SECON CODA AMPLIT PERI AZIMU VELO AIN AR TRES W  DIS CAZ7
 630  0Z  P        642 34.23                             102   -0.6110 58.8 243 
 632  0Z  P        642 39.22   92                         98   -0.19 9 87.5 198 
 632  0E  S        642 50.38                              98    0.34 9 87.5 198 
 628  0Z  P        642 40.41   64                         97    0.30 9 91.9 277 
 628  0E  S        642 51.87                              97    0.62 9 91.9 277 
 629  0Z  P        642 41.15                              97    0.18 8 97.3 245 
 629  0N  S        642 52.71                              97   -0.03 8 97.3 245 
 627  0Z  P        642 41.31                              97   -0.16 8  100 258 
 627  0N  S        642 53.41                              97   -0.20 8  100 258 
 624  0Z  P        642 44.86                              95   -0.07 7  122 280 
 624  0N  S        642 59.24                              95   -0.35 7  122 280 
 625  0Z  P        642 46.24                              95    0.27 7  128 264 
 625  0N  S        643  1.28                              95   -0.11 7  128 264 
 631  0Z  P        642 47.72                              95    0.38 7  137 223 
 631  0N  S        643  3.31                              95   -0.45 7  137 223 
 626  0Z  P        642 48.00   55                         95    0.25 7  139 252 
 626  0E  S        643  5.00                              95    0.52 7  139 252 
 623  0Z  P        642 47.57                              95   -0.04 7  139 272 
 623  0N  S        643  3.99                              95   -0.24 7  139 272 
 622  0Z  P        642 49.23                              53   -0.35 6  154 277 
 622  0N  S        643  7.53                              53   -0.11 6  154 277 
 621  0Z  P        642 51.98                              53    0.37 5  170 267 
 621  0N  S        643 11.25                              53    0.09 5  170 267 
 620  0Z  P        642 54.08   57                         53    0.06 5  189 284 
 620  0E  S        643 15.04                              53   -0.29 5  189 284 

 2016 11 5 0653 53.2 L  72.326 129.889 16.2  BER 13 0.4 1.6LBER 2.0CBER        1
 GAP=275        0.74       3.6    13.3  3.2  0.2049E+02 -0.1023E+02 -0.3622E+01E
 ACTION:REE 25-08-04 21:52 OP:mn   STATUS:               ID:20161105065254     I
 2016-11-05-0652-54M.arct__039                                                 6
 STAT SP IPHASW D HRMM SECON CODA AMPLIT PERI AZIMU VELO AIN AR TRES W  DIS CAZ7
 630  0Z  P        654  2.86                             103   -0.6610 60.3 243 
 630  0N  S        654 11.95                             103    0.9310 60.3 243 
 632  0Z  P        654  7.71                              98   -0.29 9 88.6 199 
 632  0N  S        654 18.63                              98   -0.15 9 88.6 199 
 628  0Z  P        654  8.91   70                         98    0.18 9 93.1 276 
 628  0E  S        654 19.86                              98   -0.18 9 93.1 276 
 629  0Z  P        654  9.80                              98    0.17 8 98.8 245 
 629  0N  S        654 21.65                              98    0.06 8 98.8 245 
 627  0Z  P        654  9.96                              97   -0.16 8  102 258 
 627  0N  S        654 21.89                              97   -0.55 8  102 258 
 624  0Z  P        654 13.67                              96    0.14 7  123 280 
 624  0N  S        654 27.63                              96   -0.72 7  123 280 
 625  0Z  P        654 14.89                              96    0.28 7  130 264 
 625  0N  S        654 30.61                              96    0.40 7  130 264 
 631  0Z  P        654 16.48   66                         53    0.60 7  138 223 
 631  0N  S        654 32.11                              53   -0.30 7  138 223 
 623  0Z  P        654 16.63                              53    0.55 7  140 272 
 623  0N  S        654 32.63                              53   -0.13 7  140 272 
 626  0Z  P        654 16.42                              53    0.19 7  141 252 
 626  0N  S        654 32.39                              53   -0.63 7  141 252 
 622  0Z  P        654 17.91                              53   -0.11 6  155 277 
 622  0N  S        654 35.81                              53   -0.31 6  155 277 
 621  0Z  P        654 20.56   62                         53    0.49 5  171 267 
 621  0E  S        654 39.89                              53    0.23 5  171 267 
 620  0Z  P        654 22.64   53                         53    0.19 5  190 284 
 620  0E  S        654 44.42                              53    0.64 5  190 284 

