 2017  423 2313 41.8 L  72.596 124.874 22.0  BER 12 0.3 1.3LBER 2.4CBER        1
 GAP=174        0.53       1.9     5.0  1.7  0.3959E+01 -0.3027E+01  0.1074E+00E
 ACTION:UP  21-01-01 14:08 OP:elen STATUS:               ID:20170423231216     I
 OLDACT:REG 20-12-30 23:59 OP:elen STATUS:               ID:20170423231216     3
 2017-04-23-2312-16M.NSN___036                                                 6
 STAT SP IPHASW D HRMM SECON CODA AMPLIT PERI AZIMU VELO AIN AR TRES W  DIS CAZ7
 620  0Z IP       2313 46.48   80                        139   -0.0710 18.7 290 
 620  0N ES       2313 50.18                             139    0.0110 18.7 290 
 620  0E  IAML    2313 50.37        79.3 0.10                          18.7 290 
 622  0Z IP       2313 47.05   83                        133    0.0610 22.6 139 
 622  0N ES       2313 51.23                             133    0.2810 22.6 139 
 622  0N  IAML    2313 52.56        48.0 0.16                          22.6 139 
 623  0Z IP       2313 49.73   80                        116    0.08 9 42.4 135 
 623  0N ES       2313 55.88                             116    0.25 9 42.4 135 
 623  0E  IAML    2313 56.62        82.7 0.25                          42.4 135 
 621  0Z IP       2313 50.11   78                        114   -0.07 9 46.0 179 
 621  0N ES       2313 56.52                             114   -0.04 9 46.0 179 
 621  0E  IAML    2313 56.54        16.1 0.14                          46.0 179 
 624  0Z IP       2313 50.63   84                        112    0.03 9 48.8 105 
 624  0N ES       2313 57.40                             112    0.10 9 48.8 105 
 624  0E  IAML    2313 58.06        49.5 0.19                          48.8 105 
 625  0Z IP       2313 52.86   87                        107    0.12 8 62.9 138 
 625  0E ES       2314  1.25                             107    0.19 8 62.9 138 
 625  0N  IAML    2314  3.61         7.8 0.27                          62.9 138 
 628  0Z IP       2313 54.98   89                        104   -0.33 8 79.4 105 
 628  0N ES       2314  4.93                             104   -0.65 8 79.4 105 
 628  0N  IAML    2314  6.54        12.5 0.19                          79.4 105 
 626  0Z IP       2313 56.45   85                        102   -0.26 8 88.4 153 
 626  0N ES       2314  7.49                             102   -0.57 8 88.4 153 
 626  0E  IAML    2314  8.44        13.9 0.16                          88.4 153 
 627  0Z IP       2313 56.83   83                        102   -0.01 7 89.1 126 
 627  0E ES       2314  8.15                             102   -0.13 7 89.1 126 
 627  0E  IAML    2314  9.54         4.7 0.16                          89.1 126 
 629  0Z IP       2314  0.22   88                         58    0.04 7  111 131 
 629  0N ES       2314 14.02                              58   -0.14 7  111 131 
 629  0E  IAML    2314 16.94         4.7 0.22                           111 131 
 630  0Z IP       2314  3.25   84                         58    0.45 6  131 115 
 630  0N ES       2314 19.30                              58    0.53 6  131 115 
 630  0E  IAML    2314 20.72         6.7 0.13                           131 115 
 631  0Z IP       2314  6.59   87                         58    0.22 5  157 147 
 631  0N ES       2314 25.05                              58   -0.01 5  157 147 
 631  0E  IAML    2314 26.89        13.4 0.18                           157 147 
                                                                                
 2017  424 0609 58.6 L  71.960 128.029  0.1  BER 12 0.6 1.1LBER 2.3CBER        1
 GAP=166        1.29       3.0     9.3  6.6 -0.7840E+01  0.2295E+02 -0.8593E+00E
 ACTION:UP  21-01-01 16:20 OP:elen STATUS:               ID:20170424060854     I
 OLDACT:REG 20-12-31 14:11 OP:elen STATUS:               ID:20170424060854     3
 2017-04-24-0608-54M.NSN___036                                                 6
 STAT SP IPHASW D HRMM SECON CODA AMPLIT PERI AZIMU VELO AIN AR TRES W  DIS CAZ7
 630  0Z IP        610  1.51   71                         90   -0.0710 16.4  38 
 630  0N ES        610  3.92                              90    0.1210 16.4  38 
 630  0E  IAML     610  4.34       168.7 0.18                          16.4  38 
 629  0Z IP        610  2.98   73                         90   -0.1310 25.0 262 
 629  0N ES        610  6.54                              90    0.0310 25.0 262 
 629  0E  IAML     610  7.12        78.2 0.26                          25.0 262 
 627  0Z IP        610  5.40   71                         90   -0.40 9 40.1 296 
 627  0E ES        610 10.67                              90   -0.57 9 40.1 296 
 627  0N  IAML     610 12.85        27.8 0.40                          40.1 296 
 628  0Z IP        610  8.28   86                         65   -0.42 9 57.6 329 
 628  0N ES        610 15.63                              65   -0.71 9 57.6 329 
 628  0N  IAML     610 26.94         8.2 0.10                          57.6 329 
 631  0Z IP        610 10.57   81                         65    0.14 8 68.3 204 
 631  0N ES        610 19.55                              65    0.16 8 68.3 204 
 631  0N  IAML     610 19.79         8.9 0.22                          68.3 204 
 626  0Z IP        610 10.19   78                         65   -0.43 8 69.5 264 
 626  0N ES        610 19.01                              65   -0.71 8 69.5 264 
 626  0N  IAML     610 22.80         7.0 0.14                          69.5 264 
 625  0Z IP        610 10.39   83                         65   -0.35 8 70.2 291 
 625  0E ES        610 19.34                              65   -0.59 8 70.2 291 
 625  0E  IAML     610 20.74         5.6 0.26                          70.2 291 
 624  0Z IP        610 12.80   86                         65    0.00 8 83.0 315 
 624  0N ES        610 23.48                              65   -0.07 8 83.0 315 
 624  0N  IAML     610 27.07        10.3 0.17                          83.0 315 
 623  0Z IP        610 14.90   91                         65    1.34 7 87.7 299 
 623  0N ES        610 27.08                              65    2.18 7 87.7 299 
 623  0N  IAML     610 31.83         3.8 0.12                          87.7 299 
 622  0Z IP        610 17.30   76                         65    0.61 7  107 301 
 622  0N ES        610 31.19                              65    0.78 7  107 301 
 622  0N  IAML     610 37.03         6.5 0.14                           107 301 
 621  0Z IP        610 17.61   77                         65    0.33 7  111 285 
 621  0N ES        610 31.72                              65    0.29 7  111 285 
 621  0E  IAML     610 35.97         6.1 0.30                           111 285 
 620  0Z IP        610 23.31   89                         65    0.20 5  147 304 
 620  0N ES        610 41.60                              65   -0.11 5  147 304 
 620  0N  IAML     610 44.92         7.6 0.19                           147 304 
                                                                                
 2017  424 0755 26.9 L  71.959 128.032  0.0  BER 12 0.7 1.0LBER 1.9CBER        1
 GAP=166        1.33       3.1     9.7  6.9 -0.8411E+01  0.2444E+02 -0.8705E+00E
 ACTION:UP  21-01-01 17:36 OP:elen STATUS:               ID:20170424075403     I
 OLDACT:REG 20-12-31 14:25 OP:elen STATUS:               ID:20170424075403     3
 2017-04-24-0754-03M.NSN___036                                                 6
 STAT SP IPHASW D HRMM SECON CODA AMPLIT PERI AZIMU VELO AIN AR TRES W  DIS CAZ7
 630  0Z IP        755 29.80   68                         90   -0.0710 16.4  38 
 630  0E ES        755 32.18                              90    0.0910 16.4  38 
 630  0E  IAML     755 32.63       115.0 0.18                          16.4  38 
 629  0Z IP        755 31.30   53                         90   -0.1410 25.1 263 
 629  0N ES        755 34.77                              90   -0.0810 25.1 263 
 629  0N  IAML     755 35.07        49.0 0.23                          25.1 263 
 627  0Z IP        755 33.69   52                         90   -0.44 9 40.2 296 
 627  0E ES        755 38.89                              90   -0.70 9 40.2 296 
 627  0N  IAML     755 41.19        14.0 0.31                          40.2 296 
 628  0Z IP        755 36.46   55                         65   -0.56 9 57.7 329 
 628  0E ES        755 43.62                              65   -1.06 9 57.7 329 
 628  0E  IAML     755 45.58        14.0 0.21                          57.7 329 
 631  0Z IP        755 38.85   67                         65    0.11 8 68.3 204 
 631  0N ES        755 47.74                              65    0.05 8 68.3 204 
 631  0N  IAML     755 48.14         6.1 0.32                          68.3 204 
 626  0Z IP        755 38.68   62                         65   -0.26 8 69.6 264 
 626  0N ES        755 47.42                              65   -0.64 8 69.6 264 
 626  0N  IAML     755 51.10         3.9 0.13                          69.6 264 
 625  0Z IP        755 38.85   56                         65   -0.22 8 70.4 291 
 625  0N ES        755 47.68                              65   -0.60 8 70.4 291 
 625  0N  IAML     755 51.95         4.1 0.42                          70.4 291 
 624  0Z IP        755 41.45   57                         65    0.33 8 83.1 315 
 624  0N ES        755 52.13                              65    0.23 8 83.1 315 
 624  0E  IAML     755 54.00        11.9 0.24                          83.1 315 
 623  0Z IP        755 43.24   56                         65    1.35 7 87.9 299 
 623  0N ES        755 55.29                              65    2.04 7 87.9 299 
 623  0N  IAML     756  1.08         3.6 0.38                          87.9 299 
 622  0Z IP        755 45.69   58                         65    0.67 7  107 301 
 622  0N ES        755 59.48                              65    0.73 7  107 301 
 622  0N  IAML     756  1.67         4.1 0.19                           107 301 
 621  0Z IP        755 45.96   59                         65    0.36 7  111 285 
 621  0N ES        755 59.95                              65    0.17 7  111 285 
 621  0N  IAML     756  5.48         3.1 0.21                           111 285 
 620  0Z IP        755 52.00   59                         65    0.56 5  147 304 
 620  0E ES        756 10.32                              65    0.27 5  147 304 
 620  0E  IAML     756 13.25         5.1 0.22                           147 304 
                                                                                
 2017  424 0755 26.7 L  71.948 128.038  0.0  BER 12 0.6 1.0LBER 2.0CBER        1
 GAP=170        1.18       2.8     8.8  6.1 -0.6550E+01  0.1898E+02 -0.2127E+00E
 ACTION:UP  21-01-01 23:40 OP:elen STATUS:               ID:20170424075442     I
 OLDACT:REG 20-12-31 14:32 OP:elen STATUS:               ID:20170424075442     3
 2017-04-24-0754-42M.NSN___036                                                 6
 STAT SP IPHASW D HRMM SECON CODA AMPLIT PERI AZIMU VELO AIN AR TRES W  DIS CAZ7
 630  0Z IP        755 29.78   75                         90   -0.0210 17.2  35 
 630  0N ES        755 32.14                              90   -0.0010 17.2  35 
 630  0E  IAML     755 32.63       115.4 0.18                          17.2  35 
 629  0Z IP        755 31.32   57                         90    0.1010 25.2 265 
 629  0N ES        755 34.80                              90    0.1610 25.2 265 
 629  0N  IAML     755 34.96        49.6 0.24                          25.2 265 
 627  0Z IP        755 33.68   56                         90   -0.36 9 40.9 298 
 627  0E ES        755 38.90                              90   -0.70 9 40.9 298 
 627  0N  IAML     755 41.19        14.3 0.31                          40.9 298 
 628  0Z IP        755 36.50   55                         65   -0.49 9 58.9 329 
 628  0N ES        755 43.81                              65   -0.98 9 58.9 329 
 628  0E  IAML     755 45.58        14.0 0.21                          58.9 329 
 631  0Z IP        755 38.33   80                         65   -0.02 8 67.3 205 
 631  0N ES        755 47.05                              65   -0.13 8 67.3 205 
 631  0N  IAML     755 48.14         6.1 0.32                          67.3 205 
 626  0Z IP        755 38.49   63                         65   -0.24 8 69.7 265 
 626  0N ES        755 47.25                              65   -0.61 8 69.7 265 
 626  0N  IAML     755 51.10         3.9 0.12                          69.7 265 
 625  0Z IP        755 38.59   66                         65   -0.36 8 71.0 292 
 625  0N ES        755 47.42                              65   -0.81 8 71.0 292 
 625  0N  IAML     755 51.95         4.2 0.42                          71.0 292 
 624  0Z IP        755 41.50   61                         65    0.44 8 84.1 315 
 624  0N ES        755 52.46                              65    0.50 8 84.1 315 
 624  0E  IAML     755 54.00        12.0 0.25                          84.1 315 
 623  0Z IP        755 42.72   60                         65    0.93 7 88.7 299 
 623  0E ES        755 54.61                              65    1.37 7 88.7 299 
 623  0N  IAML     756  0.89         2.9 0.25                          88.7 299 
 622  0Z IP        755 45.72   60                         65    0.79 7  108 302 
 622  0E ES        755 59.80                              65    1.04 7  108 302 
 622  0N  IAML     756  4.31         4.0 0.25                           108 302 
 621  0Z IP        755 45.89   59                         65    0.43 7  111 285 
 621  0N ES        756  0.04                              65    0.34 7  111 285 
 621  0N  IAML     756  5.49         3.0 0.20                           111 285 
 620  0Z IP        755 51.75   59                         65    0.40 5  148 304 
 620  0N ES        756 10.20                              65    0.13 5  148 304 
 620  0E  IAML     756 13.25         5.0 0.22                           148 304 
                                                                                
 2017  425 0652 23.3 L  71.960 128.031  0.0  BER  9 0.5 1.2LBER 2.1CBER        1
 GAP=166        1.14       2.8     8.4  6.2 -0.6495E+01  0.1530E+02 -0.4204E+00E
 ACTION:UP  21-01-02 01:38 OP:elen STATUS:               ID:20170425065114     I
 OLDACT:REG 20-12-31 19:06 OP:elen STATUS:               ID:20170425065114     3
 2017-04-25-0651-14M.NSN___027                                                 6
 STAT SP IPHASW D HRMM SECON CODA AMPLIT PERI AZIMU VELO AIN AR TRES W  DIS CAZ7
 630  0Z IP        652 26.18   85                         90   -0.0810 16.4  38 
 630  0E ES        652 28.80                              90    0.3210 16.4  38 
 630  0E  IAML     652 29.11       220.3 0.20                          16.4  38 
 629  0Z IP        652 27.55   63                         90   -0.2710 25.1 262 
 629  0N ES        652 31.16                              90   -0.0710 25.1 262 
 629  0E  IAML     652 31.82        95.0 0.25                          25.1 262 
 627  0Z IP        652 30.04   64                         90   -0.47 9 40.2 296 
 627  0N ES        652 35.52                              90   -0.44 9 40.2 296 
 627  0E  IAML     652 38.27        30.9 0.53                          40.2 296 
 628  0Z IP        652 32.83   74                         65   -0.58 9 57.7 329 
 628  0N ES        652 40.31                              65   -0.75 9 57.7 329 
 628  0N  IAML     652 47.06        11.6 0.14                          57.7 329 
 631  0Z IP        652 35.05   90                         65   -0.08 8 68.4 204 
 631  0N ES        652 44.17                              65    0.08 8 68.4 204 
 631  0N  IAML     652 44.52        10.0 0.33                          68.4 204 
 625  0Z IP        652 35.26   67                         65   -0.19 8 70.3 291 
 625  0N ES        652 44.57                              65   -0.09 8 70.3 291 
 625  0N  IAML     652 48.33         6.8 0.40                          70.3 291 
 624  0Z IP        652 37.49   63                         65   -0.02 8 83.1 315 
 624  0N ES        652 48.42                              65    0.14 8 83.1 315 
 624  0N  IAML     652 50.56        18.4 0.21                          83.1 315 
 623  0Z IP        652 39.13   64                         65    0.86 7 87.8 299 
 623  0E ES        652 51.26                              65    1.63 7 87.8 299 
 623  0N  IAML     652 57.27         5.5 0.26                          87.8 299 
 621  0Z IP        652 42.42   59                         65    0.43 7  111 285 
 621  0N ES        652 56.94                              65    0.78 7  111 285 
 621  0E  IAML     653  0.65         5.5 0.17                           111 285 
                                                                                
 2017  426 1834 24.6 L  71.584 130.805 10.9  BER  8 0.2 1.2LBER 2.2CBER        1
 GAP=315        0.36       3.3    10.3  3.1  0.4815E+01 -0.8249E+01 -0.3060E+01E
 ACTION:UP  21-01-02 21:22 OP:elen STATUS:               ID:20170426183339     I
 OLDACT:REG 21-01-02 11:40 OP:elen STATUS:               ID:20170426183339     3
 2017-04-26-1833-39M.NSN___024                                                 6
 STAT SP IPHASW D HRMM SECON CODA AMPLIT PERI AZIMU VELO AIN AR TRES W  DIS CAZ7
 630  0Z IP       1834 41.31   72                         94   -0.1710  102 304 
 630  0N ES       1834 54.16                              94   -0.1710  102 304 
 630  0E  IAML    1834 56.40         3.7 0.22                           102 304 
 631  0Z IP       1834 45.48   84                         93   -0.10 9  128 262 
 631  0N ES       1835  1.35                              93   -0.21 9  128 262 
 631  0N  IAML    1835  2.99        10.1 0.20                           128 262 
 629  0Z IP       1834 45.67   68                         93    0.05 9  128 289 
 629  0N ES       1835  1.72                              93    0.10 9  128 289 
 629  0N  IAML    1835  2.63         3.8 0.41                           128 289 
 627  0Z IP       1834 48.76   81                         92    0.29 8  146 296 
 627  0N ES       1835  7.02                              92    0.39 8  146 296 
 627  0N  IAML    1835  8.71         4.0 0.27                           146 296 
 628  0Z IP       1834 49.82   73                         58   -0.14 7  156 308 
 628  0E ES       1835  8.91                              58   -0.36 7  156 308 
 628  0N  IAML    1835 12.51         4.1 0.20                           156 308 
 625  0Z IP       1834 53.04   71                         58    0.30 6  176 294 
 625  0N ES       1835 14.44                              58    0.29 6  176 294 
 625  0N  IAML    1835 19.40         2.1 0.26                           176 294 
 624  0Z IP       1834 54.00   74                         58    0.01 6  185 305 
 624  0N ES       1835 16.12                              58   -0.23 6  185 305 
 624  0N  IAML    1835 21.58         4.0 0.26                           185 305 
 621  0Z IP       1834 58.65   71                         58    0.43 4  216 291 
 621  0E ES       1835 24.18                              58    0.38 4  216 291 
 621  0N  IAML    1835 30.39         1.7 0.25                           216 291 
                                                                                
