 2017  315 0234 46.5 L  72.654 123.846 16.9  BER  7 0.2 1.4LBER 1.2CBER        1
 GAP=312        0.43       3.7    11.1  2.8  0.2017E+02  0.1277E+02  0.6681E+01E
 ACTION:ARG 20-12-21 03:09 OP:mn   STATUS:               ID:20170315023314     I
 2017-03-15-0233-14M.a_____039                                                 6
 STAT SP IPHASW D HRMM SECON CODA AMPLIT PERI AZIMU VELO AIN AR TRES W  DIS CAZ7
 620  0Z IP     C  234 50.42   22                        134   -0.0610 16.7  90 
 620  0N ES        234 53.47                             134   -0.0210 16.7  90 
 620  0Z  IAML     234 53.72        98.8 0.21                          16.7  90 
 622  0Z IP     D  234 55.88   25                        105   -0.08 9 54.5 115 
 622  0N ES        235  3.13                             105    0.00 9 54.5 115 
 622  0Z  IAML     235  3.67        33.0 0.21                          54.5 115 
 623  0Z IP     C  234 58.89   33                        101   -0.14 8 74.0 119 
 623  0N ES        235  8.32                             101   -0.20 8 74.0 119 
 623  0Z  IAML     235  8.92        20.2 0.23                          74.0 119 
 624  0Z IP     D  235  0.65   36                         99    0.09 8 83.6 103 
 624  0N ES        235 11.21                              99   -0.02 8 83.6 103 
 624  0Z  IAML     235 11.73        24.6 0.16                          83.6 103 
 625  0Z IP     D  235  2.47   46                         98    0.39 7 93.2 124 
 625  0N ES        235 14.41                              98    0.51 7 93.2 124 
 625  0Z  IAML     235 15.16         4.1 0.13                          93.2 124 
 626  0Z IP     C  235  5.33   53                         97    0.02 7  113 138 
 626  0E ES        235 19.26                              97   -0.32 7  113 138 
 626  0Z  IAML     235 19.81         6.8 0.24                           113 138 
 629  0Z IP     D  235  9.69   53                         58    0.04 6  143 123 
 629  0E ES        235 27.07                              58   -0.16 6  143 123 
 629  0Z  IAML     235 28.99         5.3 0.19                           143 123 
                                                                                
 2017  317 1007 14.1 L  72.235 125.988  3.9  BER  7 0.2 0.5LBER 0.9CBER        1
 GAP=113        0.51       1.1     3.2  1.6  0.1304E+01 -0.7183E+00 -0.5991E+00E
 ACTION:ARG 20-12-21 03:09 OP:mn   STATUS:               ID:20170317100556     I
 2017-03-17-1005-56M.a_____039                                                 6
 STAT SP IPHASW D HRMM SECON CODA AMPLIT PERI AZIMU VELO AIN AR TRES W  DIS CAZ7
 625  0Z IP     C 10 7 15.52   28                        116   -0.1410 7.94 149 
 625  0E ES       10 7 17.05                             116    0.1910 7.94 149 
 625  0Z  IAML    10 7 17.31        20.4 0.18                          7.94 149 
 623  0Z IP     D 10 7 16.27   23                        107   -0.2010 12.8 323 
 623  0E ES       10 7 18.51                             107    0.2310 12.8 323 
 623  0Z  IAML    10 7 19.03        21.6 0.25                          12.8 323 
 624  0Z IP     C 10 7 19.09   37                         65   -0.07 9 28.6  20 
 624  0E ES       10 7 23.21                              65    0.19 9 28.6  20 
 624  0Z  IAML    10 7 23.77         9.2 0.17                          28.6  20 
 622  0Z IP     D 10 7 19.65   28                         65   -0.14 9 32.5 316 
 622  0E ES       10 7 24.34                              65    0.21 9 32.5 316 
 622  0Z  IAML    10 7 28.80         4.3 0.60                          32.5 316 
 621  0Z IP     C 10 7 20.43   28                         65   -0.24 9 37.9 262 
 621  0N ES       10 7 25.73                              65    0.06 9 37.9 262 
 621  0Z  IAML    10 7 27.08         9.0 0.28                          37.9 262 
 628  0Z IP     D 10 7 21.20   28                         65   -0.35 9 43.4  64 
 628  0N ES       10 7 27.17                              65   -0.06 9 43.4  64 
 628  0Z  IAML    10 7 28.42         8.2 0.15                          43.4  64 
 629  0Z IP     D 10 7 23.73   40                         65    0.00 8 56.9 126 
 629  0E ES       10 7 31.37                              65    0.31 8 56.9 126 
 629  0Z  IAML    10 7 32.24         3.3 0.27                          56.9 126 
                                                                                
 2017  320 1900 34.3 L  72.415 126.129 18.0  BER  7 0.1 0.6LBER 0.5CBER        1
 GAP=119        0.38       1.2     2.8  2.0 -0.5913E+00 -0.8801E-01  0.9422E+00E
 ACTION:ARG 20-12-21 03:09 OP:mn   STATUS:               ID:20170320190000     I
 2017-03-20-1900-00M.a_____039                                                 6
 STAT SP IPHASW D HRMM SECON CODA AMPLIT PERI AZIMU VELO AIN AR TRES W  DIS CAZ7
 624  0Z IP     D 19 0 37.68   22                        154    0.1210 8.41  36 
 624  0E ES       19 0 40.10                             154    0.0410 8.41  36 
 624  0Z  IAML    19 0 40.49        27.4 0.14                          8.41  36 
 623  0Z IP     C 19 0 38.40   17                        137    0.1510 15.9 232 
 623  0N ES       19 0 41.37                             137    0.0910 15.9 232 
 623  0Z  IAML    19 0 41.66        25.9 0.19                          15.9 232 
 625  0Z IP     D 19 0 39.68   20                        122    0.05 9 26.9 182 
 625  0N ES       19 0 43.66                             122   -0.04 9 26.9 182 
 625  0Z  IAML    19 0 44.10         2.9 0.17                          26.9 182 
 622  0Z IP     C 19 0 39.71   25                        121   -0.02 9 27.7 277 
 622  0N ES       19 0 43.71                             121   -0.18 9 27.7 277 
 622  0Z  IAML    19 0 44.04         5.4 0.12                          27.7 277 
 628  0Z IP     D 19 0 40.69   25                        115   -0.00 9 34.4  92 
 628  0N ES       19 0 45.33                             115   -0.25 9 34.4  92 
 628  0Z  IAML    19 0 46.85         8.3 0.26                          34.4  92 
 621  0Z IP     D 19 0 43.02   27                        108    0.08 9 49.3 239 
 621  0N ES       19 0 49.31                             108   -0.22 9 49.3 239 
 621  0Z  IAML    19 0 49.89         2.7 0.30                          49.3 239 
 626  0Z IP     C 19 0 44.66   24                        105    0.24 8 58.9 183 
 626  0N ES       19 0 52.05                             105   -0.09 8 58.9 183 
 626  0Z  IAML    19 0 52.41         4.2 0.32                          58.9 183 
                                                                                
 2017  326 0836 34.1 L  71.993 127.676 16.1  BER  7 0.1 1.5LBER 0.9CBER        1
 GAP=127        0.35       1.0     2.3  2.2  0.3496E+00 -0.2820E-01  0.4866E+00E
 ACTION:ARG 20-12-21 03:09 OP:mn   STATUS:               ID:20170326083527     I
 2017-03-26-0835-27M.a_____039                                                 6
 STAT SP IPHASW D HRMM SECON CODA AMPLIT PERI AZIMU VELO AIN AR TRES W  DIS CAZ7
 629  0Z IP     C  836 37.77   15                        137    0.0810 14.4 240 
 629  0N ES        836 40.52                             137    0.0910 14.4 240 
 629  0Z  IAML     836 40.82       360.6 0.20                          14.4 240 
 630  0Z IP     D  836 38.91   22                        122    0.0010 24.1  67 
 630  0E ES        836 42.54                             122   -0.0410 24.1  67 
 630  0Z  IAML     836 43.12       190.9 0.17                          24.1  67 
 627  0Z IP     C  836 39.40   35                        118    0.0110 27.6 300 
 627  0N ES        836 43.30                             118   -0.1310 27.6 300 
 627  0Z  IAML     836 43.48        88.3 0.34                          27.6 300 
 625  0Z IP     D  836 44.17   34                        103    0.22 8 57.5 291 
 625  0E ES        836 51.55                             103    0.09 8 57.5 291 
 625  0Z  IAML     836 51.71        10.9 0.18                          57.5 291 
 626  0Z IP     D  836 43.96   29                        103   -0.06 8 58.0 259 
 626  0N ES        836 51.25                             103   -0.32 8 58.0 259 
 626  0Z  IAML     836 51.63        35.8 0.21                          58.0 259 
 632  0Z IP     D  836 45.56   41                        101    0.03 8 67.6 133 
 632  0E ES        836 54.09                             101   -0.15 8 67.6 133 
 632  0Z  IAML     836 55.46        17.7 0.12                          67.6 133 
 631  0Z IP     D  836 45.76   37                        101    0.16 8 68.0 193 
 631  0E ES        836 54.35                             101   -0.01 8 68.0 193 
 631  0Z  IAML     836 54.70        21.7 0.11                          68.0 193 
                                                                                
 2017  4 2 0422  1.0 L  72.722 125.690 21.9  BER 10 0.3 1.2LBER 1.8CBER        1
 GAP=225        0.62       2.8     5.7  2.6  0.5114E+01 -0.6218E+01 -0.1958E+01E
 ACTION:UP  20-12-20 22:46 OP:elen STATUS:               ID:20170402042039     I
 OLDACT:UP  20-12-20 00:44 OP:elen STATUS:               ID:20170402042039     3
 OLDACT:UP  20-12-16 20:09 OP:elen STATUS:               ID:20170402042039     3
 OLDACT:UP  20-12-16 14:06 OP:elen STATUS:               ID:20170402042039     3
 OLDACT:REG 20-12-12 10:59 OP:elen STATUS:               ID:20170402042039     3
 2017-04-02-0420-39M.NSN___039                                                 6
 STAT SP IPHASW D HRMM SECON CODA AMPLIT PERI AZIMU VELO AIN AR TRES W  DIS CAZ7
 622  0Z IP        422  7.79   47                        121    0.1310 33.7 202 
 622  0N ES        422 12.79                             121    0.0910 33.7 202 
 624  0Z IP        422  7.79   50                        121    0.1310 33.7 144 
 624  0N ES        422 12.83                             121    0.1310 33.7 144 
 624  0N  IAML     422 13.96        16.4 0.13                          33.7 144 
 622  0N  IAML     422 13.69        13.8 0.15                          33.7 202 
 623  0Z IP        422  9.41   48                        115    0.2410 44.3 177 
 623  0N ES        422 15.58                             115    0.2310 44.3 177 
 623  0E  IAML     422 17.17         7.4 0.15                          44.3 177 
 620  0Z IP        422  9.30   52                        114   -0.0210 45.3 261 
 620  0N ES        422 15.36                             114   -0.2510 45.3 261 
 620  0N  IAML     422 15.71        31.6 0.15                          45.3 261 
 628  0Z IP        422 11.53   56                        108   -0.09 9 60.6 126 
 628  0N ES        422 19.37                             108   -0.30 9 60.6 126 
 628  0N  IAML     422 19.92        27.0 0.25                          60.6 126 
 621  0Z IP        422 12.50   48                        106    0.07 9 65.8 205 
 621  0N ES        422 20.98                             106   -0.12 9 65.8 205 
 621  0E  IAML     422 21.82         5.2 0.18                          65.8 205 
 626  0Z IP        422 16.65   47                        101   -0.17 8 93.8 173 
 626  0N ES        422 28.16                             101   -0.66 8 93.8 173 
 626  0E  IAML     422 28.49         3.2 0.21                          93.8 173 
 630  0Z IP        422 19.71   62                         58   -0.15 7  115 128 
 630  0N ES        422 33.47                              58   -0.69 7  115 128 
 630  0E  IAML     422 34.42         8.4 0.10                           115 128 
 631  0Z IP        422 26.15   76                         58    0.48 5  157 159 
 631  0N ES        422 44.66                              58    0.26 5  157 159 
 631  0E  IAML     422 45.70         6.6 0.23                           157 159 
 632  0Z IP        422 28.64   56                         58    0.83 5  173 136 
 632  0N ES        422 49.00                              58    0.84 5  173 136 
 632  0E  IAML     422 50.12         7.9 0.31                           173 136 
                                                                                
 2017  4 5 0307 36.1 L  71.684 128.950 14.9  BER 11 0.2 1.0LBER 1.8CBER        1
 GAP=187        0.38       1.1     5.0  2.1  0.1579E+01  0.5184E+01 -0.7574E+00E
 ACTION:UP  20-12-21 00:10 OP:elen STATUS:               ID:20170405030618     I
 OLDACT:UP  20-12-20 01:44 OP:elen STATUS:               ID:20170405030618     3
 OLDACT:UP  20-12-16 21:32 OP:elen STATUS:               ID:20170405030618     3
 OLDACT:REG 20-12-13 13:11 OP:elen STATUS:               ID:20170405030618     3
 2017-04-05-0306-18M.NSN___039                                                 6
 STAT SP IPHASW D HRMM SECON CODA AMPLIT PERI AZIMU VELO AIN AR TRES W  DIS CAZ7
 632  0Z IP        3 7 39.22   48                        137   -0.1810 13.0 161 
 632  0N ES        3 7 42.07                             137    0.1610 13.0 161 
 632  0N  IAML     3 7 42.69        27.1 0.05                          13.0 161 
 630  0Z IP        3 7 44.47   65                        104   -0.08 9 48.8 334 
 630  0N ES        3 7 50.96                             104   -0.01 9 48.8 334 
 630  0E  IAML     3 7 51.40         6.5 0.12                          48.8 334 
 629  0Z IP        3 7 46.88   48                        100    0.04 8 63.3 296 
 629  0N ES        3 7 55.19                             100    0.18 8 63.3 296 
 629  0E  IAML     3 7 56.96         2.5 0.13                          63.3 296 
 631  0Z IP        3 7 47.53   58                        100   -0.07 8 68.1 243 
 631  0N ES        3 7 56.26                             100   -0.08 8 68.1 243 
 631  0N  IAML     3 7 56.72         6.8 0.14                          68.1 243 
 627  0Z IP        3 7 50.25   43                         98    0.16 8 83.6 306 
 627  0N ES        3 8  1.00                              98    0.29 8 83.6 306 
 627  0E  IAML     3 8  1.36         3.5 0.22                          83.6 306 
 628  0Z IP        3 7 52.64   55                         96   -0.26 7  101 323 
 628  0N ES        3 8  5.23                              96   -0.43 7  101 323 
 628  0E  IAML     3 8  7.84         6.4 0.21                           101 323 
 626  0Z IP        3 7 53.31   55                         96   -0.07 7  104 284 
 626  0N ES        3 8  6.21                              96   -0.30 7  104 284 
 626  0E  IAML     3 8  9.71         7.5 0.24                           104 284 
 624  0Z IP        3 7 57.38   55                         95    0.26 6  128 315 
 624  0N ES        3 8 13.29                              95    0.20 6  128 315 
 624  0N  IAML     3 8 15.76         6.6 0.19                           128 315 
 623  0Z IP        3 7 57.86   54                         95    0.13 6  131 305 
 623  0N ES        3 8 14.04                              95   -0.13 6  131 305 
 623  0E  IAML     3 8 17.30         2.9 0.24                           131 305 
 621  0Z IP        3 8  0.75   54                         58    0.20 5  151 294 
 621  0N ES        3 8 19.13                              58   -0.01 5  151 294 
 621  0E  IAML     3 8 21.93         2.3 0.14                           151 294 
 622  0Z IP        3 8  0.73   57                         58    0.22 5  151 306 
 622  0N ES        3 8 19.09                              58    0.03 5  151 306 
 622  0N  IAML     3 8 21.09         5.1 0.20                           151 306 
                                                                                
 2017  4 5 0307 36.1 L  71.681 128.957 15.3  BER 10 0.2 1.0LBER 2.0CBER        1
 GAP=198        0.41       1.5     5.8  2.4  0.3283E+01  0.5423E+01 -0.1463E+01E
 ACTION:UP  20-12-21 00:33 OP:elen STATUS:               ID:20170405030650     I
 OLDACT:UP  20-12-20 02:02 OP:elen STATUS:               ID:20170405030650     3
 OLDACT:UP  20-12-16 23:26 OP:elen STATUS:               ID:20170405030650     3
 OLDACT:REG 20-12-13 13:16 OP:elen STATUS:               ID:20170405030650     3
 2017-04-05-0306-50M.NSN___039                                                 6
 STAT SP IPHASW D HRMM SECON CODA AMPLIT PERI AZIMU VELO AIN AR TRES W  DIS CAZ7
 632  0Z IP        3 7 39.21   74                        139   -0.1710 12.6 161 
 632  0N ES        3 7 42.08                             139    0.1810 12.6 161 
 632  0N  IAML     3 7 42.69        26.9 0.04                          12.6 161 
 629  0Z IP        3 7 46.83   63                        101   -0.05 8 63.6 297 
 629  0N ES        3 7 55.19                             101    0.10 8 63.6 297 
 629  0E  IAML     3 7 56.96         2.5 0.14                          63.6 297 
 631  0Z IP        3 7 47.53   78                        100   -0.07 8 68.2 243 
 631  0N ES        3 7 56.25                             100   -0.11 8 68.2 243 
 631  0N  IAML     3 7 56.72         6.9 0.15                          68.2 243 
 627  0Z IP        3 7 50.24   59                         98    0.12 8 84.0 306 
 627  0N ES        3 8  1.01                              98    0.21 8 84.0 306 
 627  0E  IAML     3 8  1.36         3.5 0.22                          84.0 306 
 628  0Z IP        3 7 52.64   64                         96   -0.29 7  102 323 
 628  0N ES        3 8  5.21                              96   -0.53 7  102 323 
 628  0E  IAML     3 8  7.84         6.3 0.23                           102 323 
 626  0Z IP        3 7 53.30   55                         96   -0.11 7  105 284 
 626  0N ES        3 8  6.38                              96   -0.20 7  105 284 
 626  0E  IAML     3 8  9.71         7.4 0.23                           105 284 
 624  0Z IP        3 7 57.28   56                         95    0.13 6  128 315 
 624  0N ES        3 8 13.30                              95    0.12 6  128 315 
 624  0N  IAML     3 8 15.76         6.6 0.21                           128 315 
 623  0Z IP        3 7 58.00   61                         95    0.24 6  132 305 
 623  0N ES        3 8 14.60                              95    0.35 6  132 305 
 623  0E  IAML     3 8 17.30         3.0 0.25                           132 305 
 622  0Z IP        3 8  0.73   76                         58    0.23 5  151 306 
 622  0N ES        3 8 19.30                              58    0.24 5  151 306 
 622  0N  IAML     3 8 21.09         5.1 0.19                           151 306 
 621  0Z IP        3 8  0.61   76                         58    0.08 5  152 294 
 621  0N ES        3 8 19.05                              58   -0.08 5  152 294 
 621  0E  IAML     3 8 21.93         2.4 0.14                           152 294 
                                                                                
