 2017  4 8 1004 44.9 L  72.607 124.944 15.0  BER 13 0.3 1.4LBER 2.8CBER        1
 GAP=181        0.52       1.8     4.4  2.6  0.3423E+01 -0.4030E+01  0.1362E+00E
 ACTION:UP  20-12-21 15:15 OP:elen STATUS:               ID:20170408100354     I
 OLDACT:UP  20-12-20 16:45 OP:elen STATUS:               ID:20170408100354     3
 OLDACT:UP  20-12-19 13:04 OP:elen STATUS:               ID:20170408100354     3
 OLDACT:REG 20-12-19 09:34 OP:elen STATUS:               ID:20170408100354     3
 2017-04-08-1003-54M.NSN___039                                                 6
 STAT SP IPHASW D HRMM SECON CODA AMPLIT PERI AZIMU VELO AIN AR TRES W  DIS CAZ7
 620  0Z IP       10 4 49.12   92                        124   -0.0110 20.6 285 
 620  0N ES       10 4 52.40                             124    0.0410 20.6 285 
 620  0E  IAML    10 4 52.80       170.6 0.15                          20.6 285 
 622  0Z IP       10 4 49.31  112                        122   -0.0410 22.2 146 
 622  0N ES       10 4 52.78                             122    0.0310 22.2 146 
 622  0E  IAML    10 4 53.18        75.7 0.20                          22.2 146 
 623  0Z IP       10 4 52.27  100                        107    0.03 9 41.7 138 
 623  0N ES       10 4 58.13                             107    0.30 9 41.7 138 
 623  0N  IAML    10 4 59.15        73.9 0.30                          41.7 138 
 624  0Z IP       10 4 53.13  119                        105    0.08 9 46.9 108 
 624  0N ES       10 4 59.48                             105    0.22 9 46.9 108 
 624  0N  IAML    10 5  1.02        33.6 0.15                          46.9 108 
 621  0Z IP       10 4 52.92   98                        105   -0.18 9 47.2 182 
 621  0N ES       10 4 59.20                             105   -0.15 9 47.2 182 
 621  0E  IAML    10 5  1.72        20.3 0.22                          47.2 182 
 625  0Z IP       10 4 55.33  121                        101   -0.14 9 62.3 140 
 625  0N ES       10 5  3.31                             101   -0.20 9 62.3 140 
 625  0N  IAML    10 5  3.88         8.4 0.32                          62.3 140 
 628  0Z IP       10 4 57.63  111                         98   -0.26 8 77.5 106 
 628  0N ES       10 5  7.38                              98   -0.39 8 77.5 106 
 628  0E  IAML    10 5  8.94        21.7 0.19                          77.5 106 
 627  0Z IP       10 4 59.89  107                         97    0.32 8 88.0 127 
 627  0N ES       10 5 11.08                              97    0.35 8 88.0 127 
 627  0N  IAML    10 5 12.24         8.1 0.25                          88.0 127 
 626  0Z IP       10 4 59.78  122                         97    0.14 8 88.4 155 
 626  0N ES       10 5 10.85                              97    0.00 8 88.4 155 
 626  0E  IAML    10 5 11.00         8.5 0.18                          88.4 155 
 629  0Z IP       10 5  3.42  112                         96    0.24 7  111 132 
 629  0N ES       10 5 17.26                              96    0.18 7  111 132 
 629  0E  IAML    10 5 18.54         6.7 0.20                           111 132 
 630  0Z IP       10 5  5.81  123                         95   -0.33 6  129 116 
 630  0N ES       10 5 21.44                              95   -0.86 6  129 116 
 630  0E  IAML    10 5 25.71        18.5 0.18                           129 116 
 631  0Z IP       10 5 10.17  120                         58    0.13 5  156 148 
 631  0N ES       10 5 28.83                              58   -0.32 5  156 148 
 631  0N  IAML    10 5 30.82        14.2 0.13                           156 148 
 632  0Z IP       10 5 14.26  118                         58    0.63 4  183 127 
 632  0N ES       10 5 35.99                              58    0.52 4  183 127 
 632  0E  IAML    10 5 37.29         8.6 0.16                           183 127 
                                                                                
 2017  4 9 0902 45.6 L  73.350 128.447 15.1  BER  7 0.4 1.1LBER 2.1CBER        1
 GAP=318        0.47       5.1    19.9  3.9 -0.2842E+02 -0.3446E+02  0.2646E+01E
 ACTION:UP  20-12-21 17:39 OP:elen STATUS:               ID:20170409090159     I
 OLDACT:UP  20-12-20 17:21 OP:elen STATUS:               ID:20170409090159     3
 OLDACT:UP  20-12-19 15:40 OP:elen STATUS:               ID:20170409090159     3
 OLDACT:REG 20-12-19 09:55 OP:elen STATUS:               ID:20170409090159     3
 2017-04-09-0901-59M.NSN___039                                                 6
 STAT SP IPHASW D HRMM SECON CODA AMPLIT PERI AZIMU VELO AIN AR TRES W  DIS CAZ7
 628  0Z IP        9 3  4.59   68                         96    0.0910  114 203 
 628  0E ES        9 3 19.12                              96    0.2610  114 203 
 628  0N  IAML     9 3 20.27         3.3 0.27                           114 203 
 624  0Z IP        9 3  5.36   70                         95   -0.1710  121 217 
 624  0N ES        9 3 20.45                              95   -0.2410  121 217 
 624  0N  IAML     9 3 28.95         2.5 0.12                           121 217 
 630  0Z IP        9 3  8.54   80                         58   -0.27 8  142 182 
 630  0E  IAML     9 3 25.63         1.5 0.30                           142 182 
 630  0N ES        9 3 25.87                              58   -0.58 8  142 182 
 629  0Z IP        9 3 11.80   64                         58    0.16 7  163 194 
 629  0N ES        9 3 31.62                              58    0.19 7  163 194 
 629  0E  IAML     9 3 32.87         1.3 0.33                           163 194 
 621  0Z IP        9 3 13.23   65                         58   -0.11 7  175 224 
 621  0N ES        9 3 34.07                              58   -0.35 7  175 224 
 621  0E  IAML     9 3 35.86         2.1 0.11                           175 224 
 626  0Z IP        9 3 14.69   63                         58    0.47 6  182 207 
 626  0N ES        9 3 36.55                              58    0.57 6  182 207 
 626  0N  IAML     9 3 41.07         2.1 0.10                           182 207 
 631  0Z IP        9 3 20.24   78                         51    0.66 4  221 191 
 631  0N ES        9 3 46.11                              51    0.71 4  221 191 
 631  0N  IAML     9 3 47.90        11.1 0.17                           221 191 
                                                                                
 2017  410 1520  8.5 L  71.996 128.364  1.8  BER  9 0.8 1.0LBER 1.8CBER        1
 GAP=160        1.58       5.8    21.0 13.3  0.8749E+02  0.2114E+03  0.6029E+02E
 ACTION:UP  20-12-21 18:30 OP:elen STATUS:               ID:20170410151847     I
 OLDACT:UP  20-12-20 18:17 OP:elen STATUS:               ID:20170410151847     3
 OLDACT:REG 20-12-19 10:26 OP:elen STATUS:               ID:20170410151847     3
 2017-04-10-1518-47M.NSN___039                                                 6
 STAT SP IPHASW D HRMM SECON CODA AMPLIT PERI AZIMU VELO AIN AR TRES W  DIS CAZ7
 630  0Z IP       1520 10.02   48                        101   -0.0710 8.93 351 
 630  0E ES       1520 11.29                             101   -0.0310 8.93 351 
 630  0E  IAML    1520 11.34       509.0 0.06                          8.93 351 
 629  0Z IP       1520 14.70   53                         65   -0.37 9 37.1 259 
 629  0N ES       1520 19.41                              65   -0.69 9 37.1 259 
 629  0E  IAML    1520 20.90         5.0 0.10                          37.1 259 
 627  0Z IP       1520 16.65   55                         65   -0.41 9 49.4 287 
 627  0N ES       1520 22.81                              65   -0.79 9 49.4 287 
 627  0N  IAML    1520 25.10        13.5 0.36                          49.4 287 
 632  0Z IP       1520 17.74   60                         65    0.07 8 53.2 152 
 632  0E ES       1520 24.74                              65    0.07 8 53.2 152 
 632  0E  IAML    1520 26.35         6.8 0.18                          53.2 152 
 628  0Z IP       1520 18.26   59                         65   -0.72 8 61.3 318 
 628  0E ES       1520 25.73                              65   -1.25 8 61.3 318 
 628  0E  IAML    1520 26.94         9.5 0.33                          61.3 318 
 624  0Z IP       1520 23.91   55                         65    0.45 7 89.1 308 
 624  0E ES       1520 35.30                              65    0.44 7 89.1 308 
 624  0E  IAML    1520 37.71         6.3 0.18                          89.1 308 
 623  0Z IP       1520 26.02   49                         65    1.38 7 96.4 294 
 623  0E ES       1520 39.02                              65    2.09 7 96.4 294 
 623  0E  IAML    1520 44.74         2.2 0.12                          96.4 294 
 621  0Z IP       1520 29.23   63                         65    0.60 6  121 282 
 621  0E ES       1520 44.58                              65    0.62 6  121 282 
 621  0E  IAML    1520 48.44         2.7 0.18                           121 282 
 620  0Z IP       1520 34.93   68                         65    0.89 5  155 300 
 620  0N ES       1520 54.44                              65    0.96 5  155 300 
 620  0N  IAML    1520 55.50         7.7 0.26                           155 300 
                                                                                
 2017  410 1520  8.5 L  72.003 128.399  2.7  BER 10 0.8 1.0LBER 1.7CBER        1
 GAP=171        1.63       6.4    22.5 11.3  0.1072E+03  0.1871E+03  0.5552E+02E
 ACTION:UP  20-12-21 18:53 OP:elen STATUS:               ID:20170410151924     I
 OLDACT:UP  20-12-20 18:56 OP:elen STATUS:               ID:20170410151924     3
 OLDACT:REG 20-12-19 10:35 OP:elen STATUS:               ID:20170410151924     3
 2017-04-10-1519-24M.NSN___039                                                 6
 STAT SP IPHASW D HRMM SECON CODA AMPLIT PERI AZIMU VELO AIN AR TRES W  DIS CAZ7
 630  0Z IP       1520 10.03   52                        108   -0.0510 8.38 342 
 630  0N ES       1520 11.30                             108    0.0310 8.38 342 
 630  0E  IAML    1520 11.31       516.4 0.06                          8.38 342 
 629  0Z IP       1520 14.77   49                         65   -0.49 9 38.4 258 
 629  0E ES       1520 19.59                              65   -0.81 9 38.4 258 
 629  0E  IAML    1520 20.90         5.0 0.10                          38.4 258 
 627  0Z IP       1520 16.65   49                         65   -0.54 9 50.3 285 
 627  0N ES       1520 22.96                              65   -0.82 9 50.3 285 
 627  0N  IAML    1520 24.87        18.1 0.40                          50.3 285 
 632  0Z IP       1520 17.73   62                         65    0.06 8 53.4 154 
 632  0E ES       1520 24.82                              65    0.18 8 53.4 154 
 632  0E  IAML    1520 26.35         6.8 0.18                          53.4 154 
 628  0Z IP       1520 18.12   56                         65   -0.87 8 61.5 317 
 628  0E ES       1520 25.55                              65   -1.40 8 61.5 317 
 628  0E  IAML    1520 26.95         9.4 0.33                          61.5 317 
 624  0Z IP       1520 23.54   53                         65    0.04 7 89.5 307 
 624  0N ES       1520 34.95                              65    0.05 7 89.5 307 
 624  0E  IAML    1520 37.71         6.3 0.19                          89.5 307 
 623  0Z IP       1520 26.02   42                         65    1.29 7 97.1 293 
 623  0E ES       1520 39.05                              65    1.98 7 97.1 293 
 623  0E  IAML    1520 44.74         2.2 0.13                          97.1 293 
 622  0Z IP       1520 28.52   51                         65    0.74 6  116 296 
 622  0E ES       1520 43.63                              65    1.21 6  116 296 
 622  0E  IAML    1520 48.20         3.4 0.12                           116 296 
 621  0Z IP       1520 29.42   53                         65    0.65 6  122 281 
 621  0N ES       1520 45.12                              65    0.95 6  122 281 
 621  0E  IAML    1520 48.44         2.6 0.17                           122 281 
 620  0Z IP       1520 34.85   48                         65    0.74 5  155 300 
 620  0E ES       1520 54.54                              65    0.96 5  155 300 
 620  0N  IAML    1520 55.50         7.7 0.27                           155 300 
                                                                                
 2017  410 1813  3.6 L  70.936 129.127  3.7  BER 13 0.5 2.2LBER 2.9CBER        1
 GAP=310        0.48       4.1    10.6  6.5 -0.1766E+02  0.3524E+02 -0.1657E+02E
 ACTION:UP  20-12-20 20:12 OP:elen STATUS:               ID:20170410181211     I
 OLDACT:UP  20-12-20 19:32 OP:elen STATUS:               ID:20170410181211     3
 OLDACT:REG 20-12-19 10:48 OP:elen STATUS:               ID:20170410181211     3
 2017-04-10-1812-11M.NSN___039                                                 6
 STAT SP IPHASW D HRMM SECON CODA AMPLIT PERI AZIMU VELO AIN AR TRES W  DIS CAZ7
 632  0Z IP       1813 15.43  117                         65   -0.1410 71.2 358 
 632  0E ES       1813 24.79                              65    0.1210 71.2 358 
 632  0E  IAML    1813 26.61        71.8 0.19                          71.2 358 
 631  0Z IP       1813 17.82  126                         65   -0.00 9 85.2 308 
 631  0E ES       1813 28.77                              65    0.13 9 85.2 308 
 631  0E  IAML    1813 28.93       141.4 0.21                          85.2 308 
 629  0Z IP       1813 24.92  120                         65    0.16 8  128 331 
 629  0N ES       1813 41.16                              65    0.32 8  128 331 
 629  0N  IAML    1813 43.23        16.7 0.33                           128 331 
 630  0Z IP       1813 25.13  115                         65    0.04 7  130 348 
 630  0N ES       1813 41.49                              65    0.07 7  130 348 
 630  0E  IAML    1813 43.87        55.4 0.16                           130 348 
 627  0Z IP       1813 28.53  120                         65   -0.08 6  152 331 
 627  0E ES       1813 47.31                              65   -0.30 6  152 331 
 627  0N  IAML    1813 49.40        23.6 0.18                           152 331 
 626  0Z IP       1813 28.54  117                         65   -0.20 6  153 315 
 626  0E ES       1813 47.42                              65   -0.43 6  153 315 
 626  0E  IAML    1813 48.77        29.1 0.26                           153 315 
 625  0Z IP       1813 31.93  114                         50   -0.29 5  175 324 
 625  0N ES       1813 53.18                              50   -0.80 5  175 324 
 625  0N  IAML    1813 54.17        20.0 0.18                           175 324 
 628  0Z IP       1813 32.36  124                         50   -0.28 5  178 338 
 628  0N ES       1813 53.94                              50   -0.77 5  178 338 
 628  0E  IAML    1813 55.54        37.9 0.32                           178 338 
 623  0Z IP       1813 35.21  112                         50    0.16 5  195 324 
 623  0N ES       1813 59.16                              50    0.21 5  195 324 
 623  0E  IAML    1813 59.89        16.5 0.29                           195 324 
 624  0Z IP       1813 35.77   99                         50    0.23 4  199 331 
 624  0N ES       1814  0.04                              50    0.21 4  199 331 
 624  0N  IAML    1814  1.66        43.7 0.16                           199 331 
 621  0Z IP       1813 36.57  116                         50    0.26 4  204 315 
 621  0N ES       1814  1.32                              50    0.14 4  204 315 
 621  0E  IAML    1814  2.04        26.4 0.45                           204 315 
 622  0Z IP       1813 38.40  125                         50    0.67 4  215 323 
 622  0N ES       1814  4.56                              50    0.88 4  215 323 
 622  0N  IAML    1814  5.18        77.5 0.27                           215 323 
 620  0Z IP       1813 44.51  113                         44    1.68 2  254 321 
 620  0N ES       1814 15.05                              44    2.40 2  254 321 
 620  0E  IAML    1814 16.19        14.1 0.21                           254 321 
                                                                                
 2017  413 0651 20.1 L  73.368 125.425 15.6  BER 10 0.5 1.0LBER 1.8CBER        1
 GAP=307        0.69       4.8    15.6  3.8  0.3508E+01 -0.9040E+01 -0.2650E+01E
 ACTION:UP  20-12-23 22:37 OP:elen STATUS:               ID:20170413065005     I
 OLDACT:REG 20-12-21 22:59 OP:elen STATUS:               ID:20170413065005     3
 2017-04-13-0650-05M.NSN___039                                                 6
 STAT SP IPHASW D HRMM SECON CODA AMPLIT PERI AZIMU VELO AIN AR TRES W  DIS CAZ7
 620  0Z IP        651 34.70   52                         98    0.0910 87.1 204 
 620  0E ES        651 45.87                              98    0.2110 87.1 204 
 620  0E  IAML     651 46.51         6.3 0.25                          87.1 204 
 622  0Z IP        651 37.23   42                         96    0.01 9  103 182 
 622  0E ES        651 50.28                              96    0.02 9  103 182 
 622  0N  IAML     651 52.76         4.2 0.17                           103 182 
 624  0Z IP        651 37.69   49                         96    0.48 9  103 164 
 624  0N ES        651 51.14                              96    0.89 9  103 164 
 624  0N  IAML     651 52.30         4.8 0.23                           103 164 
 623  0Z IP        651 39.25   51                         96   -0.12 9  117 174 
 623  0N ES        651 53.73                              96   -0.31 9  117 174 
 623  0N  IAML     651 55.09         3.0 0.37                           117 174 
 628  0Z IP        651 39.90   63                         95   -0.29 8  122 152 
 628  0E ES        651 54.93                              95   -0.56 8  122 152 
 628  0E  IAML     651 58.53         2.5 0.19                           122 152 
 621  0Z IP        651 41.64   56                         58   -0.35 8  133 188 
 621  0N ES        651 57.94                              58   -0.71 8  133 188 
 621  0N  IAML     651 59.83         3.0 0.23                           133 188 
 625  0Z IP        651 42.15   53                         58   -0.09 8  135 170 
 625  0N ES        651 58.87                              58   -0.22 8  135 170 
 625  0E  IAML     652  6.31         1.8 0.51                           135 170 
 627  0Z IP        651 44.19   46                         58    0.08 7  149 159 
 627  0N ES        652  2.41                              58    0.02 7  149 159 
 627  0E  IAML     652  3.56         2.0 0.42                           149 159 
 626  0Z IP        651 46.43   58                         58   -0.09 6  166 173 
 626  0E ES        652  6.26                              58   -0.37 6  166 173 
 626  0E  IAML     652  7.06         3.3 0.24                           166 173 
 631  0Z IP        651 56.21   80                         51    1.39 3  228 163 
 631  0N ES        652 23.16                              51    1.92 3  228 163 
 631  0E  IAML     652 31.16         2.2 0.26                           228 163 
                                                                                
