 2016  819 0959 27.3 L  71.923 129.765 12.1  BER 13 0.4 4.0LBER                1
 GAP=270        0.60       2.2    11.1  5.5  0.1093E+02 -0.9963E+01 -0.3864E+01E
 ACTION:REG 25-04-10 18:57 OP:mn   STATUS:               ID:20160819095900     I
 2016_08_19T09-59-00.mseed                                                     6
 STAT SP IPHASW D HRMM SECON CODA AMPLIT PERI AZIMU VELO AIN AR TRES W  DIS CAZ7
 632  0E IP        959 35.00                             101   -0.2010 45.9 212 
 632  0N ES        959 40.95                             101   -0.2510 45.9 212 
 632  0Z  IAML     959 42.18      3428.0 0.50                          45.9 212 
 630  0Z IP        959 35.80                              99   -0.4510 52.5 289 
 630  0N ES        959 42.95                              99   -0.0910 52.5 289 
 630  0Z  IAML     959 46.27      6335.7 0.50                          52.5 289 
 629  0Z IP        959 41.61                              95    0.17 8 84.9 272 
 629  0N ES        959 52.54                              95    0.36 8 84.9 272 
 629  0Z  IAML     959 54.21      5389.1 0.68                          84.9 272 
 627  0Z IP        959 43.92                              95    0.33 8 98.3 284 
 627  0N ES        959 56.12                              95    0.15 8 98.3 284 
 627  0Z  IAML     959 57.55      6763.1 0.60                          98.3 284 
 628  0Z IP        959 44.91                              94    0.39 8  104 302 
 628  0N ES        959 57.57                              94   -0.04 8  104 302 
 628  0Z  IAML     959 57.77     13247.3 0.30                           104 302 
 631  0Z IP        959 45.27                              94    0.44 8  106 238 
 631  0N ES        959 58.28                              94    0.13 8  106 238 
 631  0Z  IAML    10 0  1.30      2476.7 0.62                           106 238 
 625  0Z IP        959 48.89                              93    0.37 7  129 284 
 625  0N ES       10 0  4.75                              93    0.11 7  129 284 
 626  0Z IP        959 48.58                              93   -0.00 7  129 270 
 626  0N ES       10 0  4.52                              93   -0.24 7  129 270 
 626  0Z  IAML    10 0 10.31      1874.4 0.66                           129 270 
 624  0Z IP        959 49.30                              93   -0.05 7  134 299 
 624  0N ES       10 0  5.26                              93   -0.85 7  134 299 
 624  0Z  IAML    10 0  8.14      5848.4 0.52                           134 299 
 623  0Z IP        959 51.25                              93    0.24 6  144 290 
 623  0N ES       10 0  9.06                              93    0.04 6  144 290 
 623  0Z  IAML    10 0 14.10      3316.0 0.94                           144 290 
 622  0Z  IAML    10 0 18.96      1930.7 0.68                           163 293 
 621  0Z IP        959 55.04                              58    0.45 5  170 282 
 621  0N ES       10 0 15.56                              58    0.24 5  170 282 
 621  0Z  IAML    10 0 16.65      3575.6 0.48                           170 282 
 620  0Z IP        959 58.46                              58   -0.37 4  201 296 
 620  0N ES       10 0 21.35                              58   -1.45 4  201 296 
 620  0Z  IAML    10 0 30.78      4656.0 8.67                           201 296 
                                                                                
 2016  820 1506 15.7 L  71.938 129.795 11.0  BER  9 0.4 1.5LBER 1.6CBER        1
 GAP=274        0.63       2.9    14.3  5.5  0.2417E+02 -0.1514E+02 -0.5696E+01E
 ACTION:ARG 20-05-11 21:31 OP:mn   STATUS:               ID:20160820150518     I
 2016-08-20-1505-18M.arct__039                                                 6
 STAT SP IPHASW D HRMM SECON CODA AMPLIT PERI AZIMU VELO AIN AR TRES W  DIS CAZ7
 632  0Z IP     C 15 6 23.53   49                         99   -0.3110 47.8 212 
 632  0N ES       15 6 30.12                              99    0.0710 47.8 212 
 632  0Z  IAML    15 6 31.02        32.4 0.08                          47.8 212 
 630  0Z IP     C 15 6 24.19   55                         98   -0.4610 52.9 287 
 630  0N ES       15 6 31.47                              98   -0.0110 52.9 287 
 630  0Z  IAML    15 6 34.99        14.1 0.08                          52.9 287 
 627  0Z IP     D 15 6 32.55   41                         94    0.52 8 98.9 283 
 627  0N ES       15 6 44.86                              94    0.39 8 98.9 283 
 627  0Z  IAML    15 6 45.43        10.4 0.14                          98.9 283 
 625  0Z  IAML    15 6 53.90         9.9 0.22                           130 283 
 626  0Z IP     D 15 6 37.20   50                         93    0.10 7  130 269 
 626  0N ES       15 6 53.15                              93   -0.24 7  130 269 
 626  0Z  IAML    15 6 56.02        10.3 0.26                           130 269 
 625  0Z IP     D 15 6 37.63   46                         93    0.67 7  130 283 
 625  0N ES       15 6 53.28                              93    0.13 7  130 283 
 624  0Z IP     C 15 6 37.56   41                         93   -0.16 7  134 298 
 624  0N ES       15 6 53.82                              93   -0.66 7  134 298 
 624  0Z  IAML    15 6 57.73        12.9 0.17                           134 298 
 623  0Z IP     D 15 6 39.94   52                         93    0.52 6  145 289 
 623  0N ES       15 6 57.35                              93   -0.13 6  145 289 
 623  0Z  IAML    15 7  1.67         8.8 0.62                           145 289 
 622  0Z IP     C 15 6 42.27   56                         58    0.22 5  163 292 
 622  0E ES       15 7  1.51                              58   -0.60 5  163 292 
 622  0Z  IAML    15 7  4.89         5.2 0.19                           163 292 
 621  0Z IP     C 15 6 43.48   47                         58    0.35 5  171 282 
 621  0N ES       15 7  4.13                              58    0.13 5  171 282 
 621  0Z  IAML    15 7  5.78         9.4 0.32                           171 282 
                                                                                
 2016  822 1318 49.5 L  72.365 127.084 16.5  BER  8 0.1 0.6LBER 1.4CBER        1
 GAP= 98        0.34       1.0     2.7  1.8  0.1007E+01  0.1707E+01  0.7603E+00E
 ACTION:UP  21-01-08 22:12 OP:elen STATUS:               ID:20160822131743     I
 OLDACT:REG 21-01-08 15:24 OP:elen STATUS:               ID:20160822131743     3
 2016-08-22-1317-43M.arct__039                                                 6
 STAT SP IPHASW D HRMM SECON CODA AMPLIT PERI AZIMU VELO AIN AR TRES W  DIS CAZ7
 628  0Z IP       1318 52.33   40                        164    0.0210 4.47  28 
 628  0N ES       1318 54.47                             164    0.0110 4.47  28 
 628  0N  IAML    1318 54.58        79.2 0.14                          4.47  28 
 627  0Z IP       1318 54.86   31                        118    0.02 9 27.9 187 
 627  0E ES       1318 58.85                             118   -0.08 9 27.9 187 
 627  0E  IAML    1318 59.21        13.9 0.14                          27.9 187 
 624  0Z IP       1318 55.20   43                        116    0.06 9 30.0 295 
 624  0N ES       1318 59.45                             116   -0.01 9 30.0 295 
 624  0N  IAML    1319  0.17         9.4 0.19                          30.0 295 
 625  0Z IP       1318 56.77   43                        110    0.22 9 39.4 238 
 625  0N ES       1319  2.17                             110    0.24 9 39.4 238 
 625  0E  IAML    1319  5.64         3.4 0.36                          39.4 238 
 623  0Z IP       1318 57.42   36                        107    0.02 9 45.0 265 
 623  0E ES       1319  3.30                             107   -0.14 9 45.0 265 
 623  0E  IAML    1319  3.64         2.5 0.18                          45.0 265 
 630  0Z IP       1318 58.72   48                        105    0.04 8 53.3 127 
 630  0E ES       1319  5.54                             105   -0.14 8 53.3 127 
 630  0E  IAML    1319  6.59         4.5 0.17                          53.3 127 
 622  0Z IP       1318 59.79   39                        103   -0.01 8 60.4 279 
 622  0N ES       1319  7.38                             103   -0.27 8 60.4 279 
 622  0N  IAML    1319  8.26         2.5 0.11                          60.4 279 
 626  0Z IP       1319  0.46   48                        102    0.07 8 64.2 215 
 626  0N ES       1319  8.56                             102   -0.14 8 64.2 215 
 626  0N  IAML    1319 10.91         1.7 0.06                          64.2 215 
                                                                                
 2016  824 1510 30.4 L  71.610 130.057  9.7  BER  9 0.3 1.5LBER 1.7CBER        1
 GAP=305        0.44       3.1    10.4  3.6 -0.2843E+01 -0.8355E+01 -0.5869E+01E
 ACTION:UP  21-01-08 17:48 OP:elen STATUS:               ID:20160824150925     I
 OLDACT:REG 21-01-08 15:28 OP:elen STATUS:               ID:20160824150925     3
 2016-08-24-1509-25M.arct__039                                                 6
 STAT SP IPHASW D HRMM SECON CODA AMPLIT PERI AZIMU VELO AIN AR TRES W  DIS CAZ7
 632  0Z IP       1510 36.22   32                        101   -0.2510 34.9 264 
 632  0N ES       1510 40.99                             101   -0.1110 34.9 264 
 632  0E  IAML    1510 41.82        57.3 0.16                          34.9 264 
 631  0Z IP       1510 47.36   47                         93    0.09 7  102 258 
 631  0N ES       1511  0.30                              93    0.18 7  102 258 
 631  0N  IAML    1511  4.84        17.3 0.27                           102 258 
 628  0Z IP       1510 52.42   50                         92    0.10 6  134 313 
 628  0E ES       1511  9.04                              92    0.04 6  134 313 
 628  0N  IAML    1511  9.68        11.8 0.34                           134 313 
 626  0Z IP       1510 54.14   56                         92    0.14 6  144 284 
 626  0N ES       1511 11.96                              92    0.01 6  144 284 
 626  0N  IAML    1511 16.05         4.8 0.22                           144 284 
 625  0Z IP       1510 55.33   54                         92    0.23 6  151 297 
 625  0N ES       1511 14.04                              92    0.15 6  151 297 
 625  0N  IAML    1511 16.35         7.3 0.37                           151 297 
 624  0Z IP       1510 56.49   54                         58   -0.26 5  162 308 
 624  0N ES       1511 16.04                              58   -0.76 5  162 308 
 624  0N  IAML    1511 18.49        10.4 0.23                           162 308 
 623  0Z IP       1510 57.94   60                         58    0.30 5  169 300 
 623  0E ES       1511 18.61                              58    0.25 5  169 300 
 623  0N  IAML    1511 23.33         3.6 0.31                           169 300 
 622  0Z IP       1511  0.26   58                         58   -0.03 4  188 302 
 622  0N ES       1511 22.56                              58   -0.46 4  188 302 
 622  0N  IAML    1511 25.19         6.4 0.26                           188 302 
 621  0Z IP       1511  1.22   61                         58    0.60 4  190 292 
 621  0N ES       1511 24.23                              58    0.63 4  190 292 
 621  0E  IAML    1511 25.52         2.6 0.22                           190 292 
                                                                                
 2016  824 1510 30.4 L  71.607 130.049  8.6  BER  9 0.3 1.5LBER 1.7CBER        1
 GAP=305        0.43       3.0    10.2  3.7 -0.3366E+01 -0.7720E+01 -0.5701E+01E
 ACTION:UP  21-01-08 21:12 OP:elen STATUS:               ID:20160824150955     I
 OLDACT:REG 21-01-08 15:28 OP:elen STATUS:               ID:20160824150955     3
 2016-08-24-1509-55M.arct__039                                                 6
 STAT SP IPHASW D HRMM SECON CODA AMPLIT PERI AZIMU VELO AIN AR TRES W  DIS CAZ7
 632  0Z IP       1510 36.19   44                         98   -0.2610 34.6 264 
 632  0N ES       1510 40.97                              98   -0.0510 34.6 264 
 632  0E  IAML    1510 41.82        55.3 0.16                          34.6 264 
 631  0Z IP       1510 47.35   52                         92    0.08 7  102 258 
 631  0N ES       1511  0.22                              92    0.15 7  102 258 
 631  0N  IAML    1511  4.84        17.2 0.26                           102 258 
 628  0Z IP       1510 52.52   50                         92    0.13 6  134 313 
 628  0N ES       1511  9.14                              92    0.07 6  134 313 
 628  0N  IAML    1511  9.68        12.3 0.35                           134 313 
 626  0Z IP       1510 54.14   50                         92    0.12 6  144 285 
 626  0N ES       1511 11.92                              92   -0.03 6  144 285 
 626  0N  IAML    1511 16.04         4.8 0.21                           144 285 
 625  0Z IP       1510 55.30   54                         91    0.16 6  151 297 
 625  0N ES       1511 13.96                              91    0.04 6  151 297 
 625  0N  IAML    1511 16.35         7.2 0.37                           151 297 
 624  0Z IP       1510 56.55   50                         58   -0.36 5  162 309 
 624  0N ES       1511 16.10                              58   -0.93 5  162 309 
 624  0N  IAML    1511 18.49        10.4 0.22                           162 309 
 623  0Z IP       1510 58.07   59                         58    0.28 5  169 300 
 623  0N ES       1511 18.75                              58    0.17 5  169 300 
 623  0N  IAML    1511 23.33         3.5 0.31                           169 300 
 622  0Z IP       1511  0.82   57                         58    0.38 4  188 302 
 622  0N ES       1511 23.48                              58    0.23 4  188 302 
 622  0N  IAML    1511 25.19         6.3 0.27                           188 302 
 621  0Z IP       1511  1.22   61                         58    0.46 4  190 292 
 621  0N ES       1511 24.18                              58    0.37 4  190 292 
 621  0E  IAML    1511 25.52         2.5 0.22                           190 292 
                                                                                
 2016  920 1607 18.3 L  69.237 128.350 16.2  BER  4 0.7 2.6LBER 2.4CBER        1
 GAP=345        1.10     872.7   276.8999.9 -0.1092E+06  0.1347E+06 -0.9286E+06E
 ACTION:UP  20-04-15 05:22 OP:alex STATUS:               ID:20160920160640     I
 OLDACT:UP  20-04-05 22:34 OP:alex STATUS:               ID:20160920160640     3
 OLDACT:ARG 20-04-05 21:50 OP:alex STATUS:               ID:20160920160640     3
 2016-09-20-1606-40M.SIOLA_039                                                 6
 STAT SP IPHASW D HRMM SECON CODA AMPLIT PERI AZIMU VELO AIN AR TRES W  DIS CAZ7
 631  0Z EP     C 16 7 56.34   80                         51    1.2810  245 351 
 631  0Z E        16 7 56.42                  195.4  8.5     26         245 351 
 631  0E ES       16 8 23.34                              51    0.3310  245 351 
 631  0E  IAML    16 8 25.86        64.4 0.23                           245 351 
 631  0Z  IAML    16 8 26.84        39.4 0.59                           245 351 
 631  0N  IAML    16 8 31.22        27.8 0.80                           245 351 
 632  0Z EP     C 16 7 56.71   78                         51   -0.52 7  262   6 
 632  0Z E        16 7 56.76                  184.1  5.6     -1         262   6 
 632  0E ES       16 8 23.88                              51   -2.95 7  262   6 
 632  0Z  IAML    16 8 28.97        44.1 0.78                           262   6 
 629  0Z EP     C 16 8  6.29   80                         51    3.97 0  303 353 
 629  0Z E        16 8  6.31                  187.2  5.9     15         303 353 
 629  0E ES       16 8 37.98                              51    2.20 0  303 353 
 629  0E  IAML    16 8 39.18        32.8 0.50                           303 353 
 629  0Z  IAML    16 8 39.38        17.7 0.63                           303 353 
 629  0N  IAML    16 8 43.77        13.5 0.78                           303 353 
 625  0Z EP     C 16 8 13.64   88                         51    6.93 0  338 347 
 625  0Z E        16 8 13.65                  163.5  5.7      0         338 347 
 625  0E ES       16 8 48.87                              51    5.36 0  338 347 
 625  0Z  IAML    16 8 54.77        24.0 0.35                           338 347 
 625  0E  IAML    16 8 58.26        22.6 0.44                           338 347 
 625  0N  IAML    16 9  3.65        26.2 0.52                           338 347 
                                                                                
 2016 10 5 1619 46.9 L  72.877 125.015 19.0  BER  9 0.2 1.0LBER 0.4CBER        1
 GAP=264        0.50       3.0     5.9  3.0  0.3465E+01 -0.9131E+01 -0.3363E+01E
 ACTION:ARG 20-04-11 14:12 OP:mn   STATUS:               ID:20161005161823     I
 2016-10-05-1618-23M.SIOLA_039                                                 6
 STAT SP IPHASW D HRMM SECON CODA AMPLIT PERI AZIMU VELO AIN AR TRES W  DIS CAZ7
 620  0Z IP     C 1619 53.22   14                        118   -0.0110 33.3 222 
 620  0E ES       1619 57.77                             118   -0.2810 33.3 222 
 620  0Z  IAML    1619 58.27        10.0 0.26                          33.3 222 
 622  0Z IP     C 1619 55.67   24                        109    0.03 9 49.5 168 
 622  0N ES       1620  2.15                             109   -0.15 9 49.5 168 
 622  0Z  IAML    1620  2.41        12.4 0.26                          49.5 168 
 624  0Z IP     C 1619 57.78   12                        105    0.32 9 61.3 136 
 624  0E ES       1620  5.66                             105    0.17 9 61.3 136 
 624  0Z  IAML    1620  6.07        13.9 0.20                          61.3 136 
 623  0Z IP     D 1619 58.49   14                        104    0.25 9 66.3 158 
 623  0E ES       1620  7.08                             104    0.20 9 66.3 158 
 623  0Z  IAML    1620  8.02         7.1 0.21                          66.3 158 
 621  0Z IP     D 1620  0.03   18                        102    0.04 8 77.4 183 
 621  0N ES       1620 10.27                             102    0.31 8 77.4 183 
 621  0Z  IAML    1620 10.74         9.1 0.26                          77.4 183 
 628  0Z IP     D 1620  1.57   24                        100   -0.21 8 88.7 126 
 628  0E ES       1620 12.86                             100   -0.25 8 88.7 126 
 628  0Z  IAML    1620 13.38         4.9 0.14                          88.7 126 
 627  0Z IP     D 1620  4.99   37                         98    0.22 7  107 141 
 627  0E ES       1620 17.78                              98   -0.58 7  107 141 
 627  0Z  IAML    1620 18.01         3.3 0.70                           107 141 
 629  0Z IP     D 1620  8.38   25                         58    0.15 6  131 143 
 629  0E ES       1620 24.46                              58    0.01 6  131 143 
 629  0Z  IAML    1620 25.99         5.6 0.17                           131 143 
 630  0Z IP     D 1620  9.67   29                         58   -0.15 6  143 127 
 630  0E ES       1620 26.89                              58   -0.36 6  143 127 
 630  0Z  IAML    1620 27.89         4.1 0.22                           143 127 
                                                                                
