 2017  418 1005 56.8 D  69.331 122.413 97.0  BER 11 0.3 2.2LBER 2.7CBER        1
 GAP=328        1.87      18.1    55.6115.7  0.4468E+03  0.4460E+04  0.1767E+04E
 ACTION:UP  20-12-28 17:48 OP:elen STATUS:               ID:20170418100521     I
 OLDACT:REG 20-12-27 21:00 OP:elen STATUS:               ID:20170418100521     3
 2017-04-18-1005-21M.NSN___039                                                 6
 STAT SP IPHASW D HRMM SECON CODA AMPLIT PERI AZIMU VELO AIN AR TRES W  DIS CAZ7
 631  0Z IP       10 6 37.46  109                        106   -0.1710  293  36 
 631  0N ES       10 7  9.65                             106    0.0910  293  36 
 631  0N  IAML    10 7 14.33         8.4 0.32                           293  36 
 626  0Z IP       10 6 40.52  102                        105    0.2610  315  24 
 626  0N ES       10 7 14.96                             105    0.69 9  315  24 
 626  0N  IAML    10 7 28.22         6.0 0.24                           315  24 
 621  0Z IP       10 6 41.82   98                        105   -0.3510  331  15 
 621  0E ES       10 7 17.16                             104   -0.5310  331  15 
 621  0E  IAML    10 7 29.85         5.7 0.22                           331  15 
 625  0Z IP       10 6 44.02  106                        104    0.1710  345  21 
 625  0N ES       10 7 20.96                             104    0.2610  345  21 
 625  0E  IAML    10 7 32.95         6.4 0.25                           345  21 
 627  0Z IP       10 6 45.17  107                        104    0.3210  353  26 
 632  0Z IP       10 6 44.30  113                        104   -0.4610  353  42 
 632  0N ES       10 7 21.44                             104   -0.90 9  353  42 
 632  0N  IAML    10 7 37.09         6.6 0.33                           353  42 
 627  0E ES       10 7 22.96                             104    0.4510  353  26 
 627  0E  IAML    10 7 35.33         7.6 0.34                           353  26 
 623  0Z IP       10 6 45.14  101                        104   -0.0210  356  19 
 623  0N ES       10 7 22.94                             104   -0.1210  356  19 
 623  0E  IAML    10 7 35.79         5.2 0.25                           356  19 
 622  0Z IP       10 6 45.93  103                        104   -0.0810  363  16 
 622  0E ES       10 7 24.28                             103   -0.3010  363  16 
 622  0E  IAML    10 7 39.70         8.7 0.29                           363  16 
 630  0Z IP       10 6 47.82  112                        103    0.2710  376  33 
 630  0N ES       10 7 27.53                             103    0.1910  376  33 
 630  0N  IAML    10 7 43.38         3.4 0.34                           376  33 
 620  0Z IP       10 6 47.75   98                        103   -0.0110  377  10 
 620  0N ES       10 7 27.40                             103   -0.3310  377  10 
 620  0N  IAML    10 7 44.72         5.9 0.21                           377  10 
 624  0Z IP       10 6 48.10  101                        103    0.2510  378  20 
 624  0N ES       10 7 28.01                             103    0.1310  378  20 
 624  0N  IAML    10 7 42.20         5.6 0.23                           378  20 
                                                                                
 2017  418 1500 12.9 L  72.734 124.513 23.1  BER 12 0.3 1.3LBER 2.0CBER        1
 GAP=260        0.55       2.9     7.6  1.6  0.5969E+01 -0.6977E+01 -0.6863E+00E
 ACTION:UP  20-12-29 20:35 OP:elen STATUS:               ID:20170418150000     I
 OLDACT:REG 20-12-27 21:06 OP:elen STATUS:               ID:20170418150000     3
 2017-04-18-1500-00M.NSN___039                                                 6
 STAT SP IPHASW D HRMM SECON CODA AMPLIT PERI AZIMU VELO AIN AR TRES W  DIS CAZ7
 620  0Z IP       15 0 17.01   45                        155   -0.0910 10.5 212 
 620  0N ES       15 0 20.21                             155   -0.0710 10.5 212 
 620  0E  IAML    15 0 20.40        46.0 0.06                          10.5 212 
 622  0Z IP       15 0 20.82   62                        117   -0.01 9 42.2 140 
 622  0E ES       15 0 26.88                             117    0.04 9 42.2 140 
 622  0E  IAML    15 0 27.41        11.0 0.25                          42.2 140 
 623  0Z IP       15 0 23.95   64                        109    0.19 8 61.8 137 
 623  0N ES       15 0 32.25                             109    0.25 8 61.8 137 
 623  0N  IAML    15 0 32.59        15.2 0.23                          61.8 137 
 621  0Z IP       15 0 23.90   61                        108    0.01 8 62.7 168 
 621  0N ES       15 0 32.11                             108   -0.12 8 62.7 168 
 621  0N  IAML    15 0 32.91         5.1 0.16                          62.7 168 
 624  0Z IP       15 0 24.31   72                        108   -0.01 8 65.5 115 
 624  0N ES       15 0 32.87                             108   -0.12 8 65.5 115 
 624  0E  IAML    15 0 33.70        15.7 0.13                          65.5 115 
 625  0Z IP       15 0 27.09   68                        104    0.15 8 82.4 139 
 625  0E ES       15 0 37.66                             104    0.05 8 82.4 139 
 625  0E  IAML    15 0 42.86         5.3 0.15                          82.4 139 
 628  0Z IP       15 0 28.73   62                         68   -0.30 7 95.7 112 
 628  0N ES       15 0 40.56                              68   -0.71 7 95.7 112 
 628  0N  IAML    15 0 42.58         9.3 0.32                          95.7 112 
 627  0N ES       15 0 44.21                              58   -0.09 7  108 128 
 627  0E  IAML    15 0 46.27         8.7 0.18                           108 128 
 626  0Z IP       15 0 30.64   66                         58   -0.05 7  108 151 
 626  0E  IAML    15 0 46.76        15.3 0.29                           108 151 
 627  0Z IP       15 0 30.88   70                         58    0.13 7  108 128 
 626  0N ES       15 0 43.79                              58   -0.41 7  108 151 
 629  0Z IP       15 0 34.49   63                         58    0.64 6  131 132 
 629  0N ES       15 0 50.51                              58    0.75 6  131 132 
 629  0E  IAML    15 0 51.67        10.5 0.26                           131 132 
 630  0Z IP       15 0 36.66   69                         58    0.41 5  148 118 
 630  0E ES       15 0 54.25                              58    0.27 5  148 118 
 630  0E  IAML    15 0 55.69        10.5 0.13                           148 118 
 631  0Z IP       15 0 40.10   68                         58    0.02 4  176 146 
 631  0N ES       15 1  0.17                              58   -0.55 4  176 146 
 631  0E  IAML    15 1  2.92         5.5 0.22                           176 146 
                                                                                
 2017  420 1302 36.2 L  72.629 129.025 21.8  BER 11 0.3 0.9LBER 1.7CBER        1
 GAP=299        0.52       2.8     9.4  2.1  0.7280E+01  0.7164E-01 -0.1861E+01E
 ACTION:UP  20-12-30 20:06 OP:elen STATUS:               ID:20170420130148     I
 OLDACT:REG 20-12-27 21:23 OP:elen STATUS:               ID:20170420130148     3
 2017-04-20-1301-48M.NSN___039                                                 6
 STAT SP IPHASW D HRMM SECON CODA AMPLIT PERI AZIMU VELO AIN AR TRES W  DIS CAZ7
 630  0Z IP       13 2 47.72   48                        106    0.0810 66.2 201 
 630  0E ES       13 2 56.70                             106    0.3510 66.2 201 
 630  0E  IAML    13 2 57.62         4.2 0.12                          66.2 201 
 628  0Z IP       13 2 48.04   43                        106    0.1310 68.0 249 
 628  0N ES       13 2 57.25                             106    0.4210 68.0 249 
 628  0N  IAML    13 2 59.12         8.4 0.12                          68.0 249 
 627  0Z IP       13 2 51.30   41                        102   -0.01 9 89.7 231 
 627  0N ES       13 3  2.84                             102    0.04 9 89.7 231 
 627  0N  IAML    13 3  3.72         3.6 0.20                          89.7 231 
 624  0Z IP       13 2 51.72   56                        101   -0.21 9 93.6 261 
 624  0N ES       13 3  3.60                             101   -0.31 9 93.6 261 
 624  0E  IAML    13 3  6.29        11.1 0.17                          93.6 261 
 629  0Z IP       13 2 52.13   45                        101   -0.40 9 97.4 217 
 629  0N ES       13 3  4.30                             101   -0.66 9 97.4 217 
 629  0N  IAML    13 3  7.12         1.6 0.12                          97.4 217 
 625  0Z IP       13 2 54.58   56                         58    0.07 8  111 244 
 625  0N ES       13 3  8.54                              58    0.10 8  111 244 
 625  0N  IAML    13 3 12.64         2.7 0.28                           111 244 
 623  0Z IP       13 2 54.92   53                         58   -0.14 8  115 254 
 623  0N ES       13 3  9.14                              58   -0.26 8  115 254 
 623  0N  IAML    13 3 13.97         1.9 0.31                           115 254 
 622  0Z IP       13 2 56.57   62                         58   -0.03 7  126 262 
 622  0E ES       13 3 11.98                              58   -0.14 7  126 262 
 622  0N  IAML    13 3 16.58         2.0 0.17                           126 262 
 626  0Z IP       13 2 57.46   55                         58    0.18 7  131 232 
 626  0N ES       13 3 13.50                              58    0.18 7  131 232 
 626  0N  IAML    13 3 15.11         3.2 0.16                           131 232 
 621  0Z IP       13 3  0.04   50                         58    0.42 6  148 252 
 621  0N ES       13 3 17.92                              58    0.49 6  148 252 
 621  0N  IAML    13 3 19.43         3.5 0.20                           148 252 
 631  0Z IP       13 2 59.88   53                         58   -0.04 6  150 205 
 631  0N ES       13 3 17.65                              58   -0.31 6  150 205 
 631  0E  IAML    13 3 18.76         4.9 0.32                           150 205 
                                                                                
 2017  420 2248 46.7 L  72.022 129.126  0.0  BER 11 1.3 0.7LBER 1.2CBER        1
 GAP=239        2.40       8.7    35.5 16.7  0.2038E+03  0.1416E+03  0.4465E+02E
 ACTION:UP  20-12-31 00:24 OP:elen STATUS:               ID:20170420224802     I
 OLDACT:REG 20-12-27 21:42 OP:elen STATUS:               ID:20170420224802     3
 2017-04-20-2248-02M.NSN___039                                                 6
 STAT SP IPHASW D HRMM SECON CODA AMPLIT PERI AZIMU VELO AIN AR TRES W  DIS CAZ7
 630  0Z IP       2248 51.34   40                         90   -0.3910 28.2 283 
 630  0N ES       2248 54.63                              90   -0.9310 28.2 283 
 630  0E  IAML    2248 55.42        12.3 0.14                          28.2 283 
 632  0Z IP       2248 55.20   40                         65   -0.32 9 50.0 182 
 632  0E ES       2249  1.34                              65   -0.89 9 50.0 182 
 632  0E  IAML    2249  1.80         5.8 0.17                          50.0 182 
 629  0Z IP       2248 56.93   35                         65   -0.77 9 63.5 261 
 629  0N ES       2249  4.33                              65   -1.74 9 63.5 261 
 629  0N  IAML    2249  5.49         2.7 0.27                          63.5 261 
 627  0Z IP       2248 59.38   34                         65   -0.09 8 74.5 279 
 627  0N ES       2249  8.54                              65   -0.64 8 74.5 279 
 627  0N  IAML    2249 10.45         2.9 0.31                          74.5 279 
 628  0Z IP       2249  0.96   37                         65    0.66 8 79.6 303 
 628  0N ES       2249 11.28                              65    0.63 8 79.6 303 
 628  0N  IAML    2249 11.82         2.2 0.10                          79.6 303 
 631  0Z IP       2249  3.74   40                         65    0.84 8 95.7 224 
 631  0N ES       2249 16.10                              65    0.89 8 95.7 224 
 631  0N  IAML    2249 20.66         2.0 0.13                          95.7 224 
 626  0Z IP       2249  7.79   32                         65    2.93 7  108 264 
 626  0N ES       2249 23.08                              65    4.41 7  108 264 
 626  0N  IAML    2249 24.40         2.6 0.19                           108 264 
 624  0Z IP       2249  5.17   39                         65    0.05 7  110 299 
 624  0N ES       2249 18.57                              65   -0.56 7  110 299 
 624  0E  IAML    2249 22.57         2.4 0.16                           110 299 
 622  0Z IP       2249  9.75   37                         65    0.01 6  138 292 
 622  0N ES       2249 26.53                              65   -0.72 6  138 292 
 622  0E  IAML    2249 30.71         2.8 0.19                           138 292 
 621  0Z IP       2249 10.98   36                         65   -0.11 6  146 279 
 621  0N ES       2249 28.59                              65   -1.04 6  146 279 
 621  0E  IAML    2249 32.84         2.6 0.23                           146 279 
 620  0Z IP       2249 16.54   37                         65    0.60 5  177 296 
 620  0E ES       2249 38.23                              65    0.06 5  177 296 
 620  0E  IAML    2249 39.44         2.1 0.24                           177 296 
                                                                                
 2017  423 0850 54.6 D  74.708 132.795  0.1  BER  8 0.8 1.9LBER 2.9CBER        1
 GAP=341        2.78     550.0   999.9871.5  0.8622E+06  0.1370E+07  0.4788E+06E
 ACTION:UP  20-12-30 23:23 OP:elen STATUS:               ID:20170423085106     I
 OLDACT:REG 20-12-27 21:56 OP:elen STATUS:               ID:20170423085106     3
 2017-04-23-0851-06M.NSN___036                                                 6
 STAT SP IPHASW D HRMM SECON CODA AMPLIT PERI AZIMU VELO AIN AR TRES W  DIS CAZ7
 628  0Z IP        851 40.52  117                         46   -0.4410  313 217 
 628  0N ES        852 16.31                              48   -0.3810  313 217 
 628  0N  IAML     852 19.95         2.7 0.21                           313 217 
 624  0Z IP        851 41.03  117                         46   -1.1110  323 223 
 624  0N ES        852 17.18                              48   -1.63 9  323 223 
 624  0E  IAML     852 21.86         4.0 0.22                           323 223 
 630  0Z IP        851 42.07  129                         46   -0.5410  326 208 
 630  0N ES        852 19.01                              48   -0.6510  326 208 
 630  0E  IAML     852 20.92         1.8 0.16                           326 208 
 627  0Z IP        851 44.46  118                         46   -0.2110  343 215 
 627  0N ES        852 23.11                              48   -0.2610  343 215 
 627  0E  IAML     852 25.48         2.9 0.24                           343 215 
 622  0Z IP        851 45.10  114                         46    0.1210  346 227 
 622  0N ES        852 24.15                              48    0.2310  346 227 
 622  0N  IAML     852 27.59         1.7 0.38                           346 227 
 621  0Z IP        851 49.34  124                         46    0.4610  377 226 
 621  0N ES        852 31.46                              48    0.5310  377 226 
 621  0E  IAML     852 35.57         3.1 0.30                           377 226 
 626  0Z IP        851 50.50  121                         46    1.0410  382 218 
 626  0N ES        852 33.49                              48    1.5210  382 218 
 626  0E  IAML     852 36.90         5.2 0.25                           382 218 
 631  0Z IP        851 53.73  129                         46    0.6810  411 209 
 631  0E ES        852 39.03                              48    0.6110  411 209 
 631  0E  IAML     852 42.82         7.6 0.23                           411 209 
                                                                                
 2017  423 1455 44.1 L  72.840 124.493 16.8  BER  8 0.2 0.6LBER 1.4CBER        1
 GAP=285        0.42       2.7     6.7  3.3  0.2029E+01 -0.1246E+02 -0.3691E+01E
 ACTION:UP  20-12-31 12:43 OP:elen STATUS:               ID:20170423145418     I
 OLDACT:REG 20-12-30 23:54 OP:elen STATUS:               ID:20170423145418     3
 2017-04-23-1454-18M.NSN___036                                                 6
 STAT SP IPHASW D HRMM SECON CODA AMPLIT PERI AZIMU VELO AIN AR TRES W  DIS CAZ7
 620  0Z IP       1455 48.50   35                        126   -0.1310 21.3 193 
 620  0N ES       1455 51.91                             126   -0.1510 21.3 193 
 620  0N  IAML    1455 52.17         7.5 0.26                          21.3 193 
 622  0Z IP       1455 53.26   37                        105    0.09 9 52.1 148 
 622  0N ES       1456  0.15                             105    0.10 9 52.1 148 
 622  0N  IAML    1456  0.80         2.6 0.14                          52.1 148 
 623  0Z IP       1455 56.38   39                        101    0.20 8 71.3 143 
 623  0N ES       1456  5.47                             101    0.12 8 71.3 143 
 623  0N  IAML    1456  7.34         2.3 0.20                          71.3 143 
 624  0Z IP       1455 56.49   45                        101    0.21 8 71.9 124 
 624  0N ES       1456  5.67                             101    0.15 8 71.9 124 
 624  0N  IAML    1456  7.60         2.5 0.13                          71.9 124 
 621  0Z IP       1455 56.84   32                        100    0.16 8 74.4 170 
 621  0E  IAML    1456  6.32         1.9 0.18                          74.4 170 
 621  0N ES       1456  6.34                             100    0.12 8 74.4 170 
 628  0Z IP       1456  0.83   54                         97   -0.12 7  101 118 
 628  0N ES       1456 13.28                              97   -0.46 7  101 118 
 628  0E  IAML    1456 14.87         2.2 0.23                           101 118 
 626  0Z IP       1456  3.70   45                         96    0.00 7  118 153 
 626  0N ES       1456 18.27                              96   -0.30 7  118 153 
 626  0E  IAML    1456 18.75         1.2 0.25                           118 153 
 630  0Z IP       1456  8.91   56                         58    0.05 5  155 122 
 630  0N ES       1456 27.27                              58   -0.40 5  155 122 
 630  0E  IAML    1456 28.26         3.0 0.26                           155 122 
                                                                                
