 2016 10 9 0036 44.7 L  72.872 124.993 17.2  BER  8 0.3 1.3LBER 1.4CBER        1
 GAP=264        0.54       3.5     7.7  3.6  0.5444E+01 -0.1727E+02 -0.4751E+01E
 ACTION:ARG 20-04-11 14:12 OP:mn   STATUS:               ID:20161009003553     I
 2016-10-09-0035-53M.SIOLA_039                                                 6
 STAT SP IPHASW D HRMM SECON CODA AMPLIT PERI AZIMU VELO AIN AR TRES W  DIS CAZ7
 620  0Z IP     C  036 50.84   52                        116    0.0310 32.4 222 
 620  0N ES        036 55.36                             116   -0.0710 32.4 222 
 620  0Z  IAML     036 56.58        17.0 0.10                          32.4 222 
 622  0Z IP     D  036 53.46   45                        107    0.13 9 49.1 167 
 622  0N ES        036 59.76                             107   -0.12 9 49.1 167 
 622  0Z  IAML     037  0.06        25.9 0.26                          49.1 167 
 623  0Z IP     C  036 56.30   31                        102    0.32 9 66.1 157 
 623  0N ES        037  4.89                             102    0.35 9 66.1 157 
 623  0Z  IAML     037  5.81         6.2 0.16                          66.1 157 
 621  0Z IP     C  036 57.58   30                        100   -0.10 8 76.9 183 
 621  0N ES        037  7.24                             100   -0.29 8 76.9 183 
 621  0Z  IAML     037  8.38        14.7 0.25                          76.9 183 
 628  0Z IP     C  036 59.56   41                         99   -0.06 8 89.0 125 
 628  0E ES        037 10.72                              99   -0.22 8 89.0 125 
 628  0Z  IAML     037 11.62        12.3 0.18                          89.0 125 
 629  0Z IP     C  037  6.49   34                         58    0.27 6  131 142 
 629  0N ES        037 23.04                              58    0.48 6  131 142 
 629  0Z  IAML     037 23.64         7.5 0.18                           131 142 
 630  0Z IP     C  037  7.39   41                         58   -0.46 6  143 127 
 630  0E ES        037 24.67                              58   -0.75 6  143 127 
 630  0Z  IAML     037 26.44         5.9 0.13                           143 127 
 632  0Z IP     C  037 15.92   58                         58    0.17 4  201 134 
 632  0E ES        037 39.74                              58    0.41 4  201 134 
 632  0Z  IAML     037 40.61         5.6 0.22                           201 134 
                                                                                
 2016 1124 2250 46.0 L  72.763 124.889 16.2  BER 13 0.1 3.1LBER 2.4CBER        1
 GAP=302        0.33       2.8     7.4  3.0 -0.8161E+01 -0.1202E+01 -0.2985E+01E
 ACTION:REG 18-11-20 00:07 OP:art  STATUS:               ID:20161124224841     I
 2016-11-24-2248-41M.arct__039                                                 6
 STAT SP IPHASW D HRMM SECON CODA AMPLIT PERI AZIMU VELO AIN AR TRES W  DIS CAZ7
 620  0Z  IAML    2250 54.68      4036.6 0.64                          21.7 236 
 622  0Z  IAML    2251  0.84      1684.0 0.68                          38.6 158 
 624  0Z IP       2250 55.59   88                        103   -0.0610 56.3 124 
 624  0Z  IAML    2251  2.86      1099.7 0.57                          56.3 124 
 624  0N ES       2251  3.09                             103    0.0910 56.3 124 
 623  0Z  IAML    2251  8.33       561.1 0.56                          56.9 149 
 621  0Z IP       2250 57.01   92                        101    0.0410 64.7 180 
 621  0E ES       2251  5.43                             101    0.1010 64.7 180 
 621  0Z  IAML    2251  6.85      1077.3 0.86                          64.7 180 
 625  0Z  IAML    2251 13.05       292.7 0.58                          77.5 147 
 628  0E  IAML    2251 10.63       974.9 0.46                          85.7 117 
 627  0Z  IAML    2251 16.38       393.3 0.52                           101 135 
 626  0Z IP       2251  3.42   85                         97   -0.00 8  105 158 
 626  0N ES       2251 16.42                              97   -0.26 8  105 158 
 626  0Z  IAML    2251 16.82       523.9 0.33                           105 158 
 629  0E  IAML    2251 24.43       607.8 0.54                           124 137 
 629  0Z  IAML    2251 24.66       380.4 0.76                           124 137 
 630  0Z IP       2251  8.55   67                         58   -0.09 7  139 122 
 630  0N ES       2251 25.98                              58    0.12 7  139 122 
 630  0Z  IAML    2251 27.37       827.2 0.39                           139 122 
 631  0Z  IAML    2251 34.85       925.8 0.71                           172 151 
 632  0E  IAML    2251 40.33       812.0 0.94                           195 131 
                                                                                
 2017  3 2 1359 59.1 L  72.683 124.890 11.5  BER  7 0.2 0.5LBER 0.5CBER        1
 GAP=211        0.49       2.4     4.8  4.4  0.1869E+01 -0.1131E+02  0.2421E+01E
 ACTION:ARG 20-12-21 03:09 OP:mn   STATUS:               ID:20170302140000     I
 2017-03-02-1400-00M.a_____039                                                 6
 STAT SP IPHASW D HRMM SECON CODA AMPLIT PERI AZIMU VELO AIN AR TRES W  DIS CAZ7
 620  0Z IP     C 14 0  2.62   12                        119   -0.1610 18.3 260 
 620  0N ES       14 0  5.48                             119   -0.0710 18.3 260 
 620  0Z  IAML    14 0  6.17        11.7 0.22                          18.3 260 
 623  0Z IP     C 14 0  7.90   23                         99    0.33 9 49.4 143 
 623  0E ES       14 0 13.91                              99   -0.07 9 49.4 143 
 623  0Z  IAML    14 0 16.05         2.6 0.31                          49.4 143 
 624  0Z IP     C 14 0  7.90   21                         99   -0.05 9 51.7 116 
 624  0N ES       14 0 14.45                              99   -0.19 9 51.7 116 
 624  0Z  IAML    14 0 14.90         4.1 0.20                          51.7 116 
 621  0Z IP     D 14 0  8.53   18                         98   -0.04 9 55.7 180 
 621  0E ES       14 0 15.65                              98   -0.09 9 55.7 180 
 621  0Z  IAML    14 0 15.67         1.7 0.16                          55.7 180 
 628  0Z IP     C 14 0 12.90   19                         95    0.12 8 81.9 112 
 628  0Z  IAML    14 0 22.84         2.9 0.36                          81.9 112 
 628  0N ES       14 0 23.10                              95   -0.05 8 81.9 112 
 626  0Z IP     D 14 0 15.66   34                         94    0.48 7 96.8 156 
 626  0N ES       14 0 27.55                              94    0.17 7 96.8 156 
 626  0Z  IAML    14 0 28.04         1.5 0.25                          96.8 156 
 631  0Z IP     C 14 0 26.12   35                         58    0.41 5  165 149 
 631  0N ES       14 0 45.20                              58   -0.70 5  165 149 
 631  0Z  IAML    14 0 47.10         2.3 0.16                           165 149 
                                                                                
 2017  3 2 2335 20.2 L  71.885 130.307 14.8  BER  9 0.2 2.1LBER 1.6CBER        1
 GAP=305        0.35       2.5     8.2  2.2  0.2855E+01 -0.2525E+01 -0.2143E+00E
 ACTION:ARG 20-12-21 03:09 OP:mn   STATUS:               ID:20170302233415     I
 2017-03-02-2334-15M.a_____039                                                 6
 STAT SP IPHASW D HRMM SECON CODA AMPLIT PERI AZIMU VELO AIN AR TRES W  DIS CAZ7
 630  0Z IP     D 2335 31.87   44                         99   -0.3610 71.7 288 
 630  0N ES       2335 41.28                              99   -0.1210 71.7 288 
 630  0Z  IAML    2335 43.42        41.9 0.46                          71.7 288 
 629  0Z IP       2335 37.45   41                         96    0.06 9  104 274 
 629  0N ES       2335 50.48                              96   -0.01 9  104 274 
 629  0Z  IAML    2335 53.93        34.4 0.22                           104 274 
 627  0Z IP     C 2335 39.82   41                         95    0.23 8  118 284 
 627  0E ES       2335 54.80                              95    0.45 8  118 284 
 627  0Z  IAML    2335 56.48        53.7 0.35                           118 284 
 631  0Z IP     C 2335 40.09   51                         95    0.04 8  121 245 
 631  0N ES       2335 55.12                              95   -0.05 8  121 245 
 631  0Z  IAML    2335 57.97        43.5 0.23                           121 245 
 628  0Z IP     D 2335 40.39   43                         95    0.02 8  122 299 
 628  0E ES       2335 55.68                              95   -0.05 8  122 299 
 628  0Z  IAML    2335 57.32        76.3 0.22                           122 299 
 626  0Z IP     D 2335 44.27   42                         58    0.06 7  148 272 
 626  0Z  IAML    2336  4.64        71.8 0.38                           148 272 
 625  0Z IP     C 2335 44.25   52                         58    0.05 7  148 285 
 625  0Z  IAML    2336  5.34        33.8 0.29                           148 285 
 626  0N ES       2336  2.30                              58   -0.18 7  148 272 
 625  0N ES       2336  2.27                              58   -0.21 7  148 285 
 623  0Z IP     C 2335 46.55   82                         58    0.25 6  164 290 
 623  0N ES       2336  6.29                              58    0.12 6  164 290 
 623  0Z  IAML    2336 11.56        26.0 0.29                           164 290 
 621  0Z IP     C 2335 50.02   49                         58    0.16 5  189 283 
 621  0N ES       2336 12.41                              58   -0.02 5  189 283 
 621  0Z  IAML    2336 17.02        22.5 0.24                           189 283 
                                                                                
 2017  3 4 2135  2.9 L  72.688 124.942 13.4  BER  7 0.3 1.3LBER 0.9CBER        1
 GAP=213        0.61       3.8     7.9  4.9  0.1884E+02 -0.2365E+02 -0.4721E+01E
 ACTION:ARG 20-12-21 03:09 OP:mn   STATUS:               ID:20170304213342     I
 2017-03-04-2133-42M.a_____039                                                 6
 STAT SP IPHASW D HRMM SECON CODA AMPLIT PERI AZIMU VELO AIN AR TRES W  DIS CAZ7
 620  0Z IP     C 2135  6.89   22                        121   -0.0710 20.1 260 
 620  0N ES       2135  9.93                             121   -0.1110 20.1 260 
 620  0Z  IAML    2135 10.05        86.0 0.13                          20.1 260 
 622  0Z IP     C 2135  8.63   25                        111    0.2210 30.1 155 
 622  0E ES       2135 12.74                             111    0.1510 30.1 155 
 622  0Z  IAML    2135 12.96        43.3 0.27                          30.1 155 
 623  0Z IP     D 2135 11.57   25                        102    0.26 9 48.8 145 
 623  0E ES       2135 17.74                             102    0.04 9 48.8 145 
 623  0Z  IAML    2135 18.46        11.2 0.28                          48.8 145 
 625  0Z IP     C 2135 14.52   28                         98   -0.08 8 69.5 145 
 625  0N ES       2135 23.03                              98   -0.45 8 69.5 145 
 625  0Z  IAML    2135 24.79         5.7 0.30                          69.5 145 
 628  0Z IP     D 2135 16.21   34                         97   -0.16 8 80.5 112 
 628  0E ES       2135 26.07                              97   -0.52 8 80.5 112 
 628  0Z  IAML    2135 27.53        11.0 0.31                          80.5 112 
 630  0Z IP     C 2135 25.48   35                         94    0.66 6  133 119 
 630  0E ES       2135 41.91                              94    0.43 6  133 119 
 630  0Z  IAML    2135 43.85        28.1 0.25                           133 119 
 631  0Z IP     C 2135 29.65   45                         58    0.39 5  164 150 
 631  0N ES       2135 48.84                              58   -0.44 5  164 150 
 631  0Z  IAML    2135 50.49         7.9 0.16                           164 150 
                                                                                
 2017  3 7 0447 21.0 L  72.694 124.924 14.2  BER 10 0.2 1.7LBER 1.4CBER        1
 GAP=216        0.48       2.7     5.2  3.1  0.7479E+01 -0.8698E+01 -0.1596E+01E
 ACTION:ARG 20-12-21 03:09 OP:mn   STATUS:               ID:20170307044601     I
 2017-03-07-0446-01M.a_____039                                                 6
 STAT SP IPHASW D HRMM SECON CODA AMPLIT PERI AZIMU VELO AIN AR TRES W  DIS CAZ7
 620  0Z IP     C  447 25.10   28                        123    0.0310 19.7 257 
 620  0N ES        447 28.18                             123    0.0310 19.7 257 
 620  0Z  IAML     447 28.45       381.6 0.12                          19.7 257 
 622  0Z IP     D  447 26.62   34                        112   -0.0710 31.0 155 
 622  0E ES        447 30.86                             112   -0.1510 31.0 155 
 622  0Z  IAML     447 31.27        70.8 0.22                          31.0 155 
 623  0Z IP     D  447 29.64   30                        103    0.05 9 49.7 145 
 623  0E ES        447 36.57                             103    0.47 9 49.7 145 
 623  0Z  IAML     447 37.13        23.8 0.25                          49.7 145 
 624  0Z IP     D  447 29.73   35                        102   -0.10 9 51.3 118 
 624  0E ES        447 36.78                             102    0.25 9 51.3 118 
 624  0Z  IAML     447 37.43        56.6 0.20                          51.3 118 
 625  0Z IP     C  447 32.96   49                         99    0.10 8 70.4 145 
 625  0N ES        447 41.46                              99   -0.41 8 70.4 145 
 625  0Z  IAML     447 42.87        11.5 0.26                          70.4 145 
 628  0Z IP     D  447 34.30   39                         97   -0.31 8 81.3 113 
 628  0E ES        447 44.74                              97   -0.21 8 81.3 113 
 628  0Z  IAML     447 45.61        24.7 0.35                          81.3 113 
 627  0Z IP     D  447 36.70   44                         96   -0.05 7 94.7 132 
 627  0N ES        447 48.67                              96   -0.04 7 94.7 132 
 627  0Z  IAML     447 48.90        10.6 0.36                          94.7 132 
 630  0Z IP     C  447 43.03   38                         94   -0.04 6  134 119 
 630  0N ES        448  0.14                              94    0.30 6  134 119 
 630  0Z  IAML     448  1.93        78.9 0.21                           134 119 
 631  0Z IP     D  447 47.59   48                         58    0.17 5  165 150 
 631  0E ES        448  7.03                              58   -0.47 5  165 150 
 631  0Z  IAML     448  9.42        22.3 0.20                           165 150 
 632  0Z IP     D  447 51.04   71                         58    0.32 4  189 129 
 632  0N ES        448 13.95                              58    0.65 4  189 129 
 632  0Z  IAML     448 14.76        14.6 0.48                           189 129 
                                                                                
 2017  313 0553 59.1 L  72.698 124.923 15.1  BER  9 0.2 1.0LBER 1.4CBER        1
 GAP=217        0.48       2.2     4.6  2.6  0.3595E+01 -0.6467E+01 -0.8871E+00E
 ACTION:ARG 20-12-21 03:09 OP:mn   STATUS:               ID:20170313055233     I
 2017-03-13-0552-33M.a_____039                                                 6
 STAT SP IPHASW D HRMM SECON CODA AMPLIT PERI AZIMU VELO AIN AR TRES W  DIS CAZ7
 620  0Z IP     C  554  3.31   33                        125    0.0210 19.8 256 
 620  0N ES        554  6.41                             125   -0.0310 19.8 256 
 620  0Z  IAML     554  6.63        51.0 0.11                          19.8 256 
 622  0Z IP     D  554  4.88   42                        113   -0.0510 31.4 155 
 622  0E ES        554  9.34                             113    0.0110 31.4 155 
 622  0Z  IAML     554  9.50        13.0 0.16                          31.4 155 
 623  0Z IP     D  554  8.18   38                        104    0.38 9 50.1 145 
 623  0E ES        554 14.89                             104    0.50 9 50.1 145 
 623  0Z  IAML     554 16.90         6.3 0.22                          50.1 145 
 624  0Z IP     D  554  8.08   38                        103    0.05 9 51.5 118 
 624  0N ES        554 14.63                             103   -0.15 9 51.5 118 
 624  0Z  IAML     554 16.07        11.1 0.14                          51.5 118 
 621  0Z IP     C  554  8.88   33                        102   -0.06 9 57.3 181 
 621  0E ES        554 16.03                             102   -0.36 9 57.3 181 
 621  0Z  IAML     554 16.67         4.6 0.19                          57.3 181 
 628  0Z IP     D  554 12.56   44                         98   -0.23 8 81.5 113 
 628  0N ES        554 22.87                              98   -0.29 8 81.5 113 
 628  0Z  IAML     554 24.27         6.2 0.16                          81.5 113 
 627  0Z IP     D  554 15.02   50                         97    0.08 7 95.0 132 
 627  0N ES        554 26.90                              97   -0.05 7 95.0 132 
 627  0Z  IAML     554 31.39         2.7 0.14                          95.0 132 
 630  0Z IP     D  554 21.36   40                         58    0.11 6  134 120 
 630  0N ES        554 37.94                              58   -0.11 6  134 120 
 630  0Z  IAML     554 40.24        17.6 0.22                           134 120 
 631  0Z IP     D  554 25.86   55                         58    0.34 5  165 150 
 631  0E ES        554 45.43                              58   -0.14 5  165 150 
 631  0Z  IAML     554 47.39         5.4 0.37                           165 150 
                                                                                
 2017  313 0809  5.6 L  72.450 125.088 14.9  BER  7 0.1 1.2LBER 1.3CBER        1
 GAP=132        0.28       0.7     2.2  3.0  0.4656E+00 -0.1236E+01 -0.2307E+00E
 ACTION:ARG 20-12-21 03:09 OP:mn   STATUS:               ID:20170313080741     I
 2017-03-13-0807-41M.a_____039                                                 6
 STAT SP IPHASW D HRMM SECON CODA AMPLIT PERI AZIMU VELO AIN AR TRES W  DIS CAZ7
 623  0Z IP     D  8 9 10.61   38                        117   -0.1010 26.6 121 
 623  0E ES        8 9 14.56                             117   -0.0110 26.6 121 
 623  0Z  IAML     8 9 15.47        41.9 0.23                          26.6 121 
 621  0Z IP     D  8 9 11.20   33                        113   -0.0810 30.5 193 
 621  0E ES        8 9 15.58                             113    0.0110 30.5 193 
 621  0Z  IAML     8 9 17.34        23.5 0.15                          30.5 193 
 620  0Z IP     D  8 9 11.72   34                        111   -0.0410 33.7 313 
 620  0N ES        8 9 16.45                             111    0.0410 33.7 313 
 620  0Z  IAML     8 9 17.87        44.7 0.14                          33.7 313 
 624  0Z IP     D  8 9 12.75   25                        107    0.0210 40.0  85 
 624  0N ES        8 9 18.26                             107    0.1410 40.0  85 
 624  0Z  IAML     8 9 18.61        42.4 0.14                          40.0  85 
 625  0Z IP     C  8 9 13.68   53                        105   -0.02 9 46.3 131 
 625  0N ES        8 9 19.84                             105    0.01 9 46.3 131 
 625  0Z  IAML     8 9 21.34        10.0 0.26                          46.3 131 
 628  0Z IP     D  8 9 17.39   42                         99    0.01 8 69.6  94 
 628  0N ES        8 9 26.13                              99   -0.18 8 69.6  94 
 628  0Z  IAML     8 9 27.51        18.6 0.24                          69.6  94 
 626  0Z IP     D  8 9 17.71   45                         99    0.17 8 70.6 152 
 626  0E ES        8 9 26.64                              99    0.06 8 70.6 152 
 626  0Z  IAML     8 9 26.87         6.5 0.21                          70.6 152 
                                                                                
