 2017  414 0459 18.8 L  72.268 127.384 20.1  BER  7 0.1 0.5LBER 0.5CBER        1
 GAP=152        0.35       0.9     3.2  2.1  0.8692E+00  0.6018E+00  0.6197E+00E
 ACTION:UP  20-12-23 23:35 OP:elen STATUS:               ID:20170414045811     I
 OLDACT:REG 20-12-21 23:05 OP:elen STATUS:               ID:20170414045811     3
 2017-04-14-0458-11M.NSN___039                                                 6
 STAT SP IPHASW D HRMM SECON CODA AMPLIT PERI AZIMU VELO AIN AR TRES W  DIS CAZ7
 628  0Z IP        459 23.05   21                        139   -0.0410 16.8 332 
 628  0N ES        459 26.28                             139   -0.1010 16.8 332 
 628  0N  IAML     459 26.45        23.3 0.08                          16.8 332 
 627  0Z IP        459 23.80   19                        131    0.1510 21.7 219 
 627  0N ES        459 27.53                             131    0.1610 21.7 219 
 627  0N  IAML     459 28.15         7.8 0.21                          21.7 219 
 629  0Z IP        459 25.93   20                        116    0.10 9 37.9 184 
 629  0N ES        459 31.21                             116   -0.00 9 37.9 184 
 629  0N  IAML     459 31.83         2.1 0.37                          37.9 184 
 630  0Z IP        459 26.00   20                        115    0.05 9 38.7 123 
 630  0N ES        459 31.33                             115   -0.09 9 38.7 123 
 630  0E  IAML     459 31.56         2.7 0.16                          38.7 123 
 626  0Z IP        459 29.62   24                        106    0.02 8 62.8 228 
 626  0E ES        459 37.59                             106   -0.25 8 62.8 228 
 626  0N  IAML     459 37.71         1.9 0.21                          62.8 228 
 622  0Z IP        459 31.28   26                        103    0.12 8 72.7 286 
 622  0E ES        459 40.52                             103   -0.06 8 72.7 286 
 622  0E  IAML     459 41.08         1.3 0.14                          72.7 286 
 631  0Z IP        459 35.11                             100    0.11 7 97.1 183 
 631  0N ES        459 47.07                             100   -0.28 7 97.1 183 
 631  0E  IAML     459 47.29         3.2 0.19                          97.1 183 
                                                                                
 2017  414 0540  4.8 L  73.640 130.972  8.0  BER 11 0.6 1.8LBER 2.5CBER        1
 GAP=322        0.40      10.6    55.5 22.3  0.2173E+03  0.1035E+04  0.1514E+03E
 ACTION:UP  20-12-24 18:59 OP:elen STATUS:               ID:20170414053940     I
 OLDACT:REG 20-12-21 23:33 OP:elen STATUS:               ID:20170414053940     3
 2017-04-14-0539-40M.NSN___039                                                 6
 STAT SP IPHASW D HRMM SECON CODA AMPLIT PERI AZIMU VELO AIN AR TRES W  DIS CAZ7
 628  0Z IP        540 34.87   88                         58    0.2310  186 224 
 628  0N ES        540 57.66                              58    0.3610  186 224 
 628  0N  IAML     540 58.24         6.9 0.27                           186 224 
 630  0Z IP        540 35.41   91                         58   -0.45 9  195 208 
 630  0N ES        540 58.60                              58   -0.85 9  195 208 
 630  0N  IAML     541  0.59         3.0 0.11                           195 208 
 624  0Z IP        540 36.44   98                         58   -0.16 9  200 232 
 624  0N ES        541  0.38                              58   -0.36 9  200 232 
 624  0E  IAML     541  1.18         7.7 0.19                           200 232 
 627  0Z IP        540 38.90   91                         58    0.37 7  215 220 
 627  0N ES        541  4.62                              58    0.48 7  215 220 
 627  0N  IAML     541  5.38         6.7 0.37                           215 220 
 623  0Z IP        540 40.19   93                         58    0.29 7  225 232 
 623  0N ES        541  6.86                              58    0.30 7  225 232 
 623  0E  IAML     541  8.55         3.7 0.25                           225 232 
 622  0Z IP        540 40.14   93                         51   -0.14 6  228 237 
 622  0N ES        541  6.77                              51   -0.45 6  228 237 
 622  0N  IAML     541  8.06        12.3 0.28                           228 237 
 625  0Z IP        540 40.79   96                         51    0.40 6  228 227 
 625  0N ES        541  7.91                              51    0.48 6  228 227 
 625  0E  IAML     541  9.84         7.7 0.41                           228 227 
 620  0Z IP        540 41.34   93                         51   -0.60 5  241 246 
 620  0N ES        541  8.87                              51   -1.29 5  241 246 
 620  0N  IAML     541 11.79         3.1 0.13                           241 246 
 626  0Z IP        540 44.61   86                         51    0.95 4  255 222 
 626  0N ES        541 14.54                              51    1.37 4  255 222 
 626  0E  IAML     541 17.62         6.2 0.17                           255 222 
 621  0Z IP        540 44.45  105                         51    0.47 4  257 234 
 621  0N ES        541 14.19                              51    0.45 4  257 234 
 621  0E  IAML     541 17.49         7.3 0.19                           257 234 
 631  0Z IP        540 47.86   87                         51    1.10 2  279 208 
 631  0E ES        541 20.16                              51    1.53 2  279 208 
 631  0N  IAML     541 22.92        34.6 0.39                           279 208 
                                                                                
 2017  416 0523 41.9 L  71.956 127.088 19.2  BER 13 0.2 1.6LBER 2.5CBER        1
 GAP= 84        0.44       0.9     2.7  1.5  0.8479E+00  0.1013E+01  0.2525E-01E
 ACTION:UP  20-12-26 19:23 OP:elen STATUS:               ID:20170416052232     I
 OLDACT:REG 20-12-24 20:31 OP:elen STATUS:               ID:20170416052232     3
 2017-04-16-0522-32M.NSN___039                                                 6
 STAT SP IPHASW D HRMM SECON CODA AMPLIT PERI AZIMU VELO AIN AR TRES W  DIS CAZ7
 629  0Z IP        523 45.45   82                        156    0.1010 8.35 111 
 629  0N ES        523 48.09                             156    0.0910 8.35 111 
 629  0N  IAML     523 48.18       179.5 0.06                          8.35 111 
 627  0Z IP        523 46.35   83                        135    0.0710 18.3 349 
 627  0N ES        523 49.70                             135    0.0710 18.3 349 
 627  0E  IAML     523 49.90       231.5 0.18                          18.3 349 
 626  0Z IP        523 48.77   80                        115   -0.03 9 37.2 259 
 626  0N ES        523 53.87                             115   -0.19 9 37.2 259 
 626  0N  IAML     523 53.97        63.4 0.13                          37.2 259 
 625  0Z IP        523 49.48   82                        113    0.03 9 41.6 306 
 625  0N ES        523 55.09                             113   -0.11 9 41.6 306 
 625  0N  IAML     523 55.32        56.1 0.21                          41.6 306 
 630  0Z IP        523 49.98   86                        111    0.07 9 44.7  72 
 630  0N ES        523 55.91                             111   -0.10 9 44.7  72 
 630  0E  IAML     523 56.36        36.3 0.12                          44.7  72 
 628  0Z IP        523 50.46   78                        109   -0.20 9 49.6   2 
 628  0N ES        523 56.76                             109   -0.57 9 49.6   2 
 628  0E  IAML     523 57.87        59.4 0.22                          49.6   2 
 623  0Z IP        523 52.70   88                        105    0.22 8 61.4 313 
 623  0N ES        524  0.64                             105    0.10 8 61.4 313 
 623  0E  IAML     524  0.98        12.3 0.17                          61.4 313 
 631  0Z IP        523 52.69   91                        105    0.07 8 62.4 175 
 631  0N ES        524  0.61                             105   -0.18 8 62.4 175 
 631  0E  IAML     524  0.91       108.1 0.18                          62.4 175 
 624  0Z IP        523 53.19   87                        104    0.26 8 64.3 335 
 624  0N ES        524  1.53                             104    0.20 8 64.3 335 
 624  0E  IAML     524  3.80        21.0 0.28                          64.3 335 
 621  0Z IP        523 55.38   86                        101    0.02 8 79.7 290 
 621  0N ES        524  5.30                             101   -0.30 8 79.7 290 
 621  0N  IAML     524 10.84        11.6 0.16                          79.7 290 
 622  0Z IP        523 55.88   87                        101    0.28 7 81.3 313 
 622  0E ES        524  6.15                             101    0.11 7 81.3 313 
 622  0E  IAML     524 12.01        20.7 0.15                          81.3 313 
 632  0Z IP        523 55.75   95                        101    0.14 7 81.4 121 
 632  0N ES        524  5.91                             101   -0.14 7 81.4 121 
 632  0E  IAML     524  8.88        12.0 0.12                          81.4 121 
 620  0Z IP        524  2.06  120                         58    0.21 6  121 311 
 620  0N ES        524 16.86                              58   -0.18 6  121 311 
 620  0E  IAML     524 20.08        17.2 0.19                           121 311 
                                                                                
 2017  416 1220 14.2 L  72.947 124.498 20.4  BER 11 0.3 1.0LBER 1.9CBER        1
 GAP=295        0.63       3.7     9.9  2.8  0.1957E+01 -0.1071E+02 -0.3686E+01E
 ACTION:UP  20-12-26 21:48 OP:elen STATUS:               ID:20170416121850     I
 OLDACT:REG 20-12-24 20:45 OP:elen STATUS:               ID:20170416121850     3
 2017-04-16-1218-50M.NSN___039                                                 6
 STAT SP IPHASW D HRMM SECON CODA AMPLIT PERI AZIMU VELO AIN AR TRES W  DIS CAZ7
 620  0Z IP       1220 20.39   51                        120   -0.2410 33.1 189 
 620  0E ES       1220 25.17                             120   -0.3410 33.1 189 
 620  0E  IAML    1220 25.58        31.0 0.21                          33.1 189 
 622  0Z IP       1220 25.06   52                        106    0.02 9 62.6 154 
 622  0N ES       1220 33.21                             106   -0.06 9 62.6 154 
 622  0N  IAML    1220 35.37         6.5 0.26                          62.6 154 
 624  0Z IP       1220 27.87   67                        102    0.26 8 79.0 131 
 624  0N ES       1220 38.08                             102    0.28 8 79.0 131 
 624  0E  IAML    1220 38.84         6.0 0.17                          79.0 131 
 623  0Z IP       1220 28.16   54                        102    0.22 8 81.1 148 
 623  0N ES       1220 38.59                             102    0.22 8 81.1 148 
 623  0N  IAML    1220 40.17         9.0 0.14                          81.1 148 
 621  0Z IP       1220 28.93   52                        101    0.19 8 86.2 171 
 621  0N ES       1220 39.92                             101    0.13 8 86.2 171 
 621  0N  IAML    1220 40.81         7.4 0.14                          86.2 171 
 625  0Z IP       1220 31.65   57                         99    0.44 7  102 147 
 625  0N ES       1220 44.60                              99    0.47 7  102 147 
 625  0N  IAML    1220 45.44         1.3 0.14                           102 147 
 628  0Z IP       1220 31.80   70                         99   -0.28 7  107 123 
 628  0N ES       1220 44.85                              99   -0.81 7  107 123 
 628  0N  IAML    1220 45.59         3.2 0.18                           107 123 
 627  0Z IP       1220 34.62   66                         58    0.08 7  125 137 
 627  0N ES       1220 49.76                              58   -0.23 7  125 137 
 627  0N  IAML    1220 50.58         2.0 0.34                           125 137 
 626  0Z IP       1220 35.26   65                         58    0.10 6  129 156 
 626  0N ES       1220 50.87                              58   -0.21 6  129 156 
 626  0E  IAML    1220 51.61        11.4 0.22                           129 156 
 629  0Z IP       1220 38.18   65                         58    0.43 6  148 139 
 629  0E ES       1220 55.91                              58    0.27 6  148 139 
 629  0E  IAML    1220 56.69         1.9 0.25                           148 139 
 630  0Z IP       1220 39.31   72                         58   -0.23 5  161 125 
 630  0E ES       1220 57.85                              58   -0.95 5  161 125 
 630  0E  IAML    1221  0.14         1.9 0.10                           161 125 
                                                                                
 2017  416 1257 48.3 D  68.871 131.751 73.5  BER  9 0.6 2.2LBER                1
 GAP=347        2.46      39.3   166.6240.2  0.5838E+04  0.2411E+05  0.7317E+04E
 ACTION:UP  20-12-26 22:56 OP:elen STATUS:               ID:20170416125807     I
 OLDACT:REG 20-12-24 20:51 OP:elen STATUS:               ID:20170416125807     3
 2017-04-16-1258-07M.NSN___039                                                 6
 STAT SP IPHASW D HRMM SECON CODA AMPLIT PERI AZIMU VELO AIN AR TRES W  DIS CAZ7
 632  0Z IP       1258 30.82                             101   -0.8510  318 343 
 632  0N ES       1259  4.98                             101   -0.6410  318 343 
 632  0N  IAML    1259  5.17         4.9 0.14                           318 343 
 629  0Z IP       1258 39.93                             100    0.7610  379 336 
 629  0N ES       1259 20.72                             100    1.62 9  379 336 
 629  0E  IAML    1259 39.09         2.1 0.45                           379 336 
 626  0Z IP       1258 41.31                             100   -0.2410  399 330 
 626  0E ES       1259 23.09                             100   -0.2710  399 330 
 626  0E  IAML    1259 45.64         3.8 0.35                           399 330 
 627  0Z IP       1258 42.83                             100    0.7210  403 336 
 627  0N ES       1259 25.69                              99    1.33 9  403 336 
 627  0E  IAML    1259 42.40         4.8 0.39                           403 336 
 625  0Z IP       1258 44.61                             100   -0.0310  424 333 
 625  0N ES       1259 28.77                              99   -0.1410  424 333 
 625  0N  IAML    1259 50.66         5.6 0.41                           424 333 
 628  0Z IP       1258 45.14                              99   -0.1110  429 339 
 628  0E ES       1259 29.75                              99   -0.2510  429 339 
 628  0E  IAML    1259 51.75         3.8 0.31                           429 339 
 623  0Z IP       1258 46.84                              99   -0.3410  445 333 
 623  0N ES       1259 32.64                              99   -0.8310  445 333 
 623  0E  IAML    1259 53.30         3.2 0.45                           445 333 
 624  0Z IP       1258 47.99                              99    0.1510  450 336 
 624  0E ES       1259 34.64                              99   -0.0110  450 336 
 624  0E  IAML    1259 54.13         6.5 0.29                           450 336 
 622  0Z IP       1258 49.50                              99   -0.0310  464 332 
 622  0N ES       1259 37.23                              99   -0.4510  464 332 
 622  0N  IAML    1259 39.41         3.6 0.30                           464 332 
                                                                                
 2017  416 1821  5.5 L  72.867 125.003 19.3  BER 13 0.3 1.3LBER 2.4CBER        1
 GAP=262        0.54       2.9     6.2  2.7  0.3876E+01 -0.8357E+01 -0.2648E+01E
 ACTION:UP  20-12-27 00:47 OP:elen STATUS:               ID:20170416181941     I
 OLDACT:REG 20-12-24 20:59 OP:elen STATUS:               ID:20170416181941     3
 2017-04-16-1819-41M.NSN___039                                                 6
 STAT SP IPHASW D HRMM SECON CODA AMPLIT PERI AZIMU VELO AIN AR TRES W  DIS CAZ7
 620  0Z IP       1821 11.60   79                        119   -0.1110 32.2 223 
 620  0E ES       1821 16.27                             119   -0.1510 32.2 223 
 620  0E  IAML    1821 18.35        20.2 0.16                          32.2 223 
 622  0Z IP       1821 14.23   83                        109    0.12 9 48.5 168 
 622  0E ES       1821 20.81                             109    0.15 9 48.5 168 
 622  0N  IAML    1821 20.82        23.1 0.27                          48.5 168 
 624  0Z IP       1821 16.12   90                        105    0.12 9 60.7 135 
 624  0N ES       1821 24.11                             105    0.14 9 60.7 135 
 624  0N  IAML    1821 24.84        18.5 0.25                          60.7 135 
 623  0Z IP       1821 17.07   85                        104    0.34 9 65.4 157 
 623  0E ES       1821 25.73                             104    0.47 9 65.4 157 
 623  0E  IAML    1821 26.39        16.1 0.19                          65.4 157 
 621  0Z IP       1821 18.44   78                        102    0.01 8 76.3 183 
 621  0N ES       1821 28.05                             102   -0.21 8 76.3 183 
 621  0E  IAML    1821 29.12        15.1 0.21                          76.3 183 
 625  0Z IP       1821 19.96   85                        101    0.04 8 85.7 154 
 625  0N ES       1821 30.82                             101   -0.06 8 85.7 154 
 625  0N  IAML    1821 32.15         4.3 0.38                          85.7 154 
 628  0Z IP       1821 20.12   85                        100   -0.23 8 88.4 125 
 628  0N ES       1821 31.05                             100   -0.59 8 88.4 125 
 628  0N  IAML    1821 32.39        16.4 0.29                          88.4 125 
 627  0Z IP       1821 23.51   88                         98    0.22 7  107 141 
 627  0E ES       1821 36.89                              98    0.09 7  107 141 
 627  0E  IAML    1821 38.22         4.4 0.21                           107 141 
 626  0Z IP       1821 24.38   87                         98   -0.15 7  115 162 
 626  0N ES       1821 38.38                              98   -0.62 7  115 162 
 626  0E  IAML    1821 38.73        21.4 0.23                           115 162 
 629  0Z IP       1821 26.93   76                         58    0.20 6  130 142 
 629  0E ES       1821 42.83                              58   -0.04 6  130 142 
 629  0E  IAML    1821 47.02         3.3 0.46                           130 142 
 630  0Z IP       1821 28.17   78                         58   -0.19 6  142 127 
 630  0E ES       1821 45.06                              58   -0.68 6  142 127 
 630  0E  IAML    1821 46.35        10.8 0.24                           142 127 
 631  0Z IP       1821 34.15   89                         58    0.51 4  181 154 
 631  0N ES       1821 55.38                              58    0.36 4  181 154 
 631  0E  IAML    1821 56.98         8.3 0.23                           181 154 
 632  0Z IP       1821 36.81   87                         58    0.55 4  200 134 
 632  0N ES       1822  0.00                              58    0.36 4  200 134 
 632  0E  IAML    1822  3.02         4.0 0.37                           200 134 
                                                                                
