 2016 10 9 0036 44.7 L  72.872 124.993 17.2  BER  8 0.3 1.3LBER 1.4CBER        1
 GAP=264        0.54       3.5     7.7  3.6  0.5444E+01 -0.1727E+02 -0.4751E+01E
 ACTION:ARG 20-04-11 14:12 OP:mn   STATUS:               ID:20161009003553     I
 2016-10-09-0035-53M.SIOLA_039                                                 6
 STAT SP IPHASW D HRMM SECON CODA AMPLIT PERI AZIMU VELO AIN AR TRES W  DIS CAZ7
 620  0Z IP     C  036 50.84   52                        116    0.0310 32.4 222 
 620  0N ES        036 55.36                             116   -0.0710 32.4 222 
 620  0Z  IAML     036 56.58        17.0 0.10                          32.4 222 
 622  0Z IP     D  036 53.46   45                        107    0.13 9 49.1 167 
 622  0N ES        036 59.76                             107   -0.12 9 49.1 167 
 622  0Z  IAML     037  0.06        25.9 0.26                          49.1 167 
 623  0Z IP     C  036 56.30   31                        102    0.32 9 66.1 157 
 623  0N ES        037  4.89                             102    0.35 9 66.1 157 
 623  0Z  IAML     037  5.81         6.2 0.16                          66.1 157 
 621  0Z IP     C  036 57.58   30                        100   -0.10 8 76.9 183 
 621  0N ES        037  7.24                             100   -0.29 8 76.9 183 
 621  0Z  IAML     037  8.38        14.7 0.25                          76.9 183 
 628  0Z IP     C  036 59.56   41                         99   -0.06 8 89.0 125 
 628  0E ES        037 10.72                              99   -0.22 8 89.0 125 
 628  0Z  IAML     037 11.62        12.3 0.18                          89.0 125 
 629  0Z IP     C  037  6.49   34                         58    0.27 6  131 142 
 629  0N ES        037 23.04                              58    0.48 6  131 142 
 629  0Z  IAML     037 23.64         7.5 0.18                           131 142 
 630  0Z IP     C  037  7.39   41                         58   -0.46 6  143 127 
 630  0E ES        037 24.67                              58   -0.75 6  143 127 
 630  0Z  IAML     037 26.44         5.9 0.13                           143 127 
 632  0Z IP     C  037 15.92   58                         58    0.17 4  201 134 
 632  0E ES        037 39.74                              58    0.41 4  201 134 
 632  0Z  IAML     037 40.61         5.6 0.22                           201 134 
                                                                                
 2016 1012 0800 22.1 L  72.738 126.039 18.5  BER  7 0.2 0.8LBER 0.9CBER        1
 GAP=254        0.41       2.3     5.2  2.8  0.6340E+01 -0.4047E+01 -0.2018E+01E
 ACTION:ARG 20-04-11 14:12 OP:mn   STATUS:               ID:20161012080000     I
 2016-10-12-0800-00M.SIOLA_039                                                 6
 STAT SP IPHASW D HRMM SECON CODA AMPLIT PERI AZIMU VELO AIN AR TRES W  DIS CAZ7
 624  0Z IP        8 0 27.95   30                        119   -0.0110 30.3 165 
 624  0E ES        8 0 32.38                             119   -0.0410 30.3 165 
 624  0Z  IAML     8 0 32.42        56.4 0.15                          30.3 165 
 622  0Z IP     C  8 0 29.57   25                        112    0.0610 41.0 217 
 622  0Z  IAML     8 0 34.95         5.9 0.11                          41.0 217 
 622  0N ES        8 0 35.15                             112   -0.0110 41.0 217 
 623  0Z IP     C  8 0 30.65   19                        109    0.24 9 46.9 192 
 623  0N ES        8 0 37.07                             109    0.33 9 46.9 192 
 623  0Z  IAML     8 0 37.41         3.8 0.08                          46.9 192 
 620  0Z IP     D  8 0 31.90   23                        106   -0.05 9 57.0 261 
 620  0N ES        8 0 39.36                             106   -0.10 9 57.0 261 
 620  0Z  IAML     8 0 39.78         3.5 0.14                          57.0 261 
 621  0Z IP     D  8 0 34.41   30                        102   -0.05 8 72.9 213 
 621  0N ES        8 0 43.65                             102   -0.22 8 72.9 213 
 621  0Z  IAML     8 0 44.87         4.4 0.19                          72.9 213 
 627  0Z IP     C  8 0 34.98   36                        101   -0.00 8 76.3 155 
 627  0E ES        8 0 44.45                             101   -0.34 8 76.3 155 
 627  0Z  IAML     8 0 44.79         2.0 0.23                          76.3 155 
 631  0Z IP     C  8 0 47.07   47                         58    0.32 5  155 164 
 631  0E ES        8 1  5.36                              58   -0.13 5  155 164 
 631  0Z  IAML     8 1  7.14         4.7 0.69                           155 164 
                                                                                
 2016 1015 1013 36.5 L  72.040 126.998 11.2  BER  7 0.2 0.7LBER 0.9CBER        1
 GAP=247        0.38       1.3     6.1  2.5 -0.1646E+01  0.8858E+01  0.2857E-01E
 ACTION:ARG 20-04-11 14:12 OP:mn   STATUS:               ID:20161015101225     I
 2016-10-15-1012-25M.SIOLA_039                                                 6
 STAT SP IPHASW D HRMM SECON CODA AMPLIT PERI AZIMU VELO AIN AR TRES W  DIS CAZ7
 627  0Z IP     C 1013 38.86   33                        141   -0.0010 8.57 356 
 627  0N ES       1013 40.66                             141   -0.0110 8.57 356 
 627  0Z  IAML    1013 40.89        30.3 0.08                          8.57 356 
 625  0Z IP     D 1013 42.35   27                        104   -0.12 9 34.0 296 
 625  0E ES       1013 46.96                             104   -0.07 9 34.0 296 
 625  0Z  IAML    1013 46.96        15.8 0.13                          34.0 296 
 626  0Z IP     D 1013 42.99   25                        103   -0.01 9 37.3 243 
 626  0N ES       1013 47.98                             103    0.03 9 37.3 243 
 626  0Z  IAML    1013 48.27        16.6 0.41                          37.3 243 
 623  0Z IP     D 1013 45.75   25                         98    0.27 8 53.0 308 
 623  0E ES       1013 52.67                              98    0.36 8 53.0 308 
 623  0Z  IAML    1013 54.07         1.9 0.09                          53.0 308 
 624  0Z IP     D 1013 45.77   24                         98    0.05 8 54.5 334 
 624  0E ES       1013 52.73                              98   -0.01 8 54.5 334 
 624  0Z  IAML    1013 53.80        10.3 0.20                          54.5 334 
 622  0Z IP     D 1013 48.55   32                         96   -0.10 8 72.8 309 
 622  0Z  IAML    1013 57.77         4.3 0.21                          72.8 309 
 622  0N ES       1013 57.77                              96   -0.14 8 72.8 309 
 620  0Z IP     C 1013 54.94   42                         93   -0.16 6  113 309 
 620  0N ES       1014  8.98                              93   -0.27 6  113 309 
 620  0Z  IAML    1014  9.97         1.8 0.09                           113 309 
                                                                                
 2016 1021 0507 33.3 L  72.575 124.782 10.1  BER  6 0.2 0.8LBER 1.2CBER        1
 GAP=160        0.43       1.6     4.4  5.5  0.2672E+01 -0.1187E+02  0.1541E+01E
 ACTION:ARG 20-04-11 14:12 OP:mn   STATUS:               ID:20161021050606     I
 2016-10-21-0506-06M.SIOLA_039                                                 6
 STAT SP IPHASW D HRMM SECON CODA AMPLIT PERI AZIMU VELO AIN AR TRES W  DIS CAZ7
 620  0Z IP     C  5 7 36.69   23                        117    0.0110 17.0 301 
 620  0N ES        5 7 39.21                             117   -0.0110 17.0 301 
 620  0Z  IAML     5 7 39.68        28.7 0.19                          17.0 301 
 622  0Z IP     C  5 7 37.45   38                        109   -0.1610 23.2 130 
 622  0E ES        5 7 40.86                             109    0.0110 23.2 130 
 622  0Z  IAML     5 7 41.16        28.4 0.28                          23.2 130 
 623  0Z IP     C  5 7 40.84   38                         99    0.11 9 43.1 130 
 623  0E ES        5 7 46.60                              99    0.25 9 43.1 130 
 623  0Z  IAML     5 7 48.07         7.4 0.13                          43.1 130 
 621  0Z IP     C  5 7 40.90   38                         99    0.05 9 43.8 175 
 621  0E ES        5 7 46.42                              99   -0.13 9 43.8 175 
 621  0Z  IAML     5 7 49.01         3.2 0.22                          43.8 175 
 624  0Z IP     C  5 7 42.28   37                         97    0.24 9 51.2 102 
 624  0E ES        5 7 48.73                              97    0.08 9 51.2 102 
 624  0Z  IAML     5 7 50.52        11.5 0.15                          51.2 102 
 628  0Z IP     C  5 7 46.83   39                         94   -0.12 8 81.8 103 
 628  0N ES        5 7 56.85                              94   -0.44 8 81.8 103 
 628  0Z  IAML     5 7 58.61         3.8 0.14                          81.8 103 
                                                                                
 2016 1124 2250 46.0 L  72.763 124.889 16.2  BER 13 0.1 3.1LBER 2.4CBER        1
 GAP=302        0.33       2.8     7.4  3.0 -0.8161E+01 -0.1202E+01 -0.2985E+01E
 ACTION:REG 18-11-20 00:07 OP:art  STATUS:               ID:20161124224841     I
 2016-11-24-2248-41M.arct__039                                                 6
 STAT SP IPHASW D HRMM SECON CODA AMPLIT PERI AZIMU VELO AIN AR TRES W  DIS CAZ7
 620  0Z  IAML    2250 54.68      4036.6 0.64                          21.7 236 
 622  0Z  IAML    2251  0.84      1684.0 0.68                          38.6 158 
 624  0Z IP       2250 55.59   88                        103   -0.0610 56.3 124 
 624  0Z  IAML    2251  2.86      1099.7 0.57                          56.3 124 
 624  0N ES       2251  3.09                             103    0.0910 56.3 124 
 623  0Z  IAML    2251  8.33       561.1 0.56                          56.9 149 
 621  0Z IP       2250 57.01   92                        101    0.0410 64.7 180 
 621  0E ES       2251  5.43                             101    0.1010 64.7 180 
 621  0Z  IAML    2251  6.85      1077.3 0.86                          64.7 180 
 625  0Z  IAML    2251 13.05       292.7 0.58                          77.5 147 
 628  0E  IAML    2251 10.63       974.9 0.46                          85.7 117 
 627  0Z  IAML    2251 16.38       393.3 0.52                           101 135 
 626  0Z IP       2251  3.42   85                         97   -0.00 8  105 158 
 626  0N ES       2251 16.42                              97   -0.26 8  105 158 
 626  0Z  IAML    2251 16.82       523.9 0.33                           105 158 
 629  0E  IAML    2251 24.43       607.8 0.54                           124 137 
 629  0Z  IAML    2251 24.66       380.4 0.76                           124 137 
 630  0Z IP       2251  8.55   67                         58   -0.09 7  139 122 
 630  0N ES       2251 25.98                              58    0.12 7  139 122 
 630  0Z  IAML    2251 27.37       827.2 0.39                           139 122 
 631  0Z  IAML    2251 34.85       925.8 0.71                           172 151 
 632  0E  IAML    2251 40.33       812.0 0.94                           195 131 
                                                                                
 2016 1125 0156 34.1 L  72.742 124.929 14.5  BER  7 0.2 0.6LBER 1.3CBER        1
 GAP=233        0.47       2.4     5.6  6.0  0.2432E+01 -0.2356E+02 -0.1492E+01E
 ACTION:REG 18-11-20 15:40 OP:art  STATUS:               ID:20161125015508     I
 2016-11-25-0155-08M.arct__039                                                 6
 STAT SP IPHASW D HRMM SECON CODA AMPLIT PERI AZIMU VELO AIN AR TRES W  DIS CAZ7
 620  0Z IP        156 38.31                             121   -0.1910 21.7 243 
 620  0N ES        156 42.09                             121    0.2810 21.7 243 
 620  0Z  IAML     156 43.32         7.2 0.50                          21.7 243 
 622  0Z IP        156 40.36                             109   -0.22 9 35.9 159 
 622  0E ES        156 45.42                             109   -0.05 9 35.9 159 
 622  0Z  IAML     156 47.11         3.5 0.15                          35.9 159 
 624  0Z IP        156 43.31   41                        102   -0.07 9 53.8 123 
 624  0E ES        156 50.63                             102    0.23 9 53.8 123 
 624  0Z  IAML     156 50.79         6.7 0.19                          53.8 123 
 621  0Z IP        156 44.79   36                        100    0.07 9 62.3 181 
 621  0N ES        156 52.50                             100   -0.25 9 62.3 181 
 621  0Z  IAML     156 54.72         2.3 0.42                          62.3 181 
 628  0Z IP        156 47.80                              97   -0.29 8 83.4 116 
 628  0N ES        156 58.61                              97   -0.07 8 83.4 116 
 628  0Z  IAML     156 58.74         3.3 0.20                          83.4 116 
 626  0Z IP        156 51.26   45                         96    0.13 7  102 158 
 626  0E ES        157  4.29                              96    0.25 7  102 158 
 626  0Z  IAML     157  4.57         1.4 0.44                           102 158 
 630  0Z IP        156 57.01   38                         58    0.39 6  137 121 
 630  0N ES        157 13.89                              58    0.18 6  137 121 
 630  0Z  IAML     157 15.36         5.6 0.19                           137 121 
                                                                                
 2016 1125 0517 25.9 L  72.765 124.947 13.5  BER  6 0.2 1.6LBER 1.0CBER        1
 GAP=240        0.55       3.0     6.9  8.3  0.3557E+01 -0.3968E+02 -0.2877E+01E
 ACTION:REG 18-11-22 12:44 OP:art  STATUS:               ID:20161125051714     I
 2016-11-25-0517-14M.arct__039                                                 6
 STAT SP IPHASW D HRMM SECON CODA AMPLIT PERI AZIMU VELO AIN AR TRES W  DIS CAZ7
 620  0Z IP        517 30.42   34                        117    0.0410 23.4 238 
 620  0N ES        517 33.71                             117   -0.1010 23.4 238 
 620  0Z  IAML     517 34.59       119.4 0.24                          23.4 238 
 622  0Z IP        517 32.38   33                        106   -0.20 9 38.0 161 
 622  0E ES        517 37.98                             106    0.30 9 38.0 161 
 622  0Z  IAML     517 38.18        66.7 0.69                          38.0 161 
 624  0Z IP        517 35.40   32                        101    0.20 9 54.8 125 
 624  0E ES        517 42.50                             101    0.19 9 54.8 125 
 624  0Z  IAML     517 43.14        32.8 0.24                          54.8 125 
 621  0Z IP        517 37.11   36                         99    0.31 8 64.8 182 
 621  0N ES        517 44.80                              99   -0.33 8 64.8 182 
 621  0Z  IAML     517 47.45        45.5 0.66                          64.8 182 
 628  0Z IP        517 39.72   26                         97   -0.15 8 84.0 118 
 628  0N ES        517 50.03                              97   -0.50 8 84.0 118 
 628  0Z  IAML     517 50.56        33.4 0.49                          84.0 118 
 626  0Z IP        517 43.39   26                         95    0.22 7  105 159 
 626  0E ES        517 56.25                              95   -0.08 7  105 159 
 626  0Z  IAML     517 56.73        22.4 0.41                           105 159 
                                                                                
 2016 1125 0525 15.9 L  72.774 124.950 11.6  BER  6 0.3 0.8LBER 1.3CBER        1
 GAP=242        0.66       3.6     8.4 12.3  0.4803E+01 -0.7412E+02 -0.5774E+01E
 ACTION:REG 18-11-22 13:29 OP:art  STATUS:               ID:20161125052350     I
 2016-11-25-0523-50M.arct__039                                                 6
 STAT SP IPHASW D HRMM SECON CODA AMPLIT PERI AZIMU VELO AIN AR TRES W  DIS CAZ7
 620  0Z IP        525 20.47                             112    0.1110 24.1 236 
 620  0N ES        525 23.76                             112   -0.0210 24.1 236 
 620  0Z  IAML     525 24.62        14.7 0.17                          24.1 236 
 622  0Z IP        525 22.38                             103   -0.29 9 39.0 162 
 622  0Z  IAML     525 27.15         7.5 0.23                          39.0 162 
 622  0E ES        525 27.94                             103    0.11 9 39.0 162 
 624  0Z IP        525 25.31   35                         98    0.05 9 55.3 126 
 624  0N ES        525 32.71                              98    0.32 9 55.3 126 
 624  0Z  IAML     525 32.74        12.9 0.25                          55.3 126 
 621  0Z IP        525 26.90   40                         97   -0.05 8 65.9 182 
 621  0N ES        525 34.94                              97   -0.43 8 65.9 182 
 621  0Z  IAML     525 37.48         5.6 0.65                          65.9 182 
 628  0Z IP        525 29.78   36                         95   -0.15 8 84.5 119 
 628  0N ES        525 40.09                              95   -0.52 8 84.5 119 
 628  0Z  IAML     525 40.84         5.1 0.47                          84.5 119 
 626  0Z IP        525 33.97   39                         94    0.66 7  106 159 
 626  0Z  IAML     525 46.74         3.0 0.27                           106 159 
 626  0E ES        525 46.99                              94    0.42 7  106 159 
                                                                                
 2016 1125 0556  2.0 L  72.735 124.975  5.7  BER  6 0.4 0.2LBER 0.8CBER        1
 GAP=229        0.83       4.3     9.7  7.4  0.1477E+02 -0.5251E+02 -0.5553E+01E
 ACTION:REG 18-11-22 15:21 OP:art  STATUS:               ID:20161125055436     I
 2016-11-25-0554-36M.arct__039                                                 6
 STAT SP IPHASW D HRMM SECON CODA AMPLIT PERI AZIMU VELO AIN AR TRES W  DIS CAZ7
 620  0Z IP        556  5.82   21                         93   -0.2810 22.7 247 
 620  0N ES        556  9.22                              93    0.0410 22.7 247 
 620  0Z  IAML     556  9.74         4.4 0.13                          22.7 247 
 622  0Z IP        556  7.71   26                         92   -0.3010 34.6 161 
 622  0N ES        556 12.46                              92   -0.0910 34.6 161 
 622  0Z  IAML     556 12.54         3.2 0.16                          34.6 161 
 624  0Z IP        556 11.24   28                         91    0.40 9 52.1 123 
 624  0E ES        556 17.74                              91    0.22 9 52.1 123 
 624  0Z  IAML     556 18.16         3.5 0.23                          52.1 123 
 623  0Z IP        556 11.41                              91    0.48 9 52.7 150 
 623  0E ES        556 17.98                              91    0.30 9 52.7 150 
 623  0Z  IAML     556 19.34         1.0 0.41                          52.7 150 
 628  0Z IP        556 15.17   35                         91   -0.44 8 81.7 116 
 628  0E ES        556 25.48                              91   -0.44 8 81.7 116 
 628  0Z  IAML     556 26.04         1.5 0.52                          81.7 116 
 626  0Z IP        556 19.43   32                         90    0.69 7  101 159 
 626  0N ES        556 30.76                              90   -0.68 7  101 159 
 626  0Z  IAML     556 32.73         0.8 0.15                           101 159 
                                                                                
