 2016  824 1510 30.4 L  71.607 130.049  8.6  BER  9 0.3 1.5LBER 1.7CBER        1
 GAP=305        0.43       3.0    10.2  3.7 -0.3366E+01 -0.7720E+01 -0.5701E+01E
 ACTION:UP  21-01-08 21:12 OP:elen STATUS:               ID:20160824150955     I
 OLDACT:REG 21-01-08 15:28 OP:elen STATUS:               ID:20160824150955     3
 2016-08-24-1509-55M.arct__039                                                 6
 STAT SP IPHASW D HRMM SECON CODA AMPLIT PERI AZIMU VELO AIN AR TRES W  DIS CAZ7
 632  0Z IP       1510 36.19   44                         98   -0.2610 34.6 264 
 632  0N ES       1510 40.97                              98   -0.0510 34.6 264 
 632  0E  IAML    1510 41.82        55.3 0.16                          34.6 264 
 631  0Z IP       1510 47.35   52                         92    0.08 7  102 258 
 631  0N ES       1511  0.22                              92    0.15 7  102 258 
 631  0N  IAML    1511  4.84        17.2 0.26                           102 258 
 628  0Z IP       1510 52.52   50                         92    0.13 6  134 313 
 628  0N ES       1511  9.14                              92    0.07 6  134 313 
 628  0N  IAML    1511  9.68        12.3 0.35                           134 313 
 626  0Z IP       1510 54.14   50                         92    0.12 6  144 285 
 626  0N ES       1511 11.92                              92   -0.03 6  144 285 
 626  0N  IAML    1511 16.04         4.8 0.21                           144 285 
 625  0Z IP       1510 55.30   54                         91    0.16 6  151 297 
 625  0N ES       1511 13.96                              91    0.04 6  151 297 
 625  0N  IAML    1511 16.35         7.2 0.37                           151 297 
 624  0Z IP       1510 56.55   50                         58   -0.36 5  162 309 
 624  0N ES       1511 16.10                              58   -0.93 5  162 309 
 624  0N  IAML    1511 18.49        10.4 0.22                           162 309 
 623  0Z IP       1510 58.07   59                         58    0.28 5  169 300 
 623  0N ES       1511 18.75                              58    0.17 5  169 300 
 623  0N  IAML    1511 23.33         3.5 0.31                           169 300 
 622  0Z IP       1511  0.82   57                         58    0.38 4  188 302 
 622  0N ES       1511 23.48                              58    0.23 4  188 302 
 622  0N  IAML    1511 25.19         6.3 0.27                           188 302 
 621  0Z IP       1511  1.22   61                         58    0.46 4  190 292 
 621  0N ES       1511 24.18                              58    0.37 4  190 292 
 621  0E  IAML    1511 25.52         2.5 0.22                           190 292 
                                                                                
 2016  9 6 1514 39.7 L  72.508 125.684 12.1  BER  6 0.1 0.9LBER-0.4CBER        1
 GAP=169        0.29       0.9     2.1  2.1  0.4338E+00  0.4279E+00 -0.2841E+00E
 ACTION:ARG 20-04-02 17:38 OP:mn   STATUS:               ID:20160906151318     I
 2016-09-06-1513-18M.SIOLA_039                                                 6
 STAT SP IPHASW D HRMM SECON CODA AMPLIT PERI AZIMU VELO AIN AR TRES W  DIS CAZ7
 622  0Z IP     C 1514 42.78    7                        127   -0.0510 14.5 240 
 622  0N ES       1514 45.31                             127    0.0710 14.5 240 
 622  0Z  IAML    1514 45.95        16.0 0.13                          14.5 240 
 624  0Z IP     C 1514 43.55    4                        118   -0.0610 20.2 100 
 624  0N ES       1514 46.71                             118    0.1010 20.2 100 
 624  0Z  IAML    1514 46.87       161.8 0.17                          20.2 100 
 623  0Z IP     D 1514 43.56                             117   -0.0910 20.5 173 
 623  0E ES       1514 46.57                             117   -0.1210 20.5 173 
 623  0Z  IAML    1514 46.77        26.6 0.14                          20.5 173 
 625  0Z IP     C 1514 46.57   25                        103   -0.05 9 39.9 159 
 625  0E ES       1514 51.99                             103    0.08 9 39.9 159 
 625  0Z  IAML    1514 53.15         6.1 0.55                          39.9 159 
 621  0Z IP     D 1514 47.54   15                        101    0.11 9 45.1 217 
 621  0N ES       1514 53.37                             101    0.04 9 45.1 217 
 621  0Z  IAML    1514 54.45         6.5 0.39                          45.1 217 
 620  0Z IP     C 1514 47.89   21                        101    0.07 9 47.5 291 
 620  0N ES       1514 53.95                             101   -0.07 9 47.5 291 
 620  0Z  IAML    1514 54.31        10.0 0.36                          47.5 291 
                                                                                
 2016  920 1607 18.3 L  69.237 128.350 16.2  BER  4 0.7 2.6LBER 2.4CBER        1
 GAP=345        1.10     872.7   276.8999.9 -0.1092E+06  0.1347E+06 -0.9286E+06E
 ACTION:UP  20-04-15 05:22 OP:alex STATUS:               ID:20160920160640     I
 OLDACT:UP  20-04-05 22:34 OP:alex STATUS:               ID:20160920160640     3
 OLDACT:ARG 20-04-05 21:50 OP:alex STATUS:               ID:20160920160640     3
 2016-09-20-1606-40M.SIOLA_039                                                 6
 STAT SP IPHASW D HRMM SECON CODA AMPLIT PERI AZIMU VELO AIN AR TRES W  DIS CAZ7
 631  0Z EP     C 16 7 56.34   80                         51    1.2810  245 351 
 631  0Z E        16 7 56.42                  195.4  8.5     26         245 351 
 631  0E ES       16 8 23.34                              51    0.3310  245 351 
 631  0E  IAML    16 8 25.86        64.4 0.23                           245 351 
 631  0Z  IAML    16 8 26.84        39.4 0.59                           245 351 
 631  0N  IAML    16 8 31.22        27.8 0.80                           245 351 
 632  0Z EP     C 16 7 56.71   78                         51   -0.52 7  262   6 
 632  0Z E        16 7 56.76                  184.1  5.6     -1         262   6 
 632  0E ES       16 8 23.88                              51   -2.95 7  262   6 
 632  0Z  IAML    16 8 28.97        44.1 0.78                           262   6 
 629  0Z EP     C 16 8  6.29   80                         51    3.97 0  303 353 
 629  0Z E        16 8  6.31                  187.2  5.9     15         303 353 
 629  0E ES       16 8 37.98                              51    2.20 0  303 353 
 629  0E  IAML    16 8 39.18        32.8 0.50                           303 353 
 629  0Z  IAML    16 8 39.38        17.7 0.63                           303 353 
 629  0N  IAML    16 8 43.77        13.5 0.78                           303 353 
 625  0Z EP     C 16 8 13.64   88                         51    6.93 0  338 347 
 625  0Z E        16 8 13.65                  163.5  5.7      0         338 347 
 625  0E ES       16 8 48.87                              51    5.36 0  338 347 
 625  0Z  IAML    16 8 54.77        24.0 0.35                           338 347 
 625  0E  IAML    16 8 58.26        22.6 0.44                           338 347 
 625  0N  IAML    16 9  3.65        26.2 0.52                           338 347 
                                                                                
 2016  925 1911  5.6 L  69.225 127.688 15.6  BER  4 0.7 2.3LBER 2.5CBER        1
 GAP=346        0.88     811.3   213.0992.0  0.1407E+05 -0.1711E+05 -0.8026E+06E
 ACTION:UP  20-04-15 12:36 OP:alex STATUS:               ID:20160925191028     I
 OLDACT:UP  20-04-05 23:20 OP:alex STATUS:               ID:20160925191028     3
 OLDACT:ARG 20-04-05 21:50 OP:alex STATUS:               ID:20160925191028     3
 2016-09-25-1910-28M.SIOLA_039                                                 6
 STAT SP IPHASW D HRMM SECON CODA AMPLIT PERI AZIMU VELO AIN AR TRES W  DIS CAZ7
 631  0Z EP     C 1911 43.28   93                         51    1.0910  243 356 
 631  0Z E        1911 43.29                  192.7  4.7     17         243 356 
 631  0E ES       1912 10.59                              51    0.5610  243 356 
 631  0Z  IAML    1912 11.76        20.9 0.22                           243 356 
 632  0Z EP     C 1911 44.08   95                         51   -1.12 6  267  11 
 632  0Z E        1911 44.10                  186.0  4.9     -5         267  11 
 632  0E ES       1912 11.44                              51   -3.88 6  267  11 
 632  0E  IAML    1912 14.29        21.9 0.25                           267  11 
 632  0Z  IAML    1912 15.95        11.2 0.42                           267  11 
 632  0N  IAML    1912 16.06        14.4 0.32                           267  11 
 630  0Z EP     C 1911 53.97   87                         51    2.31 0  319   4 
 630  0Z E        1911 53.98                  256.0  6.4     71         319   4 
 630  0E ES       1912 27.39                              51    0.69 0  319   4 
 630  0E  IAML    1912 28.10        24.2 0.46                           319   4 
 630  0Z  IAML    1912 28.98        11.2 0.60                           319   4 
 630  0N  IAML    1912 29.21         7.8 0.28                           319   4 
 628  0Z EP     C 1912  1.65   84                         51    5.49 0  355 357 
 628  0Z E        1912  1.66                   69.4  8.3    -99         355 357 
 628  0E ES       1912 38.75                              51    4.14 0  355 357 
 628  0Z  IAML    1912 45.10         9.2 0.42                           355 357 
                                                                                
 2016 10 4 0841 51.2 L  72.848 124.964 15.6  BER  6 0.3 0.2LBER 0.1CBER        1
 GAP=260        0.71       5.4    11.9 17.5  0.3034E+02 -0.1633E+03 -0.5096E+02E
 ACTION:ARG 20-04-11 14:12 OP:mn   STATUS:               ID:20161004084031     I
 2016-10-04-0840-31M.SIOLA_039                                                 6
 STAT SP IPHASW D HRMM SECON CODA AMPLIT PERI AZIMU VELO AIN AR TRES W  DIS CAZ7
 620  0Z IP     C  841 56.88   18                        115    0.0710 29.7 224 
 620  0N ES        842  0.82                             115   -0.2310 29.7 224 
 620  0Z  IAML     842  3.26         1.0 0.06                          29.7 224 
 622  0Z IP     D  841 59.60   19                        106    0.21 9 46.7 165 
 622  0N ES        842  5.58                             106   -0.01 9 46.7 165 
 622  0Z  IAML     842  6.03         2.3 0.23                          46.7 165 
 624  0Z IP     D  842  1.64   14                        102    0.14 9 60.2 133 
 624  0E ES        842  9.23                             102   -0.08 9 60.2 133 
 624  0Z  IAML     842  9.78         2.7 0.17                          60.2 133 
 623  0Z IP     D  842  2.47   13                        101    0.37 9 64.0 155 
 623  0N ES        842 11.04                             101    0.67 9 64.0 155 
 623  0Z  IAML     842 11.77         1.5 0.22                          64.0 155 
 628  0Z IP     D  842  5.79   16                         98   -0.18 8 88.3 123 
 628  0N ES        842 16.69                              98   -0.48 8 88.3 123 
 628  0Z  IAML     842 18.57         1.0 0.08                          88.3 123 
 626  0Z IP     D  842  9.64   20                         96   -0.30 7  113 161 
 626  0E ES        842 23.50                              96   -0.65 7  113 161 
 626  0Z  IAML     842 25.73         0.5 0.13                           113 161 
                                                                                
 2016 10 5 1619 46.9 L  72.877 125.015 19.0  BER  9 0.2 1.0LBER 0.4CBER        1
 GAP=264        0.50       3.0     5.9  3.0  0.3465E+01 -0.9131E+01 -0.3363E+01E
 ACTION:ARG 20-04-11 14:12 OP:mn   STATUS:               ID:20161005161823     I
 2016-10-05-1618-23M.SIOLA_039                                                 6
 STAT SP IPHASW D HRMM SECON CODA AMPLIT PERI AZIMU VELO AIN AR TRES W  DIS CAZ7
 620  0Z IP     C 1619 53.22   14                        118   -0.0110 33.3 222 
 620  0E ES       1619 57.77                             118   -0.2810 33.3 222 
 620  0Z  IAML    1619 58.27        10.0 0.26                          33.3 222 
 622  0Z IP     C 1619 55.67   24                        109    0.03 9 49.5 168 
 622  0N ES       1620  2.15                             109   -0.15 9 49.5 168 
 622  0Z  IAML    1620  2.41        12.4 0.26                          49.5 168 
 624  0Z IP     C 1619 57.78   12                        105    0.32 9 61.3 136 
 624  0E ES       1620  5.66                             105    0.17 9 61.3 136 
 624  0Z  IAML    1620  6.07        13.9 0.20                          61.3 136 
 623  0Z IP     D 1619 58.49   14                        104    0.25 9 66.3 158 
 623  0E ES       1620  7.08                             104    0.20 9 66.3 158 
 623  0Z  IAML    1620  8.02         7.1 0.21                          66.3 158 
 621  0Z IP     D 1620  0.03   18                        102    0.04 8 77.4 183 
 621  0N ES       1620 10.27                             102    0.31 8 77.4 183 
 621  0Z  IAML    1620 10.74         9.1 0.26                          77.4 183 
 628  0Z IP     D 1620  1.57   24                        100   -0.21 8 88.7 126 
 628  0E ES       1620 12.86                             100   -0.25 8 88.7 126 
 628  0Z  IAML    1620 13.38         4.9 0.14                          88.7 126 
 627  0Z IP     D 1620  4.99   37                         98    0.22 7  107 141 
 627  0E ES       1620 17.78                              98   -0.58 7  107 141 
 627  0Z  IAML    1620 18.01         3.3 0.70                           107 141 
 629  0Z IP     D 1620  8.38   25                         58    0.15 6  131 143 
 629  0E ES       1620 24.46                              58    0.01 6  131 143 
 629  0Z  IAML    1620 25.99         5.6 0.17                           131 143 
 630  0Z IP     D 1620  9.67   29                         58   -0.15 6  143 127 
 630  0E ES       1620 26.89                              58   -0.36 6  143 127 
 630  0Z  IAML    1620 27.89         4.1 0.22                           143 127 
                                                                                
 2016 10 6 0156 55.9 L  72.874 125.016 13.9  BER  7 0.1 1.0LBER 0.8CBER        1
 GAP=263        0.34       2.3     4.1  3.7  0.2089E+01 -0.7223E+01 -0.2593E+01E
 ACTION:ARG 20-04-11 14:12 OP:mn   STATUS:               ID:20161006015532     I
 2016-10-06-0155-32M.SIOLA_039                                                 6
 STAT SP IPHASW D HRMM SECON CODA AMPLIT PERI AZIMU VELO AIN AR TRES W  DIS CAZ7
 620  0Z IP     C  157  1.78   21                        110   -0.0610 33.1 222 
 620  0N ES        157  6.32                             110   -0.0610 33.1 222 
 620  0Z  IAML     157  6.94         7.4 0.28                          33.1 222 
 622  0Z IP     C  157  4.35   18                        103   -0.00 9 49.3 168 
 622  0N ES        157 10.75                             103   -0.05 9 49.3 168 
 622  0Z  IAML     157 10.80        14.9 0.26                          49.3 168 
 624  0Z IP     D  157  6.38   32                        100    0.16 9 61.1 136 
 624  0E ES        157 14.22                             100    0.13 9 61.1 136 
 624  0Z  IAML     157 14.72        11.1 0.18                          61.1 136 
 623  0Z IP     D  157  7.18   36                         99    0.17 9 66.1 158 
 623  0E ES        157 15.67                              99    0.18 9 66.1 158 
 623  0Z  IAML     157 16.76         6.4 0.18                          66.1 158 
 628  0Z IP     D  157 10.53   30                         96   -0.08 8 88.6 126 
 628  0E ES        157 21.50                              96   -0.33 8 88.6 126 
 628  0Z  IAML     157 22.62         8.0 0.20                          88.6 126 
 627  0Z IP     C  157 13.67   29                         95    0.06 7  107 141 
 627  0Z  IAML     157 26.49         3.7 0.63                           107 141 
 627  0E ES        157 26.93                              95   -0.17 7  107 141 
 631  0Z IP     C  157 24.68   34                         58    0.14 4  181 154 
 631  0E ES        157 46.16                              58   -0.18 4  181 154 
 631  0Z  IAML     157 48.38         5.3 0.29                           181 154 
                                                                                
 2016 10 9 0036 44.9 L  72.858 124.961 18.6  BER  7 0.3 1.2LBER 1.3CBER        1
 GAP=264        0.56       4.3    12.1  4.3  0.2650E+02 -0.4143E+02 -0.1033E+02E
 ACTION:ARG 20-04-11 14:12 OP:mn   STATUS:               ID:20161009003502     I
 2016-10-09-0035-02M.SIOLA_039                                                 6
 STAT SP IPHASW D HRMM SECON CODA AMPLIT PERI AZIMU VELO AIN AR TRES W  DIS CAZ7
 620  0Z IP     C  036 50.84   32                        119   -0.0310 30.5 222 
 620  0N ES        036 55.38                             119    0.0210 30.5 222 
 620  0Z  IAML     036 56.58        16.7 0.10                          30.5 222 
 622  0Z IP     C  036 53.50   32                        109    0.07 9 47.9 166 
 622  0N ES        036 59.75                             109   -0.13 9 47.9 166 
 622  0Z  IAML     036 59.81        24.2 0.25                          47.9 166 
 623  0Z IP     C  036 56.35   38                        104    0.25 9 65.1 155 
 623  0E ES        037  4.77                             104    0.20 9 65.1 155 
 623  0Z  IAML     037  5.81         6.2 0.14                          65.1 155 
 621  0Z IP     D  036 57.60   35                        102   -0.10 8 75.2 182 
 621  0E ES        037  7.10                             102   -0.28 8 75.2 182 
 621  0Z  IAML     037  8.38        15.3 0.24                          75.2 182 
 629  0Z IP     C  037  6.43   45                         58    0.18 6  131 141 
 629  0N ES        037 22.76                              58    0.33 6  131 141 
 629  0Z  IAML     037 23.64         7.5 0.18                           131 141 
 630  0Z IP     C  037  7.41   51                         58   -0.53 6  143 126 
 630  0E ES        037 24.61                              58   -0.80 6  143 126 
 630  0Z  IAML     037 26.45         6.3 0.14                           143 126 
 631  0Z IP     D  037 13.60   46                         58    0.50 4  181 153 
 631  0E ES        037 35.16                              58    0.66 4  181 153 
 631  0Z  IAML     037 37.16         4.4 0.15                           181 153 
                                                                                
