 2016  818 1613  9.3 L  72.991 124.878 22.8  BER  6 0.1 1.1LBER 1.0CBER        1
 GAP=295        0.28       2.0     5.0  1.9  0.1492E+01 -0.3156E+01 -0.1002E+01E
 ACTION:ARG 20-05-11 21:31 OP:mn   STATUS:               ID:20160818161147     I
 2016-08-18-1611-47M.arct__039                                                 6
 STAT SP IPHASW D HRMM SECON CODA AMPLIT PERI AZIMU VELO AIN AR TRES W  DIS CAZ7
 620  0Z IP     C 1613 16.96                             117   -0.1610 41.5 205 
 620  0E ES       1613 23.16                             117    0.1110 41.5 205 
 620  0Z  IAML    1613 24.06       191.9 0.08                          41.5 205 
 622  0Z IP     D 1613 20.44   30                        108    0.11 9 62.9 167 
 622  0E ES       1613 28.63                             108   -0.06 9 62.9 167 
 622  0Z  IAML    1613 29.83         3.6 0.20                          62.9 167 
 624  0Z IP     C 1613 22.00   23                        105   -0.00 9 73.8 140 
 624  0E ES       1613 31.70                             105    0.06 9 73.8 140 
 624  0Z  IAML    1613 32.34         9.1 0.30                          73.8 140 
 623  0Z IP     D 1613 22.97   30                        104    0.03 9 79.8 158 
 623  0N ES       1613 33.18                             104   -0.11 9 79.8 158 
 623  0Z  IAML    1613 34.86         4.9 0.65                          79.8 158 
 621  0Z IP     C 1613 24.61   39                        102    0.06 8 90.0 180 
 621  0E ES       1613 36.08                             102   -0.04 8 90.0 180 
 621  0Z  IAML    1613 36.41         5.9 0.35                          90.0 180 
 626  0Z IP     C 1613 30.03   39                         58   -0.03 7  129 162 
 626  0E ES       1613 45.87                              58    0.04 7  129 162 
 626  0Z  IAML    1613 47.36         3.0 0.23                           129 162 
                                                                                
 2016  818 1613  9.1 L  73.003 124.857 23.1  BER  6 0.1 1.4LBER 1.2CBER        1
 GAP=297        0.25       1.9     4.7  1.7  0.1242E+01 -0.2705E+01 -0.8853E+00E
 ACTION:ARG 20-05-11 21:31 OP:mn   STATUS:               ID:20160818161218     I
 2016-08-18-1612-18M.arct__039                                                 6
 STAT SP IPHASW D HRMM SECON CODA AMPLIT PERI AZIMU VELO AIN AR TRES W  DIS CAZ7
 620  0Z IP     C 1613 16.96   50                        117   -0.0910 42.4 204 
 620  0E ES       1613 23.10                             117    0.0010 42.4 204 
 620  0Z  IAML    1613 24.06       187.0 0.08                          42.4 204 
 622  0Z IP     C 1613 20.42   40                        108    0.08 9 64.4 166 
 622  0E ES       1613 28.96                             108    0.08 9 64.4 166 
 622  0Z  IAML    1613 30.04       165.3 0.08                          64.4 166 
 624  0Z IP     C 1613 22.04   32                        105    0.02 9 75.3 141 
 624  0E ES       1613 31.71                             105   -0.13 9 75.3 141 
 624  0Z  IAML    1613 32.34         8.6 0.33                          75.3 141 
 623  0Z IP     D 1613 22.98   31                        104    0.02 8 81.3 158 
 623  0E ES       1613 33.55                             104    0.05 8 81.3 158 
 623  0Z  IAML    1613 34.86         4.7 0.64                          81.3 158 
 621  0Z IP     D 1613 24.62   27                        102    0.07 8 91.4 179 
 621  0N ES       1613 36.22                             102   -0.07 8 91.4 179 
 621  0Z  IAML    1613 36.41         5.9 0.35                          91.4 179 
 626  0Z IP     C 1613 30.01   33                         58   -0.01 7  131 162 
 626  0E ES       1613 45.90                              58   -0.03 7  131 162 
 626  0Z  IAML    1613 47.01         3.6 0.19                           131 162 
                                                                                
 2016  819 0959 27.3 L  71.923 129.765 12.1  BER 13 0.4 4.0LBER                1
 GAP=270        0.60       2.2    11.1  5.5  0.1093E+02 -0.9963E+01 -0.3864E+01E
 ACTION:REG 25-04-10 18:57 OP:mn   STATUS:               ID:20160819095900     I
 2016_08_19T09-59-00.mseed                                                     6
 STAT SP IPHASW D HRMM SECON CODA AMPLIT PERI AZIMU VELO AIN AR TRES W  DIS CAZ7
 632  0E IP        959 35.00                             101   -0.2010 45.9 212 
 632  0N ES        959 40.95                             101   -0.2510 45.9 212 
 632  0Z  IAML     959 42.18      3428.0 0.50                          45.9 212 
 630  0Z IP        959 35.80                              99   -0.4510 52.5 289 
 630  0N ES        959 42.95                              99   -0.0910 52.5 289 
 630  0Z  IAML     959 46.27      6335.7 0.50                          52.5 289 
 629  0Z IP        959 41.61                              95    0.17 8 84.9 272 
 629  0N ES        959 52.54                              95    0.36 8 84.9 272 
 629  0Z  IAML     959 54.21      5389.1 0.68                          84.9 272 
 627  0Z IP        959 43.92                              95    0.33 8 98.3 284 
 627  0N ES        959 56.12                              95    0.15 8 98.3 284 
 627  0Z  IAML     959 57.55      6763.1 0.60                          98.3 284 
 628  0Z IP        959 44.91                              94    0.39 8  104 302 
 628  0N ES        959 57.57                              94   -0.04 8  104 302 
 628  0Z  IAML     959 57.77     13247.3 0.30                           104 302 
 631  0Z IP        959 45.27                              94    0.44 8  106 238 
 631  0N ES        959 58.28                              94    0.13 8  106 238 
 631  0Z  IAML    10 0  1.30      2476.7 0.62                           106 238 
 625  0Z IP        959 48.89                              93    0.37 7  129 284 
 625  0N ES       10 0  4.75                              93    0.11 7  129 284 
 626  0Z IP        959 48.58                              93   -0.00 7  129 270 
 626  0N ES       10 0  4.52                              93   -0.24 7  129 270 
 626  0Z  IAML    10 0 10.31      1874.4 0.66                           129 270 
 624  0Z IP        959 49.30                              93   -0.05 7  134 299 
 624  0N ES       10 0  5.26                              93   -0.85 7  134 299 
 624  0Z  IAML    10 0  8.14      5848.4 0.52                           134 299 
 623  0Z IP        959 51.25                              93    0.24 6  144 290 
 623  0N ES       10 0  9.06                              93    0.04 6  144 290 
 623  0Z  IAML    10 0 14.10      3316.0 0.94                           144 290 
 622  0Z  IAML    10 0 18.96      1930.7 0.68                           163 293 
 621  0Z IP        959 55.04                              58    0.45 5  170 282 
 621  0N ES       10 0 15.56                              58    0.24 5  170 282 
 621  0Z  IAML    10 0 16.65      3575.6 0.48                           170 282 
 620  0Z IP        959 58.46                              58   -0.37 4  201 296 
 620  0N ES       10 0 21.35                              58   -1.45 4  201 296 
 620  0Z  IAML    10 0 30.78      4656.0 8.67                           201 296 
                                                                                
 2016  820 1506 15.7 L  71.938 129.795 11.0  BER  9 0.4 1.5LBER 1.6CBER        1
 GAP=274        0.63       2.9    14.3  5.5  0.2417E+02 -0.1514E+02 -0.5696E+01E
 ACTION:ARG 20-05-11 21:31 OP:mn   STATUS:               ID:20160820150518     I
 2016-08-20-1505-18M.arct__039                                                 6
 STAT SP IPHASW D HRMM SECON CODA AMPLIT PERI AZIMU VELO AIN AR TRES W  DIS CAZ7
 632  0Z IP     C 15 6 23.53   49                         99   -0.3110 47.8 212 
 632  0N ES       15 6 30.12                              99    0.0710 47.8 212 
 632  0Z  IAML    15 6 31.02        32.4 0.08                          47.8 212 
 630  0Z IP     C 15 6 24.19   55                         98   -0.4610 52.9 287 
 630  0N ES       15 6 31.47                              98   -0.0110 52.9 287 
 630  0Z  IAML    15 6 34.99        14.1 0.08                          52.9 287 
 627  0Z IP     D 15 6 32.55   41                         94    0.52 8 98.9 283 
 627  0N ES       15 6 44.86                              94    0.39 8 98.9 283 
 627  0Z  IAML    15 6 45.43        10.4 0.14                          98.9 283 
 625  0Z  IAML    15 6 53.90         9.9 0.22                           130 283 
 626  0Z IP     D 15 6 37.20   50                         93    0.10 7  130 269 
 626  0N ES       15 6 53.15                              93   -0.24 7  130 269 
 626  0Z  IAML    15 6 56.02        10.3 0.26                           130 269 
 625  0Z IP     D 15 6 37.63   46                         93    0.67 7  130 283 
 625  0N ES       15 6 53.28                              93    0.13 7  130 283 
 624  0Z IP     C 15 6 37.56   41                         93   -0.16 7  134 298 
 624  0N ES       15 6 53.82                              93   -0.66 7  134 298 
 624  0Z  IAML    15 6 57.73        12.9 0.17                           134 298 
 623  0Z IP     D 15 6 39.94   52                         93    0.52 6  145 289 
 623  0N ES       15 6 57.35                              93   -0.13 6  145 289 
 623  0Z  IAML    15 7  1.67         8.8 0.62                           145 289 
 622  0Z IP     C 15 6 42.27   56                         58    0.22 5  163 292 
 622  0E ES       15 7  1.51                              58   -0.60 5  163 292 
 622  0Z  IAML    15 7  4.89         5.2 0.19                           163 292 
 621  0Z IP     C 15 6 43.48   47                         58    0.35 5  171 282 
 621  0N ES       15 7  4.13                              58    0.13 5  171 282 
 621  0Z  IAML    15 7  5.78         9.4 0.32                           171 282 
                                                                                
 2016  820 1904 45.7 L  72.348 127.189 23.8  BER  6 0.1 1.2LBER 1.2CBER        1
 GAP=307        0.31       1.8     6.9  1.6  0.6900E-01 -0.2408E+01 -0.6913E+00E
 ACTION:ARG 20-05-11 21:31 OP:mn   STATUS:               ID:20160820190332     I
 2016-08-20-1903-32M.arct__039                                                 6
 STAT SP IPHASW D HRMM SECON CODA AMPLIT PERI AZIMU VELO AIN AR TRES W  DIS CAZ7
 624  0Z IP     C 19 4 52.49   33                        124    0.0110 34.0 295 
 624  0E ES       19 4 57.67                             124   -0.0010 34.0 295 
 624  0Z  IAML    19 4 58.55        57.9 0.11                          34.0 295 
 625  0Z IP     C 19 4 53.49   36                        118   -0.0510 41.6 243 
 625  0E ES       19 4 59.56                             118    0.0310 41.6 243 
 625  0Z  IAML    19 5  3.27        14.8 0.28                          41.6 243 
 623  0Z IP     C 19 4 54.67   45                        114    0.14 9 48.5 268 
 623  0N ES       19 5  1.49                             114    0.21 9 48.5 268 
 623  0Z  IAML    19 5  4.27        17.9 0.45                          48.5 268 
 622  0Z IP     C 19 4 56.82   34                        109   -0.08 9 64.2 280 
 622  0N ES       19 5  5.27                             109   -0.17 9 64.2 280 
 622  0Z  IAML    19 5  5.46        11.7 0.17                          64.2 280 
 621  0Z IP     C 19 4 59.28   33                        105   -0.11 8 80.3 258 
 621  0E ES       19 5  9.69                             105   -0.13 8 80.3 258 
 621  0Z  IAML    19 5  9.88        14.0 0.25                          80.3 258 
 620  0Z IP     D 19 5  2.52   37                         58    0.01 7  101 291 
 620  0N ES       19 5 15.40                              58    0.08 7  101 291 
 620  0Z  IAML    19 5 19.30         7.3 0.19                           101 291 
                                                                                
 2016  822 1318 49.5 L  72.365 127.084 16.5  BER  8 0.1 0.6LBER 1.4CBER        1
 GAP= 98        0.34       1.0     2.7  1.8  0.1007E+01  0.1707E+01  0.7603E+00E
 ACTION:UP  21-01-08 22:12 OP:elen STATUS:               ID:20160822131743     I
 OLDACT:REG 21-01-08 15:24 OP:elen STATUS:               ID:20160822131743     3
 2016-08-22-1317-43M.arct__039                                                 6
 STAT SP IPHASW D HRMM SECON CODA AMPLIT PERI AZIMU VELO AIN AR TRES W  DIS CAZ7
 628  0Z IP       1318 52.33   40                        164    0.0210 4.47  28 
 628  0N ES       1318 54.47                             164    0.0110 4.47  28 
 628  0N  IAML    1318 54.58        79.2 0.14                          4.47  28 
 627  0Z IP       1318 54.86   31                        118    0.02 9 27.9 187 
 627  0E ES       1318 58.85                             118   -0.08 9 27.9 187 
 627  0E  IAML    1318 59.21        13.9 0.14                          27.9 187 
 624  0Z IP       1318 55.20   43                        116    0.06 9 30.0 295 
 624  0N ES       1318 59.45                             116   -0.01 9 30.0 295 
 624  0N  IAML    1319  0.17         9.4 0.19                          30.0 295 
 625  0Z IP       1318 56.77   43                        110    0.22 9 39.4 238 
 625  0N ES       1319  2.17                             110    0.24 9 39.4 238 
 625  0E  IAML    1319  5.64         3.4 0.36                          39.4 238 
 623  0Z IP       1318 57.42   36                        107    0.02 9 45.0 265 
 623  0E ES       1319  3.30                             107   -0.14 9 45.0 265 
 623  0E  IAML    1319  3.64         2.5 0.18                          45.0 265 
 630  0Z IP       1318 58.72   48                        105    0.04 8 53.3 127 
 630  0E ES       1319  5.54                             105   -0.14 8 53.3 127 
 630  0E  IAML    1319  6.59         4.5 0.17                          53.3 127 
 622  0Z IP       1318 59.79   39                        103   -0.01 8 60.4 279 
 622  0N ES       1319  7.38                             103   -0.27 8 60.4 279 
 622  0N  IAML    1319  8.26         2.5 0.11                          60.4 279 
 626  0Z IP       1319  0.46   48                        102    0.07 8 64.2 215 
 626  0N ES       1319  8.56                             102   -0.14 8 64.2 215 
 626  0N  IAML    1319 10.91         1.7 0.06                          64.2 215 
                                                                                
 2016  823 0652 14.0 L  70.933 129.810  6.4  BER  6 0.2 2.9LBER 1.9CBER        1
 GAP=321        0.30       2.9     9.0  3.0 -0.3919E+01 -0.1279E+01  0.3021E+00E
 ACTION:UP  21-01-10 13:37 OP:elen STATUS:               ID:20160823065124     I
 OLDACT:REG 21-01-08 15:26 OP:elen STATUS:               ID:20160823065124     3
 2016-08-23-0651-24M.arct__039                                                 6
 STAT SP IPHASW D HRMM SECON CODA AMPLIT PERI AZIMU VELO AIN AR TRES W  DIS CAZ7
 632  0Z IP        652 26.58   61                         91   -0.0810 76.3 340 
 632  0E ES        652 36.35                              91    0.0510 76.3 340 
 632  0E  IAML     652 38.67       272.6 0.20                          76.3 340 
 631  0Z IP        652 31.42   62                         91   -0.03 9  106 301 
 631  0N ES        652 44.76                              91    0.02 9  106 301 
 631  0E  IAML     652 48.82       731.2 0.27                           106 301 
 628  0Z IP        652 44.23   56                         58   -0.02 5  189 332 
 628  0N ES        653  6.95                              58   -0.31 5  189 332 
 628  0E  IAML     653  8.73        83.3 0.37                           189 332 
 625  0Z IP        652 44.54   57                         58    0.02 5  190 318 
 625  0E ES        653  7.47                              58   -0.26 5  190 318 
 625  0N  IAML     653  9.85       125.5 0.28                           190 318 
 624  0Z IP        652 47.96   63                         58    0.48 4  212 326 
 624  0E ES        653 13.41                              58    0.47 4  212 326 
 624  0E  IAML     653 16.74       144.1 0.25                           212 326 
 622  0Z IP        652 50.28   59                         51    0.29 3  231 319 
 622  0N ES        653 17.41                              51    0.05 3  231 319 
 622  0E  IAML     653 19.90        86.8 0.19                           231 319 
                                                                                
 2016  824 1510 30.4 L  71.610 130.057  9.7  BER  9 0.3 1.5LBER 1.7CBER        1
 GAP=305        0.44       3.1    10.4  3.6 -0.2843E+01 -0.8355E+01 -0.5869E+01E
 ACTION:UP  21-01-08 17:48 OP:elen STATUS:               ID:20160824150925     I
 OLDACT:REG 21-01-08 15:28 OP:elen STATUS:               ID:20160824150925     3
 2016-08-24-1509-25M.arct__039                                                 6
 STAT SP IPHASW D HRMM SECON CODA AMPLIT PERI AZIMU VELO AIN AR TRES W  DIS CAZ7
 632  0Z IP       1510 36.22   32                        101   -0.2510 34.9 264 
 632  0N ES       1510 40.99                             101   -0.1110 34.9 264 
 632  0E  IAML    1510 41.82        57.3 0.16                          34.9 264 
 631  0Z IP       1510 47.36   47                         93    0.09 7  102 258 
 631  0N ES       1511  0.30                              93    0.18 7  102 258 
 631  0N  IAML    1511  4.84        17.3 0.27                           102 258 
 628  0Z IP       1510 52.42   50                         92    0.10 6  134 313 
 628  0E ES       1511  9.04                              92    0.04 6  134 313 
 628  0N  IAML    1511  9.68        11.8 0.34                           134 313 
 626  0Z IP       1510 54.14   56                         92    0.14 6  144 284 
 626  0N ES       1511 11.96                              92    0.01 6  144 284 
 626  0N  IAML    1511 16.05         4.8 0.22                           144 284 
 625  0Z IP       1510 55.33   54                         92    0.23 6  151 297 
 625  0N ES       1511 14.04                              92    0.15 6  151 297 
 625  0N  IAML    1511 16.35         7.3 0.37                           151 297 
 624  0Z IP       1510 56.49   54                         58   -0.26 5  162 308 
 624  0N ES       1511 16.04                              58   -0.76 5  162 308 
 624  0N  IAML    1511 18.49        10.4 0.23                           162 308 
 623  0Z IP       1510 57.94   60                         58    0.30 5  169 300 
 623  0E ES       1511 18.61                              58    0.25 5  169 300 
 623  0N  IAML    1511 23.33         3.6 0.31                           169 300 
 622  0Z IP       1511  0.26   58                         58   -0.03 4  188 302 
 622  0N ES       1511 22.56                              58   -0.46 4  188 302 
 622  0N  IAML    1511 25.19         6.4 0.26                           188 302 
 621  0Z IP       1511  1.22   61                         58    0.60 4  190 292 
 621  0N ES       1511 24.23                              58    0.63 4  190 292 
 621  0E  IAML    1511 25.52         2.6 0.22                           190 292 
                                                                                
