 2017  4 5 0307 36.1 L  71.684 128.950 14.9  BER 11 0.2 1.0LBER 1.8CBER        1
 GAP=187        0.38       1.1     5.0  2.1  0.1579E+01  0.5184E+01 -0.7574E+00E
 ACTION:UP  20-12-21 00:10 OP:elen STATUS:               ID:20170405030618     I
 OLDACT:UP  20-12-20 01:44 OP:elen STATUS:               ID:20170405030618     3
 OLDACT:UP  20-12-16 21:32 OP:elen STATUS:               ID:20170405030618     3
 OLDACT:REG 20-12-13 13:11 OP:elen STATUS:               ID:20170405030618     3
 2017-04-05-0306-18M.NSN___039                                                 6
 STAT SP IPHASW D HRMM SECON CODA AMPLIT PERI AZIMU VELO AIN AR TRES W  DIS CAZ7
 632  0Z IP        3 7 39.22   48                        137   -0.1810 13.0 161 
 632  0N ES        3 7 42.07                             137    0.1610 13.0 161 
 632  0N  IAML     3 7 42.69        27.1 0.05                          13.0 161 
 630  0Z IP        3 7 44.47   65                        104   -0.08 9 48.8 334 
 630  0N ES        3 7 50.96                             104   -0.01 9 48.8 334 
 630  0E  IAML     3 7 51.40         6.5 0.12                          48.8 334 
 629  0Z IP        3 7 46.88   48                        100    0.04 8 63.3 296 
 629  0N ES        3 7 55.19                             100    0.18 8 63.3 296 
 629  0E  IAML     3 7 56.96         2.5 0.13                          63.3 296 
 631  0Z IP        3 7 47.53   58                        100   -0.07 8 68.1 243 
 631  0N ES        3 7 56.26                             100   -0.08 8 68.1 243 
 631  0N  IAML     3 7 56.72         6.8 0.14                          68.1 243 
 627  0Z IP        3 7 50.25   43                         98    0.16 8 83.6 306 
 627  0N ES        3 8  1.00                              98    0.29 8 83.6 306 
 627  0E  IAML     3 8  1.36         3.5 0.22                          83.6 306 
 628  0Z IP        3 7 52.64   55                         96   -0.26 7  101 323 
 628  0N ES        3 8  5.23                              96   -0.43 7  101 323 
 628  0E  IAML     3 8  7.84         6.4 0.21                           101 323 
 626  0Z IP        3 7 53.31   55                         96   -0.07 7  104 284 
 626  0N ES        3 8  6.21                              96   -0.30 7  104 284 
 626  0E  IAML     3 8  9.71         7.5 0.24                           104 284 
 624  0Z IP        3 7 57.38   55                         95    0.26 6  128 315 
 624  0N ES        3 8 13.29                              95    0.20 6  128 315 
 624  0N  IAML     3 8 15.76         6.6 0.19                           128 315 
 623  0Z IP        3 7 57.86   54                         95    0.13 6  131 305 
 623  0N ES        3 8 14.04                              95   -0.13 6  131 305 
 623  0E  IAML     3 8 17.30         2.9 0.24                           131 305 
 621  0Z IP        3 8  0.75   54                         58    0.20 5  151 294 
 621  0N ES        3 8 19.13                              58   -0.01 5  151 294 
 621  0E  IAML     3 8 21.93         2.3 0.14                           151 294 
 622  0Z IP        3 8  0.73   57                         58    0.22 5  151 306 
 622  0N ES        3 8 19.09                              58    0.03 5  151 306 
 622  0N  IAML     3 8 21.09         5.1 0.20                           151 306 
                                                                                
 2017  4 5 0307 36.1 L  71.681 128.957 15.3  BER 10 0.2 1.0LBER 2.0CBER        1
 GAP=198        0.41       1.5     5.8  2.4  0.3283E+01  0.5423E+01 -0.1463E+01E
 ACTION:UP  20-12-21 00:33 OP:elen STATUS:               ID:20170405030650     I
 OLDACT:UP  20-12-20 02:02 OP:elen STATUS:               ID:20170405030650     3
 OLDACT:UP  20-12-16 23:26 OP:elen STATUS:               ID:20170405030650     3
 OLDACT:REG 20-12-13 13:16 OP:elen STATUS:               ID:20170405030650     3
 2017-04-05-0306-50M.NSN___039                                                 6
 STAT SP IPHASW D HRMM SECON CODA AMPLIT PERI AZIMU VELO AIN AR TRES W  DIS CAZ7
 632  0Z IP        3 7 39.21   74                        139   -0.1710 12.6 161 
 632  0N ES        3 7 42.08                             139    0.1810 12.6 161 
 632  0N  IAML     3 7 42.69        26.9 0.04                          12.6 161 
 629  0Z IP        3 7 46.83   63                        101   -0.05 8 63.6 297 
 629  0N ES        3 7 55.19                             101    0.10 8 63.6 297 
 629  0E  IAML     3 7 56.96         2.5 0.14                          63.6 297 
 631  0Z IP        3 7 47.53   78                        100   -0.07 8 68.2 243 
 631  0N ES        3 7 56.25                             100   -0.11 8 68.2 243 
 631  0N  IAML     3 7 56.72         6.9 0.15                          68.2 243 
 627  0Z IP        3 7 50.24   59                         98    0.12 8 84.0 306 
 627  0N ES        3 8  1.01                              98    0.21 8 84.0 306 
 627  0E  IAML     3 8  1.36         3.5 0.22                          84.0 306 
 628  0Z IP        3 7 52.64   64                         96   -0.29 7  102 323 
 628  0N ES        3 8  5.21                              96   -0.53 7  102 323 
 628  0E  IAML     3 8  7.84         6.3 0.23                           102 323 
 626  0Z IP        3 7 53.30   55                         96   -0.11 7  105 284 
 626  0N ES        3 8  6.38                              96   -0.20 7  105 284 
 626  0E  IAML     3 8  9.71         7.4 0.23                           105 284 
 624  0Z IP        3 7 57.28   56                         95    0.13 6  128 315 
 624  0N ES        3 8 13.30                              95    0.12 6  128 315 
 624  0N  IAML     3 8 15.76         6.6 0.21                           128 315 
 623  0Z IP        3 7 58.00   61                         95    0.24 6  132 305 
 623  0N ES        3 8 14.60                              95    0.35 6  132 305 
 623  0E  IAML     3 8 17.30         3.0 0.25                           132 305 
 622  0Z IP        3 8  0.73   76                         58    0.23 5  151 306 
 622  0N ES        3 8 19.30                              58    0.24 5  151 306 
 622  0N  IAML     3 8 21.09         5.1 0.19                           151 306 
 621  0Z IP        3 8  0.61   76                         58    0.08 5  152 294 
 621  0N ES        3 8 19.05                              58   -0.08 5  152 294 
 621  0E  IAML     3 8 21.93         2.4 0.14                           152 294 
                                                                                
 2017  4 5 1410 53.2 L  71.510 128.909  9.3  BER 10 0.4 1.7LBER 2.5CBER        1
 GAP=290        0.69       3.2    14.6  5.4 -0.7933E+01 -0.1042E+02 -0.1622E+01E
 ACTION:UP  20-12-21 00:57 OP:elen STATUS:               ID:20170405140956     I
 OLDACT:UP  20-12-20 03:02 OP:elen STATUS:               ID:20170405140956     3
 OLDACT:UP  20-12-17 00:06 OP:elen STATUS:               ID:20170405140956     3
 OLDACT:REG 20-12-13 13:22 OP:elen STATUS:               ID:20170405140956     3
 2017-04-05-1409-56M.NSN___039                                                 6
 STAT SP IPHASW D HRMM SECON CODA AMPLIT PERI AZIMU VELO AIN AR TRES W  DIS CAZ7
 631  0Z IP       1411  3.23   94                         95   -0.1210 60.3 259 
 631  0E ES       1411 11.26                              95    0.2010 60.3 259 
 631  0N  IAML    1411 12.28        28.6 0.17                          60.3 259 
 629  0Z IP       1411  4.71   96                         94   -0.65 9 72.8 311 
 629  0N ES       1411 13.77                              94   -0.83 9 72.8 311 
 629  0N  IAML    1411 16.28         9.9 0.21                          72.8 311 
 626  0Z IP       1411 11.13  106                         93   -0.09 8  109 294 
 626  0N ES       1411 24.81                              93   -0.09 8  109 294 
 626  0N  IAML    1411 29.66        16.6 0.18                           109 294 
 628  0Z IP       1411 12.40   82                         92    0.01 8  116 329 
 628  0N ES       1411 26.97                              92    0.00 8  116 329 
 628  0N  IAML    1411 32.64        11.3 0.18                           116 329 
 625  0Z IP       1411 13.83   87                         92    0.48 7  122 309 
 625  0N ES       1411 29.36                              92    0.70 7  122 309 
 625  0N  IAML    1411 33.02        22.4 0.21                           122 309 
 624  0Z IP       1411 16.80   72                         92    0.46 7  141 321 
 624  0N ES       1411 34.63                              92    0.71 7  141 321 
 624  0N  IAML    1411 37.41        30.9 0.20                           141 321 
 623  0Z IP       1411 16.69   81                         92    0.17 7  142 311 
 623  0N ES       1411 34.51                              92    0.28 7  142 311 
 623  0N  IAML    1411 37.18        10.9 0.20                           142 311 
 621  0Z IP       1411 19.20   95                         58    0.04 6  159 300 
 621  0N ES       1411 38.62                              58   -0.25 6  159 300 
 621  0E  IAML    1411 40.83        12.2 0.14                           159 300 
 622  0Z IP       1411 19.68   86                         58    0.08 6  162 312 
 622  0N ES       1411 39.50                              58   -0.15 6  162 312 
 622  0N  IAML    1411 41.87        19.3 0.17                           162 312 
 620  0Z IP       1411 25.49   90                         58    0.40 4  202 311 
 620  0N ES       1411 49.48                              58    0.17 4  202 311 
 620  0E  IAML    1411 50.64         9.1 0.34                           202 311 
                                                                                
 2017  4 6 0838 43.2 L  72.385 129.385 15.5  BER 10 0.4 0.9LBER 2.1CBER        1
 GAP=270        0.63       2.9    10.6  3.5  0.1523E+02 -0.7180E+01 -0.2783E+01E
 ACTION:UP  20-12-21 11:42 OP:elen STATUS:               ID:20170406083758     I
 OLDACT:UP  20-12-20 10:20 OP:elen STATUS:               ID:20170406083758     3
 OLDACT:UP  20-12-17 00:35 OP:elen STATUS:               ID:20170406083758     3
 OLDACT:REG 20-12-13 13:33 OP:elen STATUS:               ID:20170406083758     3
 2017-04-06-0837-58M.NSN___039                                                 6
 STAT SP IPHASW D HRMM SECON CODA AMPLIT PERI AZIMU VELO AIN AR TRES W  DIS CAZ7
 630  0Z IP        838 51.70   57                        104   -0.1710 50.0 227 
 630  0N ES        838 58.20                             104   -0.2610 50.0 227 
 630  0E  IAML     838 59.08         4.6 0.32                          50.0 227 
 628  0Z IP        838 55.91   54                         99   -0.01 9 75.6 272 
 628  0N ES        839  5.39                              99   -0.20 9 75.6 272 
 628  0N  IAML     839  6.74         7.1 0.22                          75.6 272 
 627  0Z IP        838 58.22   59                         98    0.47 9 87.1 251 
 627  0N ES        839  9.43                              98    0.62 9 87.1 251 
 627  0E  IAML     839 10.65         5.5 0.18                          87.1 251 
 629  0Z IP        838 58.08   72                         98    0.30 9 87.2 235 
 629  0N ES        839  9.14                              98    0.29 9 87.2 235 
 629  0N  IAML     839 10.76         1.9 0.30                          87.2 235 
 632  0Z IP        838 58.38   81                         97   -0.01 8 91.1 187 
 632  0N ES        839  9.68                              97   -0.25 8 91.1 187 
 632  0E  IAML     839 11.80         4.6 0.32                          91.1 187 
 624  0Z IP        839  0.59   77                         96   -0.08 8  105 277 
 624  0N ES        839 13.56                              96   -0.39 8  105 277 
 624  0N  IAML     839 14.48        13.0 0.22                           105 277 
 626  0Z IP        839  4.21   83                         95   -0.00 7  127 246 
 626  0N ES        839 19.89                              95   -0.29 7  127 246 
 626  0N  IAML     839 21.55         3.0 0.36                           127 246 
 631  0Z IP        839  5.19   85                         58    0.14 7  133 215 
 631  0N ES        839 21.50                              58   -0.15 7  133 215 
 631  0E  IAML     839 23.21         3.0 0.23                           133 215 
 622  0Z IP        839  5.45   70                         58   -0.27 6  138 275 
 622  0N ES        839 22.04                              58   -0.79 6  138 275 
 622  0E  IAML     839 24.42         1.8 0.17                           138 275 
 621  0Z IP        839  8.64   76                         58    0.61 6  154 264 
 621  0N ES        839 27.55                              58    0.66 6  154 264 
 621  0N  IAML     839 30.04         2.0 0.17                           154 264 
                                                                                
 2017  4 6 1728  1.0 L  72.723 125.692 21.3  BER 10 0.3 0.9LBER 1.9CBER        1
 GAP=225        0.61       2.8     5.6  2.6  0.4997E+01 -0.6165E+01 -0.1972E+01E
 ACTION:UP  20-12-21 12:27 OP:elen STATUS:               ID:20170406172639     I
 OLDACT:UP  20-12-20 10:56 OP:elen STATUS:               ID:20170406172639     3
 OLDACT:UP  20-12-17 22:23 OP:elen STATUS:               ID:20170406172639     3
 OLDACT:REG 20-12-15 19:37 OP:elen STATUS:               ID:20170406172639     3
 2017-04-06-1726-39M.NSN___039                                                 6
 STAT SP IPHASW D HRMM SECON CODA AMPLIT PERI AZIMU VELO AIN AR TRES W  DIS CAZ7
 624  0Z IP       1728  7.81   52                        121    0.1710 33.8 145 
 624  0N ES       1728 12.77                             121    0.1210 33.8 145 
 624  0N  IAML    1728 13.91         6.5 0.11                          33.8 145 
 622  0Z IP       1728  7.84   49                        121    0.1910 33.9 202 
 622  0N ES       1728 12.73                             121    0.0610 33.9 202 
 622  0E  IAML    1728 14.00        10.3 0.41                          33.9 202 
 623  0Z IP       1728  9.42   62                        114    0.2510 44.4 177 
 623  0N ES       1728 15.48                             114    0.1410 44.4 177 
 623  0E  IAML    1728 17.38         3.3 0.15                          44.4 177 
 620  0Z IP       1728  9.28   53                        113   -0.0310 45.4 261 
 620  0N ES       1728 15.28                             113   -0.3110 45.4 261 
 620  0E  IAML    1728 15.49        25.5 0.18                          45.4 261 
 628  0Z IP       1728 11.58   47                        107   -0.04 9 60.6 126 
 628  0N ES       1728 19.31                             107   -0.34 9 60.6 126 
 628  0N  IAML    1728 19.87        12.7 0.25                          60.6 126 
 621  0Z IP       1728 12.54   57                        106    0.09 9 66.0 205 
 621  0N ES       1728 21.02                             106   -0.09 9 66.0 205 
 621  0E  IAML    1728 21.75         2.5 0.16                          66.0 205 
 626  0Z IP       1728 16.77   51                        101   -0.07 8 94.0 173 
 626  0E ES       1728 28.24                             101   -0.60 8 94.0 173 
 626  0N  IAML    1728 29.14         1.6 0.15                          94.0 173 
 630  0Z IP       1728 19.73   74                         58   -0.20 7  115 128 
 630  0N ES       1728 33.53                              58   -0.75 7  115 128 
 630  0E  IAML    1728 34.32         3.9 0.15                           115 128 
 631  0Z IP       1728 26.31   93                         58    0.55 5  157 159 
 631  0N ES       1728 44.89                              58    0.35 5  157 159 
 631  0E  IAML    1728 46.34         3.2 0.16                           157 159 
 632  0Z IP       1728 28.58   90                         58    0.69 5  173 136 
 632  0N ES       1728 48.98                              58    0.70 5  173 136 
 632  0E  IAML    1728 50.06         4.5 0.31                           173 136 
                                                                                
 2017  4 7 1729  3.4 D  74.893 128.634 15.6  BER  6 0.4 1.8LBER 2.7CBER        1
 GAP=344        2.44     917.6   947.6999.9  0.8595E+06  0.1130E+07  0.1105E+07E
 ACTION:UP  20-12-21 12:40 OP:elen STATUS:               ID:20170407172814     I
 OLDACT:UP  20-12-20 11:18 OP:elen STATUS:               ID:20170407172814     3
 OLDACT:UP  20-12-17 22:49 OP:elen STATUS:               ID:20170407172814     3
 OLDACT:UP  20-12-17 22:47 OP:elen STATUS:               ID:20170407172814     3
 OLDACT:UP  20-12-17 22:42 OP:elen STATUS:               ID:20170407172814     3
 OLDACT:REG 20-12-15 19:43 OP:elen STATUS:               ID:20170407172814     3
 2017-04-07-1728-14M.NSN___039                                                 6
 STAT SP IPHASW D HRMM SECON CODA AMPLIT PERI AZIMU VELO AIN AR TRES W  DIS CAZ7
 624  0Z IP       1729 42.85  117                         46   -0.85 9  280 196 
 624  0E ES       1730 13.89                              48   -1.02 9  280 196 
 624  0E  IAML    1730 22.08         2.0 0.21                           280 196 
 622  0Z IP       1729 45.14  102                         46   -0.1710  293 202 
 622  0N ES       1730 17.75                              48   -0.0610  293 202 
 622  0E  IAML    1730 21.76         1.9 0.36                           293 202 
 621  0Z IP       1729 49.52  112                         46    0.2510  325 203 
 621  0N ES       1730 25.39                              48    0.4710  325 203 
 621  0N  IAML    1730 28.46         2.7 0.23                           325 203 
 629  0Z IP       1729 50.35   88                         46   -0.0210  333 188 
 629  0N ES       1730 26.78                              48   -0.1210  333 188 
 629  0N  IAML    1730 28.83         1.5 0.21                           333 188 
 626  0Z IP       1729 52.14   93                         46    0.2910  345 195 
 626  0E ES       1730 29.93                              48    0.3710  345 195 
 626  0N  IAML    1730 32.66         5.5 0.28                           345 195 
 631  0Z IP       1729 58.12  103                         46    0.4410  392 187 
 631  0N ES       1730 40.21                              48    0.1610  392 187 
 631  0E  IAML    1730 43.09         7.3 0.14                           392 187 
                                                                                
