 2017  4 7 1729  3.5 D  74.727 128.818  0.4  BER  9 0.5 1.6LBER 2.8CBER        1
 GAP=343        2.25     658.9   773.3872.1  0.5043E+06  0.6685E+06  0.5746E+06E
 ACTION:UP  20-12-21 13:07 OP:elen STATUS:               ID:20170407172858     I
 OLDACT:UP  20-12-20 15:13 OP:elen STATUS:               ID:20170407172858     3
 OLDACT:UP  20-12-18 22:39 OP:elen STATUS:               ID:20170407172858     3
 OLDACT:REG 20-12-15 19:48 OP:elen STATUS:               ID:20170407172858     3
 2017-04-07-1728-58M.NSN___039                                                 6
 STAT SP IPHASW D HRMM SECON CODA AMPLIT PERI AZIMU VELO AIN AR TRES W  DIS CAZ7
 624  0Z IP       1729 43.00  116                         46   -0.6210  264 199 
 624  0N ES       1730 13.76                              48   -0.6710  264 199 
 624  0E  IAML    1730 22.09         2.0 0.22                           264 199 
 628  0Z IP       1729 43.02  116                         46   -0.7710  265 192 
 628  0N ES       1730 13.72                              48   -1.0110  265 192 
 628  0E  IAML    1730 15.16         1.6 0.15                           265 192 
 622  0Z IP       1729 45.17  101                         46   -0.2210  278 205 
 622  0N ES       1730 17.40                              48   -0.2010  278 205 
 622  0N  IAML    1730 19.84         1.7 0.32                           278 205 
 623  0Z IP       1729 46.17  113                         46   -0.0810  285 201 
 623  0N ES       1730 19.22                              48    0.0710  285 201 
 623  0N  IAML    1730 24.09         2.1 0.12                           285 201 
 627  0Z IP       1729 47.69  106                         46   -0.0810  297 192 
 627  0N ES       1730 21.76                              48   -0.1210  297 192 
 627  0N  IAML    1730 27.15         1.0 0.14                           297 192 
 621  0Z IP       1729 49.69  111                         46    0.3310  310 206 
 621  0N ES       1730 25.22                              48    0.4810  310 206 
 621  0N  IAML    1730 28.46         2.6 0.23                           310 206 
 629  0Z IP       1729 50.20  117                         46    0.1010  316 189 
 629  0E ES       1730 26.06                              48   -0.0210  316 189 
 629  0N  IAML    1730 28.83         1.5 0.21                           316 189 
 626  0Z IP       1729 52.35  110                         46    0.6210  329 197 
 626  0E ES       1730 29.85                              48    0.8410  329 197 
 626  0N  IAML    1730 32.66         5.5 0.29                           329 197 
 631  0Z IP       1729 58.11  125                         46    0.7010  375 189 
 631  0N ES       1730 39.81                              48    0.6010  375 189 
 631  0E  IAML    1730 43.09         7.3 0.14                           375 189 
                                                                                
 2017  4 8 1004 44.9 L  72.613 124.950 15.2  BER 12 0.3 1.5LBER 2.6CBER        1
 GAP=184        0.54       2.4     5.6  2.8  0.8413E+01 -0.5357E+01 -0.1883E+00E
 ACTION:UP  20-12-21 14:32 OP:elen STATUS:               ID:20170408100319     I
 OLDACT:UP  20-12-20 16:21 OP:elen STATUS:               ID:20170408100319     3
 OLDACT:UP  20-12-19 02:06 OP:elen STATUS:               ID:20170408100319     3
 OLDACT:REG 20-12-15 20:09 OP:elen STATUS:               ID:20170408100319     3
 2017-04-08-1003-19M.NSN___039                                                 6
 STAT SP IPHASW D HRMM SECON CODA AMPLIT PERI AZIMU VELO AIN AR TRES W  DIS CAZ7
 620  0Z IP       10 4 49.10   78                        124   -0.0210 20.6 283 
 620  0N ES       10 4 52.40                             124    0.0410 20.6 283 
 620  0E  IAML    10 4 52.80       171.2 0.15                          20.6 283 
 622  0Z IP       10 4 49.30   86                        121   -0.0910 22.6 147 
 622  0N ES       10 4 52.82                             121   -0.0210 22.6 147 
 622  0E  IAML    10 4 53.10        74.9 0.37                          22.6 147 
 623  0Z IP       10 4 52.26   80                        107   -0.01 9 42.0 139 
 623  0N ES       10 4 58.11                             107    0.21 9 42.0 139 
 623  0N  IAML    10 4 59.03        75.1 0.25                          42.0 139 
 624  0Z IP       10 4 53.11   93                        105    0.09 9 46.9 108 
 624  0N ES       10 4 59.48                             105    0.25 9 46.9 108 
 624  0N  IAML    10 5  1.03        27.4 0.11                          46.9 108 
 625  0Z IP       10 4 55.37  106                        101   -0.13 8 62.6 141 
 625  0N ES       10 5  3.50                             101   -0.09 8 62.6 141 
 625  0N  IAML    10 5  3.88         8.5 0.32                          62.6 141 
 628  0Z IP       10 4 57.62  104                         99   -0.23 8 77.5 107 
 628  0N ES       10 5  7.40                              99   -0.33 8 77.5 107 
 628  0E  IAML    10 5  8.95        21.9 0.21                          77.5 107 
 627  0Z IP       10 4 59.88  107                         97    0.31 8 88.2 128 
 627  0N ES       10 5 11.19                              97    0.43 8 88.2 128 
 627  0N  IAML    10 5 12.24         8.1 0.25                          88.2 128 
 626  0Z IP       10 4 59.53   99                         97   -0.16 8 88.9 155 
 626  0E ES       10 5 10.66                              97   -0.30 8 88.9 155 
 626  0E  IAML    10 5 11.00         8.5 0.17                          88.9 155 
 629  0Z IP       10 5  3.50   89                         96    0.31 7  111 132 
 629  0N ES       10 5 17.47                              96    0.35 7  111 132 
 629  0E  IAML    10 5 18.54         6.7 0.21                           111 132 
 630  0Z IP       10 5  5.80   97                         95   -0.32 6  129 116 
 630  0N ES       10 5 21.43                              95   -0.86 6  129 116 
 630  0E  IAML    10 5 25.71        18.6 0.18                           129 116 
 631  0Z IP       10 5 10.15  104                         58    0.10 5  157 149 
 631  0E ES       10 5 28.84                              58   -0.36 5  157 149 
 631  0N  IAML    10 5 30.82        14.2 0.13                           157 149 
 632  0Z IP       10 5 14.26  104                         58    0.65 4  183 127 
 632  0N ES       10 5 35.96                              58    0.49 4  183 127 
 632  0E  IAML    10 5 36.82        10.4 0.35                           183 127 
                                                                                
 2017  4 8 1004 44.9 L  72.607 124.944 15.0  BER 13 0.3 1.4LBER 2.8CBER        1
 GAP=181        0.52       1.8     4.4  2.6  0.3423E+01 -0.4030E+01  0.1362E+00E
 ACTION:UP  20-12-21 15:15 OP:elen STATUS:               ID:20170408100354     I
 OLDACT:UP  20-12-20 16:45 OP:elen STATUS:               ID:20170408100354     3
 OLDACT:UP  20-12-19 13:04 OP:elen STATUS:               ID:20170408100354     3
 OLDACT:REG 20-12-19 09:34 OP:elen STATUS:               ID:20170408100354     3
 2017-04-08-1003-54M.NSN___039                                                 6
 STAT SP IPHASW D HRMM SECON CODA AMPLIT PERI AZIMU VELO AIN AR TRES W  DIS CAZ7
 620  0Z IP       10 4 49.12   92                        124   -0.0110 20.6 285 
 620  0N ES       10 4 52.40                             124    0.0410 20.6 285 
 620  0E  IAML    10 4 52.80       170.6 0.15                          20.6 285 
 622  0Z IP       10 4 49.31  112                        122   -0.0410 22.2 146 
 622  0N ES       10 4 52.78                             122    0.0310 22.2 146 
 622  0E  IAML    10 4 53.18        75.7 0.20                          22.2 146 
 623  0Z IP       10 4 52.27  100                        107    0.03 9 41.7 138 
 623  0N ES       10 4 58.13                             107    0.30 9 41.7 138 
 623  0N  IAML    10 4 59.15        73.9 0.30                          41.7 138 
 624  0Z IP       10 4 53.13  119                        105    0.08 9 46.9 108 
 624  0N ES       10 4 59.48                             105    0.22 9 46.9 108 
 624  0N  IAML    10 5  1.02        33.6 0.15                          46.9 108 
 621  0Z IP       10 4 52.92   98                        105   -0.18 9 47.2 182 
 621  0N ES       10 4 59.20                             105   -0.15 9 47.2 182 
 621  0E  IAML    10 5  1.72        20.3 0.22                          47.2 182 
 625  0Z IP       10 4 55.33  121                        101   -0.14 9 62.3 140 
 625  0N ES       10 5  3.31                             101   -0.20 9 62.3 140 
 625  0N  IAML    10 5  3.88         8.4 0.32                          62.3 140 
 628  0Z IP       10 4 57.63  111                         98   -0.26 8 77.5 106 
 628  0N ES       10 5  7.38                              98   -0.39 8 77.5 106 
 628  0E  IAML    10 5  8.94        21.7 0.19                          77.5 106 
 627  0Z IP       10 4 59.89  107                         97    0.32 8 88.0 127 
 627  0N ES       10 5 11.08                              97    0.35 8 88.0 127 
 627  0N  IAML    10 5 12.24         8.1 0.25                          88.0 127 
 626  0Z IP       10 4 59.78  122                         97    0.14 8 88.4 155 
 626  0N ES       10 5 10.85                              97    0.00 8 88.4 155 
 626  0E  IAML    10 5 11.00         8.5 0.18                          88.4 155 
 629  0Z IP       10 5  3.42  112                         96    0.24 7  111 132 
 629  0N ES       10 5 17.26                              96    0.18 7  111 132 
 629  0E  IAML    10 5 18.54         6.7 0.20                           111 132 
 630  0Z IP       10 5  5.81  123                         95   -0.33 6  129 116 
 630  0N ES       10 5 21.44                              95   -0.86 6  129 116 
 630  0E  IAML    10 5 25.71        18.5 0.18                           129 116 
 631  0Z IP       10 5 10.17  120                         58    0.13 5  156 148 
 631  0N ES       10 5 28.83                              58   -0.32 5  156 148 
 631  0N  IAML    10 5 30.82        14.2 0.13                           156 148 
 632  0Z IP       10 5 14.26  118                         58    0.63 4  183 127 
 632  0N ES       10 5 35.99                              58    0.52 4  183 127 
 632  0E  IAML    10 5 37.29         8.6 0.16                           183 127 
                                                                                
 2017  4 9 0856 47.2 L  73.385 128.554 15.6  BER  6 0.4 2.5LBER 2.9CBER        1
 GAP=311        0.45      24.6    34.4 38.6  0.5751E+03  0.9636E+03  0.9116E+03E
 ACTION:UP  20-12-21 17:17 OP:elen STATUS:               ID:20170409085542     I
 OLDACT:UP  20-12-20 17:09 OP:elen STATUS:               ID:20170409085542     3
 OLDACT:UP  20-12-19 14:30 OP:elen STATUS:               ID:20170409085542     3
 OLDACT:REG 20-12-19 09:46 OP:elen STATUS:               ID:20170409085542     3
 2017-04-09-0855-42M.NSN___039                                                 6
 STAT SP IPHASW D HRMM SECON CODA AMPLIT PERI AZIMU VELO AIN AR TRES W  DIS CAZ7
 625  0Z IP        857 12.43  125                         58   -0.0410  157 212 
 625  0N ES        857 31.57                              58   -0.0910  157 212 
 625  0N  IAML     857 50.92        61.8 0.92                           157 212 
 629  0Z IP        857 14.14  120                         58    0.28 9  168 195 
 629  0N ES        857 34.52                              58    0.41 9  168 195 
 629  0N  IAML     857 41.21        25.7 0.26                           168 195 
 621  0Z IP        857 15.43  120                         58   -0.21 8  181 224 
 621  0N ES        857 36.75                              58   -0.48 8  181 224 
 621  0E  IAML     857 40.67        65.6 0.46                           181 224 
 626  0Z IP        857 16.73  113                         58    0.23 8  187 208 
 626  0N ES        857 39.03                              58    0.28 8  187 208 
 626  0N  IAML     857 43.67        61.2 0.32                           187 208 
 632  0Z IP        857 18.25  123                         58   -0.44 7  203 175 
 632  0N ES        857 41.64                              58   -0.95 7  203 175 
 632  0E  IAML     857 46.97        19.0 0.33                           203 175 
 631  0Z IP        857 22.27  113                         51    0.55 5  226 192 
 631  0N ES        857 48.64                              51    0.71 5  226 192 
 631  0N  IAML     857 50.48       312.2 0.25                           226 192 
                                                                                
 2017  4 9 0902 45.6 L  73.350 128.447 15.1  BER  7 0.4 1.1LBER 2.1CBER        1
 GAP=318        0.47       5.1    19.9  3.9 -0.2842E+02 -0.3446E+02  0.2646E+01E
 ACTION:UP  20-12-21 17:39 OP:elen STATUS:               ID:20170409090159     I
 OLDACT:UP  20-12-20 17:21 OP:elen STATUS:               ID:20170409090159     3
 OLDACT:UP  20-12-19 15:40 OP:elen STATUS:               ID:20170409090159     3
 OLDACT:REG 20-12-19 09:55 OP:elen STATUS:               ID:20170409090159     3
 2017-04-09-0901-59M.NSN___039                                                 6
 STAT SP IPHASW D HRMM SECON CODA AMPLIT PERI AZIMU VELO AIN AR TRES W  DIS CAZ7
 628  0Z IP        9 3  4.59   68                         96    0.0910  114 203 
 628  0E ES        9 3 19.12                              96    0.2610  114 203 
 628  0N  IAML     9 3 20.27         3.3 0.27                           114 203 
 624  0Z IP        9 3  5.36   70                         95   -0.1710  121 217 
 624  0N ES        9 3 20.45                              95   -0.2410  121 217 
 624  0N  IAML     9 3 28.95         2.5 0.12                           121 217 
 630  0Z IP        9 3  8.54   80                         58   -0.27 8  142 182 
 630  0E  IAML     9 3 25.63         1.5 0.30                           142 182 
 630  0N ES        9 3 25.87                              58   -0.58 8  142 182 
 629  0Z IP        9 3 11.80   64                         58    0.16 7  163 194 
 629  0N ES        9 3 31.62                              58    0.19 7  163 194 
 629  0E  IAML     9 3 32.87         1.3 0.33                           163 194 
 621  0Z IP        9 3 13.23   65                         58   -0.11 7  175 224 
 621  0N ES        9 3 34.07                              58   -0.35 7  175 224 
 621  0E  IAML     9 3 35.86         2.1 0.11                           175 224 
 626  0Z IP        9 3 14.69   63                         58    0.47 6  182 207 
 626  0N ES        9 3 36.55                              58    0.57 6  182 207 
 626  0N  IAML     9 3 41.07         2.1 0.10                           182 207 
 631  0Z IP        9 3 20.24   78                         51    0.66 4  221 191 
 631  0N ES        9 3 46.11                              51    0.71 4  221 191 
 631  0N  IAML     9 3 47.90        11.1 0.17                           221 191 
                                                                                
 2017  410 1520  8.5 L  71.996 128.364  1.8  BER  9 0.8 1.0LBER 1.8CBER        1
 GAP=160        1.58       5.8    21.0 13.3  0.8749E+02  0.2114E+03  0.6029E+02E
 ACTION:UP  20-12-21 18:30 OP:elen STATUS:               ID:20170410151847     I
 OLDACT:UP  20-12-20 18:17 OP:elen STATUS:               ID:20170410151847     3
 OLDACT:REG 20-12-19 10:26 OP:elen STATUS:               ID:20170410151847     3
 2017-04-10-1518-47M.NSN___039                                                 6
 STAT SP IPHASW D HRMM SECON CODA AMPLIT PERI AZIMU VELO AIN AR TRES W  DIS CAZ7
 630  0Z IP       1520 10.02   48                        101   -0.0710 8.93 351 
 630  0E ES       1520 11.29                             101   -0.0310 8.93 351 
 630  0E  IAML    1520 11.34       509.0 0.06                          8.93 351 
 629  0Z IP       1520 14.70   53                         65   -0.37 9 37.1 259 
 629  0N ES       1520 19.41                              65   -0.69 9 37.1 259 
 629  0E  IAML    1520 20.90         5.0 0.10                          37.1 259 
 627  0Z IP       1520 16.65   55                         65   -0.41 9 49.4 287 
 627  0N ES       1520 22.81                              65   -0.79 9 49.4 287 
 627  0N  IAML    1520 25.10        13.5 0.36                          49.4 287 
 632  0Z IP       1520 17.74   60                         65    0.07 8 53.2 152 
 632  0E ES       1520 24.74                              65    0.07 8 53.2 152 
 632  0E  IAML    1520 26.35         6.8 0.18                          53.2 152 
 628  0Z IP       1520 18.26   59                         65   -0.72 8 61.3 318 
 628  0E ES       1520 25.73                              65   -1.25 8 61.3 318 
 628  0E  IAML    1520 26.94         9.5 0.33                          61.3 318 
 624  0Z IP       1520 23.91   55                         65    0.45 7 89.1 308 
 624  0E ES       1520 35.30                              65    0.44 7 89.1 308 
 624  0E  IAML    1520 37.71         6.3 0.18                          89.1 308 
 623  0Z IP       1520 26.02   49                         65    1.38 7 96.4 294 
 623  0E ES       1520 39.02                              65    2.09 7 96.4 294 
 623  0E  IAML    1520 44.74         2.2 0.12                          96.4 294 
 621  0Z IP       1520 29.23   63                         65    0.60 6  121 282 
 621  0E ES       1520 44.58                              65    0.62 6  121 282 
 621  0E  IAML    1520 48.44         2.7 0.18                           121 282 
 620  0Z IP       1520 34.93   68                         65    0.89 5  155 300 
 620  0N ES       1520 54.44                              65    0.96 5  155 300 
 620  0N  IAML    1520 55.50         7.7 0.26                           155 300 
                                                                                
