 2017  320 1900 34.3 L  72.415 126.129 18.0  BER  7 0.1 0.6LBER 0.5CBER        1
 GAP=119        0.38       1.2     2.8  2.0 -0.5913E+00 -0.8801E-01  0.9422E+00E
 ACTION:ARG 20-12-21 03:09 OP:mn   STATUS:               ID:20170320190000     I
 2017-03-20-1900-00M.a_____039                                                 6
 STAT SP IPHASW D HRMM SECON CODA AMPLIT PERI AZIMU VELO AIN AR TRES W  DIS CAZ7
 624  0Z IP     D 19 0 37.68   22                        154    0.1210 8.41  36 
 624  0E ES       19 0 40.10                             154    0.0410 8.41  36 
 624  0Z  IAML    19 0 40.49        27.4 0.14                          8.41  36 
 623  0Z IP     C 19 0 38.40   17                        137    0.1510 15.9 232 
 623  0N ES       19 0 41.37                             137    0.0910 15.9 232 
 623  0Z  IAML    19 0 41.66        25.9 0.19                          15.9 232 
 625  0Z IP     D 19 0 39.68   20                        122    0.05 9 26.9 182 
 625  0N ES       19 0 43.66                             122   -0.04 9 26.9 182 
 625  0Z  IAML    19 0 44.10         2.9 0.17                          26.9 182 
 622  0Z IP     C 19 0 39.71   25                        121   -0.02 9 27.7 277 
 622  0N ES       19 0 43.71                             121   -0.18 9 27.7 277 
 622  0Z  IAML    19 0 44.04         5.4 0.12                          27.7 277 
 628  0Z IP     D 19 0 40.69   25                        115   -0.00 9 34.4  92 
 628  0N ES       19 0 45.33                             115   -0.25 9 34.4  92 
 628  0Z  IAML    19 0 46.85         8.3 0.26                          34.4  92 
 621  0Z IP     D 19 0 43.02   27                        108    0.08 9 49.3 239 
 621  0N ES       19 0 49.31                             108   -0.22 9 49.3 239 
 621  0Z  IAML    19 0 49.89         2.7 0.30                          49.3 239 
 626  0Z IP     C 19 0 44.66   24                        105    0.24 8 58.9 183 
 626  0N ES       19 0 52.05                             105   -0.09 8 58.9 183 
 626  0Z  IAML    19 0 52.41         4.2 0.32                          58.9 183 
                                                                                
 2017  323 0519 24.6 L  71.647 129.186  5.2  BER  6 0.3 1.2LBER 1.0CBER        1
 GAP=238        0.72       2.9    15.3 16.6 -0.8680E+01  0.1038E+03 -0.3939E+02E
 ACTION:ARG 20-12-21 03:09 OP:mn   STATUS:               ID:20170323051802     I
 2017-03-23-0518-02M.a_____039                                                 6
 STAT SP IPHASW D HRMM SECON CODA AMPLIT PERI AZIMU VELO AIN AR TRES W  DIS CAZ7
 632  0Z IP     D  519 26.42   27                        107    0.0010 9.11 206 
 632  0N ES        519 27.84                             107    0.0110 9.11 206 
 632  0Z  IAML     519 28.20       519.2 0.27                          9.11 206 
 630  0Z IP     D  519 33.73   30                         90   -0.29 8 56.3 328 
 630  0N ES        519 40.67                              90   -0.54 8 56.3 328 
 630  0Z  IAML     519 46.31         5.1 0.09                          56.3 328 
 629  0Z IP     C  519 36.53   32                         90   -0.10 8 72.5 297 
 629  0N ES        519 45.52                              90   -0.29 8 72.5 297 
 629  0Z  IAML     519 47.82        16.5 0.39                          72.5 297 
 631  0Z IP     D  519 36.84   27                         90   -0.03 8 74.0 249 
 631  0N ES        519 46.07                              90   -0.16 8 74.0 249 
 631  0Z  IAML     519 47.41        20.5 0.53                          74.0 249 
 627  0Z IP     D  519 40.51   36                         90    0.62 7 92.7 305 
 627  0N ES        519 52.19                              90    0.64 7 92.7 305 
 627  0Z  IAML     519 55.05         6.6 0.34                          92.7 305 
 628  0Z IP     D  519 43.08   38                         90    0.48 7  109 321 
 628  0N ES        519 56.51                              90    0.20 7  109 321 
 628  0Z  IAML     519 59.34         5.1 0.12                           109 321 
                                                                                
 2017  323 1612 49.7 L  72.453 125.112  8.3  BER  6 0.1 0.5LBER 0.7CBER        1
 GAP=134        0.31       0.9     2.3  1.8  0.4060E+00  0.7866E+00 -0.1659E-02E
 ACTION:ARG 20-12-21 03:09 OP:mn   STATUS:               ID:20170323161125     I
 2017-03-23-1611-25M.a_____039                                                 6
 STAT SP IPHASW D HRMM SECON CODA AMPLIT PERI AZIMU VELO AIN AR TRES W  DIS CAZ7
 622  0Z IP     C 1612 51.41   22                        137   -0.1410 6.88 100 
 622  0E ES       1612 52.97                             137    0.0210 6.88 100 
 622  0Z  IAML    1612 53.39        63.5 0.21                          6.88 100 
 623  0Z IP     D 1612 54.32   36                        101   -0.02 9 26.1 123 
 623  0E ES       1612 58.05                             101    0.18 9 26.1 123 
 623  0Z  IAML    1612 59.14         5.2 0.24                          26.1 123 
 621  0Z IP     D 1612 55.02   23                         99   -0.10 9 30.9 194 
 621  0E ES       1612 59.28                              99    0.04 9 30.9 194 
 621  0Z  IAML    1613  1.01         3.2 0.17                          30.9 194 
 620  0Z IP     D 1612 55.59   21                         98   -0.02 9 34.0 312 
 620  0N ES       1613  0.20                              98    0.10 9 34.0 312 
 620  0Z  IAML    1613  1.52         5.5 0.15                          34.0 312 
 624  0Z IP     D 1612 56.50   21                         96    0.06 9 39.2  86 
 624  0N ES       1613  1.64                              96    0.08 9 39.2  86 
 624  0Z  IAML    1613  2.27         5.5 0.14                          39.2  86 
 628  0Z IP     C 1613  1.10   26                         93   -0.10 8 68.8  94 
 628  0N ES       1613  9.81                              93   -0.14 8 68.8  94 
 628  0Z  IAML    1613 11.19         2.5 0.25                          68.8  94 
                                                                                
 2017  323 1906 41.2 L  72.407 130.254 18.3  BER  6 0.1 1.0LBER 1.2CBER        1
 GAP=309        0.24       2.0     6.9  1.7  0.6560E+00 -0.2580E+01 -0.7384E+00E
 ACTION:ARG 20-12-21 03:09 OP:mn   STATUS:               ID:20170323190602     I
 2017-03-23-1906-02M.a_____039                                                 6
 STAT SP IPHASW D HRMM SECON CODA AMPLIT PERI AZIMU VELO AIN AR TRES W  DIS CAZ7
 630  0Z IP     C 19 6 53.84   34                        101   -0.1210 75.4 241 
 630  0N ES       19 7  3.68                             101    0.0110 75.4 241 
 630  0Z  IAML    19 7  7.02         3.8 0.21                          75.4 241 
 628  0Z IP     D 19 6 58.64   42                         98   -0.00 9  105 271 
 628  0E ES       19 7 11.95                              98    0.05 9  105 271 
 628  0Z  IAML    19 7 14.29         5.1 0.20                           105 271 
 629  0Z IP     C 19 7  0.10   34                         97    0.02 8  114 243 
 629  0N ES       19 7 14.45                              97    0.02 8  114 243 
 629  0Z  IAML    19 7 15.85         2.2 0.21                           114 243 
 624  0Z IP     C 19 7  3.05   35                         58    0.03 7  134 275 
 624  0E ES       19 7 19.49                              58   -0.11 7  134 275 
 624  0Z  IAML    19 7 23.44         3.6 0.26                           134 275 
 631  0Z IP     C 19 7  5.76   39                         58    0.12 7  153 224 
 631  0E ES       19 7 24.19                              58   -0.03 7  153 224 
 631  0Z  IAML    19 7 27.14         4.0 0.35                           153 224 
 621  0Z IP     D 19 7  9.97   40                         58    0.16 5  184 265 
 621  0N ES       19 7 31.59                              58    0.03 5  184 265 
 621  0Z  IAML    19 7 32.08         1.6 0.16                           184 265 
                                                                                
 2017  326 0836 34.1 L  71.993 127.676 16.1  BER  7 0.1 1.5LBER 0.9CBER        1
 GAP=127        0.35       1.0     2.3  2.2  0.3496E+00 -0.2820E-01  0.4866E+00E
 ACTION:ARG 20-12-21 03:09 OP:mn   STATUS:               ID:20170326083527     I
 2017-03-26-0835-27M.a_____039                                                 6
 STAT SP IPHASW D HRMM SECON CODA AMPLIT PERI AZIMU VELO AIN AR TRES W  DIS CAZ7
 629  0Z IP     C  836 37.77   15                        137    0.0810 14.4 240 
 629  0N ES        836 40.52                             137    0.0910 14.4 240 
 629  0Z  IAML     836 40.82       360.6 0.20                          14.4 240 
 630  0Z IP     D  836 38.91   22                        122    0.0010 24.1  67 
 630  0E ES        836 42.54                             122   -0.0410 24.1  67 
 630  0Z  IAML     836 43.12       190.9 0.17                          24.1  67 
 627  0Z IP     C  836 39.40   35                        118    0.0110 27.6 300 
 627  0N ES        836 43.30                             118   -0.1310 27.6 300 
 627  0Z  IAML     836 43.48        88.3 0.34                          27.6 300 
 625  0Z IP     D  836 44.17   34                        103    0.22 8 57.5 291 
 625  0E ES        836 51.55                             103    0.09 8 57.5 291 
 625  0Z  IAML     836 51.71        10.9 0.18                          57.5 291 
 626  0Z IP     D  836 43.96   29                        103   -0.06 8 58.0 259 
 626  0N ES        836 51.25                             103   -0.32 8 58.0 259 
 626  0Z  IAML     836 51.63        35.8 0.21                          58.0 259 
 632  0Z IP     D  836 45.56   41                        101    0.03 8 67.6 133 
 632  0E ES        836 54.09                             101   -0.15 8 67.6 133 
 632  0Z  IAML     836 55.46        17.7 0.12                          67.6 133 
 631  0Z IP     D  836 45.76   37                        101    0.16 8 68.0 193 
 631  0E ES        836 54.35                             101   -0.01 8 68.0 193 
 631  0Z  IAML     836 54.70        21.7 0.11                          68.0 193 
                                                                                
 2017  4 2 0422  1.0 L  72.722 125.690 21.9  BER 10 0.3 1.2LBER 1.8CBER        1
 GAP=225        0.62       2.8     5.7  2.6  0.5114E+01 -0.6218E+01 -0.1958E+01E
 ACTION:UP  20-12-20 22:46 OP:elen STATUS:               ID:20170402042039     I
 OLDACT:UP  20-12-20 00:44 OP:elen STATUS:               ID:20170402042039     3
 OLDACT:UP  20-12-16 20:09 OP:elen STATUS:               ID:20170402042039     3
 OLDACT:UP  20-12-16 14:06 OP:elen STATUS:               ID:20170402042039     3
 OLDACT:REG 20-12-12 10:59 OP:elen STATUS:               ID:20170402042039     3
 2017-04-02-0420-39M.NSN___039                                                 6
 STAT SP IPHASW D HRMM SECON CODA AMPLIT PERI AZIMU VELO AIN AR TRES W  DIS CAZ7
 622  0Z IP        422  7.79   47                        121    0.1310 33.7 202 
 622  0N ES        422 12.79                             121    0.0910 33.7 202 
 624  0Z IP        422  7.79   50                        121    0.1310 33.7 144 
 624  0N ES        422 12.83                             121    0.1310 33.7 144 
 624  0N  IAML     422 13.96        16.4 0.13                          33.7 144 
 622  0N  IAML     422 13.69        13.8 0.15                          33.7 202 
 623  0Z IP        422  9.41   48                        115    0.2410 44.3 177 
 623  0N ES        422 15.58                             115    0.2310 44.3 177 
 623  0E  IAML     422 17.17         7.4 0.15                          44.3 177 
 620  0Z IP        422  9.30   52                        114   -0.0210 45.3 261 
 620  0N ES        422 15.36                             114   -0.2510 45.3 261 
 620  0N  IAML     422 15.71        31.6 0.15                          45.3 261 
 628  0Z IP        422 11.53   56                        108   -0.09 9 60.6 126 
 628  0N ES        422 19.37                             108   -0.30 9 60.6 126 
 628  0N  IAML     422 19.92        27.0 0.25                          60.6 126 
 621  0Z IP        422 12.50   48                        106    0.07 9 65.8 205 
 621  0N ES        422 20.98                             106   -0.12 9 65.8 205 
 621  0E  IAML     422 21.82         5.2 0.18                          65.8 205 
 626  0Z IP        422 16.65   47                        101   -0.17 8 93.8 173 
 626  0N ES        422 28.16                             101   -0.66 8 93.8 173 
 626  0E  IAML     422 28.49         3.2 0.21                          93.8 173 
 630  0Z IP        422 19.71   62                         58   -0.15 7  115 128 
 630  0N ES        422 33.47                              58   -0.69 7  115 128 
 630  0E  IAML     422 34.42         8.4 0.10                           115 128 
 631  0Z IP        422 26.15   76                         58    0.48 5  157 159 
 631  0N ES        422 44.66                              58    0.26 5  157 159 
 631  0E  IAML     422 45.70         6.6 0.23                           157 159 
 632  0Z IP        422 28.64   56                         58    0.83 5  173 136 
 632  0N ES        422 49.00                              58    0.84 5  173 136 
 632  0E  IAML     422 50.12         7.9 0.31                           173 136 
                                                                                
 2017  4 2 0636 37.2 L  72.731 125.693 23.5  BER  6 0.2 0.7LBER 1.0CBER        1
 GAP=227        0.50       3.3     5.7  3.1  0.1027E+02 -0.9330E+01 -0.5335E+01E
 ACTION:UP  20-12-20 23:02 OP:elen STATUS:               ID:20170402063515     I
 OLDACT:UP  20-12-20 01:04 OP:elen STATUS:               ID:20170402063515     3
 OLDACT:UP  20-12-16 20:09 OP:elen STATUS:               ID:20170402063515     3
 OLDACT:UP  20-12-16 14:40 OP:elen STATUS:               ID:20170402063515     3
 OLDACT:REG 20-12-13 12:49 OP:elen STATUS:               ID:20170402063515     3
 2017-04-02-0635-15M.NSN___039                                                 6
 STAT SP IPHASW D HRMM SECON CODA AMPLIT PERI AZIMU VELO AIN AR TRES W  DIS CAZ7
 624  0Z IP        636 44.24   35                        123    0.1910 34.5 145 
 624  0N ES        636 49.26                             123   -0.0110 34.5 145 
 624  0N  IAML     636 50.35         4.8 0.12                          34.5 145 
 622  0Z IP        636 44.23   26                        123    0.1510 34.7 202 
 622  0N ES        636 49.17                             123   -0.1510 34.7 202 
 622  0N  IAML     636 49.75         5.2 0.13                          34.7 202 
 623  0Z IP        636 45.86   32                        116    0.2810 45.3 177 
 623  0N ES        636 52.09                             116    0.1410 45.3 177 
 623  0N  IAML     636 53.45         1.8 0.12                          45.3 177 
 620  0Z IP        636 45.67   27                        116    0.0510 45.5 260 
 620  0N ES        636 51.73                             116   -0.2910 45.5 260 
 620  0E  IAML     636 52.00        13.3 0.19                          45.5 260 
 628  0Z IP        636 48.00   37                        109    0.07 9 61.1 127 
 628  0N ES        636 55.72                             109   -0.38 9 61.1 127 
 628  0N  IAML     636 56.52         6.7 0.26                          61.1 127 
 630  0Z IP        636 56.14   36                         58    0.19 7  115 128 
 630  0N ES        637  9.86                              58   -0.35 7  115 128 
 630  0E  IAML     637 10.75         2.9 0.16                           115 128 
                                                                                
 2017  4 4 2347 35.7 L  72.758 124.389 22.6  BER  6 0.1 0.5LBER 0.7CBER        1
 GAP=289        0.35       2.3     5.9  1.5  0.2595E+01 -0.3336E+01  0.2031E+00E
 ACTION:UP  20-12-20 23:43 OP:elen STATUS:               ID:20170404234610     I
 OLDACT:UP  20-12-20 01:25 OP:elen STATUS:               ID:20170404234610     3
 OLDACT:UP  20-12-16 20:10 OP:elen STATUS:               ID:20170404234610     3
 OLDACT:UP  20-12-16 20:08 OP:elen STATUS:               ID:20170404234610     3
 OLDACT:UP  20-12-16 17:32 OP:elen STATUS:               ID:20170404234610     3
 OLDACT:REG 20-12-13 13:04 OP:elen STATUS:               ID:20170404234610     3
 2017-04-04-2346-10M.NSN___039                                                 6
 STAT SP IPHASW D HRMM SECON CODA AMPLIT PERI AZIMU VELO AIN AR TRES W  DIS CAZ7
 620  0Z IP       2347 39.84   19                        152   -0.0210 11.7 187 
 620  0N ES       2347 43.11                             152    0.0610 11.7 187 
 620  0E  IAML    2347 43.29         8.1 0.10                          11.7 187 
 622  0Z IP       2347 44.09   31                        114   -0.13 9 46.8 138 
 622  0N ES       2347 50.57                             114   -0.16 9 46.8 138 
 622  0E  IAML    2347 51.34         2.7 0.22                          46.8 138 
 621  0Z IP       2347 47.09   25                        107   -0.07 8 66.2 165 
 621  0N ES       2347 55.83                             107   -0.06 8 66.2 165 
 621  0E  IAML    2347 56.45         3.1 0.20                          66.2 165 
 623  0Z IP       2347 47.36   23                        107    0.15 8 66.6 136 
 623  0N ES       2347 56.30                             107    0.31 8 66.6 136 
 623  0N  IAML    2347 56.80         2.3 0.16                          66.6 136 
 624  0Z IP       2347 47.77   28                        106   -0.02 8 70.3 116 
 624  0N ES       2347 56.93                             106   -0.08 8 70.3 116 
 624  0E  IAML    2347 57.42         2.4 0.21                          70.3 116 
 626  0Z IP       2347 54.21                              58    0.13 7  112 149 
 626  0N ES       2348  8.02                              58   -0.05 7  112 149 
 626  0E  IAML    2348  8.57         1.1 0.21                           112 149 
                                                                                
